{
  "id": 2031596571,
  "type": "Feature",
  "properties": {
    "geom:area": 0,
    "geom:bbox": "-122.403490,37.625330,-121.265720,37.961960",
    "geom:latitude": 37.830262471360015,
    "geom:longitude": -121.85485645443704,
    "src:alt_label": "swim-takeoff",
    "src:geom": "swim",
    "swim:elevations": [
      152,
      399,
      906,
      1028,
      1212,
      1722,
      2095,
      2457,
      3017,
      3062,
      3173,
      3290,
      3599,
      3717,
      3936,
      4293,
      4329,
      4528,
      4713,
      5051,
      5404,
      5560,
      5855,
      6214,
      6426,
      6578
    ],
    "swim:geom": "takeoff",
    "swim:timestamps": [
      1781984185,
      1781984202,
      1781984246,
      1781984255,
      1781984284,
      1781984332,
      1781984361,
      1781984388,
      1781984426,
      1781984430,
      1781984454,
      1781984474,
      1781984514,
      1781984525,
      1781984543,
      1781984577,
      1781984582,
      1781984606,
      1781984627,
      1781984662,
      1781984698,
      1781984713,
      1781984744,
      1781984785,
      1781984810,
      1781984834
    ],
    "wof:geomhash": "b5ceb11645e3e4a78117a37f840faf15",
    "wof:id": 2031596571,
    "wof:repo": "sfomuseum-data-flights-2026-06"
  },
  "bbox": [
    -122.40349,
    37.62533,
    -121.26572,
    37.96196
  ],
  "geometry": {"coordinates":[[-122.39053,37.62533],[-122.40349,37.63445],[-122.37732,37.66281],[-122.36805,37.66575],[-122.33398,37.67705],[-122.2656,37.70048],[-122.22394,37.71446],[-122.18473,37.73274],[-122.1312,37.76069],[-122.12656,37.76318],[-122.09122,37.78174],[-122.05885,37.79827],[-121.98638,37.82845],[-121.96498,37.83323],[-121.92818,37.84015],[-121.85611,37.85384],[-121.84545,37.85585],[-121.79363,37.86543],[-121.74907,37.87363],[-121.66917,37.88834],[-121.58865,37.9033],[-121.55452,37.90953],[-121.48201,37.92281],[-121.38583,37.94025],[-121.32475,37.95131],[-121.26572,37.96196]],"type":"LineString"}
}
