{
  "id": 2031683357,
  "type": "Feature",
  "properties": {
    "geom:area": 0,
    "geom:bbox": "-122.360230,37.492080,-121.277980,37.614640",
    "geom:latitude": 37.541761063211524,
    "geom:longitude": -121.82609546186886,
    "src:alt_label": "swim-approach",
    "src:geom": "swim",
    "swim:elevations": [
      4691,
      4482,
      4102,
      3904,
      3518,
      3261,
      3255,
      3085,
      2949,
      2809,
      2672,
      2620,
      2377,
      2155,
      1971,
      1829,
      1827,
      1766,
      1451,
      1325,
      1216,
      974,
      916,
      710,
      516,
      451,
      288,
      124,
      43
    ],
    "swim:geom": "approach",
    "swim:timestamps": [
      1782856377,
      1782856397,
      1782856435,
      1782856456,
      1782856492,
      1782856527,
      1782856530,
      1782856575,
      1782856599,
      1782856624,
      1782856654,
      1782856673,
      1782856696,
      1782856732,
      1782856768,
      1782856794,
      1782856821,
      1782856836,
      1782856878,
      1782856899,
      1782856926,
      1782856974,
      1782856983,
      1782857025,
      1782857062,
      1782857079,
      1782857113,
      1782857158,
      1782857184
    ],
    "wof:geomhash": "2cafacf9c4894e7f479ea723b528dbc2",
    "wof:id": 2031683357,
    "wof:repo": "sfomuseum-data-flights-2026-06"
  },
  "bbox": [
    -122.36023,
    37.49208,
    -121.27798,
    37.61464
  ],
  "geometry": {"coordinates":[[-121.27798,37.59071],[-121.31773,37.58607],[-121.39109,37.57808],[-121.4309,37.57363],[-121.50156,37.56542],[-121.56816,37.55756],[-121.57375,37.55688],[-121.6516,37.54429],[-121.68956,37.53527],[-121.72841,37.52598],[-121.77323,37.51525],[-121.79874,37.50913],[-121.82934,37.50177],[-121.87576,37.49208],[-121.92292,37.49365],[-121.95755,37.49558],[-121.9929,37.49767],[-122.01251,37.49877],[-122.06839,37.50183],[-122.09488,37.50439],[-122.12445,37.51568],[-122.17465,37.53671],[-122.18367,37.54054],[-122.22485,37.55793],[-122.26187,37.57349],[-122.27772,37.58019],[-122.30538,37.5918],[-122.33956,37.60614],[-122.36023,37.61464]],"type":"LineString"}
}
