{
  "id": 2031651759,
  "type": "Feature",
  "properties": {
    "geom:area": 0,
    "geom:bbox": "-122.406860,37.627720,-121.244790,37.953480",
    "geom:latitude": 37.83118908843098,
    "geom:longitude": -121.84895799385495,
    "src:alt_label": "swim-takeoff",
    "src:geom": "swim",
    "swim:elevations": [
      152,
      602,
      779,
      1245,
      1383,
      1597,
      2019,
      2223,
      2752,
      2875,
      3061,
      3173,
      3431,
      3496,
      3987,
      4082,
      4505,
      4667,
      4922,
      5125,
      5406,
      5493,
      5760,
      6122
    ],
    "swim:geom": "takeoff",
    "swim:timestamps": [
      1782458749,
      1782458782,
      1782458798,
      1782458847,
      1782458871,
      1782458898,
      1782458936,
      1782458952,
      1782458998,
      1782459010,
      1782459027,
      1782459036,
      1782459085,
      1782459094,
      1782459138,
      1782459151,
      1782459203,
      1782459225,
      1782459261,
      1782459283,
      1782459318,
      1782459330,
      1782459360,
      1782459411
    ],
    "wof:geomhash": "5086318ee8778098a7c02ff9612e2d51",
    "wof:id": 2031651759,
    "wof:repo": "sfomuseum-data-flights-2026-06"
  },
  "bbox": [
    -122.40686,
    37.62772,
    -121.24479,
    37.95348
  ],
  "geometry": {"coordinates":[[-122.39075,37.62772],[-122.40686,37.64871],[-122.39825,37.66123],[-122.3403,37.68013],[-122.3081,37.68984],[-122.26768,37.70227],[-122.20867,37.72142],[-122.18556,37.73261],[-122.11723,37.76852],[-122.09905,37.77786],[-122.07407,37.79054],[-122.06086,37.79737],[-121.97624,37.83139],[-121.95681,37.83491],[-121.86772,37.85211],[-121.83931,37.85731],[-121.7289,37.87818],[-121.67881,37.88682],[-121.59935,37.9015],[-121.54891,37.91095],[-121.46895,37.92573],[-121.4394,37.92963],[-121.36739,37.93843],[-121.24479,37.95348]],"type":"LineString"}
}
