{
  "id": 2031649837,
  "type": "Feature",
  "properties": {
    "geom:area": 0,
    "geom:bbox": "-122.526950,37.624030,-122.231660,38.510750",
    "geom:latitude": 38.023336624343074,
    "geom:longitude": -122.36851238433083,
    "src:alt_label": "swim-takeoff",
    "src:geom": "swim",
    "swim:elevations": [
      305,
      1180,
      1412,
      1764,
      2280,
      2576,
      3430,
      3643,
      3796,
      4389,
      4522,
      5216,
      5348,
      5940,
      6086,
      6209,
      6612,
      6694,
      6932,
      7486,
      7674,
      7945,
      8069,
      8156
    ],
    "swim:geom": "takeoff",
    "swim:timestamps": [
      1782519160,
      1782519208,
      1782519231,
      1782519258,
      1782519290,
      1782519306,
      1782519357,
      1782519386,
      1782519401,
      1782519447,
      1782519456,
      1782519506,
      1782519516,
      1782519559,
      1782519575,
      1782519587,
      1782519623,
      1782519638,
      1782519660,
      1782519707,
      1782519732,
      1782519758,
      1782519767,
      1782519782
    ],
    "wof:geomhash": "8bac2b9e6c11a47d160f5c720d1ab5f2",
    "wof:id": 2031649837,
    "wof:repo": "sfomuseum-data-flights-2026-06"
  },
  "bbox": [
    -122.52695,
    37.62403,
    -122.23166,
    38.51075
  ],
  "geometry": {"coordinates":[[-122.38678,37.62403],[-122.42417,37.63999],[-122.44519,37.64899],[-122.47484,37.66124],[-122.51376,37.68105],[-122.52604,37.69817],[-122.52695,37.76454],[-122.51487,37.80758],[-122.49263,37.82729],[-122.41169,37.87793],[-122.40254,37.89263],[-122.3771,37.98172],[-122.37084,37.99874],[-122.34072,38.076],[-122.32888,38.10584],[-122.31997,38.12832],[-122.29323,38.19561],[-122.28168,38.22576],[-122.26472,38.26893],[-122.23393,38.36178],[-122.23166,38.411],[-122.2322,38.46321],[-122.23223,38.48113],[-122.23237,38.51075]],"type":"LineString"}
}
