{
  "id": 2031461453,
  "type": "Feature",
  "properties": {
    "geom:area": 0,
    "geom:bbox": "-120.071944,32.713611,-115.686111,35.237500",
    "geom:latitude": 33.98042736496541,
    "geom:longitude": -117.87621283053512,
    "src:alt_label": "swim-path",
    "src:geom": "swim",
    "swim:altitudes": [
      "330C",
      "330C",
      "330C",
      "330C",
      "330C",
      "330C",
      "330C",
      "330C",
      "330C",
      "330C",
      "330C",
      "330C",
      "332",
      "350C",
      "350C",
      "350C",
      "350C",
      "350C"
    ],
    "swim:geom": "path",
    "swim:speeds": [
      513,
      509,
      509,
      509,
      508,
      508,
      505,
      505,
      506,
      506,
      506,
      507,
      508,
      514,
      515,
      514,
      513,
      513
    ],
    "swim:timestamps": [
      1780731242,
      1780731483,
      1780731543,
      1780731603,
      1780731679,
      1780731739,
      1780731919,
      1780731979,
      1780732039,
      1780732099,
      1780732219,
      1780732339,
      1780732399,
      1780732579,
      1780732760,
      1780732820,
      1780732880,
      1780733120
    ],
    "wof:geomhash": "5a997dc845a8ffe1f381e23efb86f9f3",
    "wof:id": 2031461453,
    "wof:repo": "sfomuseum-data-flights-2026-06"
  },
  "bbox": [
    -120.07194444444444,
    32.71361111111111,
    -115.68611111111112,
    35.237500000000004
  ],
  "geometry": {"coordinates":[[-120.07194444444444,35.237500000000004],[-119.50611111111111,34.91138888888889],[-119.36749999999999,34.83027777777778],[-119.22666666666667,34.74805555555556],[-119.04916666666666,34.64333333333333],[-118.90833333333335,34.56055555555555],[-118.48555555555555,34.32666666666667],[-118.34416666666667,34.248333333333335],[-118.20111111111112,34.16833333333333],[-118.0586111111111,34.08861111111111],[-117.77638888888889,33.93],[-117.52277777777778,33.78611111111111],[-117.38277777777778,33.70611111111111],[-116.94944444444445,33.45722222222223],[-116.52666666666667,33.21138888888889],[-116.38777777777779,33.13],[-116.24666666666667,33.04694444444444],[-115.68611111111112,32.71361111111111]],"type":"LineString"}
}
