{
  "id": 2031504881,
  "type": "Feature",
  "properties": {
    "geom:area": 0,
    "geom:bbox": "-126.648056,37.666667,-122.500000,37.877500",
    "geom:latitude": 37.77813545959354,
    "geom:longitude": -124.5735086507453,
    "src:alt_label": "swim-path",
    "src:geom": "swim",
    "swim:altitudes": [
      "032C",
      "032C",
      "097",
      "111",
      "111",
      "138",
      "158C",
      "209C",
      "209C",
      "209C",
      "215",
      "259",
      "259",
      "259",
      "259",
      "290C",
      "290C",
      "290C",
      "290C",
      "290C"
    ],
    "swim:geom": "path",
    "swim:speeds": [
      230,
      230,
      308,
      323,
      323,
      363,
      390,
      420,
      420,
      420,
      423,
      441,
      441,
      441,
      441,
      467,
      470,
      470,
      470,
      470
    ],
    "swim:timestamps": [
      1781077928,
      1781077928,
      1781078142,
      1781078202,
      1781078202,
      1781078322,
      1781078409,
      1781078649,
      1781078649,
      1781078649,
      1781078682,
      1781078922,
      1781078922,
      1781078922,
      1781078922,
      1781079282,
      1781079582,
      1781079582,
      1781079642,
      1781079642
    ],
    "wof:geomhash": "7c7e05902c92e4be9495dca5709592b5",
    "wof:id": 2031504881,
    "wof:repo": "sfomuseum-data-flights-2026-06"
  },
  "bbox": [
    -126.64805555555556,
    37.666666666666664,
    -122.5,
    37.8775
  ],
  "geometry": {"coordinates":[[-122.5,37.666666666666664],[-122.5,37.666666666666664],[-122.86555555555555,37.69638888888888],[-122.9775,37.70305555555556],[-122.9775,37.70305555555556],[-123.22527777777778,37.717222222222226],[-123.43333333333334,37.71666666666667],[-124,37.75],[-124,37.75],[-124,37.75],[-124.07583333333334,37.76138888888889],[-124.68805555555556,37.78944444444444],[-124.68805555555556,37.78944444444444],[-124.68805555555556,37.78944444444444],[-124.68805555555556,37.78944444444444],[-125.65444444444445,37.82694444444445],[-126.48388888888888,37.86888888888889],[-126.48388888888888,37.86888888888889],[-126.64805555555556,37.8775],[-126.64805555555556,37.8775]],"type":"LineString"}
}
