{
  "id": 2031656293,
  "type": "Feature",
  "properties": {
    "geom:area": 0,
    "geom:bbox": "-122.360040,37.491730,-121.256360,37.615200",
    "geom:latitude": 37.54278176605831,
    "geom:longitude": -121.81542020128886,
    "src:alt_label": "swim-approach",
    "src:geom": "swim",
    "swim:elevations": [
      5067,
      4831,
      4770,
      4530,
      4322,
      4115,
      3749,
      3359,
      3261,
      3228,
      3083,
      2865,
      2721,
      2525,
      2312,
      2101,
      2057,
      2020,
      1916,
      1829,
      1602,
      1491,
      1431,
      1338,
      1280,
      1171,
      1032,
      846,
      714,
      547,
      514,
      333,
      244,
      185,
      47,
      0
    ],
    "swim:geom": "approach",
    "swim:timestamps": [
      1782603095,
      1782603116,
      1782603122,
      1782603144,
      1782603163,
      1782603186,
      1782603220,
      1782603257,
      1782603288,
      1782603297,
      1782603317,
      1782603355,
      1782603375,
      1782603407,
      1782603441,
      1782603476,
      1782603482,
      1782603497,
      1782603512,
      1782603551,
      1782603598,
      1782603625,
      1782603637,
      1782603651,
      1782603660,
      1782603678,
      1782603700,
      1782603745,
      1782603772,
      1782603804,
      1782603813,
      1782603854,
      1782603869,
      1782603888,
      1782603928,
      1782603939
    ],
    "wof:geomhash": "1bce60939716055100a15aee4f885f6b",
    "wof:id": 2031656293,
    "wof:repo": "sfomuseum-data-flights-2026-06"
  },
  "bbox": [
    -122.36004,
    37.49173,
    -121.25636,
    37.6152
  ],
  "geometry": {"coordinates":[[-121.25636,37.59376],[-121.29548,37.58886],[-121.30667,37.58763],[-121.34736,37.58294],[-121.38242,37.57893],[-121.42431,37.57415],[-121.4843,37.56735],[-121.55141,37.55964],[-121.60728,37.5528],[-121.62233,37.55078],[-121.65326,37.54378],[-121.71234,37.52983],[-121.7426,37.52262],[-121.79082,37.51101],[-121.83942,37.49936],[-121.88843,37.49173],[-121.89676,37.49219],[-121.91763,37.4936],[-121.93879,37.49477],[-121.99374,37.49765],[-122.05414,37.50118],[-122.08587,37.5028],[-122.09894,37.5052],[-122.11267,37.51006],[-122.12122,37.51374],[-122.1383,37.52105],[-122.15881,37.53022],[-122.20199,37.54811],[-122.22696,37.55866],[-122.25714,37.57142],[-122.26507,37.57482],[-122.29773,37.58851],[-122.30968,37.59354],[-122.32367,37.59944],[-122.3529,37.61173],[-122.36004,37.6152]],"type":"LineString"}
}
