{
  "id": 2031556795,
  "type": "Feature",
  "properties": {
    "geom:area": 0,
    "geom:bbox": "-122.405990,37.625330,-121.246900,37.991370",
    "geom:latitude": 37.93507396417169,
    "geom:longitude": -121.9441324573427,
    "src:alt_label": "swim-takeoff",
    "src:geom": "swim",
    "swim:elevations": [
      152,
      517,
      593,
      852,
      934,
      1551,
      1766,
      2096,
      2277,
      2649,
      2853,
      3172,
      3192,
      3310,
      3429,
      3543,
      3743,
      3786,
      4150,
      4578,
      4921,
      5030,
      5084,
      5424,
      5462,
      5702,
      5792,
      5918,
      6175,
      6229
    ],
    "swim:geom": "takeoff",
    "swim:timestamps": [
      1781653604,
      1781653642,
      1781653664,
      1781653708,
      1781653714,
      1781653766,
      1781653790,
      1781653826,
      1781653843,
      1781653879,
      1781653900,
      1781653939,
      1781653942,
      1781653972,
      1781654005,
      1781654038,
      1781654067,
      1781654073,
      1781654112,
      1781654141,
      1781654187,
      1781654217,
      1781654232,
      1781654275,
      1781654281,
      1781654310,
      1781654322,
      1781654342,
      1781654387,
      1781654400
    ],
    "wof:geomhash": "4d51e891283e4aba2eefdc7bcc387da4",
    "wof:id": 2031556795,
    "wof:repo": "sfomuseum-data-flights-2026-06"
  },
  "bbox": [
    -122.40599,
    37.62533,
    -121.2469,
    37.99137
  ],
  "geometry": {"coordinates":[[-122.39069,37.62533],[-122.40599,37.65067],[-122.39089,37.66856],[-122.35026,37.70935],[-122.34477,37.71567],[-122.35255,37.77678],[-122.36641,37.80458],[-122.38543,37.84881],[-122.38532,37.87174],[-122.38128,37.91926],[-122.36106,37.94185],[-122.29712,37.95759],[-122.29192,37.95862],[-122.23753,37.96988],[-122.17274,37.98302],[-122.10213,37.98837],[-122.03599,37.98871],[-122.02223,37.98883],[-121.93093,37.98946],[-121.86684,37.98995],[-121.76286,37.99038],[-121.69356,37.99074],[-121.65779,37.99085],[-121.55412,37.99106],[-121.53968,37.99106],[-121.46821,37.99116],[-121.43908,37.99119],[-121.39219,37.99128],[-121.27988,37.99132],[-121.2469,37.99137]],"type":"LineString"}
}
