{
  "id": 2031488403,
  "type": "Feature",
  "properties": {
    "geom:area": 0,
    "geom:bbox": "-122.528333,37.661667,-110.740278,47.728889",
    "geom:latitude": 42.67071935703257,
    "geom:longitude": -116.6887824363405,
    "src:alt_label": "swim-path",
    "src:geom": "swim",
    "swim:altitudes": [
      "038",
      "054",
      "054",
      "054",
      "117",
      "117",
      "117",
      "191",
      "205",
      "205",
      "205",
      "330C",
      "330C",
      "330C",
      "330C",
      "330C",
      "330C",
      "330C",
      "330C",
      "330C",
      "330C",
      "330C",
      "330C",
      "330C",
      "330C",
      "330C",
      "329C",
      "330C",
      "330C",
      "330C",
      "330C",
      "330C",
      "330C",
      "330C",
      "330C",
      "330C",
      "330C",
      "330C",
      "330C",
      "330C",
      "330C",
      "330C",
      "330C",
      "330C",
      "330C",
      "330C",
      "330C",
      "330C",
      "330C",
      "330C",
      "330C",
      "330C",
      "330C",
      "330C",
      "330C",
      "330C",
      "330C",
      "330C",
      "330C",
      "330C",
      "330C",
      "330C",
      "330C",
      "330C",
      "330C",
      "330C",
      "330C",
      "330C",
      "330C",
      "330C",
      "330C",
      "330C",
      "330C",
      "330C",
      "330C",
      "330C",
      "330C",
      "330C",
      "330C",
      "330C",
      "330C",
      "330C",
      "330C",
      "330C",
      "330C",
      "330C",
      "330C",
      "330C",
      "330C",
      "330C",
      "330C",
      "330C",
      "330C",
      "330C",
      "330C",
      "330C",
      "330C",
      "330C",
      "330C",
      "330C",
      "330C",
      "330C",
      "330C",
      "330C",
      "330C",
      "330C",
      "330C",
      "330C",
      "330",
      "330",
      "330",
      "330",
      "349C",
      "349C",
      "349C"
    ],
    "swim:geom": "path",
    "swim:speeds": [
      184,
      260,
      260,
      260,
      359,
      359,
      359,
      423,
      435,
      435,
      435,
      482,
      482,
      482,
      482,
      480,
      480,
      480,
      480,
      486,
      490,
      490,
      490,
      490,
      494,
      494,
      497,
      498,
      498,
      499,
      499,
      500,
      501,
      501,
      501,
      502,
      503,
      507,
      507,
      507,
      508,
      512,
      512,
      512,
      512,
      513,
      513,
      518,
      518,
      518,
      520,
      520,
      521,
      521,
      521,
      539,
      546,
      546,
      546,
      548,
      548,
      548,
      547,
      547,
      547,
      546,
      545,
      545,
      545,
      547,
      547,
      550,
      550,
      550,
      550,
      549,
      549,
      549,
      548,
      548,
      546,
      546,
      546,
      546,
      547,
      548,
      548,
      548,
      548,
      549,
      549,
      549,
      549,
      549,
      548,
      548,
      546,
      546,
      546,
      544,
      544,
      544,
      544,
      544,
      544,
      544,
      544,
      544,
      544,
      544,
      543,
      543,
      544,
      544,
      544
    ],
    "swim:timestamps": [
      1780968792,
      1780968852,
      1780968852,
      1780968852,
      1780969032,
      1780969032,
      1780969032,
      1780969272,
      1780969332,
      1780969332,
      1780969332,
      1780970012,
      1780970012,
      1780970053,
      1780970072,
      1780970113,
      1780970113,
      1780970132,
      1780970132,
      1780970294,
      1780970354,
      1780970354,
      1780970414,
      1780970414,
      1780970433,
      1780970433,
      1780970534,
      1780970553,
      1780970553,
      1780970613,
      1780970654,
      1780970673,
      1780970714,
      1780970714,
      1780970714,
      1780970733,
      1780970774,
      1780970834,
      1780970834,
      1780970834,
      1780970894,
      1780971034,
      1780971034,
      1780971034,
      1780971075,
      1780971094,
      1780971094,
      1780971274,
      1780971334,
      1780971334,
      1780971394,
      1780971394,
      1780971514,
      1780971514,
      1780971514,
      1780971695,
      1780971815,
      1780971815,
      1780971815,
      1780971935,
      1780971995,
      1780971995,
      1780972055,
      1780972055,
      1780972055,
      1780972115,
      1780972175,
      1780972175,
      1780972175,
      1780972355,
      1780972355,
      1780972476,
      1780972476,
      1780972476,
      1780972596,
      1780972656,
      1780972656,
      1780972656,
      1780972716,
      1780972716,
      1780972836,
      1780972836,
      1780972956,
      1780972956,
      1780973016,
      1780973136,
      1780973136,
      1780973136,
      1780973197,
      1780973317,
      1780973317,
      1780973377,
      1780973377,
      1780973437,
      1780973497,
      1780973497,
      1780973677,
      1780973677,
      1780973677,
      1780973857,
      1780973857,
      1780973857,
      1780974038,
      1780974038,
      1780974038,
      1780974098,
      1780974158,
      1780974158,
      1780974218,
      1780974218,
      1780974338,
      1780974338,
      1780974518,
      1780974518,
      1780974518
    ],
    "wof:geomhash": "c513badef0c785c1b74a00404b2c2e06",
    "wof:id": 2031488403,
    "wof:repo": "sfomuseum-data-flights-2026-06"
  },
  "bbox": [
    -122.52833333333334,
    37.66166666666666,
    -110.74027777777778,
    47.72888888888889
  ],
  "geometry": {"coordinates":[[-122.47416666666666,37.66166666666666],[-122.52833333333334,37.70472222222222],[-122.52833333333334,37.70472222222222],[-122.52833333333334,37.70472222222222],[-122.32333333333332,37.894999999999996],[-122.32333333333332,37.894999999999996],[-122.32333333333332,37.894999999999996],[-121.78166666666667,37.990833333333335],[-121.66944444444445,38.07333333333334],[-121.66944444444445,38.07333333333334],[-121.66944444444445,38.07333333333334],[-120.52194444444444,39.214444444444446],[-120.52194444444444,39.214444444444446],[-120.44916666666667,39.290277777777774],[-120.41777777777779,39.32083333333334],[-120.34527777777777,39.394999999999996],[-120.34527777777777,39.394999999999996],[-120.3125,39.425555555555555],[-120.3125,39.425555555555555],[-120.03333333333333,39.70611111111111],[-119.92305555555556,39.815555555555555],[-119.92305555555556,39.815555555555555],[-119.81361111111111,39.92333333333333],[-119.81361111111111,39.92333333333333],[-119.77777777777777,39.95861111111111],[-119.77777777777777,39.95861111111111],[-119.59138888888889,40.14111111111111],[-119.54805555555555,40.183611111111105],[-119.54805555555555,40.183611111111105],[-119.43416666666667,40.29388888888889],[-119.36388888888888,40.36194444444445],[-119.32083333333333,40.403888888888886],[-119.25083333333333,40.47138888888889],[-119.25083333333333,40.47138888888889],[-119.25083333333333,40.47138888888889],[-119.20555555555556,40.515],[-119.13527777777779,40.5825],[-119.02083333333333,40.69194444444444],[-119.02083333333333,40.69194444444444],[-119.02083333333333,40.69194444444444],[-118.90416666666667,40.80333333333333],[-118.62083333333332,41.071111111111115],[-118.62083333333332,41.071111111111115],[-118.62083333333332,41.071111111111115],[-118.54861111111111,41.13916666666667],[-118.50166666666667,41.183055555555555],[-118.50166666666667,41.183055555555555],[-118.14,41.519444444444446],[-118.01944444444445,41.63055555555555],[-118.01944444444445,41.63055555555555],[-117.89611111111111,41.74388888888889],[-117.89611111111111,41.74388888888889],[-117.64861111111112,41.96944444444445],[-117.64861111111112,41.96944444444445],[-117.64861111111112,41.96944444444445],[-117.265,42.31472222222222],[-117.00305555555556,42.547777777777775],[-117.00305555555556,42.547777777777775],[-117.00305555555556,42.547777777777775],[-116.73583333333333,42.7825],[-116.60416666666666,42.897777777777776],[-116.60416666666666,42.897777777777776],[-116.47111111111111,43.013333333333335],[-116.47111111111111,43.013333333333335],[-116.47111111111111,43.013333333333335],[-116.33916666666666,43.1275],[-116.205,43.24277777777778],[-116.205,43.24277777777778],[-116.205,43.24277777777778],[-115.79888888888888,43.58833333333334],[-115.79888888888888,43.58833333333334],[-115.52583333333334,43.81777777777778],[-115.52583333333334,43.81777777777778],[-115.52583333333334,43.81777777777778],[-115.24888888888889,44.04805555555556],[-115.10972222222222,44.16277777777778],[-115.10972222222222,44.16277777777778],[-115.10972222222222,44.16277777777778],[-114.97083333333333,44.276944444444446],[-114.97083333333333,44.276944444444446],[-114.69361111111111,44.5025],[-114.69361111111111,44.5025],[-114.41250000000001,44.72888888888889],[-114.41250000000001,44.72888888888889],[-114.27166666666666,44.84138888888889],[-113.98472222222222,45.068333333333335],[-113.98472222222222,45.068333333333335],[-113.98472222222222,45.068333333333335],[-113.83138888888888,45.18888888888888],[-113.53527777777778,45.419444444444444],[-113.53527777777778,45.419444444444444],[-113.38555555555556,45.535],[-113.38555555555556,45.535],[-113.23666666666666,45.649166666666666],[-113.1,45.75333333333333],[-113.1,45.75333333333333],[-112.64861111111112,46.094166666666666],[-112.64861111111112,46.094166666666666],[-112.64861111111112,46.094166666666666],[-112.20333333333333,46.424166666666665],[-112.20333333333333,46.424166666666665],[-112.20333333333333,46.424166666666665],[-111.78472222222221,46.76638888888889],[-111.78472222222221,46.76638888888889],[-111.78472222222221,46.76638888888889],[-111.655,46.888333333333335],[-111.52361111111111,47.01111111111111],[-111.52361111111111,47.01111111111111],[-111.39305555555556,47.132777777777775],[-111.39305555555556,47.132777777777775],[-111.13388888888889,47.37166666666667],[-111.13388888888889,47.37166666666667],[-110.74027777777778,47.72888888888889],[-110.74027777777778,47.72888888888889],[-110.74027777777778,47.72888888888889]],"type":"LineString"}
}
