{
  "id": 2031536005,
  "type": "Feature",
  "properties": {
    "geom:area": 0,
    "geom:bbox": "-122.380000,33.520000,-84.280000,38.190000",
    "geom:latitude": 36.75933402726926,
    "geom:longitude": -103.02338780290408,
    "src:alt_label": "swim-route",
    "src:geom": "swim",
    "swim:geom": "route",
    "wof:geomhash": "4469cbc839f13c5ccdf9fea9e62b939a",
    "wof:id": 2031536005,
    "wof:repo": "sfomuseum-data-flights-2026-06"
  },
  "bbox": [
    -122.38,
    33.52,
    -84.28,
    38.19
  ],
  "geometry": {"coordinates":[[-84.43,33.64],[-84.28,33.68],[-84.28,33.81],[-84.53,33.81],[-84.62,33.82],[-84.62,33.82],[-84.94,33.89],[-85,33.91],[-85.21,33.8],[-85.56,33.61],[-85.73,33.52],[-85.75,33.52],[-85.76,33.52],[-85.89,33.52],[-85.94,33.53],[-86.02,33.57],[-86.18,33.63],[-86.27,33.66],[-87.35,34.07],[-89.64,34.9],[-89.98,35.02],[-91.18,35.34],[-92.22,35.61],[-92.25,35.61],[-92.45,35.67],[-93.09,35.82],[-93.25,35.87],[-94.52,36.17],[-94.9,36.26],[-97.16,36.75],[-97.74,36.8],[-99.56,36.95],[-99.93,36.98],[-99.95,36.98],[-100.63,37.02],[-100.9,37.04],[-100.97,37.04],[-101.03,37.05],[-101.64,37.13],[-101.74,37.14],[-101.96,37.17],[-102.32,37.21],[-103.16,37.31],[-104.13,37.35],[-105.88,37.38],[-106.24,37.43],[-106.33,37.66],[-106.75,37.84],[-106.93,37.86],[-106.97,37.86],[-106.98,37.86],[-107.11,37.87],[-107.65,37.93],[-109.05,38.02],[-109.1,38.02],[-109.26,38.03],[-109.86,38.08],[-110.25,38.09],[-112.24,38.19],[-112.42,38.19],[-112.46,38.19],[-112.87,38.19],[-113.3,38.19],[-113.63,38.17],[-114.07,38.16],[-114.12,38.16],[-114.28,38.16],[-117.2,38.01],[-117.32,38],[-118.41,37.92],[-118.76,37.9],[-119.1,37.86],[-119.22,37.84],[-119.63,37.8],[-119.94,37.76],[-120.4,37.7],[-120.58,37.68],[-120.69,37.67],[-120.75,37.66],[-120.78,37.66],[-120.83,37.65],[-120.96,37.63],[-121,37.63],[-121.08,37.62],[-121.18,37.6],[-121.26,37.59],[-121.39,37.58],[-121.41,37.58],[-121.6,37.55],[-121.61,37.55],[-121.62,37.55],[-121.7,37.53],[-121.8,37.51],[-121.83,37.5],[-121.88,37.49],[-122.08,37.54],[-122.14,37.56],[-122.18,37.57],[-122.28,37.59],[-122.33,37.61],[-122.36,37.61],[-122.38,37.62]],"type":"LineString"}
}
