{
  "id": 2031455447,
  "type": "Feature",
  "properties": {
    "date:cessation_lower": "2026-06-05",
    "date:cessation_upper": "2026-06-05",
    "date:inception_lower": "2026-06-06",
    "date:inception_upper": "2026-06-06",
    "edtf:cessation": "2026-06-05T13:46:03-07:00",
    "edtf:inception": "2026-06-06T00:15:00Z",
    "flysfo:actual_timestamp": -1,
    "flysfo:airline": "DL",
    "flysfo:base_airline": "",
    "flysfo:base_flight_number": "6697",
    "flysfo:date": "2026-06-05",
    "flysfo:estimated_timestamp": 1780718340,
    "flysfo:event": "A",
    "flysfo:flight_number": "DL756",
    "flysfo:gate": "C7",
    "flysfo:journey": "MSP-SFO",
    "flysfo:scheduled_timestamp": 1780716780,
    "flysfo:timestamp": 1780718340,
    "geom:area": 0,
    "geom:bbox": "-122.370943,37.617990,-93.200317,44.883321",
    "geom:latitude": 41.2506555,
    "geom:longitude": -107.78563,
    "iata:airline": "DL",
    "iata:base_airline": "",
    "icao:aircraft": "B739",
    "icao:airline": "DAL",
    "icao:base_airline": "KLM",
    "lbl:latitude": 37.61799,
    "lbl:longitude": -122.370943,
    "sfomuseum:aircraft_id": 1377564285,
    "sfomuseum:airline_id": 1159284261,
    "sfomuseum:arrival_id": 102527513,
    "sfomuseum:base_flight_id": "20260605-A-KLM-6697",
    "sfomuseum:departure_id": 102531131,
    "sfomuseum:flight_id": "20260605-A-DAL-756",
    "sfomuseum:flight_number": [
      "DAL756",
      "DL756"
    ],
    "sfomuseum:placetype": "flight",
    "src:geom": "flysfo",
    "src:geom_alt": [
      "swim-route",
      "swim-path",
      "swim-approach"
    ],
    "swim:tail_number": "N897DN",
    "wof:belongsto": [
      1947304067,
      102527513,
      1947304663,
      102191575,
      85633793,
      102087579,
      85922583,
      554784711,
      85688637,
      1947304669,
      1947304591,
      102085387
    ],
    "wof:concordances": {
      "swim:flight_ref": "148516231",
      "swim:gufi": "KP816016at"
    },
    "wof:country": "US",
    "wof:created": 1780761926,
    "wof:geomhash": "0c6e1b69ec0e7e239d3f5365b057a47f",
    "wof:hierarchy": [
      {
        "building_id": 1947304067,
        "campus_id": 102527513,
        "concourse_id": 1947304663,
        "continent_id": 102191575,
        "country_id": 85633793,
        "county_id": 102087579,
        "custom_id": 2031455447,
        "flight_id": 2031455447,
        "locality_id": 85922583,
        "postalcode_id": 554784711,
        "region_id": 85688637,
        "venue_id": 1947304669,
        "wing_id": 1947304591
      },
      {
        "building_id": 1947304067,
        "campus_id": 102527513,
        "concourse_id": 1947304663,
        "continent_id": 102191575,
        "country_id": 85633793,
        "county_id": 102085387,
        "custom_id": 2031455447,
        "flight_id": 2031455447,
        "region_id": 85688637,
        "venue_id": 1947304669,
        "wing_id": 1947304591
      }
    ],
    "wof:id": 2031455447,
    "wof:involves": [
      1159284613,
      1377564285,
      102527513,
      102531131,
      1159284261,
      1947304669
    ],
    "wof:lastmodified": 1780762732,
    "wof:name": "DL756 (MSP-SFO)",
    "wof:parent_id": 1947304669,
    "wof:placetype": "custom",
    "wof:placetype_alt": [
      "flight"
    ],
    "wof:repo": "sfomuseum-data-flights-2026-06",
    "wof:superseded_by": [],
    "wof:supersedes": []
  },
  "bbox": [
    -122.370943,
    37.61799,
    -93.200317,
    44.883321
  ],
  "geometry": {"coordinates":[[-93.200317,44.883321],[-122.370943,37.61799]],"type":"MultiPoint"}
}
