{
  "id": 2031461201,
  "type": "Feature",
  "properties": {
    "geom:area": 0,
    "geom:bbox": "-124.841944,35.800556,-122.401667,37.630000",
    "geom:latitude": 36.81071958619797,
    "geom:longitude": -123.73455408097777,
    "src:alt_label": "swim-path",
    "src:geom": "swim",
    "swim:altitudes": [
      "009",
      "009",
      "068C",
      "068C",
      "068C",
      "195",
      "195",
      "195",
      "249",
      "249",
      "265",
      "265",
      "321",
      "321",
      "321",
      "356",
      "356",
      "360C",
      "360C",
      "360C",
      "360C",
      "360C",
      "360C"
    ],
    "swim:geom": "path",
    "swim:speeds": [
      177,
      177,
      300,
      300,
      300,
      377,
      377,
      377,
      406,
      406,
      415,
      415,
      440,
      440,
      440,
      441,
      441,
      439,
      439,
      467,
      467,
      467,
      470
    ],
    "swim:timestamps": [
      1780692740,
      1780692740,
      1780692916,
      1780692916,
      1780692916,
      1780693280,
      1780693280,
      1780693280,
      1780693461,
      1780693461,
      1780693521,
      1780693521,
      1780693761,
      1780693761,
      1780693761,
      1780693941,
      1780693941,
      1780694122,
      1780694122,
      1780694242,
      1780694242,
      1780694242,
      1780694302
    ],
    "wof:geomhash": "088eb397299e5ea06dc24e8f48a8a6af",
    "wof:id": 2031461201,
    "wof:repo": "sfomuseum-data-flights-2026-06"
  },
  "bbox": [
    -124.84194444444444,
    35.800555555555555,
    -122.40166666666667,
    37.63
  ],
  "geometry": {"coordinates":[[-122.40166666666667,37.63],[-122.40166666666667,37.63],[-122.56666666666666,37.583333333333336],[-122.56666666666666,37.583333333333336],[-122.56666666666666,37.583333333333336],[-123.12472222222222,37.212500000000006],[-123.12472222222222,37.212500000000006],[-123.12472222222222,37.212500000000006],[-123.4525,37.01027777777778],[-123.4525,37.01027777777778],[-123.56694444444445,36.939166666666665],[-123.56694444444445,36.939166666666665],[-124.0363888888889,36.64416666666666],[-124.0363888888889,36.64416666666666],[-124.0363888888889,36.64416666666666],[-124.39972222222222,36.41305555555555],[-124.39972222222222,36.41305555555555],[-124.74555555555555,36.1825],[-124.74555555555555,36.1825],[-124.81416666666667,35.92972222222222],[-124.81416666666667,35.92972222222222],[-124.81416666666667,35.92972222222222],[-124.84194444444444,35.800555555555555]],"type":"LineString"}
}
