{
  "id": 2031505667,
  "type": "Feature",
  "properties": {
    "geom:area": 0,
    "geom:bbox": "-122.400000,37.666667,-122.116389,47.973611",
    "geom:latitude": 42.75067881563483,
    "geom:longitude": -122.21966518950754,
    "src:alt_label": "swim-path",
    "src:geom": "swim",
    "swim:altitudes": [
      "029",
      "029",
      "029",
      "059",
      "059",
      "080",
      "080",
      "102",
      "154",
      "154",
      "168",
      "239",
      "239",
      "281",
      "281",
      "281",
      "315",
      "326",
      "335",
      "335",
      "340C",
      "340C",
      "340C",
      "340C",
      "340C",
      "340C",
      "340C",
      "340C",
      "340C",
      "340C",
      "340C",
      "340C",
      "340C",
      "340C",
      "340C",
      "340C",
      "340C",
      "340C",
      "340C",
      "340C",
      "340C",
      "340C",
      "340C",
      "340C",
      "340C",
      "340C",
      "340C",
      "340C",
      "340C",
      "340C",
      "340C",
      "340C",
      "340C",
      "340C",
      "340C",
      "340C",
      "340C",
      "340C",
      "340C",
      "340C",
      "340C",
      "340C",
      "340C",
      "340C",
      "340C",
      "340C",
      "340C",
      "340C",
      "340C",
      "340C",
      "340C",
      "340C",
      "340C",
      "340C",
      "340C",
      "340",
      "340",
      "339",
      "311",
      "311",
      "283",
      "283"
    ],
    "swim:geom": "path",
    "swim:speeds": [
      194,
      194,
      194,
      252,
      252,
      268,
      268,
      284,
      345,
      345,
      410,
      452,
      449,
      466,
      466,
      466,
      464,
      462,
      459,
      459,
      457,
      457,
      456,
      453,
      452,
      452,
      452,
      451,
      450,
      450,
      450,
      449,
      446,
      447,
      447,
      447,
      447,
      449,
      449,
      446,
      446,
      446,
      446,
      447,
      448,
      451,
      458,
      458,
      458,
      459,
      459,
      458,
      457,
      457,
      452,
      449,
      446,
      446,
      446,
      440,
      440,
      440,
      439,
      439,
      433,
      433,
      432,
      432,
      431,
      431,
      431,
      431,
      430,
      430,
      430,
      425,
      425,
      420,
      417,
      417,
      409,
      409
    ],
    "swim:timestamps": [
      1781153297,
      1781153297,
      1781153297,
      1781153397,
      1781153397,
      1781153457,
      1781153457,
      1781153517,
      1781153698,
      1781153698,
      1781153818,
      1781154178,
      1781154184,
      1781154424,
      1781154424,
      1781154424,
      1781154598,
      1781154665,
      1781154719,
      1781154719,
      1781154839,
      1781154845,
      1781154899,
      1781155025,
      1781155079,
      1781155079,
      1781155085,
      1781155139,
      1781155145,
      1781155145,
      1781155145,
      1781155205,
      1781155326,
      1781155379,
      1781155379,
      1781155386,
      1781155386,
      1781155499,
      1781155499,
      1781155864,
      1781155864,
      1781155984,
      1781155984,
      1781156044,
      1781156104,
      1781156164,
      1781156345,
      1781156345,
      1781156345,
      1781156405,
      1781156405,
      1781156465,
      1781156585,
      1781156705,
      1781156827,
      1781156887,
      1781156947,
      1781156947,
      1781156947,
      1781157187,
      1781157308,
      1781157308,
      1781157368,
      1781157368,
      1781157608,
      1781157608,
      1781157665,
      1781157665,
      1781157738,
      1781157738,
      1781157859,
      1781158037,
      1781158099,
      1781158099,
      1781158099,
      1781158278,
      1781158278,
      1781158398,
      1781158458,
      1781158458,
      1781158518,
      1781158518
    ],
    "wof:geomhash": "3bbca943a0e58194a5155c174d8db0d1",
    "wof:id": 2031505667,
    "wof:repo": "sfomuseum-data-flights-2026-06"
  },
  "bbox": [
    -122.4,
    37.666666666666664,
    -122.11638888888888,
    47.97361111111111
  ],
  "geometry": {"coordinates":[[-122.4,37.666666666666664],[-122.4,37.666666666666664],[-122.4,37.666666666666664],[-122.27361111111111,37.69972222222222],[-122.27361111111111,37.69972222222222],[-122.2075,37.74388888888889],[-122.2075,37.74388888888889],[-122.1975,37.822500000000005],[-122.15194444444445,38.1],[-122.15194444444445,38.1],[-122.11638888888888,38.315],[-122.16111111111111,39.032777777777774],[-122.15805555555556,39.038888888888884],[-122.18694444444445,39.55583333333333],[-122.18694444444445,39.55583333333333],[-122.18694444444445,39.55583333333333],[-122.19222222222223,39.94194444444444],[-122.19333333333334,40.06666666666667],[-122.19444444444444,40.19083333333333],[-122.19444444444444,40.19083333333333],[-122.19694444444445,40.44027777777777],[-122.19694444444445,40.46416666666667],[-122.19805555555556,40.56666666666667],[-122.20055555555555,40.8425],[-122.20166666666667,40.94138888888889],[-122.20166666666667,40.94138888888889],[-122.20194444444445,40.967222222222226],[-122.20277777777778,41.066944444444445],[-122.20305555555557,41.09166666666667],[-122.20305555555557,41.09166666666667],[-122.20305555555557,41.09166666666667],[-122.2025,41.21638888888889],[-122.2063888888889,41.44083333333333],[-122.20777777777778,41.57166666666667],[-122.20777777777778,41.57166666666667],[-122.20777777777778,41.56944444444445],[-122.20777777777778,41.56944444444445],[-122.21027777777778,41.82166666666667],[-122.21027777777778,41.82166666666667],[-122.21777777777778,42.57472222222223],[-122.21777777777778,42.57472222222223],[-122.22027777777778,42.82888888888889],[-122.22027777777778,42.82888888888889],[-122.22166666666666,42.95416666666667],[-122.22305555555556,43.078611111111115],[-122.22444444444444,43.20444444444445],[-122.22833333333334,43.58694444444445],[-122.22833333333334,43.58694444444445],[-122.22833333333334,43.58694444444445],[-122.22972222222222,43.71416666666667],[-122.22972222222222,43.71416666666667],[-122.23111111111112,43.84166666666667],[-122.23388888888888,44.09305555555556],[-122.23666666666666,44.346111111111114],[-122.23916666666666,44.59777777777778],[-122.24055555555556,44.721111111111114],[-122.24194444444444,44.843611111111116],[-122.24194444444444,44.843611111111116],[-122.24194444444444,44.843611111111116],[-122.2475,45.33444444444444],[-122.25,45.57805555555556],[-122.25,45.57805555555556],[-122.25166666666667,45.69888888888889],[-122.25166666666667,45.69888888888889],[-122.25694444444444,46.180277777777775],[-122.25694444444444,46.180277777777775],[-122.25861111111111,46.30722222222222],[-122.25861111111111,46.30722222222222],[-122.25972222222222,46.42666666666666],[-122.25972222222222,46.42666666666666],[-122.26305555555555,46.69],[-122.26722222222222,47.04861111111111],[-122.26888888888888,47.16833333333333],[-122.26888888888888,47.16833333333333],[-122.26888888888888,47.16833333333333],[-122.27305555555556,47.519444444444446],[-122.27305555555556,47.519444444444446],[-122.27583333333334,47.74944444444444],[-122.27722222222222,47.86083333333333],[-122.27722222222222,47.86083333333333],[-122.29388888888889,47.97361111111111],[-122.29388888888889,47.97361111111111]],"type":"LineString"}
}
