{
  "id": 2031673993,
  "type": "Feature",
  "properties": {
    "geom:area": 0,
    "geom:bbox": "-123.006670,37.319530,-122.088090,38.466860",
    "geom:latitude": 37.766679583886535,
    "geom:longitude": -122.49940119566342,
    "src:alt_label": "swim-approach",
    "src:geom": "swim",
    "swim:elevations": [
      7620,
      7361,
      6768,
      6615,
      6007,
      5887,
      5338,
      5285,
      4969,
      4634,
      4261,
      4202,
      3755,
      3660,
      3474,
      3350,
      3353,
      3355,
      3353,
      3353,
      3385,
      3203,
      3040,
      2875,
      2622,
      2566,
      2373,
      2135,
      2140,
      2134,
      2151,
      1984,
      1891,
      1773,
      1645,
      1598,
      1494,
      1345,
      1248,
      1247,
      1218,
      1118,
      965,
      913,
      808,
      700,
      637,
      577,
      512,
      336,
      305,
      139,
      57
    ],
    "swim:geom": "approach",
    "swim:timestamps": [
      1782762969,
      1782762991,
      1782763039,
      1782763052,
      1782763099,
      1782763111,
      1782763164,
      1782763170,
      1782763203,
      1782763238,
      1782763285,
      1782763293,
      1782763345,
      1782763362,
      1782763396,
      1782763437,
      1782763456,
      1782763495,
      1782763526,
      1782763557,
      1782763569,
      1782763595,
      1782763618,
      1782763641,
      1782763678,
      1782763685,
      1782763712,
      1782763751,
      1782763763,
      1782763794,
      1782763823,
      1782763855,
      1782763873,
      1782763890,
      1782763920,
      1782763946,
      1782763973,
      1782764006,
      1782764038,
      1782764049,
      1782764072,
      1782764105,
      1782764143,
      1782764185,
      1782764214,
      1782764233,
      1782764250,
      1782764268,
      1782764286,
      1782764331,
      1782764341,
      1782764384,
      1782764403
    ],
    "wof:geomhash": "eff513fb86d06b5d5e12ad19914abb85",
    "wof:id": 2031673993,
    "wof:repo": "sfomuseum-data-flights-2026-06"
  },
  "bbox": [
    -123.00667,
    37.31953,
    -122.08809,
    38.46686
  ],
  "geometry": {"coordinates":[[-123.00667,38.46686],[-122.98018,38.42233],[-122.9262,38.32941],[-122.91278,38.30595],[-122.86088,38.21794],[-122.84817,38.19705],[-122.79114,38.10314],[-122.78559,38.09374],[-122.75297,38.03717],[-122.71903,37.97863],[-122.67232,37.90225],[-122.66223,37.89024],[-122.59353,37.82359],[-122.57219,37.80345],[-122.53021,37.76449],[-122.48548,37.72221],[-122.46674,37.70481],[-122.42788,37.66866],[-122.39724,37.63938],[-122.36675,37.61023],[-122.35635,37.59767],[-122.33971,37.56855],[-122.32733,37.54087],[-122.31231,37.51643],[-122.2886,37.47694],[-122.28555,37.46797],[-122.29149,37.437],[-122.30503,37.39264],[-122.30937,37.37844],[-122.31565,37.34418],[-122.29032,37.31953],[-122.24954,37.32308],[-122.23062,37.33326],[-122.21341,37.34297],[-122.18086,37.36121],[-122.15588,37.37505],[-122.13099,37.38891],[-122.10742,37.41074],[-122.09172,37.43621],[-122.08809,37.44545],[-122.09549,37.46355],[-122.11647,37.4861],[-122.14075,37.51233],[-122.17456,37.53272],[-122.19888,37.54431],[-122.21483,37.55117],[-122.2286,37.55703],[-122.2436,37.56339],[-122.2578,37.56948],[-122.29348,37.58443],[-122.30062,37.58738],[-122.3332,37.60115],[-122.34819,37.60739]],"type":"LineString"}
}
