{
  "id": 2031540439,
  "type": "Feature",
  "properties": {
    "geom:area": 0,
    "geom:bbox": "-177.100000,23.180000,177.350000,58.800000",
    "geom:latitude": 54.59827958772192,
    "geom:longitude": 2.872996025236219,
    "src:alt_label": "swim-route",
    "src:geom": "swim",
    "swim:geom": "route",
    "wof:geomhash": "7304c04b71c345afb76f16b542d21f77",
    "wof:id": 2031540439,
    "wof:repo": "sfomuseum-data-flights-2026-06"
  },
  "bbox": [
    -177.1,
    23.18,
    177.35,
    58.8
  ],
  "geometry": {"coordinates":[[[-122.38,37.62],[-122.5,37.67],[-122.5,37.67],[-122.5,37.68],[-122.59,37.73],[-122.59,37.73],[-122.63,37.75],[-122.69,37.79],[-122.7,37.79],[-122.74,37.81],[-122.76,37.82],[-122.79,37.87],[-122.91,38.01],[-123.15,38.3],[-123.16,38.3],[-123.3,38.48],[-123.42,38.61],[-123.48,38.68],[-123.59,38.82],[-123.64,38.87],[-123.69,38.92],[-123.75,39],[-124.51,40.22],[-124.88,40.78],[-126.18,42.72],[-126.64,43.41],[-126.66,43.44],[-129.77,47.69],[-129.77,47.7],[-130.2,48.23],[-130.8,48.96],[-131.71,50.01],[-131.88,50.2],[-132.05,50.37],[-132.32,50.64],[-132.69,51],[-133.73,52.01],[-134.84,53.01],[-136,54],[-144,56.19],[-148.5,57.11],[-150.53,57.46],[-151.93,57.67],[-162.08,58.66],[-167.73,58.8],[-167.73,58.8],[-171.31,58.76],[-173.89,58.66],[-177.1,58.38]],[[177.35,56.83],[174.6,55.91],[171.97,54.93],[169.34,53.63],[168.35,53.3],[163.7,51.61],[162.58,51.15],[159.36,49.72],[159.35,49.71],[159.35,49.71],[153,46.2],[152.17,45.67],[147.48,42.39],[146.86,41.92],[145.92,41.17],[145,40.42],[143.55,39.19],[143.23,38.91],[142.47,38.32],[141.26,37.38],[140.98,37.15],[138.95,36.24],[137.83,35.71],[137.7,35.65],[136.91,35.27],[136.2,35.09],[136.03,35.04],[135.31,34.85],[135.29,34.85],[134.06,34.52],[133.47,34.35],[132.59,34.1],[132.42,34.05],[132.26,34],[131.05,33.64],[131.04,33.64],[129.05,33.01],[128.63,32.87],[126.65,32.2],[126.65,32.19],[126.06,32.06],[125,31.83],[124,31.61],[123.5,31.5],[122.78,31.36],[121.78,31.17],[120.63,30.4],[119.49,29.63],[114.63,24.68],[114.59,24.64],[114.44,24.47],[114.23,24.24],[114.04,24.04],[113.82,23.8],[113.71,23.67],[113.56,23.5],[113.53,23.47],[113.44,23.38],[113.38,23.31],[113.32,23.25],[113.27,23.18]]],"type":"MultiLineString"}
}
