{
  "id": 2031435623,
  "type": "Feature",
  "properties": {
    "geom:area": 0,
    "geom:bbox": "-122.380000,31.950000,-97.040000,37.620000",
    "geom:latitude": 33.5411127000173,
    "geom:longitude": -110.08276991721978,
    "src:alt_label": "swim-route",
    "src:geom": "swim",
    "swim:geom": "route",
    "wof:geomhash": "09a360bcc5dc0e3e7b54a861d9dd3f0c",
    "wof:id": 2031435623,
    "wof:repo": "sfomuseum-data-flights-2026-06"
  },
  "bbox": [
    -122.38,
    31.95,
    -97.04,
    37.62
  ],
  "geometry": {"coordinates":[[-97.04,32.9],[-97.05,32.76],[-97.05,32.71],[-97.09,32.7],[-97.14,32.69],[-97.21,32.69],[-97.29,32.69],[-97.34,32.69],[-97.43,32.68],[-97.53,32.68],[-97.65,32.68],[-97.73,32.68],[-97.74,32.68],[-97.88,32.67],[-98.15,32.65],[-98.32,32.64],[-98.48,32.63],[-98.76,32.61],[-98.86,32.86],[-99.25,32.82],[-99.25,32.82],[-99.41,32.83],[-99.42,32.83],[-99.69,32.8],[-99.85,32.79],[-100.18,32.75],[-100.37,32.72],[-100.59,32.74],[-101.05,32.75],[-101.87,32.64],[-103.74,32.37],[-103.9,32.34],[-106.23,31.96],[-106.27,31.95],[-106.75,32.07],[-107.23,32.18],[-107.35,32.21],[-107.52,32.25],[-108.2,32.42],[-108.89,32.58],[-109.81,32.8],[-110.5,32.96],[-112.36,33.36],[-112.82,33.45],[-114,33.63],[-115.06,33.77],[-115.46,33.82],[-116.12,34.04],[-116.67,34.21],[-117.04,34.32],[-117.21,34.38],[-117.59,34.49],[-117.96,34.6],[-118.06,34.63],[-119.36,35.32],[-119.51,35.41],[-119.98,35.65],[-120.34,35.68],[-120.34,35.68],[-120.84,35.87],[-120.95,35.91],[-121.12,35.98],[-121.21,36.01],[-121.36,36.07],[-121.43,36.15],[-121.47,36.21],[-121.57,36.33],[-121.68,36.48],[-121.69,36.48],[-121.7,36.5],[-121.8,36.63],[-121.82,36.65],[-121.83,36.67],[-121.89,36.73],[-121.89,36.74],[-121.9,36.75],[-121.94,36.91],[-121.95,36.95],[-121.97,36.99],[-122,37.07],[-122.08,37.27],[-122.08,37.28],[-122.09,37.29],[-122.1,37.33],[-122.12,37.37],[-122.13,37.39],[-122.17,37.43],[-122.24,37.49],[-122.24,37.49],[-122.31,37.56],[-122.36,37.6],[-122.37,37.61],[-122.38,37.62]],"type":"LineString"}
}
