{
  "id": 2031491555,
  "type": "Feature",
  "properties": {
    "geom:area": 0,
    "geom:bbox": "-121.974444,26.094722,-80.060000,37.669722",
    "geom:latitude": 32.616601553031515,
    "geom:longitude": -100.82866982818494,
    "src:alt_label": "swim-path",
    "src:geom": "swim",
    "swim:altitudes": [
      "029",
      "029",
      "031",
      "061",
      "061",
      "099",
      "116",
      "120",
      "158",
      "183",
      "197",
      "215",
      "240",
      "240",
      "249",
      "267",
      "285",
      "295",
      "316",
      "323",
      "325",
      "340C",
      "340C",
      "340C",
      "340C",
      "340C",
      "340C",
      "340C",
      "340C",
      "340C",
      "340C",
      "340C",
      "340C",
      "340C",
      "340C",
      "340C",
      "340C",
      "340C",
      "340C",
      "339C",
      "339C",
      "340C",
      "339C",
      "339C",
      "340C",
      "340C",
      "340C",
      "340C",
      "340C",
      "340C",
      "340C",
      "340C",
      "340C",
      "340C",
      "340C",
      "340C",
      "340C",
      "340C",
      "339C",
      "339C",
      "339C",
      "340C",
      "340C",
      "340C",
      "340C",
      "340C",
      "340C",
      "340C",
      "354",
      "360C",
      "360C",
      "360C",
      "360C",
      "360C",
      "359C",
      "360C",
      "360C",
      "360C",
      "360C",
      "360C",
      "360C",
      "360C",
      "360C",
      "360C",
      "360C",
      "360C",
      "360C",
      "360C",
      "360C",
      "360C",
      "359C",
      "360C",
      "360C",
      "360C",
      "360C",
      "360C",
      "360C",
      "360C",
      "360C",
      "360C",
      "360C",
      "360C",
      "360C",
      "360C",
      "359C",
      "360C",
      "360C",
      "360C",
      "360C",
      "360C",
      "360C",
      "360C",
      "360C",
      "360C",
      "360C",
      "360C",
      "360C",
      "360C",
      "360C",
      "360C",
      "360C",
      "360C",
      "360C",
      "360C",
      "360C",
      "360C",
      "360C",
      "360C",
      "360C",
      "360C",
      "359C",
      "360C",
      "359C",
      "360C",
      "360C",
      "360C",
      "360C",
      "359C",
      "360C",
      "360C",
      "360C",
      "360C",
      "360",
      "322",
      "240",
      "131",
      "117",
      "080",
      "058"
    ],
    "swim:geom": "path",
    "swim:speeds": [
      210,
      210,
      224,
      280,
      280,
      346,
      358,
      361,
      378,
      397,
      398,
      411,
      436,
      436,
      441,
      452,
      469,
      471,
      467,
      457,
      456,
      450,
      450,
      448,
      447,
      447,
      447,
      446,
      447,
      448,
      450,
      450,
      450,
      450,
      450,
      453,
      453,
      454,
      452,
      451,
      449,
      449,
      441,
      441,
      451,
      451,
      455,
      455,
      457,
      457,
      457,
      456,
      457,
      457,
      456,
      454,
      454,
      456,
      434,
      434,
      434,
      439,
      439,
      443,
      445,
      445,
      446,
      448,
      430,
      429,
      425,
      422,
      422,
      422,
      415,
      416,
      421,
      421,
      415,
      415,
      412,
      411,
      410,
      410,
      416,
      416,
      414,
      414,
      413,
      409,
      409,
      409,
      409,
      407,
      408,
      408,
      408,
      408,
      412,
      412,
      412,
      408,
      407,
      409,
      409,
      414,
      414,
      415,
      422,
      417,
      405,
      406,
      408,
      412,
      412,
      411,
      411,
      414,
      414,
      406,
      404,
      402,
      403,
      412,
      412,
      410,
      410,
      416,
      417,
      417,
      415,
      420,
      418,
      410,
      410,
      407,
      406,
      404,
      406,
      410,
      409,
      409,
      407,
      409,
      380,
      336,
      300,
      279,
      253
    ],
    "swim:timestamps": [
      1781055113,
      1781055113,
      1781055130,
      1781055250,
      1781055250,
      1781055483,
      1781055543,
      1781055551,
      1781055671,
      1781055784,
      1781055844,
      1781055911,
      1781056084,
      1781056084,
      1781056144,
      1781056272,
      1781056444,
      1781056505,
      1781056632,
      1781056685,
      1781056692,
      1781056873,
      1781056873,
      1781057053,
      1781057173,
      1781057173,
      1781057324,
      1781057346,
      1781057413,
      1781057466,
      1781057593,
      1781057646,
      1781057653,
      1781057653,
      1781057685,
      1781057826,
      1781057834,
      1781057946,
      1781058067,
      1781058105,
      1781058127,
      1781058134,
      1781058367,
      1781058367,
      1781058586,
      1781058586,
      1781058788,
      1781058826,
      1781058947,
      1781059127,
      1781059187,
      1781059268,
      1781059388,
      1781059607,
      1781059968,
      1781060208,
      1781060208,
      1781060328,
      1781060629,
      1781060749,
      1781060749,
      1781060929,
      1781060929,
      1781061049,
      1781061170,
      1781061170,
      1781061230,
      1781061410,
      1781061831,
      1781061954,
      1781062074,
      1781062191,
      1781062254,
      1781062314,
      1781062675,
      1781062792,
      1781062969,
      1781062975,
      1781063270,
      1781063270,
      1781063451,
      1781063511,
      1781063636,
      1781063696,
      1781064237,
      1781064237,
      1781064357,
      1781064357,
      1781064477,
      1781064777,
      1781065207,
      1781065258,
      1781065438,
      1781065447,
      1781065507,
      1781065567,
      1781065679,
      1781065739,
      1781066039,
      1781066099,
      1781066108,
      1781066406,
      1781066579,
      1781066646,
      1781066766,
      1781067007,
      1781067007,
      1781067127,
      1781067490,
      1781067668,
      1781067967,
      1781068027,
      1781068071,
      1781068268,
      1781068311,
      1781068448,
      1781068448,
      1781068630,
      1781068690,
      1781069048,
      1781069108,
      1781069230,
      1781069332,
      1781069531,
      1781069531,
      1781069812,
      1781069872,
      1781070298,
      1781070418,
      1781070418,
      1781070658,
      1781071018,
      1781071199,
      1781071799,
      1781071799,
      1781072400,
      1781072460,
      1781072847,
      1781072967,
      1781073147,
      1781073207,
      1781073207,
      1781073448,
      1781073748,
      1781073988,
      1781074348,
      1781074408,
      1781074588,
      1781074708
    ],
    "wof:geomhash": "6a0cd7a9e9c4f4e1b092b12af0b90c43",
    "wof:id": 2031491555,
    "wof:repo": "sfomuseum-data-flights-2026-06"
  },
  "bbox": [
    -121.97444444444444,
    26.09472222222222,
    -80.06,
    37.66972222222222
  ],
  "geometry": {"coordinates":[[-80.0675,26.09472222222222],[-80.0675,26.09472222222222],[-80.06,26.109444444444446],[-80.10305555555556,26.236666666666668],[-80.10305555555556,26.236666666666668],[-80.46583333333334,26.299722222222226],[-80.57777777777777,26.31388888888889],[-80.6,26.316944444444445],[-80.83111111111111,26.348888888888887],[-81.00861111111111,26.441388888888888],[-81.09333333333333,26.523333333333333],[-81.2,26.622222222222224],[-81.45833333333334,26.86527777777778],[-81.45833333333334,26.86527777777778],[-81.56194444444444,26.945555555555554],[-81.85083333333333,27.049444444444447],[-82.23,27.184444444444445],[-82.36972222222222,27.233611111111113],[-82.67944444444444,27.308333333333334],[-82.78833333333333,27.333888888888886],[-82.81583333333333,27.340277777777775],[-83.22361111111111,27.434444444444445],[-83.22361111111111,27.434444444444445],[-83.63277777777778,27.5275],[-83.90222222222222,27.588055555555556],[-83.90222222222222,27.588055555555556],[-84.22972222222222,27.66111111111111],[-84.28361111111111,27.673055555555557],[-84.44666666666667,27.70888888888889],[-84.55416666666666,27.73222222222222],[-84.85805555555555,27.798055555555557],[-84.96166666666667,27.820555555555554],[-84.995,27.82777777777778],[-84.995,27.82777777777778],[-85.04694444444445,27.83888888888889],[-85.37444444444444,27.919444444444444],[-85.39722222222223,27.92638888888889],[-85.64555555555556,28.00111111111111],[-85.91444444444446,28.081666666666667],[-85.9925,28.105],[-86.04722222222222,28.12138888888889],[-86.06916666666666,28.12777777777778],[-86.57444444444444,28.27638888888889],[-86.57444444444444,28.27638888888889],[-87.06472222222222,28.419444444444444],[-87.06472222222222,28.419444444444444],[-87.5275,28.553055555555556],[-87.61166666666666,28.577222222222222],[-87.88694444444445,28.655277777777776],[-88.31888888888888,28.776666666666667],[-88.45444444444445,28.814444444444444],[-88.64361111111111,28.86722222222222],[-88.92361111111111,28.93027777777778],[-89.40972222222223,29.03222222222222],[-90.25472222222223,29.22611111111111],[-90.79416666666667,29.405277777777776],[-90.79416666666667,29.405277777777776],[-91.06777777777778,29.494722222222222],[-91.72305555555556,29.706944444444442],[-91.98444444444445,29.790555555555557],[-91.98444444444445,29.790555555555557],[-92.37916666666666,29.915555555555553],[-92.37916666666666,29.915555555555553],[-92.64750000000001,29.999722222222225],[-92.91694444444445,30.083333333333332],[-92.91694444444445,30.083333333333332],[-93.05138888888888,30.12472222222222],[-93.46444444444445,30.233888888888888],[-94.43027777777779,30.476666666666667],[-94.69444444444444,30.56361111111111],[-94.94666666666667,30.655277777777776],[-95.19500000000001,30.745],[-95.32444444444444,30.79138888888889],[-95.45166666666667,30.836944444444445],[-96.20472222222223,31.102777777777778],[-96.44416666666667,31.2],[-96.78805555555556,31.394166666666667],[-96.78416666666666,31.391944444444444],[-97.37972222222221,31.671666666666667],[-97.37972222222221,31.671666666666667],[-97.73944444444444,31.824444444444445],[-97.85666666666665,31.878611111111113],[-98.09305555555555,31.986944444444447],[-98.21027777777778,32.04055555555556],[-99.2961111111111,32.528888888888886],[-99.2961111111111,32.528888888888886],[-99.53805555555556,32.635555555555555],[-99.53805555555556,32.635555555555555],[-99.78,32.74166666666667],[-100.39583333333334,33.00861111111111],[-101.25027777777778,33.370555555555555],[-101.34777777777778,33.41166666666666],[-101.71138888888889,33.562777777777775],[-101.73416666666667,33.573055555555555],[-101.8611111111111,33.624722222222225],[-101.9825,33.67472222222222],[-102.19944444444445,33.76305555555555],[-102.32194444444444,33.81305555555555],[-102.95694444444445,34.06861111111112],[-103.06,34.10944444444445],[-103.08277777777778,34.118611111111115],[-103.70583333333333,34.358333333333334],[-104.09638888888888,34.45444444444445],[-104.2325,34.487500000000004],[-104.49666666666667,34.55138888888889],[-105.03555555555555,34.67972222222222],[-105.03555555555555,34.67972222222222],[-105.30638888888889,34.74305555555556],[-106.13666666666667,34.93333333333333],[-106.5425,35.02388888888889],[-107.19972222222222,35.16722222222222],[-107.33361111111111,35.19583333333333],[-107.43972222222223,35.218333333333334],[-107.8736111111111,35.30972222222222],[-107.98111111111112,35.331944444444446],[-108.28194444444445,35.39416666666666],[-108.28194444444445,35.39416666666666],[-108.69333333333334,35.4775],[-108.83027777777778,35.505],[-109.64361111111111,35.66444444444444],[-109.77805555555555,35.69027777777777],[-110.04666666666667,35.74],[-110.26833333333333,35.75555555555555],[-110.74277777777777,35.78861111111111],[-110.74277777777777,35.78861111111111],[-111.39055555555557,35.830555555555556],[-111.53083333333333,35.83916666666667],[-112.53138888888888,35.895833333333336],[-112.8125,35.910555555555554],[-112.8125,35.910555555555554],[-113.37694444444443,35.9375],[-114.2425,35.97361111111111],[-114.67166666666667,35.98916666666667],[-115.93972222222223,36.461111111111116],[-115.93972222222223,36.461111111111116],[-117.08416666666666,37.10527777777778],[-117.17888888888889,37.19027777777777],[-118.00305555555556,37.41611111111111],[-118.28388888888888,37.45194444444445],[-118.71194444444444,37.505],[-118.86861111111111,37.52388888888889],[-118.86861111111111,37.52388888888889],[-119.43,37.59055555555556],[-120.13388888888889,37.66972222222222],[-120.67750000000001,37.66694444444444],[-121.39194444444445,37.577222222222225],[-121.49916666666667,37.565],[-121.79527777777777,37.50944444444445],[-121.97444444444444,37.49611111111111]],"type":"LineString"}
}
