{
  "id": 2031677911,
  "type": "Feature",
  "properties": {
    "geom:area": 0,
    "geom:bbox": "-122.633260,36.723580,-122.282120,37.667780",
    "geom:latitude": 37.247094043550554,
    "geom:longitude": -122.52763912874515,
    "src:alt_label": "swim-takeoff",
    "src:geom": "swim",
    "swim:elevations": [
      152,
      639,
      768,
      1223,
      1612,
      2197,
      2875,
      3206,
      3778,
      4407,
      4731,
      5457,
      5741,
      6174,
      6614,
      7162,
      7638,
      7913,
      8230,
      8520,
      8757,
      9148,
      9329,
      9632
    ],
    "swim:geom": "takeoff",
    "swim:timestamps": [
      1782766839,
      1782766885,
      1782766894,
      1782766929,
      1782766965,
      1782766994,
      1782767023,
      1782767041,
      1782767089,
      1782767122,
      1782767143,
      1782767185,
      1782767202,
      1782767233,
      1782767265,
      1782767301,
      1782767337,
      1782767359,
      1782767385,
      1782767413,
      1782767434,
      1782767472,
      1782767492,
      1782767526
    ],
    "wof:geomhash": "aa5d10b0452e9236a8a25c186136fe5c",
    "wof:id": 2031677911,
    "wof:repo": "sfomuseum-data-flights-2026-06"
  },
  "bbox": [
    -122.63326,
    36.72358,
    -122.28212,
    37.66778
  ],
  "geometry": {"coordinates":[[-122.37989,37.62317],[-122.41866,37.63924],[-122.42851,37.64333],[-122.46699,37.65883],[-122.51682,37.66778],[-122.56122,37.65728],[-122.60846,37.64594],[-122.6318,37.6301],[-122.63326,37.55509],[-122.62572,37.49736],[-122.62142,37.45995],[-122.61223,37.38267],[-122.60799,37.34901],[-122.60012,37.28745],[-122.59168,37.22246],[-122.5822,37.1478],[-122.57246,37.07106],[-122.56355,37.02433],[-122.53421,36.97184],[-122.48626,36.92323],[-122.44907,36.88681],[-122.38166,36.82104],[-122.34497,36.78523],[-122.28212,36.72358]],"type":"LineString"}
}
