{
  "id": 2031452121,
  "type": "Feature",
  "properties": {
    "geom:area": 0,
    "geom:bbox": "-122.397250,37.628000,-121.247570,37.991350",
    "geom:latitude": 37.937467749979234,
    "geom:longitude": -121.9393043004226,
    "src:alt_label": "swim-takeoff",
    "src:geom": "swim",
    "swim:elevations": [
      244,
      1048,
      1140,
      1390,
      1883,
      2214,
      2484,
      2905,
      3248,
      3329,
      3576,
      3708,
      3916,
      4202,
      4513,
      4586,
      5014,
      5221,
      5367,
      5958,
      6074,
      6496,
      6627,
      7030,
      7060,
      7152,
      7300
    ],
    "swim:geom": "takeoff",
    "swim:timestamps": [
      1780619235,
      1780619307,
      1780619319,
      1780619359,
      1780619397,
      1780619417,
      1780619438,
      1780619477,
      1780619510,
      1780619525,
      1780619573,
      1780619584,
      1780619606,
      1780619637,
      1780619667,
      1780619673,
      1780619724,
      1780619742,
      1780619761,
      1780619836,
      1780619851,
      1780619899,
      1780619917,
      1780619968,
      1780619971,
      1780619983,
      1780620004
    ],
    "wof:geomhash": "92372a2210909439291bf0ca50281997",
    "wof:id": 2031452121,
    "wof:repo": "sfomuseum-data-flights-2026-06"
  },
  "bbox": [
    -122.39725,
    37.628,
    -121.24757,
    37.99135
  ],
  "geometry": {"coordinates":[[-122.39725,37.628],[-122.37544,37.67983],[-122.36637,37.68956],[-122.33821,37.72689],[-122.3515,37.77406],[-122.36336,37.7975],[-122.37581,37.82247],[-122.38621,37.87143],[-122.3813,37.91655],[-122.36747,37.93495],[-122.27937,37.96247],[-122.25585,37.96696],[-122.21119,37.97558],[-122.14473,37.98718],[-122.07792,37.98842],[-122.06454,37.98844],[-121.94726,37.98913],[-121.90543,37.98935],[-121.86083,37.98996],[-121.68152,37.99081],[-121.64386,37.99092],[-121.52254,37.99097],[-121.47625,37.99106],[-121.34269,37.99126],[-121.3348,37.99129],[-121.30319,37.99129],[-121.24757,37.99135]],"type":"LineString"}
}
