{
  "id": 2031471061,
  "type": "Feature",
  "properties": {
    "geom:area": 0,
    "geom:bbox": "-122.345500,37.484990,-121.243560,37.608620",
    "geom:latitude": 37.5412443183067,
    "geom:longitude": -121.80212760386569,
    "src:alt_label": "swim-approach",
    "src:geom": "swim",
    "swim:elevations": [
      4774,
      4698,
      4402,
      4298,
      4074,
      3872,
      3757,
      3421,
      3210,
      3066,
      2895,
      2683,
      2569,
      2439,
      2243,
      2134,
      2032,
      1885,
      1756,
      1494,
      1251,
      1110,
      1074,
      918,
      668,
      547,
      365,
      283,
      125,
      86
    ],
    "swim:geom": "approach",
    "swim:timestamps": [
      1780827956,
      1780827964,
      1780827999,
      1780828014,
      1780828045,
      1780828070,
      1780828085,
      1780828134,
      1780828168,
      1780828188,
      1780828214,
      1780828254,
      1780828274,
      1780828314,
      1780828361,
      1780828401,
      1780828422,
      1780828449,
      1780828472,
      1780828522,
      1780828551,
      1780828584,
      1780828593,
      1780828626,
      1780828672,
      1780828699,
      1780828736,
      1780828757,
      1780828792,
      1780828805
    ],
    "wof:geomhash": "edbb5a0b9b7a7cdb63548bf93de1f3dc",
    "wof:id": 2031471061,
    "wof:repo": "sfomuseum-data-flights-2026-06"
  },
  "bbox": [
    -122.3455,
    37.48499,
    -121.24356,
    37.60862
  ],
  "geometry": {"coordinates":[[-121.24356,37.59547],[-121.25906,37.59342],[-121.3273,37.58513],[-121.35601,37.58221],[-121.41315,37.5756],[-121.45907,37.57014],[-121.48594,37.567],[-121.57068,37.55706],[-121.62628,37.5503],[-121.65748,37.54296],[-121.69529,37.53395],[-121.75066,37.52068],[-121.77637,37.5147],[-121.82823,37.5021],[-121.88966,37.49152],[-121.94314,37.49429],[-121.96982,37.49174],[-122.00586,37.48804],[-122.03597,37.48499],[-122.09331,37.50241],[-122.12242,37.5147],[-122.15379,37.52794],[-122.16156,37.53123],[-122.19176,37.54392],[-122.2357,37.56251],[-122.26045,37.573],[-122.2919,37.58622],[-122.30803,37.59293],[-122.33587,37.60456],[-122.3455,37.60862]],"type":"LineString"}
}
