{
  "id": 2031452123,
  "type": "Feature",
  "properties": {
    "geom:area": 0,
    "geom:bbox": "-158.166667,21.200000,-122.541944,37.651944",
    "geom:latitude": 30.079400086907178,
    "geom:longitude": -140.84076752339485,
    "src:alt_label": "swim-path",
    "src:geom": "swim",
    "swim:altitudes": [
      "052",
      "052",
      "052",
      "052",
      "052",
      "085",
      "085",
      "118",
      "118",
      "118",
      "118",
      "118",
      "150C",
      "150C",
      "150C",
      "150C",
      "152",
      "240C",
      "240C",
      "240C",
      "240C",
      "240C",
      "240C",
      "277",
      "277",
      "277",
      "293",
      "293",
      "318C",
      "318C",
      "320",
      "320",
      "320",
      "320",
      "320",
      "337",
      "337",
      "337",
      "350",
      "350",
      "350",
      "350",
      "350C",
      "350C",
      "350C",
      "350C",
      "350C",
      "350C",
      "350C",
      "350C",
      "350C",
      "350C",
      "350C",
      "350C",
      "350C",
      "350C",
      "350C",
      "350C",
      "350C",
      "350C",
      "350C",
      "350C",
      "350C",
      "350C",
      "350C",
      "350C",
      "350C",
      "350C",
      "350C",
      "350C",
      "350C",
      "350C",
      "350C",
      "350C",
      "370T",
      "370T",
      "370T",
      "370T",
      "370T",
      "370T",
      "370T",
      "370T",
      "370T",
      "370T",
      "370T",
      "370T",
      "370T",
      "370T",
      "370T",
      "370T",
      "370T",
      "370T",
      "370T",
      "370T",
      "370T",
      "370T",
      "370T",
      "370T",
      "370T",
      "370T",
      "370T",
      "370T",
      "341T",
      "341T",
      "341T",
      "341T",
      "331T",
      "331T",
      "331T",
      "296T",
      "296T",
      "296T",
      "296T",
      "296T",
      "296T",
      "239T",
      "239T",
      "239T",
      "239T",
      "221T",
      "221T",
      "221T",
      "221T",
      "221T",
      "182T",
      "182T",
      "182T",
      "182T",
      "182T",
      "165T",
      "165T",
      "131T",
      "131T",
      "131T",
      "131T",
      "131T",
      "116T",
      "116T",
      "116T",
      "116T",
      "100T",
      "100T",
      "100T",
      "100T",
      "100T",
      "100T",
      "100T",
      "100T",
      "100T",
      "077T",
      "077T",
      "077T",
      "077T",
      "077T",
      "047T",
      "047T",
      "031T",
      "031T",
      "031T",
      "031T",
      "031T",
      "031T",
      "030T",
      "030T",
      "030T",
      "030T",
      "030T",
      "030T",
      "030T",
      "019T",
      "019T",
      "019T",
      "011T",
      "011T",
      "011T",
      "011T",
      "011T"
    ],
    "swim:geom": "path",
    "swim:speeds": [
      273,
      273,
      273,
      273,
      273,
      276,
      276,
      374,
      374,
      374,
      374,
      374,
      380,
      380,
      380,
      380,
      379,
      420,
      420,
      420,
      420,
      420,
      420,
      449,
      449,
      449,
      462,
      462,
      470,
      470,
      459,
      459,
      459,
      459,
      459,
      454,
      454,
      454,
      450,
      450,
      450,
      450,
      449,
      449,
      449,
      449,
      450,
      450,
      450,
      450,
      449,
      449,
      449,
      449,
      449,
      449,
      448,
      448,
      448,
      448,
      448,
      448,
      448,
      448,
      448,
      448,
      451,
      451,
      451,
      451,
      451,
      451,
      451,
      451,
      500,
      500,
      500,
      500,
      500,
      500,
      500,
      500,
      500,
      500,
      500,
      500,
      500,
      500,
      500,
      500,
      500,
      500,
      490,
      490,
      490,
      490,
      490,
      490,
      490,
      490,
      490,
      490,
      490,
      490,
      490,
      490,
      490,
      490,
      490,
      460,
      460,
      460,
      460,
      460,
      460,
      430,
      430,
      430,
      430,
      420,
      420,
      420,
      420,
      420,
      410,
      410,
      410,
      410,
      410,
      400,
      400,
      380,
      380,
      380,
      380,
      380,
      370,
      370,
      370,
      370,
      320,
      320,
      320,
      320,
      310,
      310,
      320,
      320,
      320,
      300,
      300,
      300,
      300,
      300,
      250,
      250,
      220,
      220,
      220,
      220,
      220,
      220,
      200,
      200,
      180,
      180,
      180,
      180,
      180,
      170,
      170,
      170,
      150,
      150,
      150,
      150,
      150
    ],
    "swim:timestamps": [
      1780591747,
      1780591747,
      1780591747,
      1780591747,
      1780591747,
      1780591807,
      1780591807,
      1780591927,
      1780591927,
      1780591927,
      1780591927,
      1780591927,
      1780591981,
      1780591981,
      1780591981,
      1780591981,
      1780591987,
      1780592222,
      1780592222,
      1780592222,
      1780592222,
      1780592222,
      1780592222,
      1780592348,
      1780592348,
      1780592348,
      1780592408,
      1780592408,
      1780592462,
      1780592462,
      1780592468,
      1780592468,
      1780592468,
      1780592468,
      1780592468,
      1780592528,
      1780592528,
      1780592528,
      1780592642,
      1780592642,
      1780592642,
      1780592642,
      1780592768,
      1780592768,
      1780592768,
      1780592768,
      1780592828,
      1780592828,
      1780592828,
      1780592828,
      1780592949,
      1780592949,
      1780592949,
      1780592949,
      1780592949,
      1780592949,
      1780593129,
      1780593129,
      1780593129,
      1780593129,
      1780593129,
      1780593249,
      1780593249,
      1780593249,
      1780593249,
      1780593249,
      1780593489,
      1780593489,
      1780593489,
      1780593549,
      1780593549,
      1780593549,
      1780593549,
      1780593549,
      1780605712,
      1780605712,
      1780605712,
      1780605712,
      1780605712,
      1780605712,
      1780605832,
      1780605832,
      1780605892,
      1780605892,
      1780605892,
      1780605952,
      1780605952,
      1780605952,
      1780605952,
      1780606193,
      1780606193,
      1780606193,
      1780606253,
      1780606253,
      1780606313,
      1780606313,
      1780606313,
      1780606433,
      1780606433,
      1780606433,
      1780606433,
      1780606433,
      1780606673,
      1780606673,
      1780606673,
      1780606673,
      1780606733,
      1780606733,
      1780606733,
      1780606853,
      1780606853,
      1780606853,
      1780606853,
      1780606853,
      1780606853,
      1780607033,
      1780607033,
      1780607033,
      1780607033,
      1780607093,
      1780607093,
      1780607093,
      1780607093,
      1780607093,
      1780607213,
      1780607213,
      1780607213,
      1780607213,
      1780607213,
      1780607273,
      1780607273,
      1780607393,
      1780607393,
      1780607393,
      1780607393,
      1780607393,
      1780607453,
      1780607453,
      1780607453,
      1780607453,
      1780607573,
      1780607573,
      1780607573,
      1780607573,
      1780607633,
      1780607633,
      1780607693,
      1780607693,
      1780607693,
      1780607813,
      1780607813,
      1780607813,
      1780607813,
      1780607813,
      1780607934,
      1780607934,
      1780608054,
      1780608054,
      1780608054,
      1780608054,
      1780608054,
      1780608054,
      1780608114,
      1780608114,
      1780608174,
      1780608174,
      1780608174,
      1780608174,
      1780608174,
      1780608294,
      1780608294,
      1780608294,
      1780608354,
      1780608354,
      1780608354,
      1780608354,
      1780608354
    ],
    "wof:geomhash": "d5d6756e4ac23374e165bd35228ae07b",
    "wof:id": 2031452123,
    "wof:repo": "sfomuseum-data-flights-2026-06"
  },
  "bbox": [
    -158.16666666666666,
    21.2,
    -122.54194444444444,
    37.651944444444446
  ],
  "geometry": {"coordinates":[[-122.54194444444444,37.651944444444446],[-122.54194444444444,37.651944444444446],[-122.54194444444444,37.651944444444446],[-122.54194444444444,37.651944444444446],[-122.54194444444444,37.651944444444446],[-122.63527777777779,37.628055555555555],[-122.63527777777779,37.628055555555555],[-122.85222222222221,37.572500000000005],[-122.85222222222221,37.572500000000005],[-122.85222222222221,37.572500000000005],[-122.85222222222221,37.572500000000005],[-122.85222222222221,37.572500000000005],[-122.96666666666667,37.53333333333333],[-122.96666666666667,37.53333333333333],[-122.96666666666667,37.53333333333333],[-122.96666666666667,37.53333333333333],[-122.97972222222222,37.53916666666667],[-123.51666666666667,37.4],[-123.51666666666667,37.4],[-123.51666666666667,37.4],[-123.51666666666667,37.4],[-123.51666666666667,37.4],[-123.51666666666667,37.4],[-123.82222222222222,37.324444444444445],[-123.82222222222222,37.324444444444445],[-123.82222222222222,37.324444444444445],[-123.97527777777778,37.28388888888889],[-123.97527777777778,37.28388888888889],[-124.11666666666666,37.233333333333334],[-124.11666666666666,37.233333333333334],[-124.12972222222221,37.24305555555556],[-124.12972222222221,37.24305555555556],[-124.12972222222221,37.24305555555556],[-124.12972222222221,37.24305555555556],[-124.12972222222221,37.24305555555556],[-124.27666666666667,37.20444444444445],[-124.27666666666667,37.20444444444445],[-124.27666666666667,37.20444444444445],[-124.56666666666666,37.11666666666667],[-124.56666666666666,37.11666666666667],[-124.56666666666666,37.11666666666667],[-124.56666666666666,37.11666666666667],[-124.86749999999999,37.04555555555555],[-124.86749999999999,37.04555555555555],[-124.86749999999999,37.04555555555555],[-124.86749999999999,37.04555555555555],[-125.01555555555555,37.00527777777778],[-125.01555555555555,37.00527777777778],[-125.01555555555555,37.00527777777778],[-125.01555555555555,37.00527777777778],[-125.31,36.92444444444444],[-125.31,36.92444444444444],[-125.31,36.92444444444444],[-125.31,36.92444444444444],[-125.31,36.92444444444444],[-125.31,36.92444444444444],[-125.75166666666667,36.80138888888889],[-125.75166666666667,36.80138888888889],[-125.75166666666667,36.80138888888889],[-125.75166666666667,36.80138888888889],[-125.75166666666667,36.80138888888889],[-126.04222222222222,36.719166666666666],[-126.04222222222222,36.719166666666666],[-126.04222222222222,36.719166666666666],[-126.04222222222222,36.719166666666666],[-126.04222222222222,36.719166666666666],[-126.63083333333333,36.55027777777777],[-126.63083333333333,36.55027777777777],[-126.63083333333333,36.55027777777777],[-126.77444444444444,36.50833333333333],[-126.77444444444444,36.50833333333333],[-126.77444444444444,36.50833333333333],[-126.77444444444444,36.50833333333333],[-126.77444444444444,36.50833333333333],[-154.45,24.133333333333333],[-154.45,24.133333333333333],[-154.45,24.133333333333333],[-154.45,24.133333333333333],[-154.45,24.133333333333333],[-154.45,24.133333333333333],[-154.66666666666666,23.933333333333334],[-154.66666666666666,23.933333333333334],[-154.78333333333333,23.85],[-154.78333333333333,23.85],[-154.78333333333333,23.85],[-154.88333333333333,23.75],[-154.88333333333333,23.75],[-154.88333333333333,23.75],[-154.88333333333333,23.75],[-155.31666666666666,23.366666666666667],[-155.31666666666666,23.366666666666667],[-155.31666666666666,23.366666666666667],[-155.43333333333334,23.266666666666666],[-155.43333333333334,23.266666666666666],[-155.53333333333333,23.183333333333334],[-155.53333333333333,23.183333333333334],[-155.53333333333333,23.183333333333334],[-155.75,22.983333333333334],[-155.75,22.983333333333334],[-155.75,22.983333333333334],[-155.75,22.983333333333334],[-155.75,22.983333333333334],[-156.18333333333334,22.6],[-156.18333333333334,22.6],[-156.18333333333334,22.6],[-156.18333333333334,22.6],[-156.28333333333333,22.516666666666666],[-156.28333333333333,22.516666666666666],[-156.28333333333333,22.516666666666666],[-156.5,22.333333333333332],[-156.5,22.333333333333332],[-156.5,22.333333333333332],[-156.5,22.333333333333332],[-156.5,22.333333333333332],[-156.5,22.333333333333332],[-156.78333333333333,22.066666666666666],[-156.78333333333333,22.066666666666666],[-156.78333333333333,22.066666666666666],[-156.78333333333333,22.066666666666666],[-156.86666666666667,21.983333333333334],[-156.86666666666667,21.983333333333334],[-156.86666666666667,21.983333333333334],[-156.86666666666667,21.983333333333334],[-156.86666666666667,21.983333333333334],[-157.05,21.816666666666666],[-157.05,21.816666666666666],[-157.05,21.816666666666666],[-157.05,21.816666666666666],[-157.05,21.816666666666666],[-157.13333333333333,21.75],[-157.13333333333333,21.75],[-157.3,21.6],[-157.3,21.6],[-157.3,21.6],[-157.3,21.6],[-157.3,21.6],[-157.38333333333333,21.533333333333335],[-157.38333333333333,21.533333333333335],[-157.38333333333333,21.533333333333335],[-157.38333333333333,21.533333333333335],[-157.56666666666666,21.433333333333334],[-157.56666666666666,21.433333333333334],[-157.56666666666666,21.433333333333334],[-157.56666666666666,21.433333333333334],[-157.65,21.4],[-157.65,21.4],[-157.73333333333332,21.366666666666667],[-157.73333333333332,21.366666666666667],[-157.73333333333332,21.366666666666667],[-157.9,21.283333333333335],[-157.9,21.283333333333335],[-157.9,21.283333333333335],[-157.9,21.283333333333335],[-157.9,21.283333333333335],[-158.05,21.2],[-158.05,21.2],[-158.16666666666666,21.216666666666665],[-158.16666666666666,21.216666666666665],[-158.16666666666666,21.216666666666665],[-158.16666666666666,21.216666666666665],[-158.16666666666666,21.216666666666665],[-158.16666666666666,21.216666666666665],[-158.16666666666666,21.266666666666666],[-158.16666666666666,21.266666666666666],[-158.13333333333333,21.3],[-158.13333333333333,21.3],[-158.13333333333333,21.3],[-158.13333333333333,21.3],[-158.13333333333333,21.3],[-158.03333333333333,21.316666666666666],[-158.03333333333333,21.316666666666666],[-158.03333333333333,21.316666666666666],[-157.98333333333332,21.316666666666666],[-157.98333333333332,21.316666666666666],[-157.98333333333332,21.316666666666666],[-157.98333333333332,21.316666666666666],[-157.98333333333332,21.316666666666666]],"type":"LineString"}
}
