{
  "id": 2031460925,
  "type": "Feature",
  "properties": {
    "geom:area": 0,
    "geom:bbox": "-122.559444,32.683333,-116.966667,37.631111",
    "geom:latitude": 34.96820630239386,
    "geom:longitude": -120.00251941565811,
    "src:alt_label": "swim-path",
    "src:geom": "swim",
    "swim:altitudes": [
      "010",
      "058",
      "135",
      "155",
      "192",
      "242",
      "288",
      "326",
      "370C",
      "370C",
      "370C",
      "370C",
      "370C",
      "370C",
      "370",
      "364",
      "315",
      "233",
      "173",
      "134",
      "105",
      "044",
      "040",
      "018",
      "008"
    ],
    "swim:geom": "path",
    "swim:speeds": [
      166,
      276,
      352,
      358,
      391,
      424,
      446,
      497,
      508,
      508,
      507,
      504,
      504,
      506,
      509,
      509,
      480,
      449,
      405,
      374,
      306,
      192,
      197,
      170,
      147
    ],
    "swim:timestamps": [
      1780676072,
      1780676252,
      1780676483,
      1780676543,
      1780676663,
      1780676853,
      1780677033,
      1780677264,
      1780677634,
      1780677685,
      1780677875,
      1780678045,
      1780678165,
      1780678225,
      1780678466,
      1780678526,
      1780678706,
      1780678946,
      1780679127,
      1780679247,
      1780679377,
      1780679737,
      1780679917,
      1780680037,
      1780680097
    ],
    "wof:geomhash": "80a831d7b6bef906f23085307d2857b0",
    "wof:id": 2031460925,
    "wof:repo": "sfomuseum-data-flights-2026-06"
  },
  "bbox": [
    -122.55944444444444,
    32.68333333333333,
    -116.96666666666667,
    37.63111111111111
  ],
  "geometry": {"coordinates":[[-122.39916666666667,37.63111111111111],[-122.54388888888889,37.581944444444446],[-122.55583333333333,37.24166666666667],[-122.55944444444444,37.14194444444444],[-122.51555555555555,36.94],[-122.28694444444444,36.628055555555555],[-122.05722222222222,36.311388888888885],[-121.69027777777778,35.91],[-120.83638888888889,35.38138888888889],[-120.72277777777778,35.31472222222222],[-120.28583333333333,35.05833333333333],[-119.87694444444443,34.81527777777777],[-119.6036111111111,34.651111111111106],[-119.47638888888889,34.57416666666667],[-118.9238888888889,34.237500000000004],[-118.78583333333333,34.152499999999996],[-118.39027777777778,33.90083333333333],[-117.92444444444445,33.54333333333333],[-117.64,33.285555555555554],[-117.47222222222223,33.123333333333335],[-117.31666666666666,32.95],[-116.96666666666667,32.766666666666666],[-116.98333333333333,32.68333333333333],[-117.1,32.71666666666667],[-117.13333333333334,32.71666666666667]],"type":"LineString"}
}
