{
  "id": 2031496737,
  "type": "Feature",
  "properties": {
    "geom:area": 0,
    "geom:bbox": "-122.402760,37.623560,-121.259360,37.991350",
    "geom:latitude": 37.93359907462339,
    "geom:longitude": -121.94936329478244,
    "src:alt_label": "swim-takeoff",
    "src:geom": "swim",
    "swim:elevations": [
      122,
      374,
      509,
      586,
      782,
      1119,
      1315,
      1482,
      1764,
      2094,
      2318,
      2791,
      3108,
      3177,
      3424,
      3659,
      3690,
      3835,
      3977,
      4165,
      4282,
      4394,
      4578,
      4680,
      4736,
      4896,
      4914,
      5181,
      5323,
      5470,
      5592,
      5759,
      5806,
      5832
    ],
    "swim:geom": "takeoff",
    "swim:timestamps": [
      1781073838,
      1781073854,
      1781073864,
      1781073871,
      1781073886,
      1781073917,
      1781073956,
      1781073983,
      1781074015,
      1781074044,
      1781074062,
      1781074104,
      1781074135,
      1781074142,
      1781074181,
      1781074224,
      1781074231,
      1781074257,
      1781074281,
      1781074311,
      1781074328,
      1781074347,
      1781074371,
      1781074389,
      1781074396,
      1781074417,
      1781074423,
      1781074466,
      1781074492,
      1781074522,
      1781074542,
      1781074582,
      1781074591,
      1781074604
    ],
    "wof:geomhash": "9b65d1d9ec7cc4b0ae507ee4bb391fb8",
    "wof:id": 2031496737,
    "wof:repo": "sfomuseum-data-flights-2026-06"
  },
  "bbox": [
    -122.40276,
    37.62356,
    -121.25936,
    37.99135
  ],
  "geometry": {"coordinates":[[-122.38656,37.62356],[-122.39934,37.63123],[-122.40276,37.63827],[-122.40229,37.64285],[-122.39562,37.65318],[-122.37922,37.67274],[-122.35486,37.70253],[-122.33782,37.72638],[-122.34384,37.76219],[-122.36101,37.79423],[-122.37143,37.81468],[-122.38501,37.86538],[-122.38319,37.90316],[-122.38098,37.91251],[-122.33676,37.95003],[-122.25458,37.96585],[-122.24121,37.96886],[-122.18541,37.98091],[-122.13136,37.98838],[-122.05709,37.98895],[-122.01283,37.98931],[-121.96371,37.9895],[-121.90071,37.98963],[-121.85304,37.98997],[-121.83335,37.9901],[-121.77712,37.99037],[-121.76105,37.99041],[-121.64639,37.99103],[-121.57395,37.9912],[-121.49097,37.99135],[-121.43483,37.99133],[-121.32219,37.99125],[-121.29648,37.99126],[-121.25936,37.99117]],"type":"LineString"}
}
