{
  "id": 2031519401,
  "type": "Feature",
  "properties": {
    "geom:area": 0,
    "geom:bbox": "-122.380000,37.490000,-77.460000,41.230000",
    "geom:latitude": 39.841865279165006,
    "geom:longitude": -99.95279885885493,
    "src:alt_label": "swim-route",
    "src:geom": "swim",
    "swim:geom": "route",
    "wof:geomhash": "eacbcb3738f545054262f8f8fb01d95d",
    "wof:id": 2031519401,
    "wof:repo": "sfomuseum-data-flights-2026-06"
  },
  "bbox": [
    -122.38,
    37.49,
    -77.46,
    41.23
  ],
  "geometry": {"coordinates":[[-77.46,38.95],[-77.55,38.93],[-77.58,38.92],[-77.58,38.92],[-77.61,38.92],[-77.64,38.91],[-77.67,38.9],[-77.67,38.9],[-77.68,38.9],[-77.71,38.9],[-77.71,38.9],[-77.74,38.89],[-77.77,38.89],[-77.79,38.89],[-77.93,38.87],[-77.97,38.89],[-78.1,38.93],[-78.17,38.95],[-78.17,38.95],[-78.21,38.96],[-78.22,38.96],[-78.26,38.96],[-78.3,38.97],[-78.38,38.97],[-78.42,38.97],[-78.62,38.99],[-78.71,38.99],[-78.85,39],[-78.86,39],[-78.88,39],[-79.01,39.01],[-79.08,39.01],[-79.17,39.02],[-79.4,39.03],[-79.47,39.03],[-79.63,39.05],[-79.67,39.05],[-79.72,39.06],[-79.87,39.1],[-79.94,39.11],[-80.2,39.17],[-80.55,39.19],[-80.55,39.19],[-80.86,39.23],[-81.25,39.31],[-83.17,39.68],[-83.6,39.75],[-83.89,39.8],[-83.99,39.82],[-84.73,39.95],[-85.33,40.05],[-85.88,40.13],[-86.49,40.23],[-88.1,40.46],[-89.25,40.61],[-91.14,40.83],[-91.25,40.84],[-93.58,41.07],[-95.72,41.23],[-95.91,41.22],[-97.05,41.17],[-99.04,41.05],[-100.73,40.92],[-101.29,40.87],[-102.37,40.77],[-103.98,40.6],[-104.62,40.52],[-105.09,40.47],[-106.44,40.3],[-107.24,40.18],[-109.72,39.8],[-109.84,39.78],[-111.71,39.45],[-112.51,39.3],[-113.32,39.12],[-117.27,38.12],[-117.27,38.12],[-117.77,38],[-118.76,37.9],[-119.1,37.86],[-119.45,37.82],[-119.81,37.77],[-119.99,37.75],[-120.04,37.74],[-120.26,37.72],[-120.28,37.72],[-120.38,37.7],[-120.4,37.7],[-120.75,37.66],[-120.78,37.66],[-120.83,37.65],[-120.96,37.63],[-121,37.63],[-121.08,37.62],[-121.18,37.6],[-121.26,37.59],[-121.39,37.58],[-121.41,37.58],[-121.6,37.55],[-121.61,37.55],[-121.62,37.55],[-121.7,37.53],[-121.8,37.51],[-121.83,37.5],[-121.88,37.49],[-122.08,37.54],[-122.14,37.56],[-122.18,37.57],[-122.28,37.59],[-122.33,37.61],[-122.36,37.61],[-122.38,37.62]],"type":"LineString"}
}
