{
  "id": 2031510679,
  "type": "Feature",
  "properties": {
    "geom:area": 0,
    "geom:bbox": "-122.348690,37.476970,-121.293480,37.610000",
    "geom:latitude": 37.54398380032455,
    "geom:longitude": -121.82795267959693,
    "src:alt_label": "swim-approach",
    "src:geom": "swim",
    "swim:elevations": [
      4268,
      3779,
      3534,
      3363,
      3322,
      3198,
      3087,
      2912,
      2799,
      2726,
      2563,
      2483,
      2254,
      2152,
      2020,
      1828,
      1829,
      1797,
      1707,
      1486,
      1248,
      1149,
      1079,
      851,
      641,
      529,
      450,
      420,
      273,
      184,
      66
    ],
    "swim:geom": "approach",
    "swim:timestamps": [
      1781181544,
      1781181596,
      1781181621,
      1781181647,
      1781181660,
      1781181715,
      1781181741,
      1781181766,
      1781181782,
      1781181812,
      1781181847,
      1781181860,
      1781181895,
      1781181921,
      1781181943,
      1781181983,
      1781182007,
      1781182018,
      1781182040,
      1781182070,
      1781182104,
      1781182135,
      1781182147,
      1781182183,
      1781182220,
      1781182241,
      1781182258,
      1781182265,
      1781182298,
      1781182327,
      1781182357
    ],
    "wof:geomhash": "b726a3c6131fc22f7a22e622dc326cff",
    "wof:id": 2031510679,
    "wof:repo": "sfomuseum-data-flights-2026-06"
  },
  "bbox": [
    -122.34869,
    37.47697,
    -121.29348,
    37.61
  ],
  "geometry": {"coordinates":[[-121.29348,37.58871],[-121.40424,37.57657],[-121.45716,37.57052],[-121.51099,37.56422],[-121.53503,37.56144],[-121.63096,37.54954],[-121.66823,37.55566],[-121.70309,37.56587],[-121.72503,37.57243],[-121.76488,37.5819],[-121.80653,37.56127],[-121.81256,37.54625],[-121.82748,37.50486],[-121.85694,37.48876],[-121.88889,37.484],[-121.94426,37.47736],[-121.97735,37.47697],[-121.99171,37.47935],[-122.02057,37.48594],[-122.05953,37.49491],[-122.10338,37.50682],[-122.13904,37.52184],[-122.1523,37.52742],[-122.19277,37.54437],[-122.23388,37.56172],[-122.25624,37.57112],[-122.27244,37.57795],[-122.27883,37.58068],[-122.30504,37.59171],[-122.32611,37.60053],[-122.34869,37.61]],"type":"LineString"}
}
