{
  "id": 2031444349,
  "type": "Feature",
  "properties": {
    "geom:area": 0,
    "geom:bbox": "-122.380000,32.690000,-97.040000,37.620000",
    "geom:latitude": 34.68005878724408,
    "geom:longitude": -110.07785266894668,
    "src:alt_label": "swim-route",
    "src:geom": "swim",
    "swim:geom": "route",
    "wof:geomhash": "baeb1608f03abe14d0e6edbbdb547d70",
    "wof:id": 2031444349,
    "wof:repo": "sfomuseum-data-flights-2026-06"
  },
  "bbox": [
    -122.38,
    32.69,
    -97.04,
    37.62
  ],
  "geometry": {"coordinates":[[-97.04,32.9],[-97.05,32.76],[-97.05,32.71],[-97.09,32.7],[-97.14,32.69],[-97.21,32.7],[-97.26,32.7],[-97.29,32.7],[-97.49,32.74],[-97.56,32.75],[-97.59,32.75],[-97.73,32.78],[-97.79,32.79],[-97.87,32.81],[-98.01,32.84],[-98.23,32.89],[-98.27,32.9],[-98.44,32.94],[-98.59,32.98],[-98.98,33.06],[-99.13,33.1],[-99.41,33.16],[-99.6,33.2],[-99.87,33.26],[-100.06,33.31],[-101.04,33.52],[-101.74,33.66],[-103.2,33.94],[-103.61,34.01],[-105.15,34.35],[-105.72,34.47],[-106.63,34.66],[-108.19,34.96],[-109.96,35.27],[-110.58,35.38],[-110.85,35.41],[-111.06,35.37],[-111.12,35.44],[-111.38,35.4],[-112.08,35.26],[-112.14,35.25],[-112.56,35.17],[-112.83,35.11],[-113.5,34.97],[-113.55,34.97],[-113.81,34.93],[-114.94,34.88],[-116.7,34.75],[-117.97,34.64],[-118.06,34.63],[-118.48,34.83],[-119.32,35.22],[-120.34,35.68],[-120.64,35.8],[-120.95,35.91],[-121.12,35.98],[-121.21,36.01],[-121.36,36.07],[-121.43,36.15],[-121.47,36.21],[-121.57,36.33],[-121.68,36.48],[-121.69,36.48],[-121.7,36.5],[-121.8,36.63],[-121.82,36.65],[-121.83,36.67],[-121.89,36.73],[-121.89,36.74],[-121.9,36.75],[-121.94,36.91],[-121.95,36.95],[-121.97,36.99],[-122,37.07],[-122.08,37.27],[-122.08,37.28],[-122.09,37.29],[-122.1,37.33],[-122.12,37.37],[-122.13,37.39],[-122.17,37.43],[-122.24,37.49],[-122.24,37.49],[-122.31,37.56],[-122.36,37.6],[-122.37,37.61],[-122.38,37.62]],"type":"LineString"}
}
