{
  "id": 2031448013,
  "type": "Feature",
  "properties": {
    "geom:area": 0,
    "geom:bbox": "-122.361140,37.492270,-121.301510,37.613500",
    "geom:latitude": 37.5436567003864,
    "geom:longitude": -121.83734072905575,
    "src:alt_label": "swim-approach",
    "src:geom": "swim",
    "swim:elevations": [
      4461,
      4164,
      4024,
      3584,
      3432,
      3353,
      2987,
      2928,
      2895,
      2678,
      2649,
      2585,
      2487,
      2133,
      2043,
      1964,
      1825,
      1830,
      1822,
      1724,
      1465,
      1326,
      1217,
      1008,
      965,
      907,
      733,
      605,
      561,
      358,
      250,
      181,
      104,
      59
    ],
    "swim:geom": "approach",
    "swim:timestamps": [
      1780612586,
      1780612603,
      1780612613,
      1780612640,
      1780612651,
      1780612657,
      1780612689,
      1780612733,
      1780612755,
      1780612798,
      1780612804,
      1780612819,
      1780612832,
      1780612874,
      1780612918,
      1780612942,
      1780612977,
      1780612986,
      1780613003,
      1780613017,
      1780613055,
      1780613092,
      1780613114,
      1780613155,
      1780613161,
      1780613174,
      1780613208,
      1780613245,
      1780613257,
      1780613307,
      1780613336,
      1780613356,
      1780613377,
      1780613403
    ],
    "wof:geomhash": "9fb10bb139c303eb9184fdbd05d2452d",
    "wof:id": 2031448013,
    "wof:repo": "sfomuseum-data-flights-2026-06"
  },
  "bbox": [
    -122.36114,
    37.49227,
    -121.30151,
    37.6135
  ],
  "geometry": {"coordinates":[[-121.30151,37.60309],[-121.34197,37.59658],[-121.36312,37.5932],[-121.42478,37.58338],[-121.45047,37.57922],[-121.46392,37.5771],[-121.53392,37.56565],[-121.61695,37.55207],[-121.65264,37.54413],[-121.7201,37.53164],[-121.72915,37.52978],[-121.75087,37.52397],[-121.769,37.51896],[-121.82941,37.50301],[-121.88996,37.49227],[-121.92022,37.49453],[-121.96274,37.49769],[-121.97238,37.4986],[-121.99333,37.50045],[-122.00963,37.50183],[-122.05358,37.50539],[-122.09523,37.50864],[-122.11956,37.512],[-122.16067,37.52837],[-122.16651,37.53082],[-122.17881,37.53614],[-122.20952,37.54913],[-122.23888,37.56149],[-122.24804,37.56539],[-122.28842,37.58238],[-122.31163,37.59202],[-122.32673,37.59845],[-122.34302,37.60519],[-122.36114,37.6135]],"type":"LineString"}
}
