{
  "id": 2031510813,
  "type": "Feature",
  "properties": {
    "geom:area": 0,
    "geom:bbox": "-122.333333,32.779444,-86.838333,37.700000",
    "geom:latitude": 34.80876056207557,
    "geom:longitude": -104.26397107294092,
    "src:alt_label": "swim-path",
    "src:geom": "swim",
    "swim:altitudes": [
      "050",
      "050",
      "050",
      "050",
      "050",
      "126",
      "126",
      "126",
      "126",
      "140",
      "140",
      "140",
      "140",
      "160",
      "160",
      "176",
      "176",
      "176",
      "176",
      "191",
      "191",
      "191",
      "191",
      "221",
      "221",
      "221",
      "221",
      "235",
      "235",
      "235",
      "248",
      "248",
      "248",
      "248",
      "248",
      "280",
      "280",
      "280",
      "293",
      "293",
      "293",
      "293",
      "293",
      "310",
      "310",
      "310",
      "310",
      "310",
      "310",
      "310",
      "310",
      "310",
      "310",
      "320C",
      "320C",
      "320C",
      "320C",
      "320C",
      "320C",
      "320C",
      "320C",
      "320C",
      "320C",
      "320C",
      "320C",
      "320C",
      "320C",
      "320C",
      "320C",
      "320C",
      "320C",
      "320C",
      "320C",
      "320C",
      "320C",
      "320C",
      "320C",
      "320C",
      "320C",
      "320C",
      "320C",
      "320C",
      "320C",
      "320C",
      "320C",
      "320C",
      "320C",
      "320C",
      "320C",
      "320C",
      "320C",
      "320C",
      "320C",
      "320C",
      "320C",
      "320C",
      "320C",
      "320C",
      "320C",
      "320C",
      "320C",
      "320C",
      "320C",
      "320C",
      "320C",
      "320C",
      "320C",
      "320C",
      "320C",
      "320C",
      "320C",
      "320C",
      "320C",
      "320C",
      "320C",
      "320C",
      "320C",
      "320C",
      "320C",
      "320C",
      "320C",
      "320C",
      "320C",
      "320C",
      "320C",
      "320C",
      "320C",
      "320C",
      "320C",
      "320C",
      "320C",
      "320C",
      "320C",
      "320C",
      "320C",
      "320C",
      "320C",
      "320C",
      "320C",
      "320C",
      "320C",
      "320C",
      "320C",
      "320C",
      "320C",
      "320C",
      "320C",
      "320C",
      "320C",
      "320C",
      "320C",
      "320C",
      "320C",
      "320C",
      "320C",
      "320C",
      "320C",
      "320C",
      "320C",
      "320C",
      "320C",
      "320C",
      "320C",
      "320C",
      "320C",
      "320C",
      "320C",
      "320C",
      "320C",
      "320C",
      "320C",
      "332",
      "332",
      "332",
      "332",
      "339C",
      "339C",
      "339C",
      "339C",
      "339C",
      "340C",
      "340C",
      "340C",
      "340C",
      "340C",
      "340C",
      "340C",
      "340C",
      "340C",
      "340C",
      "340C",
      "340C",
      "340C",
      "340C",
      "340C",
      "340C",
      "340",
      "340",
      "340",
      "340",
      "340",
      "360C",
      "360C",
      "360C",
      "360C",
      "360C",
      "360C",
      "360C",
      "360C",
      "360C",
      "360C",
      "360C",
      "360C",
      "360C",
      "360C",
      "360C",
      "360C",
      "360C",
      "360C",
      "360C",
      "360C",
      "360C",
      "360C",
      "360C",
      "360C",
      "360C",
      "360C",
      "360C",
      "360C",
      "360C",
      "360C",
      "360C",
      "360C",
      "360C",
      "360C",
      "360C",
      "360C",
      "360C",
      "360C",
      "360C",
      "360C",
      "354",
      "354",
      "354",
      "340C",
      "340C",
      "340C",
      "340C",
      "340C",
      "340C",
      "340C",
      "340C",
      "340C",
      "340C",
      "340C",
      "340C",
      "340C",
      "340C",
      "340C",
      "340C",
      "340C",
      "340C",
      "340C",
      "340C",
      "340C",
      "340C",
      "340C",
      "340C",
      "340C",
      "340C",
      "340C",
      "340C",
      "340C",
      "340C",
      "340C",
      "340C",
      "340C",
      "340C",
      "340C",
      "340C",
      "340C",
      "340C",
      "340C",
      "340C",
      "340C",
      "340C",
      "340C",
      "340C",
      "340C",
      "340C",
      "340C",
      "340C",
      "340C",
      "340C",
      "340C",
      "340C",
      "340C",
      "346",
      "346",
      "360C",
      "360C",
      "360C",
      "360C",
      "360C",
      "360C",
      "360C",
      "360C",
      "360C",
      "360C",
      "360C",
      "360C",
      "360C",
      "360C",
      "360C",
      "360C",
      "360C",
      "360C",
      "360C",
      "360C",
      "360C",
      "360C",
      "360C",
      "360C",
      "360C",
      "360C",
      "360C",
      "360C",
      "360C",
      "360C",
      "360C",
      "360C",
      "360C",
      "360C",
      "360C",
      "360C",
      "360C",
      "360C",
      "360C",
      "360C",
      "360C",
      "360C",
      "360C",
      "360C",
      "360C",
      "360C",
      "360C",
      "360C",
      "360C",
      "360C",
      "360C",
      "360C",
      "360C",
      "360C",
      "360C",
      "360C",
      "360C",
      "360C",
      "360C",
      "360C",
      "360C",
      "360C",
      "360C",
      "360C",
      "360C",
      "360C",
      "360C",
      "360C",
      "360C",
      "360C",
      "360C",
      "360C",
      "360C",
      "360C",
      "360C",
      "360C",
      "360C",
      "360C",
      "360C",
      "360C",
      "360C",
      "360C",
      "360C",
      "360C",
      "360C",
      "360C",
      "360C",
      "360C",
      "360C",
      "360C",
      "360C",
      "360C",
      "360C",
      "360C",
      "360C",
      "360C",
      "360C",
      "360C",
      "360C",
      "360C",
      "360C",
      "360C",
      "360C",
      "360C",
      "360C",
      "360C",
      "360C",
      "360C",
      "360C",
      "360C",
      "360C",
      "360C",
      "360C",
      "360C",
      "360C",
      "360C",
      "360C",
      "360C",
      "360C",
      "360C",
      "360C",
      "360C",
      "360C",
      "360C",
      "360C",
      "360C",
      "360C",
      "360C",
      "360C",
      "360C",
      "360C",
      "360C",
      "360C",
      "360C",
      "360C",
      "360C",
      "360C",
      "360C",
      "360C",
      "360C",
      "360C",
      "360C",
      "360C",
      "360C",
      "360C",
      "360C",
      "360C",
      "360C",
      "360C",
      "360C",
      "360C",
      "360C",
      "360C",
      "360C",
      "360C",
      "360C",
      "360C",
      "360C",
      "360C",
      "360C",
      "360C",
      "360C",
      "360C",
      "360C",
      "346",
      "346",
      "346",
      "346",
      "326",
      "326",
      "326",
      "316",
      "316",
      "285",
      "285",
      "285",
      "285",
      "269",
      "269",
      "269",
      "269",
      "257",
      "257",
      "257",
      "236",
      "236",
      "236",
      "213",
      "213",
      "213",
      "213",
      "190",
      "168",
      "167",
      "167",
      "152",
      "152",
      "149",
      "149",
      "149",
      "134",
      "119",
      "119",
      "119",
      "119",
      "091",
      "091",
      "091",
      "085",
      "085",
      "076",
      "076",
      "076",
      "066",
      "066",
      "039",
      "039",
      "039",
      "028",
      "026",
      "026",
      "026",
      "011",
      "011",
      "004",
      "004",
      "004"
    ],
    "swim:geom": "path",
    "swim:speeds": [
      262,
      262,
      262,
      262,
      262,
      360,
      360,
      360,
      360,
      388,
      388,
      388,
      388,
      396,
      396,
      408,
      408,
      408,
      408,
      418,
      418,
      418,
      418,
      430,
      430,
      430,
      430,
      441,
      441,
      441,
      448,
      448,
      448,
      448,
      448,
      469,
      469,
      469,
      472,
      472,
      472,
      472,
      472,
      470,
      470,
      470,
      470,
      470,
      467,
      467,
      467,
      467,
      467,
      473,
      473,
      473,
      473,
      474,
      474,
      474,
      473,
      472,
      472,
      472,
      472,
      472,
      472,
      472,
      472,
      472,
      474,
      474,
      474,
      474,
      474,
      476,
      478,
      478,
      474,
      474,
      474,
      450,
      450,
      450,
      450,
      450,
      451,
      451,
      451,
      451,
      451,
      451,
      451,
      451,
      451,
      451,
      451,
      450,
      450,
      450,
      450,
      450,
      450,
      447,
      447,
      447,
      447,
      447,
      448,
      448,
      447,
      447,
      447,
      447,
      447,
      447,
      447,
      447,
      446,
      446,
      446,
      446,
      447,
      447,
      447,
      447,
      447,
      447,
      447,
      447,
      448,
      450,
      450,
      450,
      450,
      450,
      450,
      450,
      450,
      449,
      449,
      449,
      449,
      448,
      448,
      448,
      448,
      448,
      447,
      447,
      447,
      447,
      448,
      448,
      448,
      449,
      450,
      450,
      450,
      450,
      456,
      456,
      456,
      456,
      457,
      457,
      457,
      459,
      459,
      459,
      459,
      445,
      445,
      445,
      445,
      444,
      444,
      444,
      444,
      444,
      428,
      428,
      428,
      428,
      428,
      428,
      428,
      428,
      428,
      428,
      428,
      428,
      426,
      426,
      426,
      426,
      428,
      428,
      428,
      428,
      428,
      417,
      417,
      417,
      417,
      414,
      414,
      414,
      414,
      408,
      408,
      406,
      406,
      406,
      405,
      405,
      405,
      407,
      407,
      407,
      407,
      408,
      408,
      408,
      412,
      412,
      412,
      412,
      413,
      412,
      414,
      414,
      414,
      408,
      408,
      408,
      407,
      407,
      407,
      409,
      409,
      412,
      412,
      412,
      418,
      418,
      418,
      418,
      429,
      429,
      434,
      434,
      434,
      437,
      424,
      420,
      420,
      420,
      420,
      432,
      434,
      434,
      434,
      434,
      434,
      434,
      444,
      445,
      445,
      445,
      438,
      438,
      438,
      438,
      438,
      438,
      443,
      443,
      443,
      441,
      441,
      441,
      441,
      433,
      433,
      433,
      433,
      432,
      429,
      429,
      431,
      431,
      431,
      431,
      427,
      427,
      427,
      429,
      429,
      412,
      412,
      412,
      412,
      412,
      409,
      409,
      409,
      404,
      404,
      404,
      404,
      403,
      404,
      404,
      406,
      406,
      406,
      406,
      406,
      406,
      406,
      406,
      406,
      403,
      401,
      401,
      397,
      400,
      400,
      397,
      397,
      397,
      402,
      402,
      402,
      402,
      402,
      405,
      405,
      405,
      404,
      405,
      405,
      402,
      402,
      402,
      401,
      401,
      401,
      401,
      400,
      404,
      404,
      404,
      406,
      406,
      407,
      407,
      407,
      407,
      407,
      407,
      407,
      407,
      409,
      409,
      409,
      409,
      410,
      410,
      410,
      410,
      410,
      409,
      409,
      409,
      408,
      407,
      407,
      408,
      408,
      408,
      416,
      416,
      416,
      420,
      420,
      420,
      420,
      421,
      421,
      421,
      420,
      420,
      420,
      420,
      420,
      420,
      422,
      422,
      422,
      422,
      429,
      434,
      434,
      434,
      434,
      435,
      435,
      435,
      435,
      435,
      435,
      435,
      437,
      437,
      437,
      437,
      437,
      437,
      437,
      437,
      440,
      440,
      440,
      440,
      452,
      452,
      452,
      452,
      452,
      452,
      452,
      452,
      452,
      452,
      452,
      452,
      452,
      443,
      443,
      443,
      441,
      441,
      441,
      441,
      441,
      441,
      431,
      431,
      431,
      431,
      431,
      431,
      431,
      431,
      431,
      430,
      429,
      429,
      429,
      428,
      428,
      431,
      431,
      431,
      431,
      432,
      432,
      432,
      429,
      429,
      414,
      414,
      414,
      414,
      407,
      407,
      407,
      407,
      408,
      408,
      408,
      398,
      402,
      402,
      393,
      393,
      397,
      397,
      390,
      375,
      380,
      380,
      348,
      348,
      346,
      346,
      346,
      317,
      314,
      314,
      314,
      314,
      255,
      255,
      255,
      260,
      260,
      252,
      252,
      252,
      240,
      240,
      235,
      235,
      235,
      196,
      196,
      196,
      196,
      142,
      142,
      152,
      152,
      152
    ],
    "swim:timestamps": [
      1781216657,
      1781216657,
      1781216657,
      1781216657,
      1781216657,
      1781216897,
      1781216897,
      1781216897,
      1781216897,
      1781216957,
      1781216957,
      1781216957,
      1781216957,
      1781217017,
      1781217017,
      1781217077,
      1781217077,
      1781217077,
      1781217077,
      1781217137,
      1781217137,
      1781217137,
      1781217137,
      1781217258,
      1781217258,
      1781217258,
      1781217258,
      1781217318,
      1781217318,
      1781217318,
      1781217378,
      1781217378,
      1781217378,
      1781217378,
      1781217378,
      1781217558,
      1781217558,
      1781217558,
      1781217618,
      1781217618,
      1781217618,
      1781217618,
      1781217618,
      1781217798,
      1781217798,
      1781217798,
      1781217798,
      1781217798,
      1781217918,
      1781217918,
      1781217918,
      1781217918,
      1781217918,
      1781218039,
      1781218039,
      1781218039,
      1781218039,
      1781218159,
      1781218159,
      1781218159,
      1781218219,
      1781218279,
      1781218279,
      1781218279,
      1781218279,
      1781218279,
      1781218459,
      1781218459,
      1781218459,
      1781218459,
      1781218579,
      1781218579,
      1781218579,
      1781218579,
      1781218579,
      1781218639,
      1781218699,
      1781218699,
      1781218760,
      1781218760,
      1781218760,
      1781218820,
      1781218820,
      1781218820,
      1781218820,
      1781218820,
      1781219060,
      1781219060,
      1781219060,
      1781219060,
      1781219076,
      1781219076,
      1781219076,
      1781219076,
      1781219136,
      1781219197,
      1781219197,
      1781219257,
      1781219257,
      1781219257,
      1781219317,
      1781219317,
      1781219317,
      1781219481,
      1781219481,
      1781219481,
      1781219481,
      1781219481,
      1781219497,
      1781219497,
      1781219601,
      1781219601,
      1781219601,
      1781219601,
      1781219661,
      1781219661,
      1781219661,
      1781219661,
      1781219721,
      1781219721,
      1781219721,
      1781219721,
      1781219797,
      1781219797,
      1781219797,
      1781219857,
      1781219857,
      1781219857,
      1781219857,
      1781219857,
      1781219978,
      1781220038,
      1781220038,
      1781220098,
      1781220098,
      1781220098,
      1781220158,
      1781220158,
      1781220158,
      1781220218,
      1781220218,
      1781220218,
      1781220218,
      1781220458,
      1781220458,
      1781220458,
      1781220458,
      1781220458,
      1781220578,
      1781220578,
      1781220578,
      1781220578,
      1781220639,
      1781220639,
      1781220639,
      1781220699,
      1781220759,
      1781220759,
      1781220759,
      1781220759,
      1781220999,
      1781220999,
      1781220999,
      1781220999,
      1781221059,
      1781221059,
      1781221059,
      1781221119,
      1781221119,
      1781221119,
      1781221119,
      1781221299,
      1781221299,
      1781221299,
      1781221299,
      1781221359,
      1781221359,
      1781221359,
      1781221359,
      1781221359,
      1781221600,
      1781221600,
      1781221600,
      1781221780,
      1781221780,
      1781221780,
      1781221780,
      1781221840,
      1781221840,
      1781221840,
      1781221840,
      1781221840,
      1781221972,
      1781221972,
      1781222093,
      1781222093,
      1781222333,
      1781222333,
      1781222333,
      1781222333,
      1781222333,
      1781222513,
      1781222513,
      1781222513,
      1781222513,
      1781222693,
      1781222693,
      1781222693,
      1781222693,
      1781222814,
      1781222814,
      1781222874,
      1781222874,
      1781222874,
      1781222934,
      1781222934,
      1781222934,
      1781223114,
      1781223114,
      1781223114,
      1781223114,
      1781223174,
      1781223174,
      1781223174,
      1781223294,
      1781223294,
      1781223294,
      1781223294,
      1781223414,
      1781223433,
      1781223534,
      1781223534,
      1781223534,
      1781223673,
      1781223673,
      1781223673,
      1781223733,
      1781223895,
      1781223895,
      1781223913,
      1781223955,
      1781224094,
      1781224094,
      1781224094,
      1781224214,
      1781224214,
      1781224214,
      1781224214,
      1781224376,
      1781224376,
      1781224454,
      1781224454,
      1781224454,
      1781224496,
      1781224556,
      1781224616,
      1781224616,
      1781224616,
      1781224616,
      1781224676,
      1781224755,
      1781224755,
      1781224755,
      1781224856,
      1781224856,
      1781224856,
      1781224916,
      1781224976,
      1781224995,
      1781224995,
      1781225115,
      1781225115,
      1781225115,
      1781225175,
      1781225175,
      1781225175,
      1781225397,
      1781225397,
      1781225397,
      1781225536,
      1781225536,
      1781225536,
      1781225536,
      1781225656,
      1781225656,
      1781225656,
      1781225656,
      1781225716,
      1781225776,
      1781225776,
      1781226137,
      1781226137,
      1781226137,
      1781226137,
      1781226257,
      1781226257,
      1781226257,
      1781226317,
      1781226317,
      1781226497,
      1781226497,
      1781226497,
      1781226557,
      1781226557,
      1781226738,
      1781226738,
      1781226738,
      1781226858,
      1781226858,
      1781226858,
      1781226858,
      1781226918,
      1781226978,
      1781226978,
      1781227098,
      1781227098,
      1781227098,
      1781227098,
      1781227218,
      1781227218,
      1781227218,
      1781227278,
      1781227278,
      1781227339,
      1781227358,
      1781227358,
      1781227418,
      1781227459,
      1781227459,
      1781227478,
      1781227478,
      1781227478,
      1781227579,
      1781227579,
      1781227658,
      1781227658,
      1781227658,
      1781227759,
      1781227759,
      1781227819,
      1781227879,
      1781227898,
      1781227898,
      1781227999,
      1781228019,
      1781228019,
      1781228079,
      1781228079,
      1781228079,
      1781228079,
      1781228139,
      1781228240,
      1781228240,
      1781228240,
      1781228331,
      1781228331,
      1781228391,
      1781228391,
      1781228480,
      1781228480,
      1781228480,
      1781228511,
      1781228600,
      1781228600,
      1781228692,
      1781228721,
      1781228721,
      1781228721,
      1781228752,
      1781228812,
      1781228812,
      1781228812,
      1781228812,
      1781228872,
      1781228872,
      1781228901,
      1781228932,
      1781228992,
      1781228992,
      1781229052,
      1781229052,
      1781229052,
      1781229112,
      1781229112,
      1781229112,
      1781229232,
      1781229232,
      1781229232,
      1781229232,
      1781229293,
      1781229293,
      1781229293,
      1781229473,
      1781229473,
      1781229473,
      1781229533,
      1781229533,
      1781229533,
      1781229653,
      1781229653,
      1781229653,
      1781229653,
      1781229713,
      1781229833,
      1781229833,
      1781229833,
      1781229833,
      1781229953,
      1781229953,
      1781229953,
      1781229953,
      1781230014,
      1781230014,
      1781230014,
      1781230194,
      1781230194,
      1781230194,
      1781230194,
      1781230374,
      1781230374,
      1781230374,
      1781230374,
      1781230471,
      1781230471,
      1781230471,
      1781230471,
      1781230591,
      1781230591,
      1781230591,
      1781230591,
      1781230614,
      1781230614,
      1781230675,
      1781230675,
      1781230711,
      1781230711,
      1781230711,
      1781230735,
      1781230735,
      1781230855,
      1781230855,
      1781230855,
      1781230892,
      1781230892,
      1781230892,
      1781230952,
      1781230952,
      1781230952,
      1781231252,
      1781231252,
      1781231252,
      1781231335,
      1781231335,
      1781231335,
      1781231335,
      1781231372,
      1781231372,
      1781231432,
      1781231492,
      1781231492,
      1781231492,
      1781231516,
      1781231516,
      1781231672,
      1781231672,
      1781231672,
      1781231672,
      1781231793,
      1781231793,
      1781231793,
      1781231853,
      1781231853,
      1781232033,
      1781232033,
      1781232033,
      1781232033,
      1781232133,
      1781232133,
      1781232133,
      1781232133,
      1781232213,
      1781232213,
      1781232213,
      1781232260,
      1781232273,
      1781232273,
      1781232320,
      1781232320,
      1781232333,
      1781232333,
      1781232393,
      1781232440,
      1781232453,
      1781232453,
      1781232500,
      1781232500,
      1781232513,
      1781232513,
      1781232513,
      1781232574,
      1781232634,
      1781232634,
      1781232634,
      1781232634,
      1781232814,
      1781232814,
      1781232814,
      1781232874,
      1781232874,
      1781232934,
      1781232934,
      1781232934,
      1781232994,
      1781232994,
      1781233100,
      1781233100,
      1781233100,
      1781233160,
      1781233174,
      1781233174,
      1781233174,
      1781233280,
      1781233280,
      1781233340,
      1781233340,
      1781233340
    ],
    "wof:geomhash": "0cb1cac1116780c9df7f155912932764",
    "wof:id": 2031510813,
    "wof:repo": "sfomuseum-data-flights-2026-06"
  },
  "bbox": [
    -122.33333333333333,
    32.779444444444444,
    -86.83833333333332,
    37.7
  ],
  "geometry": {"coordinates":[[-86.83833333333332,36.07888888888889],[-86.83833333333332,36.07888888888889],[-86.83833333333332,36.07888888888889],[-86.83833333333332,36.07888888888889],[-86.83833333333332,36.07888888888889],[-87.24583333333334,36.093333333333334],[-87.24583333333334,36.093333333333334],[-87.24583333333334,36.093333333333334],[-87.24583333333334,36.093333333333334],[-87.37388888888889,36.068333333333335],[-87.37388888888889,36.068333333333335],[-87.37388888888889,36.068333333333335],[-87.37388888888889,36.068333333333335],[-87.50472222222223,36.04194444444444],[-87.50472222222223,36.04194444444444],[-87.64027777777778,36.01416666666667],[-87.64027777777778,36.01416666666667],[-87.64027777777778,36.01416666666667],[-87.64027777777778,36.01416666666667],[-87.78055555555555,35.986666666666665],[-87.78055555555555,35.986666666666665],[-87.78055555555555,35.986666666666665],[-87.78055555555555,35.986666666666665],[-88.07305555555556,35.974444444444444],[-88.07305555555556,35.974444444444444],[-88.07305555555556,35.974444444444444],[-88.07305555555556,35.974444444444444],[-88.23333333333333,35.97083333333334],[-88.23333333333333,35.97083333333334],[-88.23333333333333,35.97083333333334],[-88.38972222222223,35.9675],[-88.38972222222223,35.9675],[-88.38972222222223,35.9675],[-88.38972222222223,35.9675],[-88.38972222222223,35.9675],[-88.75416666666666,35.79833333333333],[-88.75416666666666,35.79833333333333],[-88.75416666666666,35.79833333333333],[-88.83333333333333,35.68194444444444],[-88.83333333333333,35.68194444444444],[-88.83333333333333,35.68194444444444],[-88.83333333333333,35.68194444444444],[-88.83333333333333,35.68194444444444],[-89.05527777777777,35.35138888888889],[-89.05527777777777,35.35138888888889],[-89.05527777777777,35.35138888888889],[-89.05527777777777,35.35138888888889],[-89.05527777777777,35.35138888888889],[-89.20694444444445,35.12277777777778],[-89.20694444444445,35.12277777777778],[-89.20694444444445,35.12277777777778],[-89.20694444444445,35.12277777777778],[-89.20694444444445,35.12277777777778],[-89.35916666666667,34.89138888888889],[-89.35916666666667,34.89138888888889],[-89.35916666666667,34.89138888888889],[-89.35916666666667,34.89138888888889],[-89.51305555555555,34.65611111111111],[-89.51305555555555,34.65611111111111],[-89.51305555555555,34.65611111111111],[-89.58944444444444,34.538333333333334],[-89.66527777777779,34.421388888888885],[-89.66527777777779,34.421388888888885],[-89.66527777777779,34.421388888888885],[-89.66527777777779,34.421388888888885],[-89.66527777777779,34.421388888888885],[-89.88916666666667,34.07361111111111],[-89.88916666666667,34.07361111111111],[-89.88916666666667,34.07361111111111],[-89.88916666666667,34.07361111111111],[-90.03861111111111,33.84027777777778],[-90.03861111111111,33.84027777777778],[-90.03861111111111,33.84027777777778],[-90.03861111111111,33.84027777777778],[-90.03861111111111,33.84027777777778],[-90.11666666666666,33.7175],[-90.19111111111111,33.6],[-90.19111111111111,33.6],[-90.27388888888889,33.489444444444445],[-90.27388888888889,33.489444444444445],[-90.27388888888889,33.489444444444445],[-90.41527777777779,33.45611111111111],[-90.41527777777779,33.45611111111111],[-90.41527777777779,33.45611111111111],[-90.41527777777779,33.45611111111111],[-90.41527777777779,33.45611111111111],[-91.01,33.416666666666664],[-91.01,33.416666666666664],[-91.01,33.416666666666664],[-91.01,33.416666666666664],[-91.05527777777777,33.41361111111111],[-91.05527777777777,33.41361111111111],[-91.05527777777777,33.41361111111111],[-91.05527777777777,33.41361111111111],[-91.20694444444445,33.40333333333333],[-91.35694444444444,33.39277777777778],[-91.35694444444444,33.39277777777778],[-91.50027777777778,33.382777777777775],[-91.50027777777778,33.382777777777775],[-91.50027777777778,33.382777777777775],[-91.6525,33.37166666666667],[-91.6525,33.37166666666667],[-91.6525,33.37166666666667],[-92.065,33.34111111111111],[-92.065,33.34111111111111],[-92.065,33.34111111111111],[-92.065,33.34111111111111],[-92.065,33.34111111111111],[-92.09444444444443,33.33888888888889],[-92.09444444444443,33.33888888888889],[-92.35777777777777,33.318333333333335],[-92.35777777777777,33.318333333333335],[-92.35777777777777,33.318333333333335],[-92.35777777777777,33.318333333333335],[-92.50555555555556,33.30694444444444],[-92.50555555555556,33.30694444444444],[-92.50555555555556,33.30694444444444],[-92.50555555555556,33.30694444444444],[-92.65166666666667,33.294999999999995],[-92.65166666666667,33.294999999999995],[-92.65166666666667,33.294999999999995],[-92.65166666666667,33.294999999999995],[-92.83194444444445,33.280277777777776],[-92.83194444444445,33.280277777777776],[-92.83194444444445,33.280277777777776],[-92.9786111111111,33.26833333333333],[-92.9786111111111,33.26833333333333],[-92.9786111111111,33.26833333333333],[-92.9786111111111,33.26833333333333],[-92.9786111111111,33.26833333333333],[-93.2761111111111,33.24305555555556],[-93.42527777777778,33.230000000000004],[-93.42527777777778,33.230000000000004],[-93.57472222222222,33.216944444444444],[-93.57472222222222,33.216944444444444],[-93.57472222222222,33.216944444444444],[-93.72305555555556,33.20388888888889],[-93.72305555555556,33.20388888888889],[-93.72305555555556,33.20388888888889],[-93.87277777777777,33.190555555555555],[-93.87277777777777,33.190555555555555],[-93.87277777777777,33.190555555555555],[-93.87277777777777,33.190555555555555],[-94.47083333333333,33.13472222222222],[-94.47083333333333,33.13472222222222],[-94.47083333333333,33.13472222222222],[-94.47083333333333,33.13472222222222],[-94.47083333333333,33.13472222222222],[-94.76305555555555,33.10638888888889],[-94.76305555555555,33.10638888888889],[-94.76305555555555,33.10638888888889],[-94.76305555555555,33.10638888888889],[-94.91305555555556,33.09138888888889],[-94.91305555555556,33.09138888888889],[-94.91305555555556,33.09138888888889],[-95.06083333333333,33.07666666666667],[-95.2075,33.06166666666666],[-95.2075,33.06166666666666],[-95.2075,33.06166666666666],[-95.2075,33.06166666666666],[-95.78222222222222,33.00194444444445],[-95.78222222222222,33.00194444444445],[-95.78222222222222,33.00194444444445],[-95.78222222222222,33.00194444444445],[-95.93055555555556,32.986111111111114],[-95.93055555555556,32.986111111111114],[-95.93055555555556,32.986111111111114],[-96.08194444444445,32.969722222222224],[-96.08194444444445,32.969722222222224],[-96.08194444444445,32.969722222222224],[-96.08194444444445,32.969722222222224],[-96.53111111111112,32.91972222222222],[-96.53111111111112,32.91972222222222],[-96.53111111111112,32.91972222222222],[-96.53111111111112,32.91972222222222],[-96.66944444444445,32.90416666666667],[-96.66944444444445,32.90416666666667],[-96.66944444444445,32.90416666666667],[-96.66944444444445,32.90416666666667],[-96.66944444444445,32.90416666666667],[-97.23583333333333,32.83833333333334],[-97.23583333333333,32.83833333333334],[-97.23583333333333,32.83833333333334],[-97.66027777777778,32.78722222222222],[-97.66027777777778,32.78722222222222],[-97.66027777777778,32.78722222222222],[-97.66027777777778,32.78722222222222],[-97.80222222222221,32.779444444444444],[-97.80222222222221,32.779444444444444],[-97.80222222222221,32.779444444444444],[-97.80222222222221,32.779444444444444],[-97.80222222222221,32.779444444444444],[-98.11222222222221,32.782777777777774],[-98.11222222222221,32.782777777777774],[-98.39250000000001,32.785555555555554],[-98.39250000000001,32.785555555555554],[-98.95805555555556,32.78916666666667],[-98.95805555555556,32.78916666666667],[-98.95805555555556,32.78916666666667],[-98.95805555555556,32.78916666666667],[-98.95805555555556,32.78916666666667],[-99.37444444444444,32.79472222222222],[-99.37444444444444,32.79472222222222],[-99.37444444444444,32.79472222222222],[-99.37444444444444,32.79472222222222],[-99.78027777777778,32.844722222222224],[-99.78027777777778,32.844722222222224],[-99.78027777777778,32.844722222222224],[-99.78027777777778,32.844722222222224],[-100.03777777777778,32.87583333333333],[-100.03777777777778,32.87583333333333],[-100.16833333333334,32.89138888888889],[-100.16833333333334,32.89138888888889],[-100.16833333333334,32.89138888888889],[-100.29916666666666,32.906666666666666],[-100.29916666666666,32.906666666666666],[-100.29916666666666,32.906666666666666],[-100.69888888888889,32.95305555555556],[-100.69888888888889,32.95305555555556],[-100.69888888888889,32.95305555555556],[-100.69888888888889,32.95305555555556],[-100.83361111111111,32.968333333333334],[-100.83361111111111,32.968333333333334],[-100.83361111111111,32.968333333333334],[-101.10305555555556,32.99861111111111],[-101.10305555555556,32.99861111111111],[-101.10305555555556,32.99861111111111],[-101.10305555555556,32.99861111111111],[-101.38722222222223,33.02972222222222],[-101.41555555555556,33.033055555555556],[-101.6613888888889,33.052499999999995],[-101.6613888888889,33.052499999999995],[-101.6613888888889,33.052499999999995],[-101.95361111111112,33.025277777777774],[-101.95361111111112,33.025277777777774],[-101.95361111111112,33.025277777777774],[-102.08638888888889,33.01416666666667],[-102.465,32.98444444444444],[-102.465,32.98444444444444],[-102.51027777777777,32.98083333333334],[-102.59222222222222,32.974444444444444],[-102.91805555555555,32.95111111111111],[-102.91805555555555,32.95111111111111],[-102.91805555555555,32.95111111111111],[-103.19388888888889,32.93222222222222],[-103.19388888888889,32.93222222222222],[-103.19388888888889,32.93222222222222],[-103.19388888888889,32.93222222222222],[-103.55305555555556,32.964444444444446],[-103.55305555555556,32.964444444444446],[-103.75666666666666,32.995555555555555],[-103.75666666666666,32.995555555555555],[-103.75666666666666,32.995555555555555],[-103.83583333333333,33.01444444444444],[-103.97194444444445,32.99861111111111],[-104.10777777777777,32.97277777777778],[-104.10777777777777,32.97277777777778],[-104.10777777777777,32.97277777777778],[-104.10777777777777,32.97277777777778],[-104.22888888888889,33.01611111111111],[-104.36861111111111,33.14888888888889],[-104.36861111111111,33.14888888888889],[-104.36861111111111,33.14888888888889],[-104.51666666666667,33.28916666666667],[-104.51666666666667,33.28916666666667],[-104.51666666666667,33.28916666666667],[-104.61333333333333,33.38027777777778],[-104.71277777777777,33.473888888888894],[-104.7525,33.51138888888889],[-104.7525,33.51138888888889],[-104.94666666666667,33.69277777777778],[-104.94666666666667,33.69277777777778],[-104.94666666666667,33.69277777777778],[-105.04333333333334,33.7825],[-105.04333333333334,33.7825],[-105.04333333333334,33.7825],[-105.4,34.112500000000004],[-105.4,34.112500000000004],[-105.4,34.112500000000004],[-105.6438888888889,34.33583333333333],[-105.6438888888889,34.33583333333333],[-105.6438888888889,34.33583333333333],[-105.6438888888889,34.33583333333333],[-105.87277777777777,34.48416666666667],[-105.87277777777777,34.48416666666667],[-105.87277777777777,34.48416666666667],[-105.87277777777777,34.48416666666667],[-105.99027777777778,34.555],[-106.10722222222222,34.62444444444444],[-106.10722222222222,34.62444444444444],[-106.81444444444445,35.03861111111111],[-106.81444444444445,35.03861111111111],[-106.81444444444445,35.03861111111111],[-106.81444444444445,35.03861111111111],[-107.10083333333333,35.10611111111111],[-107.10083333333333,35.10611111111111],[-107.10083333333333,35.10611111111111],[-107.23388888888888,35.13472222222222],[-107.23388888888888,35.13472222222222],[-107.64611111111111,35.223055555555554],[-107.64611111111111,35.223055555555554],[-107.64611111111111,35.223055555555554],[-107.78194444444445,35.251666666666665],[-107.78194444444445,35.251666666666665],[-108.18555555555555,35.33583333333333],[-108.18555555555555,35.33583333333333],[-108.18555555555555,35.33583333333333],[-108.45277777777778,35.39083333333333],[-108.45277777777778,35.39083333333333],[-108.45277777777778,35.39083333333333],[-108.45277777777778,35.39083333333333],[-108.58638888888889,35.418055555555554],[-108.71972222222223,35.445277777777775],[-108.71972222222223,35.445277777777775],[-108.99194444444444,35.481944444444444],[-108.99194444444444,35.481944444444444],[-108.99194444444444,35.481944444444444],[-108.99194444444444,35.481944444444444],[-109.27083333333333,35.495555555555555],[-109.27083333333333,35.495555555555555],[-109.27083333333333,35.495555555555555],[-109.40805555555556,35.50222222222222],[-109.40805555555556,35.50222222222222],[-109.545,35.50861111111111],[-109.58222222222221,35.515277777777776],[-109.58222222222221,35.515277777777776],[-109.71638888888889,35.51722222222222],[-109.81722222222221,35.52055555555555],[-109.81722222222221,35.52055555555555],[-109.85222222222221,35.5225],[-109.85222222222221,35.5225],[-109.85222222222221,35.5225],[-110.09138888888889,35.532222222222224],[-110.09138888888889,35.532222222222224],[-110.26388888888889,35.53972222222222],[-110.26388888888889,35.53972222222222],[-110.26388888888889,35.53972222222222],[-110.50666666666666,35.54861111111111],[-110.50666666666666,35.54861111111111],[-110.64333333333335,35.55361111111111],[-110.78166666666667,35.558611111111105],[-110.81527777777778,35.55972222222222],[-110.81527777777778,35.55972222222222],[-111.05472222222222,35.56805555555556],[-111.08805555555556,35.56916666666667],[-111.08805555555556,35.56916666666667],[-111.2238888888889,35.57361111111111],[-111.2238888888889,35.57361111111111],[-111.2238888888889,35.57361111111111],[-111.2238888888889,35.57361111111111],[-111.35972222222222,35.57777777777778],[-111.60388888888889,35.58416666666667],[-111.60388888888889,35.58416666666667],[-111.60388888888889,35.58416666666667],[-111.80166666666666,35.58777777777778],[-111.80166666666666,35.58777777777778],[-111.94055555555556,35.59111111111111],[-111.94055555555556,35.59111111111111],[-112.15861111111111,35.598333333333336],[-112.15861111111111,35.598333333333336],[-112.15861111111111,35.598333333333336],[-112.21583333333334,35.6],[-112.43694444444445,35.60611111111111],[-112.43694444444445,35.60611111111111],[-112.63194444444444,35.609722222222224],[-112.71222222222222,35.61138888888889],[-112.71222222222222,35.61138888888889],[-112.71222222222222,35.61138888888889],[-112.77638888888889,35.612500000000004],[-112.91555555555556,35.61527777777778],[-112.91555555555556,35.61527777777778],[-112.91555555555556,35.61527777777778],[-112.91555555555556,35.61527777777778],[-113.0775,35.61805555555556],[-113.0775,35.61805555555556],[-113.12666666666667,35.618611111111115],[-113.21472222222222,35.62],[-113.34805555555555,35.621944444444445],[-113.34805555555555,35.621944444444445],[-113.4863888888889,35.62416666666667],[-113.4863888888889,35.62416666666667],[-113.4863888888889,35.62416666666667],[-113.62444444444444,35.64805555555556],[-113.62444444444444,35.64805555555556],[-113.62444444444444,35.64805555555556],[-113.90138888888889,35.72694444444445],[-113.90138888888889,35.72694444444445],[-113.90138888888889,35.72694444444445],[-113.90138888888889,35.72694444444445],[-114.03805555555556,35.76583333333333],[-114.03805555555556,35.76583333333333],[-114.03805555555556,35.76583333333333],[-114.44555555555556,35.88027777777778],[-114.44555555555556,35.88027777777778],[-114.44555555555556,35.88027777777778],[-114.58194444444445,35.918055555555554],[-114.58194444444445,35.918055555555554],[-114.58194444444445,35.918055555555554],[-114.85638888888889,35.994166666666665],[-114.85638888888889,35.994166666666665],[-114.85638888888889,35.994166666666665],[-114.85638888888889,35.994166666666665],[-114.9863888888889,36.04944444444444],[-115.24944444444445,36.16444444444444],[-115.24944444444445,36.16444444444444],[-115.24944444444445,36.16444444444444],[-115.24944444444445,36.16444444444444],[-115.51305555555555,36.27833333333333],[-115.51305555555555,36.27833333333333],[-115.51305555555555,36.27833333333333],[-115.51305555555555,36.27833333333333],[-115.63222222222221,36.32972222222222],[-115.63222222222221,36.32972222222222],[-115.63222222222221,36.32972222222222],[-116.02444444444444,36.49722222222222],[-116.02444444444444,36.49722222222222],[-116.02444444444444,36.49722222222222],[-116.02444444444444,36.49722222222222],[-116.42694444444444,36.666666666666664],[-116.42694444444444,36.666666666666664],[-116.42694444444444,36.666666666666664],[-116.42694444444444,36.666666666666664],[-116.64500000000001,36.757777777777775],[-116.64500000000001,36.757777777777775],[-116.64500000000001,36.757777777777775],[-116.64500000000001,36.757777777777775],[-116.87833333333333,36.91916666666666],[-116.87833333333333,36.91916666666666],[-116.87833333333333,36.91916666666666],[-116.87833333333333,36.91916666666666],[-116.92,36.95638888888889],[-116.92,36.95638888888889],[-117.0261111111111,37.052499999999995],[-117.0261111111111,37.052499999999995],[-117.0886111111111,37.10888888888889],[-117.0886111111111,37.10888888888889],[-117.0886111111111,37.10888888888889],[-117.12916666666666,37.14527777777778],[-117.12916666666666,37.14527777777778],[-117.335,37.32944444444445],[-117.335,37.32944444444445],[-117.335,37.32944444444445],[-117.39805555555556,37.38583333333333],[-117.39805555555556,37.38583333333333],[-117.39805555555556,37.38583333333333],[-117.5038888888889,37.475833333333334],[-117.5038888888889,37.475833333333334],[-117.5038888888889,37.475833333333334],[-118.24916666666667,37.55277777777778],[-118.24916666666667,37.55277777777778],[-118.24916666666667,37.55277777777778],[-118.465,37.56916666666667],[-118.465,37.56916666666667],[-118.465,37.56916666666667],[-118.465,37.56916666666667],[-118.55277777777778,37.575833333333335],[-118.55277777777778,37.575833333333335],[-118.70138888888889,37.586666666666666],[-118.8625,37.598333333333336],[-118.8625,37.598333333333336],[-118.8625,37.598333333333336],[-118.91027777777778,37.60194444444445],[-118.91027777777778,37.60194444444445],[-119.31388888888888,37.63],[-119.31388888888888,37.63],[-119.31388888888888,37.63],[-119.31388888888888,37.63],[-119.61972222222222,37.65083333333333],[-119.61972222222222,37.65083333333333],[-119.61972222222222,37.65083333333333],[-119.7675,37.66],[-119.7675,37.66],[-120.20611111111111,37.68722222222222],[-120.20611111111111,37.68722222222222],[-120.20611111111111,37.68722222222222],[-120.20611111111111,37.68722222222222],[-120.43333333333334,37.7],[-120.43333333333334,37.7],[-120.43333333333334,37.7],[-120.43333333333334,37.7],[-120.60499999999999,37.67583333333333],[-120.60499999999999,37.67583333333333],[-120.60499999999999,37.67583333333333],[-120.73333333333333,37.666666666666664],[-120.74388888888889,37.659444444444446],[-120.74388888888889,37.659444444444446],[-120.88333333333334,37.65],[-120.88333333333334,37.65],[-120.88222222222221,37.643055555555556],[-120.88222222222221,37.643055555555556],[-121.01722222222222,37.626111111111115],[-121.15,37.61666666666667],[-121.14777777777779,37.60805555555556],[-121.14777777777779,37.60805555555556],[-121.26666666666667,37.6],[-121.26666666666667,37.6],[-121.28888888888889,37.58972222222222],[-121.28888888888889,37.58972222222222],[-121.28888888888889,37.58972222222222],[-121.39944444444446,37.577222222222225],[-121.50777777777778,37.56444444444444],[-121.50777777777778,37.56444444444444],[-121.50777777777778,37.56444444444444],[-121.50777777777778,37.56444444444444],[-121.78027777777778,37.545833333333334],[-121.78027777777778,37.545833333333334],[-121.78027777777778,37.545833333333334],[-121.84166666666667,37.49472222222222],[-121.84166666666667,37.49472222222222],[-121.91222222222223,37.46194444444445],[-121.91222222222223,37.46194444444445],[-121.91222222222223,37.46194444444445],[-121.99722222222222,37.46388888888889],[-121.99722222222222,37.46388888888889],[-122.13333333333334,37.516666666666666],[-122.13333333333334,37.516666666666666],[-122.13333333333334,37.516666666666666],[-122.2,37.55],[-122.205,37.54944444444444],[-122.205,37.54944444444444],[-122.205,37.54944444444444],[-122.3,37.583333333333336],[-122.3,37.583333333333336],[-122.33333333333333,37.6],[-122.33333333333333,37.6],[-122.33333333333333,37.6]],"type":"LineString"}
}
