{
  "id": 2031421253,
  "type": "Feature",
  "properties": {
    "geom:area": 0,
    "geom:bbox": "-122.380000,37.490000,-104.670000,40.000000",
    "geom:latitude": 38.74744719787327,
    "geom:longitude": -113.57143420089022,
    "src:alt_label": "swim-route",
    "src:geom": "swim",
    "swim:geom": "route",
    "wof:geomhash": "9aba59ab600587935dff578955f8e886",
    "wof:id": 2031421253,
    "wof:repo": "sfomuseum-data-flights-2026-06"
  },
  "bbox": [
    -122.38,
    37.49,
    -104.67,
    40
  ],
  "geometry": {"coordinates":[[-104.67,39.86],[-104.72,39.86],[-104.82,39.85],[-104.91,39.84],[-105.01,39.85],[-105.04,39.85],[-105.07,39.87],[-105.1,39.89],[-105.19,39.96],[-105.25,40],[-105.29,40],[-105.34,40],[-105.45,40],[-105.47,39.99],[-105.48,39.99],[-105.54,39.99],[-105.61,39.98],[-105.63,39.98],[-105.66,39.97],[-105.67,39.97],[-105.82,39.96],[-105.9,39.95],[-106.04,39.93],[-106.17,39.92],[-106.27,39.91],[-106.42,39.89],[-106.47,39.88],[-106.79,39.85],[-107.17,39.8],[-107.98,39.7],[-110.14,39.4],[-110.67,39.32],[-111.19,39.24],[-111.72,39.16],[-113.46,38.86],[-116.7,38.23],[-117.27,38.16],[-117.47,38.12],[-117.53,38.12],[-117.86,37.64],[-118.14,37.55],[-118.95,37.61],[-119.05,37.62],[-119.49,37.65],[-119.87,37.67],[-120.4,37.7],[-120.63,37.67],[-120.69,37.67],[-120.75,37.66],[-120.77,37.66],[-120.83,37.65],[-120.96,37.63],[-121,37.63],[-121.08,37.62],[-121.17,37.6],[-121.26,37.59],[-121.39,37.58],[-121.41,37.58],[-121.6,37.55],[-121.61,37.55],[-121.62,37.55],[-121.7,37.53],[-121.8,37.51],[-121.83,37.5],[-121.88,37.49],[-122.08,37.54],[-122.14,37.56],[-122.18,37.57],[-122.28,37.59],[-122.33,37.61],[-122.36,37.61],[-122.38,37.62]],"type":"LineString"}
}
