{
  "id": 2031614939,
  "type": "Feature",
  "properties": {
    "geom:area": 0,
    "geom:bbox": "-122.532080,37.629670,-121.260760,38.140170",
    "geom:latitude": 37.910790770310804,
    "geom:longitude": -121.96808902720642,
    "src:alt_label": "swim-takeoff",
    "src:geom": "swim",
    "swim:elevations": [
      320,
      670,
      907,
      1160,
      1474,
      1917,
      2318,
      2859,
      3294,
      3537,
      3747,
      3839,
      4123,
      4145,
      4455,
      4849,
      5278,
      5306,
      5954,
      6259,
      6495,
      6670,
      7078,
      7250,
      7488
    ],
    "swim:geom": "takeoff",
    "swim:timestamps": [
      1782134599,
      1782134636,
      1782134653,
      1782134682,
      1782134719,
      1782134751,
      1782134776,
      1782134813,
      1782134842,
      1782134868,
      1782134902,
      1782134915,
      1782134968,
      1782134972,
      1782135006,
      1782135050,
      1782135087,
      1782135092,
      1782135146,
      1782135175,
      1782135195,
      1782135223,
      1782135259,
      1782135284,
      1782135309
    ],
    "wof:geomhash": "32b1210af0b82026b57e3b6c129df933",
    "wof:id": 2031614939,
    "wof:repo": "sfomuseum-data-flights-2026-06"
  },
  "bbox": [
    -122.53208,
    37.62967,
    -121.26076,
    38.14017
  ],
  "geometry": {"coordinates":[[-122.40131,37.62967],[-122.43333,37.64363],[-122.4487,37.65023],[-122.47735,37.66251],[-122.52119,37.68594],[-122.53208,37.72431],[-122.51147,37.75205],[-122.4527,37.77175],[-122.4052,37.78645],[-122.36275,37.79984],[-122.29982,37.81969],[-122.27308,37.82792],[-122.15799,37.8638],[-122.14719,37.86716],[-122.06585,37.89238],[-121.95859,37.92555],[-121.8632,37.95534],[-121.85046,37.95931],[-121.70822,38.00299],[-121.63081,38.02638],[-121.57841,38.04237],[-121.50053,38.06623],[-121.40252,38.09619],[-121.33161,38.11797],[-121.26076,38.14017]],"type":"LineString"}
}
