{
  "id": 2031673441,
  "type": "Feature",
  "properties": {
    "geom:area": 0,
    "geom:bbox": "-122.356320,37.492160,-121.250870,37.613210",
    "geom:latitude": 37.54272605787718,
    "geom:longitude": -121.81063111409027,
    "src:alt_label": "swim-approach",
    "src:geom": "swim",
    "swim:elevations": [
      4889,
      4594,
      4203,
      3856,
      3660,
      3473,
      3359,
      3244,
      3165,
      2958,
      2697,
      2531,
      2297,
      2174,
      2013,
      1893,
      1798,
      1574,
      1455,
      1319,
      1217,
      1097,
      980,
      870,
      709,
      604,
      456,
      313,
      253,
      179,
      0
    ],
    "swim:geom": "approach",
    "swim:timestamps": [
      1782779358,
      1782779385,
      1782779419,
      1782779450,
      1782779468,
      1782779514,
      1782779538,
      1782779564,
      1782779588,
      1782779617,
      1782779651,
      1782779675,
      1782779704,
      1782779721,
      1782779747,
      1782779777,
      1782779797,
      1782779846,
      1782779873,
      1782779906,
      1782779934,
      1782779967,
      1782779991,
      1782780015,
      1782780051,
      1782780081,
      1782780114,
      1782780145,
      1782780162,
      1782780184,
      1782780225
    ],
    "wof:geomhash": "e6f6470718213ff8ba5b51f1d5aaa269",
    "wof:id": 2031673441,
    "wof:repo": "sfomuseum-data-flights-2026-06"
  },
  "bbox": [
    -122.35632,
    37.49216,
    -121.25087,
    37.61321
  ],
  "geometry": {"coordinates":[[-121.25087,37.59459],[-121.30821,37.58718],[-121.37902,37.57952],[-121.44241,37.57233],[-121.4794,37.56791],[-121.5661,37.55759],[-121.6093,37.55253],[-121.65169,37.54425],[-121.68629,37.53614],[-121.72754,37.52629],[-121.7759,37.51463],[-121.80945,37.50647],[-121.84889,37.49715],[-121.87355,37.49216],[-121.90849,37.49267],[-121.94573,37.49472],[-121.96973,37.49623],[-122.02683,37.49953],[-122.05857,37.50137],[-122.09422,37.50432],[-122.12054,37.51362],[-122.15016,37.5258],[-122.1707,37.53512],[-122.19232,37.54428],[-122.22307,37.55713],[-122.24734,37.56743],[-122.27568,37.5793],[-122.29949,37.5893],[-122.31222,37.59474],[-122.32795,37.60119],[-122.35632,37.61321]],"type":"LineString"}
}
