{
  "id": 2031524105,
  "type": "Feature",
  "properties": {
    "geom:area": 0,
    "geom:bbox": "-122.450833,33.280000,-111.766667,37.650833",
    "geom:latitude": 34.76962184376858,
    "geom:longitude": -117.31648643384206,
    "src:alt_label": "swim-path",
    "src:geom": "swim",
    "swim:altitudes": [
      "006",
      "006",
      "006",
      "031",
      "031",
      "031",
      "031",
      "031",
      "092",
      "092",
      "092",
      "092",
      "092",
      "135",
      "135",
      "135",
      "135",
      "135",
      "182",
      "182",
      "182",
      "182",
      "182",
      "182",
      "182",
      "222",
      "222",
      "222",
      "222",
      "222",
      "222",
      "222",
      "241",
      "241",
      "241",
      "241",
      "256",
      "256",
      "256",
      "256",
      "295",
      "295",
      "295",
      "295",
      "295",
      "295",
      "295",
      "295",
      "350C",
      "350C",
      "350C",
      "350C",
      "350C",
      "350C",
      "350C",
      "350C",
      "350C",
      "350C",
      "350C",
      "350C",
      "350C",
      "350C",
      "350C",
      "350C",
      "350C",
      "350C",
      "350C",
      "350C",
      "350C",
      "350C",
      "350C",
      "350C",
      "350C",
      "350C",
      "350C",
      "350C",
      "350C",
      "350C",
      "350C",
      "350C",
      "350C",
      "350C",
      "350C",
      "350C",
      "350C",
      "350C",
      "350C",
      "350C",
      "350C",
      "350C",
      "350C",
      "350C",
      "350C",
      "350C",
      "350C",
      "350C",
      "350C",
      "350C",
      "350C",
      "350C",
      "350C",
      "350C",
      "350C",
      "350C",
      "350C",
      "350C",
      "350C",
      "350C",
      "350C",
      "350C",
      "350C",
      "350C",
      "350C",
      "350C",
      "350C",
      "350C",
      "350C",
      "350C",
      "350C",
      "350C",
      "350C",
      "350C",
      "350C",
      "350C",
      "350C",
      "350C",
      "350C",
      "350C",
      "350C",
      "350C",
      "350C",
      "350C",
      "350C",
      "350C",
      "350C",
      "350C",
      "350C",
      "350C",
      "350C",
      "350C",
      "350C",
      "350C",
      "350C",
      "350C",
      "350C",
      "350C",
      "350C",
      "350C",
      "350C",
      "350C",
      "350C",
      "350C",
      "350C",
      "350C",
      "350C",
      "350C",
      "350C",
      "350C",
      "350C",
      "350C",
      "350C",
      "350C",
      "350C",
      "350C",
      "350C",
      "350C",
      "350C",
      "350C",
      "350C",
      "350C",
      "350C",
      "350C",
      "350C",
      "350C",
      "350C",
      "350C",
      "350C",
      "350C",
      "350C",
      "350C",
      "350C",
      "350C",
      "350C",
      "350C",
      "350C",
      "347",
      "337",
      "337",
      "337",
      "337",
      "330",
      "330",
      "330",
      "326",
      "326",
      "326",
      "326",
      "297",
      "297",
      "297",
      "297",
      "297",
      "273",
      "273",
      "273",
      "250C",
      "250C",
      "250C",
      "250C",
      "250C",
      "250C",
      "221",
      "221",
      "221",
      "221",
      "221",
      "221",
      "172",
      "172",
      "172",
      "172",
      "172",
      "172",
      "150",
      "150",
      "150",
      "150",
      "150",
      "150",
      "150",
      "150",
      "135",
      "135",
      "135",
      "135",
      "130",
      "130",
      "124",
      "124",
      "124",
      "110",
      "110",
      "110",
      "110",
      "110",
      "110",
      "110",
      "110",
      "110",
      "109",
      "109",
      "109",
      "109",
      "109",
      "109",
      "109",
      "090",
      "090",
      "090",
      "090",
      "090",
      "090",
      "090",
      "090",
      "070",
      "070",
      "070",
      "070",
      "066",
      "066",
      "066",
      "066",
      "066",
      "062",
      "062",
      "062",
      "042",
      "042",
      "042",
      "042",
      "042",
      "042",
      "042",
      "038",
      "038",
      "033",
      "033",
      "032",
      "032",
      "032",
      "032",
      "032",
      "027",
      "022",
      "022",
      "022",
      "013",
      "013",
      "013",
      "013"
    ],
    "swim:geom": "path",
    "swim:speeds": [
      177,
      177,
      177,
      181,
      181,
      181,
      181,
      181,
      304,
      304,
      304,
      304,
      304,
      366,
      366,
      366,
      366,
      366,
      397,
      397,
      397,
      397,
      397,
      397,
      397,
      420,
      420,
      420,
      420,
      420,
      420,
      420,
      427,
      427,
      427,
      427,
      438,
      438,
      438,
      438,
      476,
      476,
      476,
      476,
      476,
      476,
      476,
      476,
      469,
      469,
      468,
      468,
      468,
      468,
      468,
      468,
      465,
      465,
      465,
      465,
      465,
      465,
      465,
      465,
      463,
      463,
      463,
      463,
      463,
      463,
      462,
      462,
      462,
      462,
      462,
      462,
      462,
      462,
      462,
      462,
      462,
      462,
      462,
      461,
      461,
      461,
      461,
      461,
      461,
      461,
      460,
      460,
      460,
      460,
      460,
      460,
      460,
      460,
      460,
      459,
      459,
      459,
      459,
      459,
      459,
      459,
      458,
      458,
      458,
      458,
      451,
      451,
      451,
      451,
      451,
      451,
      451,
      448,
      448,
      448,
      448,
      448,
      450,
      450,
      450,
      450,
      450,
      451,
      451,
      451,
      452,
      452,
      452,
      452,
      452,
      452,
      454,
      454,
      454,
      454,
      454,
      453,
      453,
      453,
      453,
      462,
      462,
      462,
      462,
      462,
      462,
      464,
      464,
      464,
      464,
      464,
      464,
      464,
      465,
      465,
      465,
      465,
      465,
      465,
      465,
      465,
      465,
      465,
      468,
      468,
      468,
      468,
      468,
      468,
      468,
      468,
      468,
      468,
      468,
      468,
      468,
      468,
      468,
      468,
      468,
      468,
      466,
      466,
      466,
      466,
      468,
      468,
      468,
      468,
      468,
      468,
      468,
      460,
      460,
      460,
      460,
      460,
      452,
      452,
      452,
      452,
      452,
      452,
      452,
      452,
      452,
      432,
      432,
      432,
      432,
      432,
      432,
      408,
      408,
      408,
      408,
      408,
      408,
      386,
      386,
      386,
      386,
      386,
      386,
      386,
      386,
      342,
      342,
      342,
      342,
      336,
      336,
      321,
      321,
      321,
      313,
      313,
      313,
      313,
      301,
      301,
      301,
      301,
      301,
      270,
      270,
      270,
      270,
      270,
      270,
      270,
      261,
      261,
      261,
      261,
      261,
      261,
      261,
      261,
      255,
      255,
      255,
      255,
      215,
      215,
      215,
      215,
      215,
      211,
      211,
      211,
      192,
      192,
      192,
      192,
      192,
      192,
      192,
      191,
      191,
      191,
      191,
      191,
      191,
      191,
      191,
      191,
      179,
      164,
      164,
      164,
      160,
      160,
      160,
      160
    ],
    "swim:timestamps": [
      1781276701,
      1781276701,
      1781276701,
      1781276763,
      1781276763,
      1781276763,
      1781276763,
      1781276763,
      1781276943,
      1781276943,
      1781276943,
      1781276943,
      1781276943,
      1781277063,
      1781277063,
      1781277063,
      1781277063,
      1781277063,
      1781277183,
      1781277183,
      1781277183,
      1781277183,
      1781277183,
      1781277183,
      1781277183,
      1781277304,
      1781277304,
      1781277304,
      1781277304,
      1781277304,
      1781277304,
      1781277304,
      1781277364,
      1781277364,
      1781277364,
      1781277364,
      1781277426,
      1781277426,
      1781277426,
      1781277426,
      1781277604,
      1781277604,
      1781277604,
      1781277604,
      1781277604,
      1781277604,
      1781277604,
      1781277604,
      1781277844,
      1781277844,
      1781277904,
      1781277904,
      1781277904,
      1781277904,
      1781277904,
      1781277904,
      1781278025,
      1781278025,
      1781278025,
      1781278025,
      1781278025,
      1781278025,
      1781278025,
      1781278025,
      1781278147,
      1781278147,
      1781278147,
      1781278147,
      1781278147,
      1781278147,
      1781278207,
      1781278207,
      1781278207,
      1781278207,
      1781278207,
      1781278327,
      1781278327,
      1781278327,
      1781278327,
      1781278387,
      1781278387,
      1781278387,
      1781278447,
      1781278457,
      1781278457,
      1781278507,
      1781278507,
      1781278507,
      1781278517,
      1781278517,
      1781278688,
      1781278688,
      1781278688,
      1781278688,
      1781278748,
      1781278748,
      1781278748,
      1781278748,
      1781278808,
      1781278818,
      1781278818,
      1781278818,
      1781278818,
      1781278878,
      1781278878,
      1781278878,
      1781278928,
      1781278928,
      1781278928,
      1781278928,
      1781279048,
      1781279048,
      1781279048,
      1781279048,
      1781279048,
      1781279048,
      1781279048,
      1781279168,
      1781279168,
      1781279168,
      1781279168,
      1781279168,
      1781279229,
      1781279229,
      1781279229,
      1781279229,
      1781279229,
      1781279289,
      1781279289,
      1781279289,
      1781279349,
      1781279349,
      1781279349,
      1781279349,
      1781279349,
      1781279349,
      1781279589,
      1781279589,
      1781279589,
      1781279589,
      1781279589,
      1781279649,
      1781279649,
      1781279649,
      1781279649,
      1781279890,
      1781279890,
      1781279890,
      1781279890,
      1781279890,
      1781279890,
      1781279950,
      1781279950,
      1781280010,
      1781280010,
      1781280010,
      1781280010,
      1781280010,
      1781280070,
      1781280070,
      1781280070,
      1781280070,
      1781280130,
      1781280130,
      1781280130,
      1781280130,
      1781280130,
      1781280130,
      1781280310,
      1781280310,
      1781280310,
      1781280310,
      1781280310,
      1781280310,
      1781280310,
      1781280370,
      1781280370,
      1781280370,
      1781280370,
      1781280370,
      1781280370,
      1781280370,
      1781280430,
      1781280430,
      1781280430,
      1781280499,
      1781280559,
      1781280559,
      1781280559,
      1781280559,
      1781280611,
      1781280611,
      1781280611,
      1781280671,
      1781280671,
      1781280671,
      1781280671,
      1781280740,
      1781280740,
      1781280740,
      1781280740,
      1781280740,
      1781280791,
      1781280791,
      1781280791,
      1781280860,
      1781280860,
      1781280860,
      1781280860,
      1781280860,
      1781280860,
      1781280971,
      1781280971,
      1781280971,
      1781280971,
      1781280971,
      1781280971,
      1781281091,
      1781281091,
      1781281091,
      1781281091,
      1781281091,
      1781281091,
      1781281220,
      1781281220,
      1781281220,
      1781281220,
      1781281220,
      1781281220,
      1781281220,
      1781281220,
      1781281375,
      1781281375,
      1781281375,
      1781281375,
      1781281401,
      1781281401,
      1781281435,
      1781281435,
      1781281435,
      1781281521,
      1781281521,
      1781281521,
      1781281521,
      1781281555,
      1781281555,
      1781281555,
      1781281555,
      1781281555,
      1781281701,
      1781281701,
      1781281701,
      1781281701,
      1781281701,
      1781281701,
      1781281701,
      1781281821,
      1781281821,
      1781281821,
      1781281821,
      1781281821,
      1781281821,
      1781281821,
      1781281821,
      1781281987,
      1781281987,
      1781281987,
      1781281987,
      1781282035,
      1781282035,
      1781282035,
      1781282035,
      1781282035,
      1781282062,
      1781282062,
      1781282062,
      1781282161,
      1781282161,
      1781282161,
      1781282161,
      1781282161,
      1781282161,
      1781282161,
      1781282182,
      1781282182,
      1781282221,
      1781282221,
      1781282242,
      1781282242,
      1781282242,
      1781282242,
      1781282242,
      1781282302,
      1781282335,
      1781282335,
      1781282335,
      1781282401,
      1781282401,
      1781282401,
      1781282401
    ],
    "wof:geomhash": "ced41c5b0925ff89d1db76b42e2e01f1",
    "wof:id": 2031524105,
    "wof:repo": "sfomuseum-data-flights-2026-06"
  },
  "bbox": [
    -122.45083333333334,
    33.28,
    -111.76666666666667,
    37.65083333333333
  ],
  "geometry": {"coordinates":[[-122.4,37.63333333333333],[-122.4,37.63333333333333],[-122.4,37.63333333333333],[-122.45083333333334,37.65083333333333],[-122.45083333333334,37.65083333333333],[-122.45083333333334,37.65083333333333],[-122.45083333333334,37.65083333333333],[-122.45083333333334,37.65083333333333],[-122.43555555555555,37.496944444444445],[-122.43555555555555,37.496944444444445],[-122.43555555555555,37.496944444444445],[-122.43555555555555,37.496944444444445],[-122.43555555555555,37.496944444444445],[-122.29722222222222,37.34638888888889],[-122.29722222222222,37.34638888888889],[-122.29722222222222,37.34638888888889],[-122.29722222222222,37.34638888888889],[-122.29722222222222,37.34638888888889],[-122.085,37.21333333333334],[-122.085,37.21333333333334],[-122.085,37.21333333333334],[-122.085,37.21333333333334],[-122.085,37.21333333333334],[-122.085,37.21333333333334],[-122.085,37.21333333333334],[-121.86027777777777,37.07166666666667],[-121.86027777777777,37.07166666666667],[-121.86027777777777,37.07166666666667],[-121.86027777777777,37.07166666666667],[-121.86027777777777,37.07166666666667],[-121.86027777777777,37.07166666666667],[-121.86027777777777,37.07166666666667],[-121.74472222222222,36.99861111111111],[-121.74472222222222,36.99861111111111],[-121.74472222222222,36.99861111111111],[-121.74472222222222,36.99861111111111],[-121.615,36.91444444444444],[-121.615,36.91444444444444],[-121.615,36.91444444444444],[-121.615,36.91444444444444],[-121.25277777777778,36.68444444444444],[-121.25277777777778,36.68444444444444],[-121.25277777777778,36.68444444444444],[-121.25277777777778,36.68444444444444],[-121.25277777777778,36.68444444444444],[-121.25277777777778,36.68444444444444],[-121.25277777777778,36.68444444444444],[-121.25277777777778,36.68444444444444],[-120.74638888888889,36.35277777777778],[-120.74638888888889,36.35277777777778],[-120.62249999999999,36.269444444444446],[-120.62249999999999,36.269444444444446],[-120.62249999999999,36.269444444444446],[-120.62249999999999,36.269444444444446],[-120.62249999999999,36.269444444444446],[-120.62249999999999,36.269444444444446],[-120.37694444444443,36.10388888888889],[-120.37694444444443,36.10388888888889],[-120.37694444444443,36.10388888888889],[-120.37694444444443,36.10388888888889],[-120.37694444444443,36.10388888888889],[-120.37694444444443,36.10388888888889],[-120.37694444444443,36.10388888888889],[-120.37694444444443,36.10388888888889],[-120.1111111111111,35.92333333333333],[-120.1111111111111,35.92333333333333],[-120.1111111111111,35.92333333333333],[-120.1111111111111,35.92333333333333],[-120.1111111111111,35.92333333333333],[-120.1111111111111,35.92333333333333],[-119.98944444444444,35.84],[-119.98944444444444,35.84],[-119.98944444444444,35.84],[-119.98944444444444,35.84],[-119.98944444444444,35.84],[-119.74972222222222,35.67111111111111],[-119.74972222222222,35.67111111111111],[-119.74972222222222,35.67111111111111],[-119.74972222222222,35.67111111111111],[-119.63,35.586666666666666],[-119.63,35.586666666666666],[-119.63,35.586666666666666],[-119.51055555555556,35.50138888888889],[-119.50833333333334,35.5],[-119.50833333333334,35.5],[-119.39333333333335,35.41777777777777],[-119.39333333333335,35.41777777777777],[-119.39333333333335,35.41777777777777],[-119.3888888888889,35.414722222222224],[-119.3888888888889,35.414722222222224],[-119.06277777777777,35.18111111111111],[-119.06277777777777,35.18111111111111],[-119.06277777777777,35.18111111111111],[-119.06277777777777,35.18111111111111],[-118.94611111111111,35.096944444444446],[-118.94611111111111,35.096944444444446],[-118.94611111111111,35.096944444444446],[-118.94611111111111,35.096944444444446],[-118.83,35.0125],[-118.80222222222221,34.9925],[-118.80222222222221,34.9925],[-118.80222222222221,34.9925],[-118.80222222222221,34.9925],[-118.685,34.9075],[-118.685,34.9075],[-118.685,34.9075],[-118.58944444444444,34.837500000000006],[-118.58944444444444,34.837500000000006],[-118.58944444444444,34.837500000000006],[-118.58944444444444,34.837500000000006],[-118.36555555555555,34.67333333333333],[-118.36555555555555,34.67333333333333],[-118.36555555555555,34.67333333333333],[-118.36555555555555,34.67333333333333],[-118.36555555555555,34.67333333333333],[-118.36555555555555,34.67333333333333],[-118.36555555555555,34.67333333333333],[-118.13694444444445,34.50472222222222],[-118.13694444444445,34.50472222222222],[-118.13694444444445,34.50472222222222],[-118.13694444444445,34.50472222222222],[-118.13694444444445,34.50472222222222],[-118.0275,34.43],[-118.0275,34.43],[-118.0275,34.43],[-118.0275,34.43],[-118.0275,34.43],[-117.88472222222222,34.38916666666667],[-117.88472222222222,34.38916666666667],[-117.88472222222222,34.38916666666667],[-117.72638888888889,34.350833333333334],[-117.72638888888889,34.350833333333334],[-117.72638888888889,34.350833333333334],[-117.72638888888889,34.350833333333334],[-117.72638888888889,34.350833333333334],[-117.72638888888889,34.350833333333334],[-117.12777777777777,34.205555555555556],[-117.12777777777777,34.205555555555556],[-117.12777777777777,34.205555555555556],[-117.12777777777777,34.205555555555556],[-117.12777777777777,34.205555555555556],[-116.98555555555555,34.17027777777778],[-116.98555555555555,34.17027777777778],[-116.98555555555555,34.17027777777778],[-116.98555555555555,34.17027777777778],[-116.41444444444446,34.027499999999996],[-116.41444444444446,34.027499999999996],[-116.41444444444446,34.027499999999996],[-116.41444444444446,34.027499999999996],[-116.41444444444446,34.027499999999996],[-116.41444444444446,34.027499999999996],[-116.26361111111112,33.98916666666667],[-116.26361111111112,33.98916666666667],[-116.11638888888888,33.95166666666667],[-116.11638888888888,33.95166666666667],[-116.11638888888888,33.95166666666667],[-116.11638888888888,33.95166666666667],[-116.11638888888888,33.95166666666667],[-115.96583333333334,33.91277777777778],[-115.96583333333334,33.91277777777778],[-115.96583333333334,33.91277777777778],[-115.96583333333334,33.91277777777778],[-115.8175,33.874722222222225],[-115.8175,33.874722222222225],[-115.8175,33.874722222222225],[-115.8175,33.874722222222225],[-115.8175,33.874722222222225],[-115.8175,33.874722222222225],[-115.36777777777777,33.757222222222225],[-115.36777777777777,33.757222222222225],[-115.36777777777777,33.757222222222225],[-115.36777777777777,33.757222222222225],[-115.36777777777777,33.757222222222225],[-115.36777777777777,33.757222222222225],[-115.36777777777777,33.757222222222225],[-115.21944444444445,33.718333333333334],[-115.21944444444445,33.718333333333334],[-115.21944444444445,33.718333333333334],[-115.21944444444445,33.718333333333334],[-115.21944444444445,33.718333333333334],[-115.21944444444445,33.718333333333334],[-115.21944444444445,33.718333333333334],[-115.06944444444444,33.67833333333333],[-115.06944444444444,33.67833333333333],[-115.06944444444444,33.67833333333333],[-114.89,33.63055555555555],[-114.74,33.59138888888889],[-114.74,33.59138888888889],[-114.74,33.59138888888889],[-114.74,33.59138888888889],[-114.62166666666666,33.56861111111112],[-114.62166666666666,33.56861111111112],[-114.62166666666666,33.56861111111112],[-114.46888888888888,33.53916666666667],[-114.46888888888888,33.53916666666667],[-114.46888888888888,33.53916666666667],[-114.46888888888888,33.53916666666667],[-114.2863888888889,33.50361111111111],[-114.2863888888889,33.50361111111111],[-114.2863888888889,33.50361111111111],[-114.2863888888889,33.50361111111111],[-114.2863888888889,33.50361111111111],[-114.17500000000001,33.48111111111111],[-114.17500000000001,33.48111111111111],[-114.17500000000001,33.48111111111111],[-113.99166666666667,33.44444444444444],[-113.99166666666667,33.44444444444444],[-113.99166666666667,33.44444444444444],[-113.99166666666667,33.44444444444444],[-113.99166666666667,33.44444444444444],[-113.99166666666667,33.44444444444444],[-113.7363888888889,33.393055555555556],[-113.7363888888889,33.393055555555556],[-113.7363888888889,33.393055555555556],[-113.7363888888889,33.393055555555556],[-113.7363888888889,33.393055555555556],[-113.7363888888889,33.393055555555556],[-113.46888888888888,33.33861111111111],[-113.46888888888888,33.33861111111111],[-113.46888888888888,33.33861111111111],[-113.46888888888888,33.33861111111111],[-113.46888888888888,33.33861111111111],[-113.46888888888888,33.33861111111111],[-113.19055555555556,33.291666666666664],[-113.19055555555556,33.291666666666664],[-113.19055555555556,33.291666666666664],[-113.19055555555556,33.291666666666664],[-113.19055555555556,33.291666666666664],[-113.19055555555556,33.291666666666664],[-113.19055555555556,33.291666666666664],[-113.19055555555556,33.291666666666664],[-112.88333333333334,33.28333333333333],[-112.88333333333334,33.28333333333333],[-112.88333333333334,33.28333333333333],[-112.88333333333334,33.28333333333333],[-112.84083333333332,33.28],[-112.84083333333332,33.28],[-112.78333333333333,33.28333333333333],[-112.78333333333333,33.28333333333333],[-112.78333333333333,33.28333333333333],[-112.63166666666666,33.29833333333333],[-112.63166666666666,33.29833333333333],[-112.63166666666666,33.29833333333333],[-112.63166666666666,33.29833333333333],[-112.56666666666666,33.3],[-112.56666666666666,33.3],[-112.56666666666666,33.3],[-112.56666666666666,33.3],[-112.56666666666666,33.3],[-112.34138888888889,33.325],[-112.34138888888889,33.325],[-112.34138888888889,33.325],[-112.34138888888889,33.325],[-112.34138888888889,33.325],[-112.34138888888889,33.325],[-112.34138888888889,33.325],[-112.17055555555557,33.34055555555556],[-112.17055555555557,33.34055555555556],[-112.17055555555557,33.34055555555556],[-112.17055555555557,33.34055555555556],[-112.17055555555557,33.34055555555556],[-112.17055555555557,33.34055555555556],[-112.17055555555557,33.34055555555556],[-112.17055555555557,33.34055555555556],[-111.93333333333334,33.35],[-111.93333333333334,33.35],[-111.93333333333334,33.35],[-111.93333333333334,33.35],[-111.86666666666666,33.35],[-111.86666666666666,33.35],[-111.86666666666666,33.35],[-111.86666666666666,33.35],[-111.86666666666666,33.35],[-111.84194444444444,33.344166666666666],[-111.84194444444444,33.344166666666666],[-111.84194444444444,33.344166666666666],[-111.76666666666667,33.4],[-111.76666666666667,33.4],[-111.76666666666667,33.4],[-111.76666666666667,33.4],[-111.76666666666667,33.4],[-111.76666666666667,33.4],[-111.76666666666667,33.4],[-111.78388888888888,33.404444444444444],[-111.78388888888888,33.404444444444444],[-111.81666666666666,33.43333333333333],[-111.81666666666666,33.43333333333333],[-111.83583333333333,33.43722222222222],[-111.83583333333333,33.43722222222222],[-111.83583333333333,33.43722222222222],[-111.83583333333333,33.43722222222222],[-111.83583333333333,33.43722222222222],[-111.89250000000001,33.440555555555555],[-111.93333333333334,33.43333333333333],[-111.93333333333334,33.43333333333333],[-111.93333333333334,33.43333333333333],[-111.98333333333333,33.43333333333333],[-111.98333333333333,33.43333333333333],[-111.98333333333333,33.43333333333333],[-111.98333333333333,33.43333333333333]],"type":"LineString"}
}
