{
  "id": 2031579479,
  "type": "Feature",
  "properties": {
    "geom:area": 0,
    "geom:bbox": "-122.352680,37.491780,-121.253910,37.611590",
    "geom:latitude": 37.54222837179615,
    "geom:longitude": -121.8101819312103,
    "src:alt_label": "swim-approach",
    "src:geom": "swim",
    "swim:elevations": [
      4470,
      4445,
      4079,
      3855,
      3465,
      3298,
      3259,
      2965,
      2778,
      2597,
      2464,
      2435,
      2438,
      2190,
      2141,
      1993,
      1745,
      1536,
      1309,
      1248,
      1087,
      1006,
      952,
      826,
      695,
      585,
      342,
      241,
      151,
      47
    ],
    "swim:geom": "approach",
    "swim:timestamps": [
      1781858339,
      1781858343,
      1781858380,
      1781858404,
      1781858447,
      1781858486,
      1781858499,
      1781858543,
      1781858563,
      1781858585,
      1781858623,
      1781858633,
      1781858642,
      1781858693,
      1781858710,
      1781858755,
      1781858786,
      1781858808,
      1781858843,
      1781858855,
      1781858891,
      1781858927,
      1781858941,
      1781858964,
      1781858985,
      1781859007,
      1781859058,
      1781859085,
      1781859110,
      1781859134
    ],
    "wof:geomhash": "ffcf5b446d14b01d3f3758cabacef5a8",
    "wof:id": 2031579479,
    "wof:repo": "sfomuseum-data-flights-2026-06"
  },
  "bbox": [
    -122.35268,
    37.49178,
    -121.25391,
    37.61159
  ],
  "geometry": {"coordinates":[[-121.25391,37.59383],[-121.26212,37.59268],[-121.33964,37.58353],[-121.38854,37.57807],[-121.47405,37.56818],[-121.54915,37.55955],[-121.57301,37.55679],[-121.64632,37.54547],[-121.68011,37.53727],[-121.71498,37.52896],[-121.7718,37.51544],[-121.78708,37.51173],[-121.79999,37.50864],[-121.87234,37.49178],[-121.89774,37.49198],[-121.96107,37.49594],[-122.00097,37.4981],[-122.0298,37.49969],[-122.07456,37.50225],[-122.08864,37.50356],[-122.13273,37.51918],[-122.17065,37.53502],[-122.18475,37.54094],[-122.20796,37.55083],[-122.22921,37.55973],[-122.24931,37.56827],[-122.29388,37.58694],[-122.31449,37.59565],[-122.33395,37.60389],[-122.35268,37.61159]],"type":"LineString"}
}
