{
  "id": 2031665021,
  "type": "Feature",
  "properties": {
    "geom:area": 0,
    "geom:bbox": "-122.853000,37.538440,-122.109420,38.515250",
    "geom:latitude": 37.88693363341856,
    "geom:longitude": -122.51748486487874,
    "src:alt_label": "swim-approach",
    "src:geom": "swim",
    "swim:elevations": [
      7437,
      7200,
      6619,
      6370,
      6070,
      5582,
      5218,
      5073,
      4719,
      4334,
      4229,
      4026,
      3773,
      3556,
      3379,
      3353,
      3353,
      3137,
      2764,
      2610,
      2359,
      2254,
      1986,
      1827,
      1748,
      1640,
      1501,
      1202,
      1091,
      844,
      720,
      457,
      419,
      237,
      103,
      0
    ],
    "swim:geom": "approach",
    "swim:timestamps": [
      1782666493,
      1782666513,
      1782666558,
      1782666580,
      1782666608,
      1782666652,
      1782666685,
      1782666700,
      1782666736,
      1782666776,
      1782666806,
      1782666824,
      1782666859,
      1782666889,
      1782666918,
      1782666942,
      1782666960,
      1782667002,
      1782667047,
      1782667066,
      1782667101,
      1782667115,
      1782667161,
      1782667197,
      1782667221,
      1782667236,
      1782667255,
      1782667288,
      1782667298,
      1782667329,
      1782667350,
      1782667403,
      1782667416,
      1782667463,
      1782667496,
      1782667521
    ],
    "wof:geomhash": "b576b540765254b701990e5d0d84f6f1",
    "wof:id": 2031665021,
    "wof:repo": "sfomuseum-data-flights-2026-06"
  },
  "bbox": [
    -122.853,
    37.53844,
    -122.10942,
    38.51525
  ],
  "geometry": {"coordinates":[[-122.853,38.51525],[-122.84086,38.47423],[-122.81296,38.37936],[-122.79989,38.33463],[-122.78298,38.27634],[-122.75586,38.18433],[-122.73656,38.11801],[-122.72806,38.08896],[-122.70798,38.0195],[-122.68675,37.94606],[-122.66459,37.89547],[-122.64094,37.86908],[-122.59227,37.82295],[-122.5525,37.7855],[-122.51546,37.75051],[-122.48539,37.72219],[-122.4623,37.70696],[-122.40178,37.68671],[-122.34031,37.66659],[-122.31474,37.65834],[-122.26804,37.64318],[-122.25067,37.63754],[-122.18988,37.61801],[-122.14501,37.60424],[-122.11696,37.59121],[-122.10942,37.57694],[-122.11479,37.55703],[-122.15138,37.53973],[-122.16456,37.53844],[-122.20114,37.54751],[-122.22252,37.55702],[-122.27161,37.57757],[-122.28225,37.58205],[-122.3164,37.59671],[-122.34065,37.6066],[-122.35822,37.6141]],"type":"LineString"}
}
