{
  "id": 2031587929,
  "type": "Feature",
  "properties": {
    "geom:area": 0,
    "geom:bbox": "-122.550040,36.725930,-121.315510,37.665390",
    "geom:latitude": 37.20156905031167,
    "geom:longitude": -122.02348247584496,
    "src:alt_label": "swim-takeoff",
    "src:geom": "swim",
    "swim:elevations": [
      122,
      319,
      942,
      1074,
      1266,
      1375,
      1689,
      2324,
      2657,
      2723,
      3050,
      3215,
      3409,
      3709,
      3872,
      4103,
      4241,
      4559,
      4931,
      5145,
      5337,
      5436,
      5858,
      6096,
      6314,
      6433,
      6765,
      6967,
      7164,
      7205,
      7526,
      7662,
      7821,
      7961,
      8001
    ],
    "swim:geom": "takeoff",
    "swim:timestamps": [
      1781853648,
      1781853664,
      1781853718,
      1781853738,
      1781853768,
      1781853783,
      1781853821,
      1781853867,
      1781853898,
      1781853902,
      1781853938,
      1781853963,
      1781853990,
      1781854018,
      1781854036,
      1781854072,
      1781854091,
      1781854128,
      1781854166,
      1781854197,
      1781854219,
      1781854231,
      1781854284,
      1781854317,
      1781854345,
      1781854357,
      1781854400,
      1781854435,
      1781854468,
      1781854478,
      1781854523,
      1781854547,
      1781854579,
      1781854616,
      1781854626
    ],
    "wof:geomhash": "c49df8c4ecd165c74e718903b4b9faad",
    "wof:id": 2031587929,
    "wof:repo": "sfomuseum-data-flights-2026-06"
  },
  "bbox": [
    -122.55004,
    36.72593,
    -121.31551,
    37.66539
  ],
  "geometry": {"coordinates":[[-122.39208,37.62831],[-122.40752,37.63497],[-122.46241,37.65642],[-122.48392,37.66539],[-122.5211,37.66378],[-122.53537,37.65127],[-122.55004,37.60742],[-122.53893,37.55164],[-122.52405,37.51337],[-122.52211,37.50827],[-122.4901,37.46991],[-122.45619,37.45059],[-122.41684,37.42644],[-122.37424,37.39942],[-122.34828,37.38307],[-122.2921,37.34788],[-122.261,37.32842],[-122.20022,37.2917],[-122.13843,37.25161],[-122.08801,37.21857],[-122.05142,37.19535],[-122.03112,37.18275],[-121.93796,37.12549],[-121.88067,37.08892],[-121.83422,37.05761],[-121.81287,37.0439],[-121.73609,36.99628],[-121.6733,36.9554],[-121.61319,36.91763],[-121.59347,36.90517],[-121.51018,36.85161],[-121.46647,36.82373],[-121.40473,36.78386],[-121.33472,36.73849],[-121.31551,36.72593]],"type":"LineString"}
}
