{
  "id": 2031451565,
  "type": "Feature",
  "properties": {
    "geom:area": 0,
    "geom:bbox": "-123.338970,37.629220,-122.394640,38.517430",
    "geom:latitude": 38.030924866028776,
    "geom:longitude": -122.90041119349993,
    "src:alt_label": "swim-takeoff",
    "src:geom": "swim",
    "swim:elevations": [
      152,
      632,
      876,
      1067,
      1223,
      1317,
      1615,
      1802,
      2248,
      2513,
      2744,
      3076,
      3153,
      3274,
      3326,
      3386,
      3725,
      3991,
      4294,
      4511,
      4712,
      4841,
      5179,
      5397,
      5454,
      5814,
      5970,
      6118
    ],
    "swim:geom": "takeoff",
    "swim:timestamps": [
      1780621665,
      1780621708,
      1780621738,
      1780621765,
      1780621798,
      1780621825,
      1780621855,
      1780621874,
      1780621916,
      1780621946,
      1780621970,
      1780622008,
      1780622023,
      1780622053,
      1780622068,
      1780622077,
      1780622119,
      1780622148,
      1780622183,
      1780622219,
      1780622246,
      1780622264,
      1780622308,
      1780622335,
      1780622344,
      1780622387,
      1780622412,
      1780622430
    ],
    "wof:geomhash": "fc0a26c8b05b477432432fddfe556f9a",
    "wof:id": 2031451565,
    "wof:repo": "sfomuseum-data-flights-2026-06"
  },
  "bbox": [
    -123.33897,
    37.62922,
    -122.39464,
    38.51743
  ],
  "geometry": {"coordinates":[[-122.39464,37.62922],[-122.43836,37.64742],[-122.47129,37.66136],[-122.50163,37.67422],[-122.53943,37.69602],[-122.57354,37.71601],[-122.6141,37.73998],[-122.64106,37.75593],[-122.70037,37.79076],[-122.74347,37.81619],[-122.77187,37.84196],[-122.81004,37.88779],[-122.82542,37.90652],[-122.85839,37.94644],[-122.87573,37.9672],[-122.88636,37.97989],[-122.93659,38.04032],[-122.97197,38.08268],[-123.01423,38.13329],[-123.05924,38.18693],[-123.09374,38.22809],[-123.11826,38.25719],[-123.17512,38.3248],[-123.2106,38.36706],[-123.22256,38.38113],[-123.27967,38.44876],[-123.31361,38.48859],[-123.33897,38.51743]],"type":"LineString"}
}
