{
  "id": 2031606181,
  "type": "Feature",
  "properties": {
    "geom:area": 0,
    "geom:bbox": "-122.617170,36.732830,-122.364100,37.662890",
    "geom:latitude": 37.25435361681975,
    "geom:longitude": -122.5388396539606,
    "src:alt_label": "swim-takeoff",
    "src:geom": "swim",
    "swim:elevations": [
      329,
      577,
      957,
      1065,
      1205,
      1772,
      2176,
      2643,
      3103,
      3192,
      3631,
      4135,
      4182,
      4801,
      5118,
      5459,
      5544,
      5818,
      6099,
      6409,
      6431,
      6938,
      7143,
      7240,
      7706,
      7945,
      8168
    ],
    "swim:geom": "takeoff",
    "swim:timestamps": [
      1782039207,
      1782039229,
      1782039254,
      1782039265,
      1782039290,
      1782039328,
      1782039354,
      1782039388,
      1782039417,
      1782039426,
      1782039467,
      1782039506,
      1782039510,
      1782039561,
      1782039590,
      1782039623,
      1782039630,
      1782039656,
      1782039684,
      1782039718,
      1782039721,
      1782039776,
      1782039801,
      1782039811,
      1782039868,
      1782039896,
      1782039921
    ],
    "wof:geomhash": "fcd111c79033d1d4c2d1fe2b62ce3b92",
    "wof:id": 2031606181,
    "wof:repo": "sfomuseum-data-flights-2026-06"
  },
  "bbox": [
    -122.61717,
    36.73283,
    -122.3641,
    37.66289
  ],
  "geometry": {"coordinates":[[-122.40309,37.63057],[-122.42341,37.6391],[-122.44706,37.64803],[-122.45868,37.65244],[-122.48958,37.66289],[-122.54844,37.6604],[-122.5875,37.65339],[-122.61717,37.61659],[-122.61399,37.57605],[-122.61301,37.5647],[-122.6063,37.50241],[-122.60096,37.44038],[-122.6004,37.43401],[-122.59416,37.35113],[-122.58991,37.30157],[-122.58505,37.24597],[-122.58403,37.23354],[-122.58027,37.18982],[-122.5759,37.14113],[-122.57062,37.08086],[-122.57013,37.0747],[-122.54237,36.9774],[-122.51288,36.93681],[-122.50038,36.91974],[-122.4307,36.82454],[-122.39605,36.7762],[-122.3641,36.73283]],"type":"LineString"}
}
