{
  "id": 2031649853,
  "type": "Feature",
  "properties": {
    "geom:area": 0,
    "geom:bbox": "-122.399890,37.629910,-121.430780,38.517390",
    "geom:latitude": 38.05866502353644,
    "geom:longitude": -121.91248275780778,
    "src:alt_label": "swim-takeoff",
    "src:geom": "swim",
    "swim:elevations": [
      369,
      767,
      892,
      1273,
      1346,
      1589,
      1639,
      2218,
      2602,
      2750,
      3015,
      3168,
      3244,
      3336,
      3553,
      3902,
      4069,
      4281,
      4495,
      4998,
      5158,
      5476,
      5545,
      5889,
      6180,
      6192,
      6525,
      6582
    ],
    "swim:geom": "takeoff",
    "swim:timestamps": [
      1782477447,
      1782477476,
      1782477489,
      1782477538,
      1782477552,
      1782477597,
      1782477602,
      1782477649,
      1782477681,
      1782477693,
      1782477729,
      1782477759,
      1782477783,
      1782477800,
      1782477828,
      1782477864,
      1782477882,
      1782477909,
      1782477933,
      1782477984,
      1782478000,
      1782478048,
      1782478058,
      1782478100,
      1782478137,
      1782478141,
      1782478197,
      1782478203
    ],
    "wof:geomhash": "cfdace3a274461950ebf09001b4f710c",
    "wof:id": 2031649853,
    "wof:repo": "sfomuseum-data-flights-2026-06"
  },
  "bbox": [
    -122.39989,
    37.62991,
    -121.43078,
    38.51739
  ],
  "geometry": {"coordinates":[[-122.39824,37.62991],[-122.39989,37.65157],[-122.38888,37.65837],[-122.33523,37.67627],[-122.31772,37.68211],[-122.25401,37.70415],[-122.24637,37.70675],[-122.18894,37.74725],[-122.15749,37.78083],[-122.14518,37.79424],[-122.10848,37.83474],[-122.07591,37.8707],[-122.04869,37.90086],[-122.02648,37.92525],[-121.99054,37.96449],[-121.94386,38.01586],[-121.91928,38.04282],[-121.88378,38.08158],[-121.84988,38.11864],[-121.78008,38.1951],[-121.75703,38.22012],[-121.68968,38.29317],[-121.67522,38.30896],[-121.6151,38.37463],[-121.56215,38.43158],[-121.55454,38.4385],[-121.44307,38.50978],[-121.43078,38.51739]],"type":"LineString"}
}
