{
  "id": 2031418317,
  "type": "Feature",
  "properties": {
    "geom:area": 0,
    "geom:bbox": "-122.345020,37.421490,-121.272290,37.630150",
    "geom:latitude": 37.5442317082924,
    "geom:longitude": -121.82680251168156,
    "src:alt_label": "swim-approach",
    "src:geom": "swim",
    "swim:elevations": [
      4645,
      4543,
      4392,
      4075,
      3903,
      3729,
      3460,
      3353,
      3353,
      3351,
      3279,
      3075,
      2930,
      2744,
      2743,
      2586,
      2438,
      2438,
      2417,
      2229,
      2143,
      2134,
      2134,
      2134,
      2134,
      1961,
      1796,
      1467,
      1129,
      1007,
      937,
      686,
      501,
      415,
      337,
      123,
      76
    ],
    "swim:geom": "approach",
    "swim:timestamps": [
      1780309315,
      1780309331,
      1780309352,
      1780309395,
      1780309416,
      1780309440,
      1780309483,
      1780309509,
      1780309556,
      1780309583,
      1780309596,
      1780309633,
      1780309675,
      1780309716,
      1780309740,
      1780309775,
      1780309812,
      1780309835,
      1780309870,
      1780309906,
      1780309922,
      1780309963,
      1780309980,
      1780310006,
      1780310015,
      1780310051,
      1780310072,
      1780310113,
      1780310150,
      1780310174,
      1780310191,
      1780310235,
      1780310276,
      1780310295,
      1780310312,
      1780310366,
      1780310377
    ],
    "wof:geomhash": "ff650b993de1962fb9ce6a9a2bd02909",
    "wof:id": 2031418317,
    "wof:repo": "sfomuseum-data-flights-2026-06"
  },
  "bbox": [
    -122.34502,
    37.42149,
    -121.27229,
    37.63015
  ],
  "geometry": {"coordinates":[[-121.27229,37.59154],[-121.30114,37.58804],[-121.33802,37.58417],[-121.41566,37.57546],[-121.45239,37.57116],[-121.49325,37.56599],[-121.56231,37.55796],[-121.60495,37.55319],[-121.66885,37.56261],[-121.69968,37.57983],[-121.71554,37.58864],[-121.75916,37.61288],[-121.81166,37.63015],[-121.8673,37.62225],[-121.88565,37.60155],[-121.87189,37.56361],[-121.84802,37.52681],[-121.84488,37.50148],[-121.86375,37.46609],[-121.88825,37.43295],[-121.90942,37.42746],[-121.96345,37.42309],[-121.98526,37.42149],[-122.01124,37.43285],[-122.0186,37.43883],[-122.04596,37.46544],[-122.06466,37.47932],[-122.10363,37.50654],[-122.14407,37.52377],[-122.1694,37.53443],[-122.18564,37.54138],[-122.22976,37.55995],[-122.26565,37.57507],[-122.28093,37.58142],[-122.29447,37.58724],[-122.33664,37.60493],[-122.34502,37.60842]],"type":"LineString"}
}
