{
  "id": 2031555913,
  "type": "Feature",
  "properties": {
    "geom:area": 0,
    "geom:bbox": "-122.333333,35.055556,-106.599722,37.700000",
    "geom:latitude": 36.35774330689131,
    "geom:longitude": -114.52681478704841,
    "src:alt_label": "swim-path",
    "src:geom": "swim",
    "swim:altitudes": [
      "065",
      "073",
      "073",
      "192",
      "203",
      "203",
      "213",
      "228",
      "228",
      "228",
      "260",
      "260",
      "313",
      "313",
      "337",
      "337",
      "337",
      "340",
      "360C",
      "360C",
      "360C",
      "360C",
      "360C",
      "360C",
      "360C",
      "360C",
      "360C",
      "360C",
      "360C",
      "360C",
      "360C",
      "360C",
      "360C",
      "360C",
      "360C",
      "360C",
      "360C",
      "360C",
      "360C",
      "360C",
      "360C",
      "360C",
      "360C",
      "361C",
      "361C",
      "360C",
      "360C",
      "360C",
      "360C",
      "360C",
      "361C",
      "361C",
      "360C",
      "360C",
      "360C",
      "360C",
      "360C",
      "360C",
      "360C",
      "360C",
      "360C",
      "360C",
      "361C",
      "361C",
      "360C",
      "360C",
      "360C",
      "360C",
      "360C",
      "360C",
      "360C",
      "360C",
      "360C",
      "360C",
      "360C",
      "360C",
      "360C",
      "360C",
      "360C",
      "360C",
      "361C",
      "360C",
      "360C",
      "360C",
      "360C",
      "360C",
      "360C",
      "360C",
      "360C",
      "360C",
      "360C",
      "360C",
      "360C",
      "360C",
      "360C",
      "360C",
      "360C",
      "360C",
      "360C",
      "360C",
      "360C",
      "360C",
      "361C",
      "361C",
      "300",
      "300",
      "261",
      "236",
      "236",
      "236",
      "143",
      "143",
      "143",
      "141",
      "141",
      "103",
      "083",
      "074",
      "071",
      "071",
      "062",
      "050",
      "050",
      "042",
      "027",
      "027",
      "019",
      "019",
      "016",
      "011",
      "004"
    ],
    "swim:geom": "path",
    "swim:speeds": [
      158,
      210,
      210,
      345,
      372,
      372,
      401,
      412,
      412,
      412,
      427,
      427,
      459,
      459,
      461,
      461,
      461,
      461,
      458,
      458,
      458,
      458,
      458,
      458,
      458,
      459,
      458,
      458,
      459,
      458,
      458,
      463,
      463,
      463,
      463,
      463,
      463,
      461,
      461,
      461,
      462,
      462,
      462,
      466,
      466,
      465,
      466,
      466,
      466,
      466,
      466,
      466,
      455,
      454,
      454,
      454,
      454,
      454,
      454,
      463,
      463,
      463,
      478,
      478,
      477,
      477,
      474,
      476,
      476,
      474,
      475,
      475,
      475,
      474,
      474,
      473,
      472,
      472,
      472,
      472,
      471,
      470,
      470,
      471,
      476,
      478,
      478,
      479,
      479,
      480,
      480,
      480,
      480,
      479,
      479,
      479,
      479,
      479,
      464,
      464,
      465,
      465,
      468,
      468,
      478,
      478,
      456,
      443,
      443,
      443,
      359,
      359,
      359,
      362,
      362,
      297,
      261,
      248,
      251,
      251,
      239,
      234,
      234,
      226,
      214,
      214,
      172,
      172,
      176,
      136,
      122
    ],
    "swim:timestamps": [
      1781640266,
      1781640326,
      1781640326,
      1781640566,
      1781640627,
      1781640627,
      1781640687,
      1781640747,
      1781640747,
      1781640747,
      1781640867,
      1781640867,
      1781641107,
      1781641107,
      1781641227,
      1781641227,
      1781641227,
      1781641287,
      1781641468,
      1781641588,
      1781641588,
      1781641588,
      1781641648,
      1781641708,
      1781641708,
      1781641795,
      1781641828,
      1781641828,
      1781641855,
      1781641888,
      1781641888,
      1781642093,
      1781642093,
      1781642093,
      1781642156,
      1781642156,
      1781642156,
      1781642333,
      1781642393,
      1781642393,
      1781642453,
      1781642453,
      1781642453,
      1781642576,
      1781642576,
      1781642633,
      1781642694,
      1781642694,
      1781642754,
      1781642754,
      1781642814,
      1781642814,
      1781643117,
      1781643177,
      1781643177,
      1781643177,
      1781643237,
      1781643237,
      1781643237,
      1781643658,
      1781643658,
      1781643658,
      1781644078,
      1781644078,
      1781644199,
      1781644199,
      1781644237,
      1781644259,
      1781644259,
      1781644357,
      1781644379,
      1781644379,
      1781644439,
      1781644478,
      1781644478,
      1781644499,
      1781644559,
      1781644559,
      1781644619,
      1781644658,
      1781644739,
      1781644778,
      1781644778,
      1781644838,
      1781644860,
      1781644898,
      1781644898,
      1781644920,
      1781644958,
      1781645018,
      1781645018,
      1781645078,
      1781645078,
      1781645100,
      1781645138,
      1781645138,
      1781645160,
      1781645199,
      1781645391,
      1781645391,
      1781645451,
      1781645451,
      1781645571,
      1781645571,
      1781645811,
      1781645811,
      1781645920,
      1781645992,
      1781645992,
      1781645992,
      1781646280,
      1781646280,
      1781646280,
      1781646292,
      1781646292,
      1781646472,
      1781646592,
      1781646635,
      1781646652,
      1781646652,
      1781646694,
      1781646760,
      1781646760,
      1781646815,
      1781646881,
      1781646881,
      1781646935,
      1781646935,
      1781646953,
      1781646995,
      1781647060
    ],
    "wof:geomhash": "2f5c4f930f271d65f99d44be160f4259",
    "wof:id": 2031555913,
    "wof:repo": "sfomuseum-data-flights-2026-06"
  },
  "bbox": [
    -122.33333333333333,
    35.05555555555555,
    -106.59972222222221,
    37.7
  ],
  "geometry": {"coordinates":[[-106.59972222222221,35.05555555555555],[-106.63,35.10166666666667],[-106.63,35.10166666666667],[-107.03166666666667,35.18666666666666],[-107.15194444444445,35.206944444444446],[-107.15194444444445,35.206944444444446],[-107.26944444444445,35.225833333333334],[-107.4063888888889,35.24777777777778],[-107.4063888888889,35.24777777777778],[-107.4063888888889,35.24777777777778],[-107.69944444444445,35.29472222222222],[-107.69944444444445,35.29472222222222],[-108.30611111111111,35.39],[-108.30611111111111,35.39],[-108.61388888888888,35.43694444444444],[-108.61388888888888,35.43694444444444],[-108.61388888888888,35.43694444444444],[-108.77,35.46055555555556],[-109.24,35.494166666666665],[-109.55333333333333,35.50888888888889],[-109.55333333333333,35.50888888888889],[-109.55333333333333,35.50888888888889],[-109.71027777777778,35.51583333333333],[-109.86527777777778,35.522777777777776],[-109.86527777777778,35.522777777777776],[-110.09472222222222,35.53472222222222],[-110.17972222222222,35.53583333333333],[-110.17972222222222,35.53583333333333],[-110.25083333333333,35.54138888888889],[-110.33583333333333,35.54194444444444],[-110.33583333333333,35.54194444444444],[-110.87027777777777,35.56166666666666],[-110.87027777777777,35.56166666666666],[-110.87027777777777,35.56166666666666],[-111.03444444444445,35.56722222222223],[-111.03444444444445,35.56722222222223],[-111.03444444444445,35.56722222222223],[-111.50416666666666,35.581944444444446],[-111.66027777777778,35.585],[-111.66027777777778,35.585],[-111.81861111111111,35.588055555555556],[-111.81861111111111,35.588055555555556],[-111.81861111111111,35.588055555555556],[-112.13861111111112,35.59722222222222],[-112.13861111111112,35.59722222222222],[-112.29333333333334,35.60194444444445],[-112.45138888888889,35.60611111111111],[-112.45138888888889,35.60611111111111],[-112.60805555555555,35.60916666666667],[-112.60805555555555,35.60916666666667],[-112.76638888888888,35.61222222222222],[-112.76638888888888,35.61222222222222],[-113.54305555555555,35.632222222222225],[-113.69055555555556,35.666666666666664],[-113.69055555555556,35.666666666666664],[-113.69055555555556,35.666666666666664],[-113.83611111111111,35.708333333333336],[-113.83611111111111,35.708333333333336],[-113.83611111111111,35.708333333333336],[-114.88416666666667,36.00555555555555],[-114.88416666666667,36.00555555555555],[-114.88416666666667,36.00555555555555],[-115.9038888888889,36.44583333333333],[-115.9038888888889,36.44583333333333],[-116.18361111111112,36.56444444444444],[-116.18361111111112,36.56444444444444],[-116.27166666666666,36.60166666666667],[-116.32888888888888,36.62555555555556],[-116.32888888888888,36.62555555555556],[-116.56277777777777,36.72361111111111],[-116.62138888888889,36.74805555555556],[-116.62138888888889,36.74805555555556],[-116.75888888888889,36.82194444444445],[-116.83083333333333,36.876666666666665],[-116.83083333333333,36.876666666666665],[-116.8736111111111,36.915277777777774],[-116.98277777777778,37.013888888888886],[-116.98277777777778,37.013888888888886],[-117.0925,37.112500000000004],[-117.1575,37.170833333333334],[-117.30972222222222,37.30722222222222],[-117.37722222222222,37.367222222222225],[-117.37722222222222,37.367222222222225],[-117.4975,37.45722222222223],[-117.55527777777777,37.48166666666667],[-117.65333333333334,37.504444444444445],[-117.65333333333334,37.504444444444445],[-117.72083333333333,37.510555555555555],[-117.82166666666666,37.51861111111111],[-117.99027777777778,37.5325],[-117.99027777777778,37.5325],[-118.15777777777778,37.54555555555555],[-118.15777777777778,37.54555555555555],[-118.22361111111111,37.550555555555555],[-118.32555555555555,37.558611111111105],[-118.32555555555555,37.558611111111105],[-118.40222222222222,37.56444444444444],[-118.49166666666667,37.571111111111115],[-119.01138888888889,37.60888888888889],[-119.01138888888889,37.60888888888889],[-119.17611111111111,37.620555555555555],[-119.17611111111111,37.620555555555555],[-119.50361111111111,37.64277777777778],[-119.50361111111111,37.64277777777778],[-120.16694444444445,37.68472222222222],[-120.16694444444445,37.68472222222222],[-120.46666666666667,37.7],[-120.64750000000001,37.67027777777778],[-120.64750000000001,37.67027777777778],[-120.64750000000001,37.67027777777778],[-121.31666666666666,37.583333333333336],[-121.31666666666666,37.583333333333336],[-121.31666666666666,37.583333333333336],[-121.3325,37.58416666666667],[-121.3325,37.58416666666667],[-121.6763888888889,37.53111111111111],[-121.83111111111111,37.44416666666666],[-121.9,37.43333333333333],[-121.91472222222222,37.43416666666666],[-121.91472222222222,37.43416666666666],[-121.96666666666667,37.45],[-122.05,37.483333333333334],[-122.05,37.483333333333334],[-122.11666666666666,37.516666666666666],[-122.2,37.55],[-122.2,37.55],[-122.25,37.56666666666667],[-122.25,37.56666666666667],[-122.25972222222222,37.57027777777778],[-122.3,37.583333333333336],[-122.33333333333333,37.6]],"type":"LineString"}
}
