{
  "id": 2031536627,
  "type": "Feature",
  "properties": {
    "geom:area": 0,
    "geom:bbox": "-122.657640,37.409860,-122.121210,38.514030",
    "geom:latitude": 37.837140673219906,
    "geom:longitude": -122.41267754247393,
    "src:alt_label": "swim-approach",
    "src:geom": "swim",
    "swim:elevations": [
      8169,
      8077,
      7811,
      7646,
      7194,
      6573,
      6314,
      5973,
      5667,
      5561,
      5280,
      4918,
      4564,
      4251,
      4156,
      4066,
      3694,
      3421,
      3353,
      3353,
      3353,
      3353,
      3353,
      3301,
      3281,
      3064,
      2923,
      2831,
      2623,
      2433,
      2149,
      1795,
      1761,
      1566,
      1380,
      1250,
      1091,
      946,
      850,
      790,
      774,
      661,
      626,
      568,
      365,
      286,
      121,
      120,
      33,
      59,
      155
    ],
    "swim:geom": "approach",
    "swim:timestamps": [
      1781470193,
      1781470200,
      1781470221,
      1781470231,
      1781470260,
      1781470316,
      1781470341,
      1781470375,
      1781470406,
      1781470417,
      1781470446,
      1781470485,
      1781470521,
      1781470554,
      1781470563,
      1781470575,
      1781470615,
      1781470667,
      1781470714,
      1781470735,
      1781470759,
      1781470781,
      1781470850,
      1781470874,
      1781470880,
      1781470915,
      1781470932,
      1781470947,
      1781470972,
      1781470994,
      1781471029,
      1781471068,
      1781471071,
      1781471094,
      1781471120,
      1781471140,
      1781471182,
      1781471210,
      1781471222,
      1781471248,
      1781471251,
      1781471272,
      1781471281,
      1781471293,
      1781471335,
      1781471357,
      1781471397,
      1781471401,
      1781471426,
      1781471432,
      1781471438
    ],
    "wof:geomhash": "8edadc9957e64db9991be33b57e814fd",
    "wof:id": 2031536627,
    "wof:repo": "sfomuseum-data-flights-2026-06"
  },
  "bbox": [
    -122.65764,
    37.40986,
    -122.12121,
    38.51403
  ],
  "geometry": {"coordinates":[[-122.36108,38.51403],[-122.36769,38.50114],[-122.38856,38.46193],[-122.39855,38.44252],[-122.42573,38.38958],[-122.47542,38.29136],[-122.49713,38.24815],[-122.52718,38.18843],[-122.55387,38.13566],[-122.56239,38.1187],[-122.58686,38.07023],[-122.61884,38.0064],[-122.64832,37.94811],[-122.65764,37.89478],[-122.65092,37.88042],[-122.63669,37.86418],[-122.58412,37.81668],[-122.52066,37.75614],[-122.47077,37.70871],[-122.4504,37.68953],[-122.42829,37.66882],[-122.40727,37.6491],[-122.34902,37.5854],[-122.3359,37.55962],[-122.33259,37.55313],[-122.31222,37.51652],[-122.30141,37.49858],[-122.29206,37.48352],[-122.27733,37.45942],[-122.25684,37.4407],[-122.21307,37.42519],[-122.16509,37.41007],[-122.16102,37.40986],[-122.13237,37.41909],[-122.12121,37.4452],[-122.13013,37.46547],[-122.15481,37.50363],[-122.16927,37.52622],[-122.17723,37.53477],[-122.20257,37.54626],[-122.20556,37.5475],[-122.22658,37.55635],[-122.23561,37.56012],[-122.24775,37.56523],[-122.28683,37.58164],[-122.30359,37.58873],[-122.33339,37.60122],[-122.33555,37.60216],[-122.35402,37.60989],[-122.35892,37.61198],[-122.36355,37.61393]],"type":"LineString"}
}
