{
  "id": 2031425971,
  "type": "Feature",
  "properties": {
    "geom:area": 0,
    "geom:bbox": "-122.366111,37.662500,-104.685833,40.651111",
    "geom:latitude": 39.24988553681946,
    "geom:longitude": -113.39982632554027,
    "src:alt_label": "swim-path",
    "src:geom": "swim",
    "swim:altitudes": [
      "034",
      "034",
      "034",
      "165",
      "165",
      "201",
      "201",
      "201",
      "219",
      "219",
      "219",
      "276",
      "276",
      "281",
      "281",
      "285",
      "285",
      "321",
      "321",
      "326",
      "326",
      "326",
      "330",
      "330",
      "330",
      "331",
      "331",
      "337",
      "337",
      "337",
      "341",
      "341",
      "341",
      "350C",
      "350C",
      "350C",
      "350C",
      "350C",
      "350C",
      "350C",
      "350C",
      "350C",
      "350C",
      "350C",
      "350C",
      "350C",
      "351C",
      "351C",
      "350C",
      "350C",
      "350C",
      "350C",
      "350C",
      "350C",
      "350C",
      "350C",
      "350C",
      "350C",
      "350C",
      "350C",
      "350C",
      "350C",
      "350C",
      "350C",
      "350C",
      "350C",
      "350C",
      "350C",
      "350C",
      "350C",
      "350C",
      "350C",
      "350C",
      "351C",
      "351C",
      "351C",
      "350C",
      "350C",
      "350C",
      "350C",
      "350C",
      "350C",
      "350C",
      "350C",
      "350C",
      "350C",
      "350C",
      "350C",
      "350C",
      "350C",
      "350C",
      "350C",
      "350C",
      "350C",
      "350C",
      "350C",
      "350C",
      "350C",
      "333",
      "333",
      "333",
      "278",
      "257",
      "238",
      "238",
      "192",
      "192",
      "172",
      "172",
      "172",
      "096",
      "096",
      "096",
      "055",
      "055",
      "053"
    ],
    "swim:geom": "path",
    "swim:speeds": [
      180,
      180,
      180,
      383,
      383,
      406,
      406,
      406,
      419,
      419,
      419,
      461,
      461,
      460,
      460,
      468,
      468,
      469,
      469,
      469,
      469,
      469,
      467,
      467,
      467,
      467,
      467,
      468,
      468,
      468,
      472,
      472,
      472,
      474,
      474,
      475,
      475,
      475,
      475,
      475,
      475,
      475,
      479,
      479,
      479,
      479,
      481,
      481,
      485,
      487,
      486,
      486,
      485,
      484,
      484,
      484,
      484,
      483,
      483,
      482,
      487,
      487,
      487,
      492,
      495,
      495,
      497,
      499,
      499,
      500,
      498,
      498,
      500,
      503,
      503,
      503,
      509,
      509,
      509,
      509,
      511,
      511,
      513,
      513,
      518,
      518,
      518,
      521,
      522,
      522,
      522,
      522,
      513,
      512,
      512,
      508,
      507,
      504,
      503,
      503,
      503,
      460,
      440,
      424,
      424,
      366,
      366,
      325,
      325,
      325,
      254,
      254,
      254,
      156,
      156,
      100
    ],
    "swim:timestamps": [
      1780356214,
      1780356214,
      1780356214,
      1780356634,
      1780356634,
      1780356754,
      1780356754,
      1780356754,
      1780356815,
      1780356815,
      1780356815,
      1780357115,
      1780357115,
      1780357147,
      1780357147,
      1780357175,
      1780357175,
      1780357355,
      1780357355,
      1780357388,
      1780357388,
      1780357388,
      1780357475,
      1780357475,
      1780357475,
      1780357568,
      1780357568,
      1780357628,
      1780357628,
      1780357628,
      1780357656,
      1780357656,
      1780357656,
      1780357868,
      1780357896,
      1780357928,
      1780357928,
      1780357928,
      1780357928,
      1780358016,
      1780358016,
      1780358016,
      1780358109,
      1780358109,
      1780358136,
      1780358136,
      1780358169,
      1780358169,
      1780358256,
      1780358349,
      1780358409,
      1780358437,
      1780358469,
      1780358557,
      1780358617,
      1780358737,
      1780358770,
      1780358830,
      1780358890,
      1780358950,
      1780359190,
      1780359190,
      1780359190,
      1780359250,
      1780359370,
      1780359370,
      1780359551,
      1780359611,
      1780359611,
      1780359671,
      1780359971,
      1780359971,
      1780360091,
      1780360151,
      1780360151,
      1780360151,
      1780360410,
      1780360470,
      1780360470,
      1780360572,
      1780360632,
      1780360651,
      1780360711,
      1780360711,
      1780360932,
      1780360951,
      1780360951,
      1780361173,
      1780361251,
      1780361251,
      1780361293,
      1780361293,
      1780361432,
      1780361473,
      1780361473,
      1780361593,
      1780361672,
      1780361792,
      1780362033,
      1780362033,
      1780362033,
      1780362213,
      1780362273,
      1780362333,
      1780362333,
      1780362513,
      1780362513,
      1780362631,
      1780362631,
      1780362631,
      1780363054,
      1780363054,
      1780363054,
      1780363294,
      1780363294,
      1780363354
    ],
    "wof:geomhash": "474ccc0d0bc630a0d7b1a64e7df00e26",
    "wof:id": 2031425971,
    "wof:repo": "sfomuseum-data-flights-2026-06"
  },
  "bbox": [
    -122.36611111111111,
    37.6625,
    -104.68583333333333,
    40.651111111111106
  ],
  "geometry": {"coordinates":[[-122.36611111111111,37.6625],[-122.36611111111111,37.6625],[-122.36611111111111,37.6625],[-121.79055555555556,37.98694444444445],[-121.79055555555556,37.98694444444445],[-121.50861111111111,37.98916666666667],[-121.50861111111111,37.98916666666667],[-121.50861111111111,37.98916666666667],[-121.33361111111111,37.99027777777778],[-121.33361111111111,37.99027777777778],[-121.33361111111111,37.99027777777778],[-120.56,38.074444444444445],[-120.56,38.074444444444445],[-120.47222222222223,38.08638888888889],[-120.47222222222223,38.08638888888889],[-120.39916666666667,38.098888888888894],[-120.39916666666667,38.098888888888894],[-119.90972222222223,38.170833333333334],[-119.90972222222223,38.170833333333334],[-119.82166666666666,38.181666666666665],[-119.82166666666666,38.181666666666665],[-119.82166666666666,38.181666666666665],[-119.58611111111111,38.217222222222226],[-119.58611111111111,38.217222222222226],[-119.58611111111111,38.217222222222226],[-119.33749999999999,38.25111111111111],[-119.33749999999999,38.25111111111111],[-119.17500000000001,38.274166666666666],[-119.17500000000001,38.274166666666666],[-119.17500000000001,38.274166666666666],[-119.10777777777777,38.28444444444444],[-119.10777777777777,38.28444444444444],[-119.10777777777777,38.28444444444444],[-118.52555555555556,38.363055555555555],[-118.45222222222222,38.37277777777778],[-118.35555555555555,38.385555555555555],[-118.35555555555555,38.385555555555555],[-118.35555555555555,38.385555555555555],[-118.35555555555555,38.385555555555555],[-118.12083333333332,38.41611111111111],[-118.12083333333332,38.41611111111111],[-118.12083333333332,38.41611111111111],[-117.86027777777777,38.44944444444444],[-117.86027777777777,38.44944444444444],[-117.78972222222222,38.458333333333336],[-117.78972222222222,38.458333333333336],[-117.68944444444445,38.47083333333334],[-117.68944444444445,38.47083333333334],[-117.44583333333334,38.50111111111111],[-117.17083333333333,38.5175],[-116.99666666666667,38.513333333333335],[-116.92555555555556,38.51166666666666],[-116.82305555555556,38.50888888888889],[-116.58,38.50222222222222],[-116.4075,38.496944444444445],[-116.06305555555555,38.48583333333333],[-115.96305555555556,38.4825],[-115.79055555555556,38.47638888888889],[-115.62166666666666,38.47027777777778],[-115.44944444444445,38.46361111111111],[-114.77027777777778,38.43527777777778],[-114.77027777777778,38.43527777777778],[-114.77027777777778,38.43527777777778],[-114.59888888888888,38.44972222222222],[-114.28972222222222,38.5825],[-114.28972222222222,38.5825],[-113.825,38.7825],[-113.66861111111112,38.84916666666667],[-113.66861111111112,38.84916666666667],[-113.50944444444444,38.916666666666664],[-112.72500000000001,39.24472222222222],[-112.72500000000001,39.24472222222222],[-112.41916666666667,39.37027777777778],[-112.25916666666667,39.43527777777778],[-112.25916666666667,39.43527777777778],[-112.25916666666667,39.43527777777778],[-111.53861111111111,39.724722222222226],[-111.37555555555555,39.78944444444444],[-111.37555555555555,39.78944444444444],[-111.11138888888888,39.893055555555556],[-110.94666666666667,39.95722222222223],[-110.88166666666666,39.9825],[-110.71416666666667,40.0475],[-110.71416666666667,40.0475],[-110.10833333333333,40.27916666666667],[-110.04027777777777,40.30472222222222],[-110.04027777777777,40.30472222222222],[-109.42416666666666,40.53472222222222],[-109.21916666666667,40.61055555555556],[-109.21916666666667,40.61055555555556],[-109.06055555555555,40.651111111111106],[-109.06055555555555,40.651111111111106],[-108.63444444444445,40.64611111111111],[-108.50527777777778,40.6375],[-108.50527777777778,40.6375],[-108.13,40.61138888888889],[-107.91944444444445,40.596111111111114],[-107.53555555555555,40.5675],[-106.80638888888889,40.51],[-106.80638888888889,40.51],[-106.80638888888889,40.51],[-106.30166666666666,40.46666666666667],[-106.11972222222222,40.45],[-105.96555555555555,40.43694444444444],[-105.96555555555555,40.43694444444444],[-105.55277777777778,40.37555555555556],[-105.55277777777778,40.37555555555556],[-105.31666666666666,40.333333333333336],[-105.31666666666666,40.333333333333336],[-105.31666666666666,40.333333333333336],[-104.68583333333333,40.128055555555555],[-104.68583333333333,40.128055555555555],[-104.68583333333333,40.128055555555555],[-104.68666666666667,39.906388888888884],[-104.68666666666667,39.906388888888884],[-104.68722222222223,39.875277777777775]],"type":"LineString"}
}
