{
  "id": 2031583315,
  "type": "Feature",
  "properties": {
    "geom:area": 0,
    "geom:bbox": "-122.361740,37.492610,-121.254900,37.614510",
    "geom:latitude": 37.542814020653346,
    "geom:longitude": -121.81514981081217,
    "src:alt_label": "swim-approach",
    "src:geom": "swim",
    "swim:elevations": [
      4729,
      4427,
      4185,
      3877,
      3549,
      3279,
      3207,
      2947,
      2894,
      2716,
      2621,
      2401,
      2201,
      2040,
      1864,
      1702,
      1519,
      1354,
      1179,
      1025,
      969,
      669,
      607,
      419,
      306,
      243,
      207,
      92,
      283
    ],
    "swim:geom": "approach",
    "swim:timestamps": [
      1781896447,
      1781896477,
      1781896503,
      1781896536,
      1781896570,
      1781896613,
      1781896628,
      1781896673,
      1781896680,
      1781896703,
      1781896718,
      1781896768,
      1781896796,
      1781896823,
      1781896855,
      1781896883,
      1781896910,
      1781896937,
      1781896976,
      1781897008,
      1781897021,
      1781897068,
      1781897080,
      1781897119,
      1781897145,
      1781897164,
      1781897171,
      1781897205,
      1781897227
    ],
    "wof:geomhash": "503c69394ede794977fa304af7fc9490",
    "wof:id": 2031583315,
    "wof:repo": "sfomuseum-data-flights-2026-06"
  },
  "bbox": [
    -122.36174,
    37.49261,
    -121.2549,
    37.61451
  ],
  "geometry": {"coordinates":[[-121.2549,37.59371],[-121.3131,37.58637],[-121.36314,37.58093],[-121.42768,37.57351],[-121.49269,37.56595],[-121.5721,37.5566],[-121.59908,37.55346],[-121.67225,37.53907],[-121.68457,37.53615],[-121.72069,37.52751],[-121.74473,37.52175],[-121.81973,37.50404],[-121.86124,37.49413],[-121.90149,37.49261],[-121.95025,37.4952],[-121.9922,37.49757],[-122.03367,37.49995],[-122.07414,37.50218],[-122.12539,37.51599],[-122.16525,37.53272],[-122.17986,37.53892],[-122.23497,37.56215],[-122.24765,37.56752],[-122.28297,37.58238],[-122.30312,37.59087],[-122.3169,37.59661],[-122.32164,37.5986],[-122.34538,37.60866],[-122.36174,37.61451]],"type":"LineString"}
}
