{
  "id": 2031497159,
  "type": "Feature",
  "properties": {
    "geom:area": 0,
    "geom:bbox": "-122.403790,37.627490,-121.255930,38.419290",
    "geom:latitude": 38.02367805503516,
    "geom:longitude": -121.8397222396113,
    "src:alt_label": "swim-takeoff",
    "src:geom": "swim",
    "swim:elevations": [
      245,
      461,
      1016,
      1116,
      1246,
      1791,
      2190,
      2345,
      2827,
      3120,
      3231,
      3285,
      3657,
      3824,
      4179,
      4398,
      4680,
      5017,
      5179,
      5445,
      5594,
      5750,
      6017,
      6261,
      6359,
      6561,
      6755,
      6978
    ],
    "swim:geom": "takeoff",
    "swim:timestamps": [
      1781025527,
      1781025550,
      1781025597,
      1781025612,
      1781025634,
      1781025682,
      1781025716,
      1781025729,
      1781025767,
      1781025807,
      1781025829,
      1781025840,
      1781025883,
      1781025900,
      1781025934,
      1781025960,
      1781025992,
      1781026036,
      1781026057,
      1781026094,
      1781026124,
      1781026142,
      1781026181,
      1781026215,
      1781026233,
      1781026271,
      1781026304,
      1781026336
    ],
    "wof:geomhash": "74127baecb0367ae2233bc741044bc40",
    "wof:id": 2031497159,
    "wof:repo": "sfomuseum-data-flights-2026-06"
  },
  "bbox": [
    -122.40379,
    37.62749,
    -121.25593,
    38.41929
  ],
  "geometry": {"coordinates":[[-122.39539,37.62749],[-122.40379,37.64405],[-122.36214,37.66843],[-122.34542,37.67418],[-122.31775,37.68365],[-122.25053,37.7055],[-122.20542,37.72729],[-122.19299,37.74069],[-122.15714,37.78056],[-122.11902,37.82344],[-122.09642,37.84896],[-122.08427,37.86235],[-122.0236,37.91023],[-121.9979,37.9273],[-121.94515,37.96228],[-121.90472,37.98943],[-121.8548,38.02466],[-121.7856,38.07136],[-121.75169,38.09399],[-121.68953,38.13565],[-121.63983,38.16914],[-121.6082,38.19033],[-121.54068,38.23517],[-121.48007,38.27575],[-121.44811,38.29725],[-121.37898,38.34339],[-121.31645,38.38222],[-121.25593,38.41929]],"type":"LineString"}
}
