{
  "id": 2031497159,
  "type": "Feature",
  "properties": {
    "geom:area": 0,
    "geom:bbox": "-122.209722,37.723611,-77.435000,43.132778",
    "geom:latitude": 41.11083335660538,
    "geom:longitude": -99.88677298094528,
    "src:alt_label": "swim-path",
    "src:geom": "swim",
    "swim:altitudes": [
      "071",
      "071",
      "071",
      "095",
      "186",
      "186",
      "186",
      "186",
      "212",
      "212",
      "212",
      "236",
      "236",
      "236",
      "266",
      "266",
      "266",
      "277",
      "286",
      "286",
      "286",
      "286",
      "310C",
      "310",
      "310",
      "310",
      "322",
      "330C",
      "330C",
      "330C",
      "330C",
      "330C",
      "330C",
      "330C",
      "330C",
      "330C",
      "330C",
      "330C",
      "330C",
      "330C",
      "330C",
      "330C",
      "330C",
      "330C",
      "330C",
      "330C",
      "330C",
      "330C",
      "330C",
      "330C",
      "330C",
      "330C",
      "330C",
      "330C",
      "330C",
      "330C",
      "330C",
      "330C",
      "330C",
      "330C",
      "330C",
      "330C",
      "330C",
      "330C",
      "330C",
      "330C",
      "330C",
      "330C",
      "330C",
      "330C",
      "330C",
      "330C",
      "330C",
      "330C",
      "330C",
      "330C",
      "330C",
      "330C",
      "330C",
      "330C",
      "330C",
      "330C",
      "330C",
      "330C",
      "330",
      "330",
      "340",
      "347",
      "350C",
      "350C",
      "350C",
      "350C",
      "350C",
      "350C",
      "350C",
      "350C",
      "350C",
      "350C",
      "350C",
      "350C",
      "350C",
      "350C",
      "350C",
      "350C",
      "350C",
      "350C",
      "350C",
      "350C",
      "350C",
      "350C",
      "350C",
      "350C",
      "350C",
      "350C",
      "350C",
      "350C",
      "350C",
      "350C",
      "350C",
      "350C",
      "350C",
      "350C",
      "350C",
      "350C",
      "350C",
      "350C",
      "350C",
      "350C",
      "350C",
      "350C",
      "350C",
      "350C",
      "350C",
      "350C",
      "350C",
      "350C",
      "350C",
      "350C",
      "350C",
      "350C",
      "350C",
      "350C",
      "350C",
      "350C",
      "350C",
      "350C",
      "350C",
      "350C",
      "350C",
      "350C",
      "350C",
      "350C",
      "350C",
      "350C",
      "350C",
      "350C",
      "350C",
      "350C",
      "350C",
      "350C",
      "350C",
      "350C",
      "350C",
      "350C",
      "350C",
      "350C",
      "350C",
      "350C",
      "350C",
      "350C",
      "350C",
      "350C",
      "350C",
      "350C",
      "350C",
      "350C",
      "350C",
      "350C",
      "350C",
      "350C",
      "350C",
      "350C",
      "350C",
      "350C",
      "350C",
      "350C",
      "350C",
      "350C",
      "350C",
      "350C",
      "350C",
      "350C",
      "350C",
      "350C",
      "350C",
      "350C",
      "350C",
      "350C",
      "350C",
      "350C",
      "350C",
      "350C",
      "350C",
      "350C",
      "350C",
      "350C",
      "350C",
      "350C",
      "350C",
      "350C",
      "350C",
      "350C",
      "350C",
      "350C",
      "350C",
      "350C",
      "350C",
      "350C",
      "350C",
      "350C",
      "350C",
      "350C",
      "350C",
      "350C",
      "350C",
      "350C",
      "350C",
      "350C",
      "350C",
      "350C",
      "350C",
      "350C",
      "350C",
      "350C",
      "350C",
      "350C",
      "350C",
      "350C",
      "350C",
      "350C",
      "350C",
      "350C",
      "350C",
      "350C",
      "350C",
      "350C",
      "350C",
      "350C",
      "350C",
      "350C",
      "350C",
      "350C",
      "350C",
      "350C",
      "350C",
      "350C",
      "350C",
      "350C",
      "350C",
      "350C",
      "350C",
      "350C",
      "350C",
      "350C",
      "350C",
      "350C",
      "350C",
      "350C",
      "350C",
      "350C",
      "350C",
      "350C",
      "350C",
      "350C",
      "350C",
      "350C",
      "350C",
      "350C",
      "350C",
      "350C",
      "350C",
      "350C",
      "350C",
      "350C",
      "350",
      "350",
      "350",
      "350",
      "350",
      "350",
      "350",
      "350",
      "350",
      "349",
      "335",
      "320",
      "320",
      "316",
      "316",
      "313",
      "299",
      "296",
      "292",
      "271",
      "271",
      "271",
      "250",
      "235",
      "235",
      "231",
      "212",
      "212",
      "180",
      "180",
      "156",
      "142",
      "141",
      "134",
      "134",
      "126",
      "122",
      "112",
      "104",
      "104",
      "091",
      "076",
      "070",
      "070",
      "070",
      "070",
      "060",
      "059",
      "057",
      "046",
      "042",
      "042",
      "037",
      "030",
      "030",
      "020",
      "020",
      "015",
      "009",
      "009",
      "009"
    ],
    "swim:geom": "path",
    "swim:speeds": [
      269,
      269,
      269,
      272,
      378,
      378,
      378,
      378,
      396,
      396,
      396,
      413,
      413,
      413,
      438,
      438,
      438,
      438,
      444,
      444,
      444,
      444,
      466,
      485,
      485,
      485,
      489,
      489,
      489,
      489,
      489,
      489,
      489,
      494,
      494,
      494,
      494,
      492,
      491,
      493,
      493,
      493,
      496,
      496,
      496,
      496,
      495,
      495,
      496,
      496,
      497,
      498,
      498,
      495,
      495,
      493,
      493,
      495,
      500,
      500,
      501,
      501,
      501,
      501,
      502,
      502,
      502,
      526,
      526,
      526,
      529,
      529,
      529,
      533,
      533,
      533,
      534,
      534,
      533,
      533,
      533,
      531,
      529,
      529,
      527,
      527,
      527,
      519,
      518,
      518,
      518,
      518,
      521,
      521,
      515,
      515,
      515,
      515,
      515,
      515,
      515,
      515,
      515,
      514,
      514,
      514,
      514,
      514,
      514,
      514,
      514,
      514,
      514,
      514,
      514,
      513,
      513,
      513,
      513,
      515,
      515,
      515,
      515,
      515,
      515,
      514,
      514,
      514,
      514,
      514,
      514,
      523,
      523,
      523,
      525,
      527,
      529,
      529,
      529,
      533,
      533,
      533,
      533,
      546,
      546,
      547,
      547,
      547,
      549,
      549,
      549,
      547,
      547,
      546,
      547,
      547,
      547,
      542,
      542,
      542,
      539,
      539,
      540,
      540,
      534,
      533,
      514,
      511,
      504,
      504,
      504,
      504,
      488,
      511,
      511,
      511,
      518,
      518,
      519,
      519,
      524,
      531,
      531,
      536,
      536,
      532,
      531,
      531,
      531,
      525,
      524,
      520,
      520,
      520,
      522,
      524,
      524,
      528,
      524,
      524,
      521,
      513,
      508,
      508,
      509,
      509,
      509,
      509,
      510,
      510,
      508,
      506,
      506,
      507,
      507,
      505,
      505,
      497,
      498,
      494,
      496,
      494,
      499,
      504,
      509,
      509,
      506,
      506,
      509,
      508,
      508,
      492,
      491,
      491,
      486,
      486,
      476,
      476,
      476,
      473,
      470,
      471,
      472,
      472,
      478,
      480,
      480,
      481,
      481,
      483,
      484,
      484,
      480,
      480,
      479,
      479,
      481,
      486,
      487,
      488,
      488,
      488,
      498,
      501,
      504,
      504,
      504,
      505,
      505,
      505,
      507,
      508,
      510,
      510,
      510,
      510,
      510,
      502,
      502,
      498,
      498,
      496,
      492,
      492,
      490,
      490,
      490,
      490,
      490,
      490,
      489,
      489,
      489,
      487,
      487,
      488,
      488,
      486,
      486,
      484,
      476,
      474,
      472,
      460,
      460,
      460,
      446,
      435,
      435,
      433,
      422,
      422,
      396,
      396,
      385,
      375,
      375,
      367,
      367,
      363,
      365,
      336,
      301,
      301,
      285,
      285,
      281,
      284,
      284,
      284,
      281,
      284,
      282,
      259,
      263,
      263,
      222,
      218,
      218,
      170,
      170,
      143,
      135,
      135,
      135
    ],
    "swim:timestamps": [
      1781050914,
      1781050914,
      1781050914,
      1781050974,
      1781051334,
      1781051334,
      1781051334,
      1781051334,
      1781051454,
      1781051454,
      1781051454,
      1781051574,
      1781051574,
      1781051574,
      1781051750,
      1781051750,
      1781051750,
      1781051810,
      1781051870,
      1781051870,
      1781051870,
      1781051870,
      1781052050,
      1781052170,
      1781052170,
      1781052170,
      1781052291,
      1781052351,
      1781052351,
      1781052351,
      1781052351,
      1781052411,
      1781052411,
      1781052591,
      1781052591,
      1781052591,
      1781052591,
      1781052651,
      1781052771,
      1781052831,
      1781052831,
      1781052831,
      1781053072,
      1781053072,
      1781053072,
      1781053072,
      1781053136,
      1781053136,
      1781053192,
      1781053192,
      1781053252,
      1781053312,
      1781053312,
      1781053372,
      1781053372,
      1781053432,
      1781053432,
      1781053492,
      1781053552,
      1781053552,
      1781053612,
      1781053612,
      1781053612,
      1781053793,
      1781053853,
      1781053853,
      1781053853,
      1781054033,
      1781054033,
      1781054033,
      1781054213,
      1781054213,
      1781054213,
      1781054574,
      1781054574,
      1781054574,
      1781054634,
      1781054634,
      1781054754,
      1781054754,
      1781054754,
      1781054814,
      1781054874,
      1781054874,
      1781054934,
      1781054934,
      1781054994,
      1781055054,
      1781055114,
      1781055114,
      1781055114,
      1781055114,
      1781055174,
      1781055174,
      1781055431,
      1781055431,
      1781055491,
      1781055491,
      1781055491,
      1781055551,
      1781055595,
      1781055611,
      1781055611,
      1781055671,
      1781055671,
      1781055671,
      1781055715,
      1781055715,
      1781055715,
      1781055775,
      1781055835,
      1781055835,
      1781055835,
      1781055835,
      1781055895,
      1781055972,
      1781055972,
      1781055972,
      1781055972,
      1781056136,
      1781056136,
      1781056196,
      1781056196,
      1781056212,
      1781056212,
      1781056272,
      1781056272,
      1781056332,
      1781056332,
      1781056332,
      1781056332,
      1781056496,
      1781056496,
      1781056496,
      1781056556,
      1781056573,
      1781056633,
      1781056633,
      1781056633,
      1781056753,
      1781056753,
      1781056753,
      1781056753,
      1781056813,
      1781056813,
      1781056873,
      1781056873,
      1781056873,
      1781056933,
      1781056933,
      1781056993,
      1781057113,
      1781057113,
      1781057234,
      1781057354,
      1781057354,
      1781057354,
      1781057654,
      1781057654,
      1781057654,
      1781057774,
      1781057774,
      1781057895,
      1781057895,
      1781058195,
      1781058255,
      1781058555,
      1781058616,
      1781058676,
      1781058676,
      1781058856,
      1781058856,
      1781058916,
      1781059156,
      1781059156,
      1781059156,
      1781059518,
      1781059518,
      1781059698,
      1781059698,
      1781059758,
      1781059818,
      1781059818,
      1781059938,
      1781059938,
      1781059999,
      1781060119,
      1781060119,
      1781060119,
      1781060299,
      1781060359,
      1781060441,
      1781060501,
      1781060561,
      1781060681,
      1781060741,
      1781060741,
      1781060862,
      1781061042,
      1781061042,
      1781061080,
      1781061200,
      1781061440,
      1781061440,
      1781061463,
      1781061500,
      1781061643,
      1781061680,
      1781061763,
      1781061823,
      1781061943,
      1781062003,
      1781062003,
      1781062072,
      1781062072,
      1781062181,
      1781062181,
      1781062301,
      1781062312,
      1781062422,
      1781062482,
      1781062492,
      1781062553,
      1781062602,
      1781062613,
      1781062613,
      1781062662,
      1781062662,
      1781062673,
      1781062733,
      1781062733,
      1781062964,
      1781062973,
      1781062973,
      1781063093,
      1781063093,
      1781063112,
      1781063112,
      1781063112,
      1781063153,
      1781063213,
      1781063273,
      1781063280,
      1781063280,
      1781063322,
      1781063382,
      1781063443,
      1781063484,
      1781063484,
      1781063546,
      1781063606,
      1781063606,
      1781063679,
      1781063679,
      1781063788,
      1781063788,
      1781063796,
      1781063848,
      1781063856,
      1781063952,
      1781063968,
      1781063968,
      1781064134,
      1781064194,
      1781064268,
      1781064268,
      1781064268,
      1781064314,
      1781064314,
      1781064314,
      1781064374,
      1781064388,
      1781064494,
      1781064494,
      1781064555,
      1781064555,
      1781064555,
      1781064689,
      1781064689,
      1781064809,
      1781064809,
      1781064852,
      1781064974,
      1781064974,
      1781065050,
      1781065050,
      1781065093,
      1781065101,
      1781065153,
      1781065170,
      1781065213,
      1781065213,
      1781065219,
      1781065273,
      1781065350,
      1781065394,
      1781065394,
      1781065401,
      1781065401,
      1781065411,
      1781065454,
      1781065461,
      1781065472,
      1781065539,
      1781065539,
      1781065539,
      1781065597,
      1781065641,
      1781065641,
      1781065657,
      1781065718,
      1781065718,
      1781065822,
      1781065822,
      1781065898,
      1781065940,
      1781065947,
      1781065960,
      1781065960,
      1781065984,
      1781066007,
      1781066044,
      1781066127,
      1781066127,
      1781066239,
      1781066302,
      1781066344,
      1781066359,
      1781066367,
      1781066367,
      1781066419,
      1781066464,
      1781066480,
      1781066524,
      1781066541,
      1781066541,
      1781066601,
      1781066660,
      1781066660,
      1781066780,
      1781066780,
      1781066840,
      1781066902,
      1781066902,
      1781066902
    ],
    "wof:geomhash": "0a185aab377f81003a374e35cfb40eb5",
    "wof:id": 2031497159,
    "wof:repo": "sfomuseum-data-flights-2026-06"
  },
  "bbox": [
    -122.20972222222223,
    37.72361111111111,
    -77.435,
    43.132777777777775
  ],
  "geometry": {"coordinates":[[-122.20972222222223,37.72361111111111],[-122.20972222222223,37.72361111111111],[-122.20972222222223,37.72361111111111],[-122.15222222222222,37.78611111111111],[-121.62583333333333,38.17861111111111],[-121.62583333333333,38.17861111111111],[-121.62583333333333,38.17861111111111],[-121.62583333333333,38.17861111111111],[-121.41444444444446,38.319722222222225],[-121.41444444444446,38.319722222222225],[-121.41444444444446,38.319722222222225],[-121.19027777777778,38.46277777777778],[-121.19027777777778,38.46277777777778],[-121.19027777777778,38.46277777777778],[-120.86444444444444,38.66916666666666],[-120.86444444444444,38.66916666666666],[-120.86444444444444,38.66916666666666],[-120.74333333333334,38.748333333333335],[-120.61888888888888,38.82638888888889],[-120.61888888888888,38.82638888888889],[-120.61888888888888,38.82638888888889],[-120.61888888888888,38.82638888888889],[-120.22500000000001,39.0575],[-119.89972222222222,39.150555555555556],[-119.89972222222222,39.150555555555556],[-119.89972222222222,39.150555555555556],[-119.56944444444444,39.24472222222222],[-119.41000000000001,39.29888888888889],[-119.41000000000001,39.29888888888889],[-119.41000000000001,39.29888888888889],[-119.41000000000001,39.29888888888889],[-119.24861111111112,39.35333333333333],[-119.24861111111112,39.35333333333333],[-118.75555555555556,39.51777777777777],[-118.75555555555556,39.51777777777777],[-118.75555555555556,39.51777777777777],[-118.75555555555556,39.51777777777777],[-118.59083333333332,39.57194444444445],[-118.2625,39.67833333333333],[-118.0975,39.731388888888894],[-118.0975,39.731388888888894],[-118.0975,39.731388888888894],[-117.41083333333334,39.94888888888889],[-117.41083333333334,39.94888888888889],[-117.41083333333334,39.94888888888889],[-117.41083333333334,39.94888888888889],[-117.24555555555555,40.00055555555556],[-117.24555555555555,40.00055555555556],[-117.08055555555555,40.05166666666666],[-117.08055555555555,40.05166666666666],[-116.91472222222222,40.10277777777778],[-116.75138888888888,40.15277777777778],[-116.75138888888888,40.15277777777778],[-116.58583333333333,40.20305555555556],[-116.58583333333333,40.20305555555556],[-116.42305555555556,40.2525],[-116.42305555555556,40.2525],[-116.25555555555556,40.30305555555555],[-116.08611111111111,40.35333333333333],[-116.08611111111111,40.35333333333333],[-115.91805555555555,40.40333333333333],[-115.91805555555555,40.40333333333333],[-115.91805555555555,40.40333333333333],[-115.40472222222223,40.55361111111111],[-115.23583333333333,40.6025],[-115.23583333333333,40.6025],[-115.23583333333333,40.6025],[-114.69055555555556,40.70722222222223],[-114.69055555555556,40.70722222222223],[-114.69055555555556,40.70722222222223],[-114.11,40.719722222222224],[-114.11,40.719722222222224],[-114.11,40.719722222222224],[-112.94444444444444,40.79972222222222],[-112.94444444444444,40.79972222222222],[-112.94444444444444,40.79972222222222],[-112.75055555555555,40.81583333333333],[-112.75055555555555,40.81583333333333],[-112.36305555555555,40.84777777777778],[-112.36305555555555,40.84777777777778],[-112.36305555555555,40.84777777777778],[-112.1738888888889,40.863055555555555],[-111.98333333333333,40.87833333333333],[-111.98333333333333,40.87833333333333],[-111.79583333333333,40.8925],[-111.79583333333333,40.8925],[-111.61027777777777,40.906388888888884],[-111.42111111111112,40.92027777777778],[-111.19694444444445,40.936388888888885],[-111.19694444444445,40.936388888888885],[-111.19694444444445,40.936388888888885],[-111.19694444444445,40.936388888888885],[-111.00722222222223,40.94972222222222],[-111.00722222222223,40.94972222222222],[-110.22055555555556,41.07666666666667],[-110.22055555555556,41.07666666666667],[-110.035,41.10777777777778],[-110.035,41.10777777777778],[-110.035,41.10777777777778],[-109.84722222222221,41.117222222222225],[-109.73416666666667,41.12138888888889],[-109.65861111111111,41.12416666666667],[-109.65861111111111,41.12416666666667],[-109.4725,41.13055555555555],[-109.4725,41.13055555555555],[-109.4725,41.13055555555555],[-109.32194444444444,41.13638888888889],[-109.32194444444444,41.13638888888889],[-109.32194444444444,41.13638888888889],[-109.13583333333334,41.143055555555556],[-108.94972222222222,41.149166666666666],[-108.94972222222222,41.149166666666666],[-108.94972222222222,41.149166666666666],[-108.94972222222222,41.149166666666666],[-108.76083333333334,41.155],[-108.53583333333333,41.152499999999996],[-108.53583333333333,41.152499999999996],[-108.53583333333333,41.152499999999996],[-108.53583333333333,41.152499999999996],[-108.00805555555556,41.15],[-108.00805555555556,41.15],[-107.81944444444444,41.149166666666666],[-107.81944444444444,41.149166666666666],[-107.77972222222222,41.149166666666666],[-107.77972222222222,41.149166666666666],[-107.59194444444444,41.15083333333333],[-107.59194444444444,41.15083333333333],[-107.40472222222223,41.15277777777778],[-107.40472222222223,41.15277777777778],[-107.40472222222223,41.15277777777778],[-107.40472222222223,41.15277777777778],[-106.86999999999999,41.1625],[-106.86999999999999,41.1625],[-106.86999999999999,41.1625],[-106.67694444444444,41.17833333333333],[-106.63944444444445,41.181666666666665],[-106.44416666666667,41.19555555555555],[-106.44416666666667,41.19555555555555],[-106.44416666666667,41.19555555555555],[-106.04527777777777,41.226111111111116],[-106.04527777777777,41.226111111111116],[-106.04527777777777,41.226111111111116],[-106.04527777777777,41.226111111111116],[-105.85805555555555,41.27722222222222],[-105.85805555555555,41.27722222222222],[-105.67222222222223,41.339444444444446],[-105.67222222222223,41.339444444444446],[-105.67222222222223,41.339444444444446],[-105.48833333333333,41.40138888888889],[-105.48833333333333,41.40138888888889],[-105.30277777777778,41.46361111111111],[-104.9325,41.586666666666666],[-104.9325,41.586666666666666],[-104.56583333333333,41.70583333333334],[-104.19250000000001,41.82611111111112],[-104.19250000000001,41.82611111111112],[-104.19250000000001,41.82611111111112],[-103.22083333333333,42.13194444444444],[-103.22083333333333,42.13194444444444],[-103.22083333333333,42.13194444444444],[-102.85055555555554,42.24527777777778],[-102.85055555555554,42.24527777777778],[-102.47722222222222,42.358333333333334],[-102.47722222222222,42.358333333333334],[-101.58638888888889,42.664722222222224],[-101.40694444444445,42.734722222222224],[-100.53333333333333,43.06361111111111],[-100.35333333333332,43.10861111111111],[-100.16555555555556,43.132777777777775],[-100.16555555555556,43.132777777777775],[-99.59388888888888,43.13055555555555],[-99.59388888888888,43.13055555555555],[-99.41111111111111,43.099722222222226],[-98.66388888888889,43.040277777777774],[-98.66388888888889,43.040277777777774],[-98.66388888888889,43.040277777777774],[-97.47833333333334,42.92444444444444],[-97.47833333333334,42.92444444444444],[-96.90027777777779,42.86027777777778],[-96.90027777777779,42.86027777777778],[-96.70444444444445,42.838055555555556],[-96.50472222222223,42.815],[-96.50472222222223,42.815],[-96.10777777777777,42.768055555555556],[-96.10777777777777,42.768055555555556],[-95.91027777777778,42.74444444444445],[-95.50111111111111,42.69361111111111],[-95.50111111111111,42.69361111111111],[-95.50111111111111,42.69361111111111],[-94.91555555555556,42.61805555555556],[-94.72416666666666,42.59305555555556],[-94.48222222222222,42.56055555555555],[-94.28999999999999,42.53444444444444],[-94.10027777777778,42.50805555555556],[-93.71416666666667,42.45388888888889],[-93.51916666666666,42.42583333333333],[-93.51916666666666,42.42583333333333],[-93.13055555555555,42.36888888888889],[-92.55138888888888,42.28194444444444],[-92.55138888888888,42.28194444444444],[-92.40222222222222,42.25861111111111],[-92.02888888888889,42.2],[-91.29138888888889,42.08083333333334],[-91.29138888888889,42.08083333333334],[-91.25555555555556,42.075],[-91.10722222222222,42.05027777777777],[-90.66638888888889,41.975833333333334],[-90.55277777777778,41.95666666666667],[-90.2975,41.91166666666666],[-90.11277777777777,41.87916666666667],[-89.765,41.81722222222223],[-89.58527777777778,41.78472222222222],[-89.58527777777778,41.78472222222222],[-89.36527777777778,41.745],[-89.36527777777778,41.745],[-89.03805555555556,41.683611111111105],[-89.03805555555556,41.683611111111105],[-88.68111111111112,41.61611111111111],[-88.64500000000001,41.60916666666667],[-88.32555555555555,41.54805555555556],[-88.14583333333334,41.50972222222222],[-88.10833333333333,41.503055555555555],[-87.92805555555556,41.4675],[-87.77444444444444,41.42833333333333],[-87.77194444444444,41.42805555555555],[-87.77194444444444,41.42805555555555],[-87.59388888888888,41.38861111111111],[-87.59388888888888,41.38861111111111],[-87.59222222222222,41.38805555555555],[-87.41388888888889,41.34861111111111],[-87.41388888888889,41.34861111111111],[-86.71000000000001,41.189166666666665],[-86.67472222222223,41.18083333333333],[-86.67472222222223,41.18083333333333],[-86.34777777777778,41.105000000000004],[-86.34777777777778,41.105000000000004],[-86.2825,41.08972222222222],[-86.2825,41.08972222222222],[-86.2825,41.08972222222222],[-86.18305555555555,41.06666666666667],[-86.02111111111111,41.028055555555554],[-85.85111111111111,41.0125],[-85.81527777777778,41.00944444444445],[-85.81527777777778,41.00944444444445],[-85.70944444444444,41.00111111111111],[-85.53694444444444,40.986111111111114],[-85.36333333333333,40.96888888888889],[-85.22527777777778,40.95444444444445],[-85.22527777777778,40.95444444444445],[-85.04861111111111,40.931666666666665],[-84.87527777777777,40.908055555555556],[-84.87527777777777,40.908055555555556],[-84.66722222222222,40.8775],[-84.66722222222222,40.8775],[-84.34833333333333,40.86527777777778],[-84.34833333333333,40.86527777777778],[-84.32138888888889,40.867222222222225],[-84.16833333333334,40.87638888888889],[-84.14111111111112,40.87777777777778],[-83.86777777777777,40.83111111111111],[-83.82444444444444,40.81861111111112],[-83.82444444444444,40.81861111111112],[-83.3475,40.67583333333333],[-83.17722222222223,40.62416666666667],[-82.95944444444444,40.558055555555555],[-82.95944444444444,40.558055555555555],[-82.95944444444444,40.558055555555555],[-82.86611111111111,40.52972222222222],[-82.86611111111111,40.52972222222222],[-82.86611111111111,40.52972222222222],[-82.69388888888889,40.47666666666667],[-82.61388888888888,40.45194444444445],[-82.32,40.36055555555556],[-82.32,40.36055555555556],[-82.1463888888889,40.312777777777775],[-82.1463888888889,40.312777777777775],[-82.1463888888889,40.312777777777775],[-81.7611111111111,40.212500000000006],[-81.7611111111111,40.212500000000006],[-81.42916666666667,40.12444444444444],[-81.42916666666667,40.12444444444444],[-81.2925,40.088055555555556],[-80.96000000000001,39.998333333333335],[-80.96000000000001,39.998333333333335],[-80.76,39.943888888888885],[-80.76,39.943888888888885],[-80.6275,39.9075],[-80.62972222222221,39.908055555555556],[-80.46333333333334,39.86222222222222],[-80.41527777777779,39.848888888888894],[-80.29833333333333,39.81638888888889],[-80.29833333333333,39.81638888888889],[-80.26583333333333,39.80722222222222],[-80.13472222222222,39.77055555555555],[-79.91722222222222,39.70944444444445],[-79.80749999999999,39.67861111111111],[-79.80749999999999,39.67861111111111],[-79.77722222222222,39.669999999999995],[-79.77722222222222,39.669999999999995],[-79.75277777777778,39.66305555555555],[-79.64666666666668,39.632222222222225],[-79.61833333333333,39.62416666666667],[-79.5936111111111,39.61694444444444],[-79.43027777777779,39.57],[-79.43027777777779,39.57],[-79.43027777777779,39.57],[-79.28083333333333,39.526944444444446],[-79.16666666666667,39.49388888888889],[-79.16666666666667,39.49388888888889],[-79.13583333333334,39.485],[-78.99472222222222,39.443888888888885],[-78.99472222222222,39.443888888888885],[-78.75583333333333,39.373333333333335],[-78.75583333333333,39.373333333333335],[-78.59888888888888,39.32694444444445],[-78.5025,39.29833333333333],[-78.50027777777778,39.2975],[-78.45,39.28333333333333],[-78.45,39.28333333333333],[-78.4,39.266666666666666],[-78.37777777777777,39.26083333333333],[-78.28333333333333,39.233333333333334],[-78.17055555555557,39.183055555555555],[-78.17055555555557,39.183055555555555],[-77.99722222222222,39.091944444444444],[-77.91222222222223,39.04694444444444],[-77.85,39.016666666666666],[-77.83083333333333,39.00361111111111],[-77.83222222222221,39.004444444444445],[-77.83222222222221,39.004444444444445],[-77.74444444444444,38.96472222222223],[-77.66666666666667,38.95],[-77.64583333333334,38.95472222222222],[-77.6,38.983333333333334],[-77.58222222222221,39.00472222222222],[-77.58222222222221,39.00472222222222],[-77.57444444444444,39.06805555555556],[-77.5286111111111,39.10388888888889],[-77.5286111111111,39.10388888888889],[-77.435,39.06444444444444],[-77.435,39.06444444444444],[-77.435,39.021388888888886],[-77.43583333333333,38.98388888888889],[-77.43583333333333,38.98388888888889],[-77.43583333333333,38.98388888888889]],"type":"LineString"}
}
