{
  "id": 2031461293,
  "type": "Feature",
  "properties": {
    "geom:area": 0,
    "geom:bbox": "-150.166667,37.652778,-122.451389,61.516667",
    "geom:latitude": 51.268725071251836,
    "geom:longitude": -135.04913193142676,
    "src:alt_label": "swim-path",
    "src:geom": "swim",
    "swim:altitudes": [
      "032",
      "059",
      "145",
      "267",
      "284",
      "314",
      "356",
      "360C",
      "360C",
      "360C",
      "360C",
      "360C",
      "360C",
      "360C",
      "360C",
      "360C",
      "360C",
      "360",
      "360",
      "360",
      "360",
      "360",
      "360",
      "360",
      "360",
      "360",
      "360",
      "360",
      "360",
      "274T",
      "212T",
      "106",
      "079",
      "073",
      "062",
      "050",
      "050",
      "049"
    ],
    "swim:geom": "path",
    "swim:speeds": [
      191,
      257,
      348,
      422,
      425,
      445,
      447,
      444,
      445,
      441,
      441,
      441,
      440,
      441,
      437,
      434,
      432,
      430,
      430,
      420,
      420,
      420,
      420,
      420,
      410,
      410,
      420,
      420,
      420,
      340,
      340,
      290,
      280,
      280,
      270,
      220,
      210,
      200
    ],
    "swim:timestamps": [
      1780712590,
      1780712710,
      1780712951,
      1780713371,
      1780713442,
      1780713611,
      1780713861,
      1780714101,
      1780714272,
      1780714452,
      1780714572,
      1780714884,
      1780714933,
      1780715483,
      1780715723,
      1780715844,
      1780716024,
      1780720187,
      1780720427,
      1780720790,
      1780721148,
      1780721208,
      1780721268,
      1780721448,
      1780721629,
      1780721749,
      1780721869,
      1780721929,
      1780721989,
      1780726915,
      1780727216,
      1780727645,
      1780727766,
      1780727791,
      1780727827,
      1780727947,
      1780728007,
      1780728068
    ],
    "wof:geomhash": "f60dcf2704a2a575d73881ffacd4b8bc",
    "wof:id": 2031461293,
    "wof:repo": "sfomuseum-data-flights-2026-06"
  },
  "bbox": [
    -150.16666666666666,
    37.65277777777778,
    -122.45138888888889,
    61.516666666666666
  ],
  "geometry": {"coordinates":[[-122.45138888888889,37.65277777777778],[-122.59388888888888,37.72805555555556],[-122.88611111111112,37.97888888888889],[-123.53583333333333,38.501666666666665],[-123.6086111111111,38.629444444444445],[-123.7975,38.94499999999999],[-124.07777777777777,39.413888888888884],[-124.35,39.862500000000004],[-124.54388888888889,40.17833333333333],[-124.75222222222222,40.51416666666667],[-124.89083333333333,40.73583333333333],[-125.25638888888889,41.31194444444444],[-125.31361111111111,41.400555555555556],[-125.97722222222222,42.41416666666667],[-126.26638888888888,42.84916666666667],[-126.4,43.05277777777778],[-126.61555555555555,43.378055555555555],[-132.48333333333332,50.81666666666667],[-132.9,51.21666666666667],[-133.53333333333333,51.81666666666667],[-134.16666666666666,52.4],[-134.26666666666668,52.5],[-134.38333333333333,52.6],[-134.7,52.88333333333333],[-135.03333333333333,53.166666666666664],[-135.25,53.36666666666667],[-135.46666666666667,53.55],[-135.58333333333334,53.65],[-135.68333333333334,53.733333333333334],[-147.66666666666666,61.05],[-148.46666666666667,61.11666666666667],[-149.66666666666666,61.266666666666666],[-149.95,61.35],[-149.96666666666667,61.36666666666667],[-149.98333333333332,61.416666666666664],[-150.13333333333333,61.516666666666666],[-150.16666666666666,61.46666666666667],[-150.13333333333333,61.4]],"type":"LineString"}
}
