{
  "id": 2031510725,
  "type": "Feature",
  "properties": {
    "geom:area": 0,
    "geom:bbox": "-122.360500,37.492030,-121.247800,37.615210",
    "geom:latitude": 37.54322438292044,
    "geom:longitude": -121.81133610383311,
    "src:alt_label": "swim-approach",
    "src:geom": "swim",
    "swim:elevations": [
      4612,
      4532,
      4016,
      3728,
      3586,
      3166,
      3056,
      2984,
      2845,
      2693,
      2478,
      2438,
      2354,
      2127,
      2045,
      1826,
      1829,
      1720,
      1479,
      1438,
      1181,
      958,
      804,
      548,
      422,
      335,
      235,
      187,
      43,
      0
    ],
    "swim:geom": "approach",
    "swim:timestamps": [
      1781165815,
      1781165825,
      1781165876,
      1781165905,
      1781165920,
      1781165963,
      1781165996,
      1781166013,
      1781166033,
      1781166055,
      1781166085,
      1781166098,
      1781166138,
      1781166174,
      1781166192,
      1781166238,
      1781166264,
      1781166292,
      1781166326,
      1781166331,
      1781166362,
      1781166402,
      1781166424,
      1781166476,
      1781166508,
      1781166523,
      1781166547,
      1781166558,
      1781166595,
      1781166605
    ],
    "wof:geomhash": "e05bd6e89502549aa00827cebd45b61c",
    "wof:id": 2031510725,
    "wof:repo": "sfomuseum-data-flights-2026-06"
  },
  "bbox": [
    -122.3605,
    37.49203,
    -121.2478,
    37.61521
  ],
  "geometry": {"coordinates":[[-121.2478,37.59473],[-121.26824,37.59206],[-121.37187,37.58035],[-121.42965,37.57365],[-121.45971,37.57012],[-121.54238,37.56042],[-121.60528,37.55305],[-121.63492,37.54834],[-121.66939,37.54015],[-121.70531,37.53155],[-121.75454,37.51973],[-121.77608,37.5146],[-121.83122,37.5014],[-121.88047,37.49203],[-121.90475,37.49263],[-121.96772,37.49614],[-122.00263,37.49823],[-122.04024,37.50029],[-122.08636,37.50302],[-122.09267,37.50393],[-122.12949,37.51764],[-122.17493,37.5369],[-122.19961,37.54713],[-122.25249,37.56951],[-122.2811,37.5816],[-122.29373,37.58688],[-122.31377,37.59532],[-122.32274,37.59905],[-122.35211,37.61143],[-122.3605,37.61521]],"type":"LineString"}
}
