{
  "id": 2031496635,
  "type": "Feature",
  "properties": {
    "geom:area": 0,
    "geom:bbox": "-122.397600,37.622390,-122.000890,38.516950",
    "geom:latitude": 38.05673651882201,
    "geom:longitude": -122.1943269336886,
    "src:alt_label": "swim-takeoff",
    "src:geom": "swim",
    "swim:elevations": [
      152,
      545,
      752,
      945,
      1030,
      1135,
      1580,
      1975,
      2260,
      2581,
      2657,
      2685,
      2720,
      2743,
      2846,
      3214,
      3323,
      3473,
      3651,
      3981,
      4425,
      4685,
      4943,
      5170,
      5222,
      5281,
      5478,
      5851,
      6084,
      6239
    ],
    "swim:geom": "takeoff",
    "swim:timestamps": [
      1781032678,
      1781032706,
      1781032729,
      1781032751,
      1781032767,
      1781032782,
      1781032825,
      1781032849,
      1781032878,
      1781032902,
      1781032912,
      1781032920,
      1781032932,
      1781032967,
      1781032995,
      1781033023,
      1781033051,
      1781033078,
      1781033094,
      1781033116,
      1781033158,
      1781033184,
      1781033217,
      1781033243,
      1781033254,
      1781033264,
      1781033288,
      1781033335,
      1781033356,
      1781033374
    ],
    "wof:geomhash": "dd066d021716e3ee5e66e406ec048ed1",
    "wof:id": 2031496635,
    "wof:repo": "sfomuseum-data-flights-2026-06"
  },
  "bbox": [
    -122.3976,
    37.62239,
    -122.00089,
    38.51695
  ],
  "geometry": {"coordinates":[[-122.38381,37.62239],[-122.3976,37.63666],[-122.38798,37.65185],[-122.36816,37.6593],[-122.35089,37.66476],[-122.33819,37.67496],[-122.32208,37.72079],[-122.3127,37.75026],[-122.30099,37.78447],[-122.29119,37.81301],[-122.28699,37.82504],[-122.28357,37.83424],[-122.278,37.84801],[-122.26089,37.88967],[-122.24678,37.92453],[-122.23278,37.9589],[-122.21808,37.99635],[-122.20298,38.03573],[-122.19363,38.06026],[-122.18071,38.09404],[-122.15473,38.15797],[-122.13788,38.1981],[-122.11681,38.24944],[-122.0989,38.29317],[-122.09121,38.31166],[-122.0845,38.32772],[-122.06719,38.36867],[-122.03133,38.45078],[-122.01478,38.48725],[-122.00089,38.51695]],"type":"LineString"}
}
