{
  "id": 2031496635,
  "type": "Feature",
  "properties": {
    "geom:area": 0,
    "geom:bbox": "-122.688611,37.637500,-121.947778,47.622778",
    "geom:latitude": 42.72058432050812,
    "geom:longitude": -122.20861848210536,
    "src:alt_label": "swim-path",
    "src:geom": "swim",
    "swim:altitudes": [
      "017",
      "017",
      "017",
      "054",
      "054",
      "054",
      "136",
      "155",
      "155",
      "171",
      "171",
      "185",
      "228",
      "241",
      "252",
      "252",
      "253",
      "274",
      "297",
      "299",
      "320C",
      "320C",
      "321C",
      "320C",
      "320C",
      "320C",
      "320C",
      "320C",
      "320C",
      "320C",
      "320C",
      "320C",
      "320C",
      "320C",
      "320C",
      "320C",
      "320C",
      "320C",
      "320C",
      "320C",
      "320C",
      "320C",
      "320C",
      "320C",
      "320C",
      "320C",
      "320C",
      "320C",
      "320C",
      "320C",
      "320C",
      "320C",
      "320C",
      "320C",
      "320C",
      "320C",
      "320C",
      "320C",
      "320",
      "320",
      "320",
      "320",
      "320",
      "320",
      "320",
      "320",
      "320",
      "312",
      "312",
      "278",
      "278",
      "228",
      "228",
      "184",
      "184",
      "171",
      "148",
      "148",
      "140",
      "140",
      "140",
      "129",
      "116",
      "114",
      "114",
      "090",
      "081",
      "080",
      "080",
      "075",
      "066",
      "063",
      "043",
      "043",
      "030",
      "030",
      "030",
      "027",
      "018",
      "018",
      "018",
      "017",
      "004",
      "004"
    ],
    "swim:geom": "path",
    "swim:speeds": [
      151,
      151,
      151,
      255,
      255,
      255,
      342,
      350,
      350,
      368,
      368,
      386,
      401,
      404,
      411,
      411,
      408,
      428,
      442,
      443,
      429,
      429,
      430,
      428,
      429,
      426,
      426,
      424,
      424,
      425,
      425,
      426,
      426,
      427,
      427,
      427,
      421,
      421,
      421,
      409,
      409,
      408,
      408,
      408,
      405,
      405,
      395,
      395,
      395,
      385,
      385,
      385,
      385,
      385,
      385,
      383,
      383,
      383,
      378,
      378,
      378,
      378,
      382,
      382,
      382,
      383,
      384,
      380,
      380,
      395,
      395,
      361,
      361,
      345,
      345,
      336,
      332,
      332,
      289,
      289,
      289,
      286,
      292,
      296,
      296,
      271,
      264,
      261,
      261,
      264,
      240,
      230,
      233,
      233,
      247,
      219,
      219,
      175,
      163,
      163,
      163,
      152,
      129,
      129
    ],
    "swim:timestamps": [
      1781057917,
      1781057917,
      1781057917,
      1781058038,
      1781058038,
      1781058038,
      1781058338,
      1781058398,
      1781058398,
      1781058458,
      1781058458,
      1781058518,
      1781058699,
      1781058759,
      1781058819,
      1781058819,
      1781058830,
      1781058939,
      1781059059,
      1781059070,
      1781059299,
      1781059299,
      1781059419,
      1781059540,
      1781059551,
      1781059671,
      1781059671,
      1781059792,
      1781059840,
      1781060033,
      1781060033,
      1781060080,
      1781060080,
      1781060140,
      1781060140,
      1781060140,
      1781060333,
      1781060333,
      1781060333,
      1781060513,
      1781060513,
      1781060814,
      1781060814,
      1781060814,
      1781061051,
      1781061051,
      1781061171,
      1781061171,
      1781061171,
      1781061772,
      1781061772,
      1781061772,
      1781061832,
      1781061832,
      1781061952,
      1781062012,
      1781062012,
      1781062012,
      1781062253,
      1781062253,
      1781062253,
      1781062313,
      1781062433,
      1781062433,
      1781062433,
      1781062493,
      1781062553,
      1781062673,
      1781062673,
      1781062733,
      1781062733,
      1781062853,
      1781062853,
      1781062974,
      1781062974,
      1781063019,
      1781063094,
      1781063094,
      1781063163,
      1781063163,
      1781063163,
      1781063214,
      1781063274,
      1781063283,
      1781063283,
      1781063416,
      1781063455,
      1781063470,
      1781063470,
      1781063515,
      1781063575,
      1781063590,
      1781063650,
      1781063650,
      1781063755,
      1781063764,
      1781063764,
      1781063815,
      1781063875,
      1781063875,
      1781063875,
      1781063884,
      1781063995,
      1781063995
    ],
    "wof:geomhash": "3500a50f72a1fa6bf09c6e71ef0c7ed7",
    "wof:id": 2031496635,
    "wof:repo": "sfomuseum-data-flights-2026-06"
  },
  "bbox": [
    -122.68861111111111,
    37.6375,
    -121.94777777777779,
    47.62277777777778
  ],
  "geometry": {"coordinates":[[-122.39833333333334,37.6375],[-122.39833333333334,37.6375],[-122.39833333333334,37.6375],[-122.32083333333333,37.724722222222226],[-122.32083333333333,37.724722222222226],[-122.32083333333333,37.724722222222226],[-122.17333333333333,38.113055555555555],[-122.13527777777779,38.20444444444445],[-122.13527777777779,38.20444444444445],[-122.095,38.302499999999995],[-122.095,38.302499999999995],[-122.05166666666666,38.40416666666667],[-121.94777777777779,38.730000000000004],[-121.97055555555556,38.84055555555556],[-121.99444444444444,38.955555555555556],[-121.99444444444444,38.955555555555556],[-121.995,38.973888888888894],[-122.03833333333333,39.19027777777777],[-122.03666666666666,39.437777777777775],[-122.03416666666666,39.45472222222222],[-122.03305555555555,39.90861111111111],[-122.03305555555555,39.90861111111111],[-122.03111111111112,40.144444444444446],[-122.02916666666667,40.40333333333333],[-122.02888888888889,40.40333333333333],[-122.02722222222222,40.63805555555555],[-122.02722222222222,40.63805555555555],[-122.025,40.897777777777776],[-122.02416666666666,40.99305555555556],[-122.0213888888889,41.350833333333334],[-122.0213888888889,41.350833333333334],[-122.02055555555556,41.44694444444444],[-122.02055555555556,41.44694444444444],[-122.01972222222223,41.566111111111105],[-122.01972222222223,41.566111111111105],[-122.01972222222223,41.566111111111105],[-122.01666666666667,41.94194444444444],[-122.01666666666667,41.94194444444444],[-122.01666666666667,41.94194444444444],[-122.01361111111112,42.293055555555554],[-122.01361111111112,42.293055555555554],[-122.00888888888889,42.86138888888889],[-122.00888888888889,42.86138888888889],[-122.00888888888889,42.86138888888889],[-122.005,43.3],[-122.005,43.3],[-122.04805555555555,43.53777777777778],[-122.04805555555555,43.53777777777778],[-122.04805555555555,43.53777777777778],[-122.30361111111111,44.59805555555556],[-122.30361111111111,44.59805555555556],[-122.30361111111111,44.59805555555556],[-122.32888888888888,44.70138888888889],[-122.32888888888888,44.70138888888889],[-122.37888888888888,44.90333333333333],[-122.40444444444445,45.006388888888885],[-122.40444444444445,45.006388888888885],[-122.40444444444445,45.006388888888885],[-122.50805555555556,45.41861111111111],[-122.50805555555556,45.41861111111111],[-122.50805555555556,45.41861111111111],[-122.53416666666666,45.52111111111111],[-122.58722222222222,45.730555555555554],[-122.58722222222222,45.730555555555554],[-122.58722222222222,45.730555555555554],[-122.61361111111111,45.836666666666666],[-122.63916666666667,45.93944444444444],[-122.68861111111111,46.150277777777774],[-122.68861111111111,46.150277777777774],[-122.6825,46.25555555555555],[-122.6825,46.25555555555555],[-122.64583333333334,46.466944444444444],[-122.64583333333334,46.466944444444444],[-122.60972222222222,46.67166666666667],[-122.60972222222222,46.67166666666667],[-122.59805555555555,46.739444444444445],[-122.5775,46.8525],[-122.5775,46.8525],[-122.55638888888889,46.94888888888889],[-122.55638888888889,46.94888888888889],[-122.55638888888889,46.94888888888889],[-122.52888888888889,47.01361111111111],[-122.49833333333333,47.0925],[-122.49777777777778,47.105000000000004],[-122.49777777777778,47.105000000000004],[-122.46888888888888,47.277499999999996],[-122.45944444444444,47.32638888888889],[-122.45861111111111,47.34388888888889],[-122.45861111111111,47.34388888888889],[-122.45555555555556,47.4],[-122.45555555555556,47.46277777777778],[-122.45472222222223,47.48277777777778],[-122.4563888888889,47.54555555555555],[-122.4563888888889,47.54555555555555],[-122.34944444444444,47.62277777777778],[-122.33361111111111,47.61888888888889],[-122.33361111111111,47.61888888888889],[-122.31722222222221,47.58166666666667],[-122.31722222222221,47.53638888888889],[-122.31722222222221,47.53638888888889],[-122.31722222222221,47.53638888888889],[-122.31805555555555,47.52833333333333],[-122.31805555555555,47.46277777777778],[-122.31805555555555,47.46277777777778]],"type":"LineString"}
}
