{
  "id": 2031441305,
  "type": "Feature",
  "properties": {
    "geom:area": 0,
    "geom:bbox": "-122.405000,37.633889,-74.160556,41.951667",
    "geom:latitude": 40.5925733414308,
    "geom:longitude": -98.2479959327213,
    "src:alt_label": "swim-path",
    "src:geom": "swim",
    "swim:altitudes": [
      "012",
      "012",
      "026",
      "026",
      "052",
      "052",
      "052",
      "098",
      "098",
      "098",
      "098",
      "098",
      "098",
      "148",
      "148",
      "148",
      "148",
      "148",
      "148",
      "148",
      "212",
      "212",
      "212",
      "228",
      "228",
      "228",
      "228",
      "228",
      "244",
      "244",
      "255",
      "255",
      "255",
      "255",
      "255",
      "279",
      "279",
      "289",
      "289",
      "298",
      "301",
      "301",
      "301",
      "308",
      "308",
      "308",
      "308",
      "318",
      "318",
      "318",
      "321",
      "321",
      "321",
      "321",
      "328C",
      "328C",
      "330C",
      "330C",
      "330C",
      "330C",
      "330C",
      "330C",
      "330C",
      "330C",
      "330C",
      "330C",
      "330C",
      "330C",
      "330C",
      "330C",
      "330C",
      "330C",
      "330C",
      "330C",
      "330C",
      "330C",
      "330C",
      "330C",
      "330C",
      "330C",
      "330C",
      "330C",
      "330C",
      "330C",
      "330C",
      "330C",
      "330C",
      "330C",
      "330C",
      "330C",
      "330C",
      "330C",
      "330C",
      "330C",
      "330C",
      "330C",
      "330C",
      "330C",
      "330C",
      "330C",
      "330C",
      "330C",
      "330C",
      "330C",
      "330C",
      "330C",
      "330C",
      "330C",
      "330C",
      "330C",
      "330C",
      "330C",
      "330C",
      "330C",
      "330C",
      "330C",
      "330C",
      "330C",
      "330C",
      "330C",
      "330C",
      "330C",
      "330C",
      "330C",
      "330C",
      "330C",
      "330C",
      "330C",
      "330C",
      "330C",
      "330C",
      "330C",
      "330C",
      "330C",
      "330C",
      "330C",
      "330C",
      "330C",
      "330C",
      "330C",
      "330C",
      "330C",
      "330C",
      "330C",
      "330",
      "330",
      "330",
      "330",
      "337",
      "337",
      "350C",
      "350C",
      "350C",
      "350C",
      "350C",
      "350C",
      "350C",
      "350C",
      "350C",
      "350C",
      "350C",
      "350C",
      "350C",
      "350C",
      "350C",
      "350C",
      "350C",
      "350C",
      "350C",
      "350C",
      "350C",
      "350C",
      "350C",
      "350C",
      "350C",
      "350C",
      "350C",
      "350C",
      "350C",
      "350C",
      "350C",
      "350C",
      "350C",
      "350C",
      "350C",
      "350C",
      "350C",
      "350C",
      "350C",
      "350C",
      "350C",
      "350C",
      "350C",
      "350C",
      "350C",
      "350C",
      "350C",
      "350C",
      "350C",
      "350C",
      "350C",
      "350C",
      "350C",
      "350C",
      "350C",
      "350C",
      "350C",
      "350C",
      "350C",
      "350C",
      "350C",
      "350C",
      "350C",
      "350C",
      "350C",
      "350C",
      "350C",
      "350C",
      "350C",
      "350C",
      "350C",
      "350C",
      "350C",
      "350C",
      "350C",
      "350C",
      "350C",
      "350C",
      "350C",
      "350C",
      "350C",
      "350C",
      "350C",
      "350C",
      "350C",
      "350C",
      "350C",
      "350C",
      "350C",
      "350C",
      "350C",
      "350C",
      "350C",
      "350C",
      "350C",
      "350C",
      "350C",
      "350C",
      "350C",
      "350C",
      "350C",
      "350C",
      "350C",
      "350C",
      "350C",
      "350C",
      "350C",
      "350C",
      "350C",
      "350C",
      "350C",
      "350C",
      "350C",
      "350C",
      "350C",
      "350C",
      "350C",
      "350C",
      "350C",
      "350C",
      "350C",
      "350C",
      "350C",
      "350C",
      "350C",
      "350C",
      "350C",
      "350C",
      "350C",
      "350C",
      "350C",
      "350C",
      "350C",
      "350C",
      "350C",
      "350C",
      "350C",
      "350C",
      "350C",
      "350C",
      "350C",
      "350C",
      "350C",
      "350C",
      "350C",
      "350C",
      "350C",
      "350C",
      "350C",
      "350C",
      "350C",
      "350C",
      "350C",
      "350C",
      "350C",
      "350C",
      "350C",
      "350C",
      "350C",
      "350C",
      "350C",
      "350C",
      "350C",
      "350C",
      "350C",
      "350C",
      "350C",
      "350C",
      "350C",
      "350C",
      "350C",
      "350C",
      "350C",
      "350C",
      "350C",
      "350C",
      "350C",
      "350C",
      "350C",
      "350C",
      "350C",
      "350C",
      "350C",
      "350C",
      "350C",
      "350C",
      "350C",
      "350C",
      "350C",
      "350C",
      "350C",
      "350C",
      "350C",
      "350C",
      "350C",
      "350C",
      "350C",
      "350C",
      "350C",
      "350C",
      "350C",
      "350C",
      "350C",
      "350C",
      "350C",
      "350C",
      "350C",
      "350C",
      "350C",
      "350C",
      "350C",
      "350C",
      "350C",
      "350C",
      "350C",
      "350C",
      "350C",
      "350C",
      "350C",
      "350C",
      "350C",
      "350C",
      "350C",
      "350C",
      "350C",
      "350C",
      "350C",
      "350C",
      "350C",
      "350C",
      "350C",
      "350C",
      "350C",
      "350C",
      "350C",
      "350C",
      "350C",
      "350C",
      "350C",
      "350C",
      "350C",
      "350C",
      "350C",
      "350C",
      "350C",
      "350C",
      "350C",
      "350C",
      "350C",
      "350C",
      "350C",
      "350C",
      "350C",
      "350C",
      "350C",
      "350C",
      "350C",
      "350C",
      "350C",
      "350C",
      "350C",
      "350C",
      "350C",
      "350C",
      "350C",
      "350C",
      "350C",
      "350C",
      "350C",
      "350C",
      "350C",
      "350C",
      "350C",
      "350C",
      "350C",
      "350C",
      "350C",
      "350C",
      "350C",
      "350C",
      "350C",
      "350C",
      "350C",
      "350C",
      "350C",
      "350C",
      "350C",
      "350C",
      "350C",
      "350C",
      "350C",
      "350C",
      "350C",
      "350C",
      "350C",
      "350C",
      "350C",
      "350C",
      "350C",
      "350C",
      "350C",
      "350C",
      "350C",
      "350C",
      "350C",
      "350C",
      "356",
      "356",
      "356",
      "366",
      "370C",
      "370C",
      "370C",
      "370C",
      "370C",
      "370C",
      "370C",
      "370C",
      "370C",
      "370C",
      "370C",
      "370C",
      "370C",
      "370C",
      "370C",
      "370C",
      "370C",
      "370C",
      "370C",
      "370C",
      "370C",
      "370C",
      "370C",
      "370C",
      "370C",
      "370C",
      "370C",
      "370C",
      "370C",
      "370C",
      "370C",
      "370C",
      "370C",
      "370C",
      "370C",
      "370C",
      "370C",
      "370C",
      "370C",
      "370C",
      "370C",
      "370C",
      "370C",
      "370C",
      "370C",
      "370C",
      "370C",
      "370C",
      "370C",
      "370C",
      "370C",
      "370C",
      "370C",
      "370C",
      "370C",
      "370C",
      "370C",
      "370C",
      "370C",
      "370C",
      "370C",
      "370C",
      "370C",
      "370C",
      "370C",
      "370C",
      "370C",
      "370C",
      "370C",
      "370C",
      "370C",
      "370C",
      "368",
      "367",
      "367",
      "367",
      "359",
      "359",
      "359",
      "359",
      "356",
      "356",
      "350C",
      "350",
      "350",
      "350",
      "350",
      "337",
      "337",
      "337",
      "337",
      "330C",
      "330C",
      "330C",
      "330C",
      "330C",
      "330",
      "330",
      "330",
      "330",
      "330",
      "330",
      "330",
      "330",
      "330",
      "330",
      "330",
      "330",
      "330",
      "330",
      "330",
      "330",
      "330",
      "330",
      "330",
      "330",
      "330",
      "327",
      "327",
      "313",
      "313",
      "313",
      "284",
      "284",
      "284",
      "250",
      "250",
      "233",
      "233",
      "221",
      "221",
      "221",
      "178",
      "178",
      "178",
      "178",
      "178",
      "114",
      "114",
      "114",
      "114",
      "103",
      "103",
      "095",
      "095",
      "095",
      "095",
      "092",
      "082",
      "082",
      "082",
      "078",
      "078",
      "078",
      "070",
      "070",
      "070",
      "070",
      "070C",
      "070C",
      "070C",
      "070C",
      "070",
      "066",
      "063",
      "063",
      "063",
      "063",
      "063",
      "063",
      "056",
      "056",
      "053",
      "049",
      "050",
      "050",
      "050",
      "043",
      "043",
      "038",
      "038",
      "038",
      "031",
      "031",
      "030",
      "030",
      "030",
      "030",
      "030",
      "030",
      "025",
      "025",
      "017",
      "017",
      "017",
      "017",
      "009",
      "009",
      "009",
      "009",
      "004",
      "004",
      "004",
      "001"
    ],
    "swim:geom": "path",
    "swim:speeds": [
      177,
      177,
      243,
      243,
      259,
      259,
      259,
      290,
      290,
      290,
      290,
      290,
      290,
      389,
      389,
      389,
      389,
      389,
      389,
      389,
      447,
      447,
      447,
      457,
      457,
      457,
      457,
      457,
      456,
      456,
      463,
      463,
      463,
      463,
      463,
      478,
      478,
      483,
      483,
      486,
      485,
      485,
      485,
      486,
      486,
      486,
      486,
      487,
      487,
      487,
      486,
      486,
      486,
      486,
      487,
      487,
      487,
      487,
      487,
      484,
      484,
      484,
      485,
      485,
      480,
      480,
      480,
      480,
      480,
      478,
      478,
      478,
      477,
      477,
      477,
      477,
      477,
      477,
      477,
      477,
      475,
      475,
      475,
      475,
      475,
      475,
      475,
      474,
      473,
      473,
      470,
      470,
      470,
      468,
      468,
      468,
      468,
      468,
      468,
      468,
      468,
      468,
      468,
      468,
      466,
      466,
      466,
      466,
      466,
      466,
      469,
      469,
      469,
      469,
      469,
      471,
      471,
      471,
      471,
      477,
      477,
      477,
      478,
      478,
      478,
      478,
      478,
      478,
      478,
      477,
      477,
      477,
      476,
      476,
      476,
      476,
      476,
      476,
      476,
      476,
      476,
      476,
      477,
      477,
      476,
      476,
      476,
      476,
      478,
      478,
      479,
      479,
      479,
      478,
      478,
      477,
      477,
      477,
      476,
      476,
      476,
      476,
      476,
      476,
      477,
      478,
      478,
      478,
      479,
      479,
      480,
      480,
      480,
      481,
      481,
      481,
      481,
      481,
      481,
      480,
      480,
      480,
      480,
      480,
      480,
      478,
      477,
      477,
      476,
      476,
      473,
      472,
      472,
      470,
      467,
      467,
      468,
      468,
      468,
      470,
      473,
      473,
      473,
      473,
      480,
      480,
      480,
      480,
      480,
      484,
      484,
      485,
      485,
      485,
      485,
      485,
      484,
      484,
      484,
      484,
      490,
      490,
      490,
      497,
      497,
      499,
      499,
      499,
      499,
      499,
      499,
      499,
      497,
      497,
      497,
      497,
      497,
      497,
      493,
      493,
      493,
      493,
      492,
      492,
      492,
      492,
      492,
      492,
      492,
      493,
      493,
      493,
      493,
      493,
      493,
      493,
      493,
      493,
      493,
      493,
      493,
      495,
      495,
      495,
      497,
      497,
      497,
      497,
      497,
      502,
      502,
      502,
      502,
      502,
      502,
      503,
      502,
      502,
      502,
      503,
      501,
      501,
      498,
      498,
      498,
      498,
      498,
      498,
      498,
      496,
      496,
      496,
      496,
      494,
      494,
      494,
      493,
      493,
      493,
      492,
      492,
      492,
      490,
      490,
      490,
      488,
      488,
      488,
      488,
      487,
      487,
      487,
      487,
      487,
      484,
      484,
      484,
      484,
      484,
      482,
      482,
      482,
      480,
      480,
      483,
      483,
      483,
      483,
      483,
      485,
      485,
      488,
      488,
      488,
      488,
      488,
      485,
      485,
      486,
      486,
      486,
      486,
      487,
      487,
      487,
      487,
      487,
      487,
      488,
      488,
      488,
      488,
      488,
      489,
      489,
      488,
      488,
      488,
      488,
      488,
      487,
      487,
      487,
      480,
      480,
      480,
      478,
      478,
      478,
      478,
      478,
      474,
      474,
      474,
      474,
      474,
      476,
      476,
      476,
      476,
      476,
      476,
      475,
      475,
      476,
      476,
      476,
      476,
      475,
      475,
      475,
      475,
      475,
      475,
      478,
      478,
      478,
      478,
      478,
      478,
      478,
      478,
      478,
      478,
      478,
      477,
      475,
      475,
      475,
      475,
      475,
      475,
      475,
      475,
      471,
      471,
      471,
      471,
      471,
      465,
      465,
      465,
      465,
      465,
      465,
      464,
      464,
      464,
      464,
      464,
      464,
      464,
      464,
      464,
      464,
      464,
      464,
      464,
      464,
      464,
      464,
      465,
      465,
      465,
      465,
      465,
      463,
      463,
      463,
      463,
      463,
      464,
      464,
      462,
      462,
      462,
      459,
      459,
      459,
      458,
      455,
      455,
      456,
      456,
      456,
      456,
      456,
      456,
      456,
      456,
      455,
      455,
      457,
      457,
      457,
      457,
      456,
      456,
      456,
      457,
      450,
      450,
      450,
      450,
      450,
      450,
      450,
      460,
      460,
      460,
      460,
      464,
      464,
      464,
      465,
      465,
      465,
      471,
      471,
      471,
      474,
      473,
      473,
      473,
      474,
      474,
      474,
      475,
      475,
      475,
      475,
      475,
      473,
      473,
      472,
      472,
      472,
      473,
      473,
      473,
      469,
      469,
      469,
      469,
      468,
      468,
      467,
      467,
      467,
      467,
      468,
      468,
      468,
      470,
      470,
      470,
      467,
      467,
      467,
      467,
      467,
      467,
      465,
      466,
      466,
      466,
      466,
      465,
      465,
      465,
      465,
      468,
      468,
      468,
      468,
      468,
      468,
      468,
      467,
      467,
      467,
      467,
      467,
      467,
      467,
      467,
      466,
      466,
      465,
      465,
      465,
      465,
      463,
      463,
      464,
      464,
      464,
      463,
      463,
      457,
      457,
      457,
      456,
      456,
      456,
      448,
      448,
      440,
      440,
      432,
      432,
      432,
      412,
      412,
      412,
      412,
      412,
      369,
      369,
      369,
      369,
      332,
      332,
      288,
      288,
      288,
      288,
      280,
      281,
      281,
      281,
      279,
      279,
      279,
      274,
      274,
      274,
      274,
      275,
      278,
      278,
      278,
      279,
      279,
      286,
      286,
      286,
      286,
      286,
      286,
      282,
      282,
      285,
      282,
      248,
      248,
      248,
      237,
      237,
      232,
      232,
      232,
      234,
      234,
      224,
      217,
      217,
      217,
      187,
      187,
      185,
      185,
      165,
      165,
      165,
      165,
      153,
      153,
      153,
      153,
      148,
      148,
      148,
      147
    ],
    "swim:timestamps": [
      1780493874,
      1780493874,
      1780493934,
      1780493934,
      1780493995,
      1780493995,
      1780493995,
      1780494100,
      1780494100,
      1780494100,
      1780494100,
      1780494100,
      1780494100,
      1780494295,
      1780494295,
      1780494295,
      1780494295,
      1780494295,
      1780494295,
      1780494295,
      1780494535,
      1780494535,
      1780494535,
      1780494595,
      1780494595,
      1780494595,
      1780494595,
      1780494595,
      1780494655,
      1780494655,
      1780494715,
      1780494715,
      1780494715,
      1780494715,
      1780494715,
      1780494848,
      1780494848,
      1780494908,
      1780494908,
      1780494955,
      1780494969,
      1780494969,
      1780494969,
      1780495015,
      1780495015,
      1780495015,
      1780495015,
      1780495075,
      1780495075,
      1780495075,
      1780495089,
      1780495089,
      1780495089,
      1780495089,
      1780495136,
      1780495136,
      1780495209,
      1780495209,
      1780495209,
      1780495256,
      1780495256,
      1780495256,
      1780495269,
      1780495269,
      1780495329,
      1780495329,
      1780495329,
      1780495329,
      1780495329,
      1780495449,
      1780495449,
      1780495449,
      1780495569,
      1780495569,
      1780495569,
      1780495569,
      1780495569,
      1780495569,
      1780495690,
      1780495690,
      1780495750,
      1780495750,
      1780495750,
      1780495810,
      1780495810,
      1780495810,
      1780495810,
      1780495870,
      1780495930,
      1780495930,
      1780496036,
      1780496050,
      1780496050,
      1780496096,
      1780496096,
      1780496096,
      1780496170,
      1780496230,
      1780496230,
      1780496277,
      1780496277,
      1780496290,
      1780496290,
      1780496290,
      1780496457,
      1780496457,
      1780496457,
      1780496457,
      1780496457,
      1780496457,
      1780496651,
      1780496651,
      1780496651,
      1780496651,
      1780496651,
      1780496711,
      1780496711,
      1780496711,
      1780496711,
      1780496831,
      1780496831,
      1780496831,
      1780496891,
      1780496891,
      1780496891,
      1780497011,
      1780497071,
      1780497071,
      1780497071,
      1780497131,
      1780497131,
      1780497192,
      1780497312,
      1780497312,
      1780497312,
      1780497312,
      1780497372,
      1780497372,
      1780497372,
      1780497492,
      1780497612,
      1780497612,
      1780497672,
      1780497672,
      1780497792,
      1780497792,
      1780497792,
      1780497792,
      1780497852,
      1780497852,
      1780498033,
      1780498033,
      1780498033,
      1780498093,
      1780498093,
      1780498153,
      1780498153,
      1780498153,
      1780498213,
      1780498213,
      1780498273,
      1780498273,
      1780498308,
      1780498333,
      1780498453,
      1780498488,
      1780498488,
      1780498488,
      1780498548,
      1780498548,
      1780498608,
      1780498634,
      1780498634,
      1780498789,
      1780498789,
      1780498789,
      1780498789,
      1780498849,
      1780498849,
      1780498969,
      1780498994,
      1780498994,
      1780498994,
      1780498994,
      1780498994,
      1780499114,
      1780499149,
      1780499149,
      1780499209,
      1780499209,
      1780499269,
      1780499294,
      1780499294,
      1780499329,
      1780499570,
      1780499570,
      1780499630,
      1780499630,
      1780499630,
      1780499690,
      1780499810,
      1780499810,
      1780499810,
      1780499810,
      1780500050,
      1780500050,
      1780500050,
      1780500050,
      1780500050,
      1780500171,
      1780500171,
      1780500231,
      1780500231,
      1780500231,
      1780500231,
      1780500231,
      1780500351,
      1780500351,
      1780500351,
      1780500351,
      1780500531,
      1780500531,
      1780500531,
      1780500651,
      1780500651,
      1780500711,
      1780500711,
      1780500831,
      1780500831,
      1780500831,
      1780500831,
      1780500831,
      1780500952,
      1780500952,
      1780500952,
      1780500952,
      1780500952,
      1780500952,
      1780501192,
      1780501192,
      1780501192,
      1780501192,
      1780501252,
      1780501252,
      1780501252,
      1780501252,
      1780501252,
      1780501372,
      1780501372,
      1780501432,
      1780501432,
      1780501432,
      1780501492,
      1780501492,
      1780501492,
      1780501492,
      1780501552,
      1780501552,
      1780501612,
      1780501612,
      1780501612,
      1780501673,
      1780501673,
      1780501673,
      1780501733,
      1780501733,
      1780501733,
      1780501733,
      1780501733,
      1780501913,
      1780501913,
      1780501973,
      1780501973,
      1780501973,
      1780501973,
      1780501979,
      1780502033,
      1780502033,
      1780502033,
      1780502039,
      1780502099,
      1780502099,
      1780502153,
      1780502153,
      1780502219,
      1780502219,
      1780502219,
      1780502219,
      1780502219,
      1780502514,
      1780502514,
      1780502514,
      1780502514,
      1780502760,
      1780502760,
      1780502760,
      1780502820,
      1780502820,
      1780502820,
      1780502880,
      1780502880,
      1780502880,
      1780502940,
      1780502940,
      1780502940,
      1780503000,
      1780503000,
      1780503000,
      1780503000,
      1780503060,
      1780503060,
      1780503060,
      1780503060,
      1780503060,
      1780503180,
      1780503180,
      1780503180,
      1780503180,
      1780503180,
      1780503240,
      1780503240,
      1780503240,
      1780503541,
      1780503541,
      1780503661,
      1780503661,
      1780503661,
      1780503661,
      1780503661,
      1780503781,
      1780503781,
      1780503828,
      1780503828,
      1780503828,
      1780503828,
      1780503828,
      1780503841,
      1780503841,
      1780503961,
      1780503961,
      1780503961,
      1780503961,
      1780504093,
      1780504093,
      1780504093,
      1780504093,
      1780504189,
      1780504189,
      1780504214,
      1780504214,
      1780504214,
      1780504214,
      1780504274,
      1780504309,
      1780504309,
      1780504369,
      1780504369,
      1780504394,
      1780504394,
      1780504394,
      1780504429,
      1780504429,
      1780504429,
      1780504514,
      1780504514,
      1780504514,
      1780504574,
      1780504574,
      1780504574,
      1780504574,
      1780504574,
      1780504729,
      1780504754,
      1780504754,
      1780504754,
      1780504754,
      1780504910,
      1780504910,
      1780504970,
      1780504970,
      1780504970,
      1780504970,
      1780504995,
      1780504995,
      1780505030,
      1780505030,
      1780505030,
      1780505030,
      1780505175,
      1780505175,
      1780505175,
      1780505175,
      1780505175,
      1780505175,
      1780505330,
      1780505330,
      1780505330,
      1780505330,
      1780505330,
      1780505511,
      1780505511,
      1780505511,
      1780505511,
      1780505511,
      1780505511,
      1780505571,
      1780505691,
      1780505691,
      1780505691,
      1780505691,
      1780505691,
      1780505751,
      1780505751,
      1780505751,
      1780505931,
      1780505931,
      1780505931,
      1780505931,
      1780505931,
      1780506112,
      1780506112,
      1780506112,
      1780506112,
      1780506112,
      1780506112,
      1780506352,
      1780506352,
      1780506352,
      1780506352,
      1780506352,
      1780506352,
      1780506472,
      1780506472,
      1780506532,
      1780506532,
      1780506532,
      1780506653,
      1780506653,
      1780506653,
      1780506653,
      1780506653,
      1780506782,
      1780506782,
      1780506782,
      1780506782,
      1780506782,
      1780506893,
      1780506893,
      1780506893,
      1780506893,
      1780506893,
      1780506902,
      1780506902,
      1780507022,
      1780507022,
      1780507022,
      1780507142,
      1780507142,
      1780507142,
      1780507202,
      1780507254,
      1780507254,
      1780507262,
      1780507262,
      1780507262,
      1780507262,
      1780507262,
      1780507322,
      1780507322,
      1780507322,
      1780507374,
      1780507374,
      1780507503,
      1780507503,
      1780507503,
      1780507503,
      1780507554,
      1780507554,
      1780507554,
      1780507563,
      1780507980,
      1780507980,
      1780507980,
      1780508041,
      1780508041,
      1780508041,
      1780508041,
      1780508221,
      1780508221,
      1780508221,
      1780508221,
      1780508298,
      1780508298,
      1780508298,
      1780508358,
      1780508358,
      1780508358,
      1780508598,
      1780508598,
      1780508598,
      1780508641,
      1780508658,
      1780508658,
      1780508658,
      1780508718,
      1780508718,
      1780508718,
      1780508762,
      1780508762,
      1780508762,
      1780508839,
      1780508839,
      1780508899,
      1780508899,
      1780508942,
      1780508942,
      1780508942,
      1780508959,
      1780508959,
      1780508959,
      1780509019,
      1780509019,
      1780509019,
      1780509019,
      1780509122,
      1780509122,
      1780509139,
      1780509139,
      1780509139,
      1780509139,
      1780509182,
      1780509182,
      1780509242,
      1780509259,
      1780509259,
      1780509259,
      1780509303,
      1780509303,
      1780509303,
      1780509303,
      1780509319,
      1780509319,
      1780509423,
      1780509439,
      1780509439,
      1780509439,
      1780509439,
      1780509543,
      1780509543,
      1780509543,
      1780509543,
      1780509680,
      1780509680,
      1780509680,
      1780509680,
      1780509680,
      1780509783,
      1780509783,
      1780509800,
      1780509800,
      1780509800,
      1780509800,
      1780509843,
      1780509843,
      1780509843,
      1780509843,
      1780509860,
      1780509904,
      1780509920,
      1780509920,
      1780509964,
      1780509964,
      1780509980,
      1780509980,
      1780510024,
      1780510024,
      1780510024,
      1780510040,
      1780510040,
      1780510084,
      1780510084,
      1780510084,
      1780510144,
      1780510144,
      1780510144,
      1780510221,
      1780510221,
      1780510264,
      1780510264,
      1780510281,
      1780510281,
      1780510281,
      1780510401,
      1780510401,
      1780510401,
      1780510401,
      1780510401,
      1780510701,
      1780510701,
      1780510701,
      1780510701,
      1780510761,
      1780510761,
      1780510822,
      1780510822,
      1780510822,
      1780510822,
      1780510838,
      1780510882,
      1780510882,
      1780510882,
      1780510898,
      1780510898,
      1780510898,
      1780510958,
      1780510958,
      1780510958,
      1780510958,
      1780511062,
      1780511122,
      1780511122,
      1780511122,
      1780511138,
      1780511182,
      1780511198,
      1780511198,
      1780511198,
      1780511198,
      1780511198,
      1780511198,
      1780511242,
      1780511242,
      1780511258,
      1780511302,
      1780511378,
      1780511378,
      1780511378,
      1780511422,
      1780511422,
      1780511439,
      1780511439,
      1780511439,
      1780511483,
      1780511483,
      1780511543,
      1780511559,
      1780511559,
      1780511559,
      1780511619,
      1780511619,
      1780511679,
      1780511679,
      1780511739,
      1780511739,
      1780511739,
      1780511739,
      1780511799,
      1780511799,
      1780511799,
      1780511799,
      1780511843,
      1780511843,
      1780511843,
      1780511903
    ],
    "wof:geomhash": "896c52594bffe47990fa8d4fcb7cc4c5",
    "wof:id": 2031441305,
    "wof:repo": "sfomuseum-data-flights-2026-06"
  },
  "bbox": [
    -122.405,
    37.63388888888889,
    -74.16055555555556,
    41.95166666666667
  ],
  "geometry": {"coordinates":[[-122.405,37.63388888888889],[-122.405,37.63388888888889],[-122.3711111111111,37.68583333333333],[-122.3711111111111,37.68583333333333],[-122.34055555555555,37.75055555555556],[-122.34055555555555,37.75055555555556],[-122.34055555555555,37.75055555555556],[-122.38333333333334,37.9],[-122.38333333333334,37.9],[-122.38333333333334,37.9],[-122.38333333333334,37.9],[-122.38333333333334,37.9],[-122.38333333333334,37.9],[-122.04777777777778,38.00861111111111],[-122.04777777777778,38.00861111111111],[-122.04777777777778,38.00861111111111],[-122.04777777777778,38.00861111111111],[-122.04777777777778,38.00861111111111],[-122.04777777777778,38.00861111111111],[-122.04777777777778,38.00861111111111],[-121.45805555555556,38.124722222222225],[-121.45805555555556,38.124722222222225],[-121.45805555555556,38.124722222222225],[-121.30166666666666,38.155],[-121.30166666666666,38.155],[-121.30166666666666,38.155],[-121.30166666666666,38.155],[-121.30166666666666,38.155],[-121.14666666666668,38.18472222222222],[-121.14666666666668,38.18472222222222],[-120.98805555555556,38.21277777777778],[-120.98805555555556,38.21277777777778],[-120.98805555555556,38.21277777777778],[-120.98805555555556,38.21277777777778],[-120.98805555555556,38.21277777777778],[-120.60749999999999,38.264722222222225],[-120.60749999999999,38.264722222222225],[-120.43805555555556,38.28916666666667],[-120.43805555555556,38.28916666666667],[-120.32277777777777,38.30583333333333],[-120.26944444444445,38.31194444444444],[-120.26944444444445,38.31194444444444],[-120.26944444444445,38.31194444444444],[-120.15333333333334,38.32916666666667],[-120.15333333333334,38.32916666666667],[-120.15333333333334,38.32916666666667],[-120.15333333333334,38.32916666666667],[-119.98333333333333,38.352222222222224],[-119.98333333333333,38.352222222222224],[-119.98333333333333,38.352222222222224],[-119.93,38.358333333333334],[-119.93,38.358333333333334],[-119.93,38.358333333333334],[-119.93,38.358333333333334],[-119.81361111111111,38.37444444444444],[-119.81361111111111,38.37444444444444],[-119.59222222222222,38.401111111111106],[-119.59222222222222,38.401111111111106],[-119.59222222222222,38.401111111111106],[-119.45916666666668,38.42027777777778],[-119.45916666666668,38.42027777777778],[-119.45916666666668,38.42027777777778],[-119.42472222222223,38.42333333333333],[-119.42472222222223,38.42333333333333],[-119.25972222222222,38.445277777777775],[-119.25972222222222,38.445277777777775],[-119.25972222222222,38.445277777777775],[-119.25972222222222,38.445277777777775],[-119.25972222222222,38.445277777777775],[-118.92611111111111,38.48722222222222],[-118.92611111111111,38.48722222222222],[-118.92611111111111,38.48722222222222],[-118.595,38.52833333333333],[-118.595,38.52833333333333],[-118.595,38.52833333333333],[-118.595,38.52833333333333],[-118.595,38.52833333333333],[-118.595,38.52833333333333],[-118.27333333333333,38.56722222222223],[-118.27333333333333,38.56722222222223],[-118.10555555555555,38.58722222222222],[-118.10555555555555,38.58722222222222],[-118.10555555555555,38.58722222222222],[-117.93777777777778,38.606944444444444],[-117.93777777777778,38.606944444444444],[-117.93777777777778,38.606944444444444],[-117.93777777777778,38.606944444444444],[-117.77277777777778,38.62583333333333],[-117.60583333333332,38.644999999999996],[-117.60583333333332,38.644999999999996],[-117.30416666666666,38.67861111111111],[-117.27194444444444,38.683611111111105],[-117.27194444444444,38.683611111111105],[-117.13972222222223,38.70638888888889],[-117.13972222222223,38.70638888888889],[-117.13972222222223,38.70638888888889],[-116.94527777777778,38.739444444444445],[-116.7825,38.766666666666666],[-116.7825,38.766666666666666],[-116.64972222222222,38.788888888888884],[-116.64972222222222,38.788888888888884],[-116.62027777777777,38.79361111111111],[-116.62027777777777,38.79361111111111],[-116.62027777777777,38.79361111111111],[-116.15777777777778,38.86944444444445],[-116.15777777777778,38.86944444444445],[-116.15777777777778,38.86944444444445],[-116.15777777777778,38.86944444444445],[-116.15777777777778,38.86944444444445],[-116.15777777777778,38.86944444444445],[-115.63861111111112,38.95194444444445],[-115.63861111111112,38.95194444444445],[-115.63861111111112,38.95194444444445],[-115.63861111111112,38.95194444444445],[-115.63861111111112,38.95194444444445],[-115.47444444444444,38.97777777777778],[-115.47444444444444,38.97777777777778],[-115.47444444444444,38.97777777777778],[-115.47444444444444,38.97777777777778],[-115.14111111111112,39.028888888888886],[-115.14111111111112,39.028888888888886],[-115.14111111111112,39.028888888888886],[-114.97111111111111,39.05444444444444],[-114.97111111111111,39.05444444444444],[-114.97111111111111,39.05444444444444],[-114.63527777777779,39.10416666666667],[-114.46777777777778,39.12888888888889],[-114.46777777777778,39.12888888888889],[-114.46777777777778,39.12888888888889],[-114.30083333333333,39.15333333333333],[-114.30083333333333,39.15333333333333],[-114.13333333333334,39.177499999999995],[-113.79833333333333,39.224722222222226],[-113.79833333333333,39.224722222222226],[-113.79833333333333,39.224722222222226],[-113.79833333333333,39.224722222222226],[-113.62972222222221,39.24805555555556],[-113.62972222222221,39.24805555555556],[-113.62972222222221,39.24805555555556],[-113.2936111111111,39.29416666666666],[-112.95805555555556,39.348888888888894],[-112.95805555555556,39.348888888888894],[-112.79083333333332,39.37638888888889],[-112.79083333333332,39.37638888888889],[-112.46972222222223,39.428888888888885],[-112.46972222222223,39.428888888888885],[-112.46972222222223,39.428888888888885],[-112.46972222222223,39.428888888888885],[-112.30194444444444,39.45583333333334],[-112.30194444444444,39.45583333333334],[-111.795,39.53583333333333],[-111.795,39.53583333333333],[-111.795,39.53583333333333],[-111.62944444444443,39.561388888888885],[-111.62944444444443,39.561388888888885],[-111.46083333333334,39.58722222222222],[-111.46083333333334,39.58722222222222],[-111.46083333333334,39.58722222222222],[-111.25888888888889,39.617777777777775],[-111.25888888888889,39.617777777777775],[-111.11611111111111,39.638888888888886],[-111.11611111111111,39.638888888888886],[-111.01611111111112,39.65361111111111],[-110.94611111111111,39.663888888888884],[-110.60972222222222,39.713055555555556],[-110.50805555555556,39.72777777777778],[-110.50805555555556,39.72777777777778],[-110.50805555555556,39.72777777777778],[-110.33722222222222,39.75222222222222],[-110.33722222222222,39.75222222222222],[-110.16722222222222,39.77611111111111],[-110.09833333333333,39.78583333333333],[-110.09833333333333,39.78583333333333],[-109.65527777777778,39.84638888888889],[-109.65527777777778,39.84638888888889],[-109.65527777777778,39.84638888888889],[-109.65527777777778,39.84638888888889],[-109.48333333333333,39.86972222222222],[-109.48333333333333,39.86972222222222],[-109.13861111111112,39.91555555555556],[-109.07166666666666,39.92444444444444],[-109.07166666666666,39.92444444444444],[-109.07166666666666,39.92444444444444],[-109.07166666666666,39.92444444444444],[-109.07166666666666,39.92444444444444],[-108.72888888888889,39.97527777777778],[-108.62527777777777,39.990833333333335],[-108.62527777777777,39.990833333333335],[-108.45694444444445,40.015277777777776],[-108.45694444444445,40.015277777777776],[-108.28916666666666,40.04],[-108.22111111111111,40.05],[-108.22111111111111,40.05],[-108.13222222222221,40.06305555555555],[-107.45694444444445,40.15888888888889],[-107.45694444444445,40.15888888888889],[-107.29138888888889,40.181666666666665],[-107.29138888888889,40.181666666666665],[-107.29138888888889,40.181666666666665],[-107.13361111111112,40.20333333333333],[-106.79555555555555,40.24861111111111],[-106.79555555555555,40.24861111111111],[-106.79555555555555,40.24861111111111],[-106.79555555555555,40.24861111111111],[-106.10472222222222,40.338055555555556],[-106.10472222222222,40.338055555555556],[-106.10472222222222,40.338055555555556],[-106.10472222222222,40.338055555555556],[-106.10472222222222,40.338055555555556],[-105.75611111111111,40.38166666666667],[-105.75611111111111,40.38166666666667],[-105.58083333333333,40.40277777777778],[-105.58083333333333,40.40277777777778],[-105.58083333333333,40.40277777777778],[-105.58083333333333,40.40277777777778],[-105.58083333333333,40.40277777777778],[-105.23333333333333,40.44499999999999],[-105.23333333333333,40.44499999999999],[-105.23333333333333,40.44499999999999],[-105.23333333333333,40.44499999999999],[-104.69916666666667,40.50666666666667],[-104.69916666666667,40.50666666666667],[-104.69916666666667,40.50666666666667],[-104.33805555555556,40.54722222222222],[-104.33805555555556,40.54722222222222],[-104.15583333333333,40.56722222222223],[-104.15583333333333,40.56722222222223],[-103.79638888888888,40.605555555555554],[-103.79638888888888,40.605555555555554],[-103.79638888888888,40.605555555555554],[-103.79638888888888,40.605555555555554],[-103.79638888888888,40.605555555555554],[-103.4363888888889,40.64277777777778],[-103.4363888888889,40.64277777777778],[-103.4363888888889,40.64277777777778],[-103.4363888888889,40.64277777777778],[-103.4363888888889,40.64277777777778],[-103.4363888888889,40.64277777777778],[-102.72305555555556,40.71361111111111],[-102.72305555555556,40.71361111111111],[-102.72305555555556,40.71361111111111],[-102.72305555555556,40.71361111111111],[-102.54555555555555,40.730555555555554],[-102.54555555555555,40.730555555555554],[-102.54555555555555,40.730555555555554],[-102.54555555555555,40.730555555555554],[-102.54555555555555,40.730555555555554],[-102.18611111111112,40.76361111111111],[-102.18611111111112,40.76361111111111],[-102.00888888888889,40.77972222222222],[-102.00888888888889,40.77972222222222],[-102.00888888888889,40.77972222222222],[-101.83,40.79555555555555],[-101.83,40.79555555555555],[-101.83,40.79555555555555],[-101.83,40.79555555555555],[-101.65027777777779,40.811388888888885],[-101.65027777777779,40.811388888888885],[-101.46888888888888,40.82694444444445],[-101.46888888888888,40.82694444444445],[-101.46888888888888,40.82694444444445],[-101.28861111111111,40.841944444444444],[-101.28861111111111,40.841944444444444],[-101.28861111111111,40.841944444444444],[-101.10722222222222,40.85666666666667],[-101.10722222222222,40.85666666666667],[-101.10722222222222,40.85666666666667],[-101.10722222222222,40.85666666666667],[-101.10722222222222,40.85666666666667],[-100.54305555555555,40.90138888888889],[-100.54305555555555,40.90138888888889],[-100.35749999999999,40.915277777777774],[-100.35749999999999,40.915277777777774],[-100.35749999999999,40.915277777777774],[-100.35749999999999,40.915277777777774],[-100.35027777777778,40.91583333333333],[-100.17611111111111,40.928888888888885],[-100.17611111111111,40.928888888888885],[-100.17611111111111,40.928888888888885],[-100.16055555555556,40.93],[-99.98083333333334,40.94305555555555],[-99.98083333333334,40.94305555555555],[-99.81194444444444,40.95472222222222],[-99.81194444444444,40.95472222222222],[-99.62027777777777,40.96805555555556],[-99.62027777777777,40.96805555555556],[-99.62027777777777,40.96805555555556],[-99.62027777777777,40.96805555555556],[-99.62027777777777,40.96805555555556],[-98.72527777777778,41.025555555555556],[-98.72527777777778,41.025555555555556],[-98.72527777777778,41.025555555555556],[-98.72527777777778,41.025555555555556],[-98.00166666666667,41.06722222222223],[-98.00166666666667,41.06722222222223],[-98.00166666666667,41.06722222222223],[-97.82277777777777,41.07666666666667],[-97.82277777777777,41.07666666666667],[-97.82277777777777,41.07666666666667],[-97.6438888888889,41.08583333333333],[-97.6438888888889,41.08583333333333],[-97.6438888888889,41.08583333333333],[-97.46277777777777,41.095],[-97.46277777777777,41.095],[-97.46277777777777,41.095],[-97.2775,41.10388888888889],[-97.2775,41.10388888888889],[-97.2775,41.10388888888889],[-97.2775,41.10388888888889],[-97.1,41.11222222222222],[-97.1,41.11222222222222],[-97.1,41.11222222222222],[-97.1,41.11222222222222],[-97.1,41.11222222222222],[-96.74694444444445,41.128055555555555],[-96.74694444444445,41.128055555555555],[-96.74694444444445,41.128055555555555],[-96.74694444444445,41.128055555555555],[-96.74694444444445,41.128055555555555],[-96.57166666666666,41.135555555555555],[-96.57166666666666,41.135555555555555],[-96.57166666666666,41.135555555555555],[-95.69527777777778,41.172777777777775],[-95.69527777777778,41.172777777777775],[-95.31805555555555,41.224722222222226],[-95.31805555555555,41.224722222222226],[-95.31805555555555,41.224722222222226],[-95.31805555555555,41.224722222222226],[-95.31805555555555,41.224722222222226],[-94.96777777777778,41.271388888888886],[-94.96777777777778,41.271388888888886],[-94.85416666666666,41.28638888888889],[-94.85416666666666,41.28638888888889],[-94.85416666666666,41.28638888888889],[-94.85416666666666,41.28638888888889],[-94.85416666666666,41.28638888888889],[-94.78944444444444,41.29472222222222],[-94.78944444444444,41.29472222222222],[-94.43805555555556,41.34],[-94.43805555555556,41.34],[-94.43805555555556,41.34],[-94.43805555555556,41.34],[-94.07416666666666,41.385555555555555],[-94.07416666666666,41.385555555555555],[-94.07416666666666,41.385555555555555],[-94.07416666666666,41.385555555555555],[-93.79083333333332,41.42027777777778],[-93.79083333333332,41.42027777777778],[-93.71722222222222,41.42916666666667],[-93.71722222222222,41.42916666666667],[-93.71722222222222,41.42916666666667],[-93.71722222222222,41.42916666666667],[-93.53999999999999,41.44888888888889],[-93.43194444444445,41.45888888888889],[-93.43194444444445,41.45888888888889],[-93.25416666666666,41.47555555555556],[-93.25416666666666,41.47555555555556],[-93.18,41.4825],[-93.18,41.4825],[-93.18,41.4825],[-93.07388888888889,41.4925],[-93.07388888888889,41.4925],[-93.07388888888889,41.4925],[-92.82694444444444,41.515277777777776],[-92.82694444444444,41.515277777777776],[-92.82694444444444,41.515277777777776],[-92.65305555555557,41.53111111111111],[-92.65305555555557,41.53111111111111],[-92.65305555555557,41.53111111111111],[-92.65305555555557,41.53111111111111],[-92.65305555555557,41.53111111111111],[-92.18,41.57222222222222],[-92.12777777777777,41.57666666666667],[-92.12777777777777,41.57666666666667],[-92.12777777777777,41.57666666666667],[-92.12777777777777,41.57666666666667],[-91.65777777777778,41.61555555555556],[-91.65777777777778,41.61555555555556],[-91.48305555555555,41.629444444444445],[-91.48305555555555,41.629444444444445],[-91.48305555555555,41.629444444444445],[-91.48305555555555,41.629444444444445],[-91.41027777777778,41.63361111111111],[-91.41027777777778,41.63361111111111],[-91.30805555555555,41.64333333333333],[-91.30805555555555,41.64333333333333],[-91.30805555555555,41.64333333333333],[-91.30805555555555,41.64333333333333],[-90.88666666666667,41.675],[-90.88666666666667,41.675],[-90.88666666666667,41.675],[-90.88666666666667,41.675],[-90.88666666666667,41.675],[-90.88666666666667,41.675],[-90.42,41.70861111111111],[-90.42,41.70861111111111],[-90.42,41.70861111111111],[-90.42,41.70861111111111],[-90.42,41.70861111111111],[-89.89055555555557,41.744166666666665],[-89.89055555555557,41.744166666666665],[-89.89055555555557,41.744166666666665],[-89.89055555555557,41.744166666666665],[-89.89055555555557,41.744166666666665],[-89.89055555555557,41.744166666666665],[-89.71277777777777,41.75555555555555],[-89.35777777777777,41.77722222222222],[-89.35777777777777,41.77722222222222],[-89.35777777777777,41.77722222222222],[-89.35777777777777,41.77722222222222],[-89.35777777777777,41.77722222222222],[-89.18222222222222,41.78805555555555],[-89.18222222222222,41.78805555555555],[-89.18222222222222,41.78805555555555],[-88.65555555555557,41.8175],[-88.65555555555557,41.8175],[-88.65555555555557,41.8175],[-88.65555555555557,41.8175],[-88.65555555555557,41.8175],[-88.17166666666667,41.8425],[-88.17166666666667,41.8425],[-88.17166666666667,41.8425],[-88.17166666666667,41.8425],[-88.17166666666667,41.8425],[-88.17166666666667,41.8425],[-87.47722222222222,41.875],[-87.47722222222222,41.875],[-87.47722222222222,41.875],[-87.47722222222222,41.875],[-87.47722222222222,41.875],[-87.47722222222222,41.875],[-87.13444444444445,41.88944444444444],[-87.13444444444445,41.88944444444444],[-86.96000000000001,41.896388888888886],[-86.96000000000001,41.896388888888886],[-86.96000000000001,41.896388888888886],[-86.61888888888888,41.909166666666664],[-86.61888888888888,41.909166666666664],[-86.61888888888888,41.909166666666664],[-86.61888888888888,41.909166666666664],[-86.61888888888888,41.909166666666664],[-86.24027777777778,41.92222222222222],[-86.24027777777778,41.92222222222222],[-86.24027777777778,41.92222222222222],[-86.24027777777778,41.92222222222222],[-86.24027777777778,41.92222222222222],[-85.92722222222223,41.93222222222222],[-85.92722222222223,41.93222222222222],[-85.92722222222223,41.93222222222222],[-85.92722222222223,41.93222222222222],[-85.92722222222223,41.93222222222222],[-85.89833333333334,41.933055555555555],[-85.89833333333334,41.933055555555555],[-85.54916666666666,41.94305555555555],[-85.54916666666666,41.94305555555555],[-85.54916666666666,41.94305555555555],[-85.205,41.95166666666667],[-85.205,41.95166666666667],[-85.205,41.95166666666667],[-85.03694444444444,41.95055555555556],[-84.90138888888889,41.94944444444444],[-84.90138888888889,41.94944444444444],[-84.86444444444444,41.94944444444444],[-84.86444444444444,41.94944444444444],[-84.86444444444444,41.94944444444444],[-84.86444444444444,41.94944444444444],[-84.86444444444444,41.94944444444444],[-84.69583333333334,41.948611111111106],[-84.69583333333334,41.948611111111106],[-84.69583333333334,41.948611111111106],[-84.55583333333333,41.948055555555555],[-84.55583333333333,41.948055555555555],[-84.18944444444445,41.94416666666666],[-84.18944444444445,41.94416666666666],[-84.18944444444445,41.94416666666666],[-84.18944444444445,41.94416666666666],[-84.04833333333333,41.94277777777778],[-84.04833333333333,41.94277777777778],[-84.04833333333333,41.94277777777778],[-84.0225,41.94277777777778],[-82.84444444444443,41.93111111111111],[-82.84444444444443,41.93111111111111],[-82.84444444444443,41.93111111111111],[-82.67750000000001,41.920833333333334],[-82.67750000000001,41.920833333333334],[-82.67750000000001,41.920833333333334],[-82.67750000000001,41.920833333333334],[-82.16555555555556,41.88611111111111],[-82.16555555555556,41.88611111111111],[-82.16555555555556,41.88611111111111],[-82.16555555555556,41.88611111111111],[-81.93472222222222,41.86944444444445],[-81.93472222222222,41.86944444444445],[-81.93472222222222,41.86944444444445],[-81.76138888888889,41.85527777777778],[-81.76138888888889,41.85527777777778],[-81.76138888888889,41.85527777777778],[-81.06361111111111,41.801944444444445],[-81.06361111111111,41.801944444444445],[-81.06361111111111,41.801944444444445],[-80.93111111111112,41.79111111111111],[-80.88833333333334,41.78444444444444],[-80.88833333333334,41.78444444444444],[-80.88833333333334,41.78444444444444],[-80.71361111111112,41.76305555555555],[-80.71361111111112,41.76305555555555],[-80.71361111111112,41.76305555555555],[-80.58055555555555,41.75055555555556],[-80.58055555555555,41.75055555555556],[-80.58055555555555,41.75055555555556],[-80.36416666666666,41.726111111111116],[-80.36416666666666,41.726111111111116],[-80.19222222222223,41.70583333333334],[-80.19222222222223,41.70583333333334],[-80.05916666666667,41.690555555555555],[-80.05916666666667,41.690555555555555],[-80.05916666666667,41.690555555555555],[-80.01888888888888,41.68388888888889],[-80.01888888888888,41.68388888888889],[-80.01888888888888,41.68388888888889],[-79.84722222222221,41.66444444444444],[-79.84722222222221,41.66444444444444],[-79.84722222222221,41.66444444444444],[-79.84722222222221,41.66444444444444],[-79.53916666666666,41.628055555555555],[-79.53916666666666,41.628055555555555],[-79.505,41.6225],[-79.505,41.6225],[-79.505,41.6225],[-79.505,41.6225],[-79.36722222222221,41.606944444444444],[-79.36722222222221,41.606944444444444],[-79.19777777777779,41.58555555555556],[-79.18055555555556,41.581944444444446],[-79.18055555555556,41.581944444444446],[-79.18055555555556,41.581944444444446],[-79.02555555555556,41.56388888888888],[-79.02555555555556,41.56388888888888],[-79.02555555555556,41.56388888888888],[-79.02555555555556,41.56388888888888],[-78.97888888888889,41.558055555555555],[-78.97888888888889,41.558055555555555],[-78.68361111111112,41.519444444444446],[-78.63944444444445,41.51361111111111],[-78.63944444444445,41.51361111111111],[-78.63944444444445,41.51361111111111],[-78.63944444444445,41.51361111111111],[-78.37666666666667,41.47888888888889],[-78.37666666666667,41.47888888888889],[-78.37666666666667,41.47888888888889],[-78.37666666666667,41.47888888888889],[-77.96111111111111,41.422777777777775],[-77.96111111111111,41.422777777777775],[-77.96111111111111,41.422777777777775],[-77.96111111111111,41.422777777777775],[-77.96111111111111,41.422777777777775],[-77.69027777777778,41.38527777777778],[-77.69027777777778,41.38527777777778],[-77.62416666666665,41.37583333333333],[-77.62416666666665,41.37583333333333],[-77.62416666666665,41.37583333333333],[-77.62416666666665,41.37583333333333],[-77.52361111111111,41.36194444444445],[-77.52361111111111,41.36194444444445],[-77.52361111111111,41.36194444444445],[-77.52361111111111,41.36194444444445],[-77.45611111111111,41.352222222222224],[-77.35694444444444,41.338055555555556],[-77.28611111111111,41.32805555555556],[-77.28611111111111,41.32805555555556],[-77.18583333333333,41.31361111111111],[-77.18583333333333,41.31361111111111],[-77.11972222222222,41.303888888888885],[-77.11972222222222,41.303888888888885],[-77.02055555555556,41.28944444444444],[-77.02055555555556,41.28944444444444],[-77.02055555555556,41.28944444444444],[-76.9538888888889,41.27972222222222],[-76.9538888888889,41.27972222222222],[-76.85416666666666,41.265],[-76.85416666666666,41.265],[-76.85416666666666,41.265],[-76.68944444444445,41.24055555555556],[-76.68944444444445,41.24055555555556],[-76.68944444444445,41.24055555555556],[-76.46638888888889,41.206944444444446],[-76.46638888888889,41.206944444444446],[-76.36638888888888,41.19194444444444],[-76.36638888888888,41.19194444444444],[-76.2936111111111,41.18083333333333],[-76.2936111111111,41.18083333333333],[-76.2936111111111,41.18083333333333],[-76.00972222222222,41.13166666666667],[-76.00972222222222,41.13166666666667],[-76.00972222222222,41.13166666666667],[-76.00972222222222,41.13166666666667],[-76.00972222222222,41.13166666666667],[-75.33,40.94277777777778],[-75.33,40.94277777777778],[-75.33,40.94277777777778],[-75.33,40.94277777777778],[-75.21555555555555,40.910555555555554],[-75.21555555555555,40.910555555555554],[-75.10777777777777,40.88027777777778],[-75.10777777777777,40.88027777777778],[-75.10777777777777,40.88027777777778],[-75.10777777777777,40.88027777777778],[-75.08333333333333,40.86666666666667],[-75.01555555555555,40.85444444444445],[-75.01555555555555,40.85444444444445],[-75.01555555555555,40.85444444444445],[-74.98333333333333,40.85],[-74.98333333333333,40.85],[-74.98333333333333,40.85],[-74.88333333333334,40.85],[-74.88333333333334,40.85],[-74.88333333333334,40.85],[-74.88333333333334,40.85],[-74.73694444444445,40.89361111111111],[-74.63972222222223,40.8675],[-74.63972222222223,40.8675],[-74.63972222222223,40.8675],[-74.61666666666666,40.86666666666667],[-74.55416666666666,40.83027777777778],[-74.55,40.8],[-74.55,40.8],[-74.55,40.8],[-74.55,40.8],[-74.55,40.8],[-74.55,40.8],[-74.54638888888888,40.75222222222222],[-74.54638888888888,40.75222222222222],[-74.55,40.733333333333334],[-74.54194444444444,40.67333333333333],[-74.51666666666667,40.583333333333336],[-74.51666666666667,40.583333333333336],[-74.51666666666667,40.583333333333336],[-74.49888888888889,40.538888888888884],[-74.49888888888889,40.538888888888884],[-74.48333333333333,40.516666666666666],[-74.48333333333333,40.516666666666666],[-74.48333333333333,40.516666666666666],[-74.43166666666667,40.495],[-74.43166666666667,40.495],[-74.3611111111111,40.470555555555556],[-74.33333333333333,40.483333333333334],[-74.33333333333333,40.483333333333334],[-74.33333333333333,40.483333333333334],[-74.28333333333333,40.516666666666666],[-74.28333333333333,40.516666666666666],[-74.25,40.55],[-74.25,40.55],[-74.21666666666667,40.6],[-74.21666666666667,40.6],[-74.21666666666667,40.6],[-74.21666666666667,40.6],[-74.2,40.63333333333333],[-74.2,40.63333333333333],[-74.2,40.63333333333333],[-74.2,40.63333333333333],[-74.18333333333334,40.663333333333334],[-74.18333333333334,40.663333333333334],[-74.18333333333334,40.663333333333334],[-74.16055555555556,40.69916666666666]],"type":"LineString"}
}
