{
  "id": 2031533429,
  "type": "Feature",
  "properties": {
    "geom:area": 0,
    "geom:bbox": "-122.400833,37.671111,-74.091111,43.152778",
    "geom:latitude": 41.76267236895456,
    "geom:longitude": -98.47942740567483,
    "src:alt_label": "swim-path",
    "src:geom": "swim",
    "swim:altitudes": [
      "034",
      "123",
      "123",
      "236",
      "251",
      "336",
      "350C",
      "350C",
      "350C",
      "350C",
      "350C",
      "350C",
      "350C",
      "350C",
      "350C",
      "350C",
      "350C",
      "350C",
      "350C",
      "350C",
      "350C",
      "350C",
      "350C",
      "350C",
      "350C",
      "350C",
      "350C",
      "350C",
      "350C",
      "350C",
      "350C",
      "350C",
      "350C",
      "350C",
      "350C",
      "350C",
      "350C",
      "350C",
      "350C",
      "350C",
      "350C",
      "350C",
      "350C",
      "350C",
      "350C",
      "350C",
      "350C",
      "350C",
      "350C",
      "350C",
      "350C",
      "350C",
      "350C",
      "350C",
      "350C",
      "350C",
      "350C",
      "350C",
      "350C",
      "350C",
      "350C",
      "350C",
      "367",
      "370C",
      "370C",
      "370C",
      "370C",
      "370C",
      "370C",
      "370C",
      "370C",
      "370C",
      "370C",
      "370C",
      "370C",
      "370C",
      "370C",
      "370C",
      "370C",
      "370C",
      "370C",
      "370C",
      "370C",
      "370C",
      "370C",
      "370C",
      "370C",
      "370C",
      "370C",
      "370C",
      "370C",
      "370C",
      "370C",
      "370C",
      "370C",
      "370C",
      "370C",
      "370C",
      "370C",
      "370C",
      "370C",
      "370C",
      "370C",
      "370C",
      "370C",
      "370C",
      "370C",
      "370C",
      "370C",
      "370C",
      "370C",
      "370C",
      "370C",
      "370C",
      "370C",
      "370C",
      "370C",
      "370C",
      "370C",
      "372",
      "379",
      "379",
      "390C",
      "390C",
      "390C",
      "390C",
      "303",
      "175",
      "105",
      "092",
      "090C",
      "090C",
      "080",
      "067",
      "059",
      "033",
      "030",
      "020",
      "012",
      "008",
      "005"
    ],
    "swim:geom": "path",
    "swim:speeds": [
      196,
      402,
      402,
      467,
      479,
      498,
      495,
      492,
      491,
      491,
      492,
      492,
      496,
      496,
      496,
      494,
      494,
      494,
      497,
      497,
      498,
      498,
      500,
      500,
      500,
      500,
      500,
      501,
      502,
      503,
      503,
      503,
      504,
      504,
      504,
      507,
      507,
      508,
      507,
      506,
      506,
      506,
      507,
      508,
      508,
      510,
      512,
      511,
      512,
      513,
      513,
      519,
      522,
      522,
      525,
      526,
      536,
      537,
      543,
      543,
      545,
      545,
      534,
      550,
      556,
      558,
      558,
      560,
      560,
      562,
      565,
      565,
      566,
      566,
      566,
      565,
      565,
      565,
      565,
      564,
      562,
      562,
      562,
      563,
      564,
      564,
      566,
      567,
      567,
      565,
      565,
      565,
      575,
      569,
      575,
      569,
      573,
      567,
      564,
      564,
      563,
      564,
      565,
      567,
      569,
      569,
      569,
      578,
      579,
      580,
      581,
      581,
      582,
      582,
      584,
      586,
      589,
      590,
      591,
      591,
      588,
      588,
      595,
      611,
      602,
      587,
      531,
      411,
      361,
      290,
      296,
      298,
      296,
      290,
      291,
      281,
      259,
      192,
      152,
      143,
      138
    ],
    "swim:timestamps": [
      1781413337,
      1781413637,
      1781413637,
      1781413997,
      1781414057,
      1781414418,
      1781414506,
      1781414566,
      1781414598,
      1781414598,
      1781414626,
      1781414626,
      1781414686,
      1781414806,
      1781414806,
      1781414958,
      1781414958,
      1781414958,
      1781414986,
      1781415226,
      1781415258,
      1781415258,
      1781415378,
      1781415407,
      1781415407,
      1781415407,
      1781415439,
      1781415467,
      1781415527,
      1781415619,
      1781415647,
      1781415679,
      1781415767,
      1781415767,
      1781415767,
      1781416007,
      1781416007,
      1781416067,
      1781416247,
      1781416307,
      1781416367,
      1781416367,
      1781416427,
      1781416487,
      1781416487,
      1781416547,
      1781416667,
      1781416968,
      1781417268,
      1781417328,
      1781417328,
      1781418128,
      1781418309,
      1781418309,
      1781418589,
      1781418649,
      1781419009,
      1781419069,
      1781419630,
      1781419630,
      1781420110,
      1781420350,
      1781420470,
      1781420590,
      1781420690,
      1781420750,
      1781420770,
      1781420810,
      1781420830,
      1781420870,
      1781420950,
      1781420990,
      1781421010,
      1781421050,
      1781421050,
      1781421110,
      1781421230,
      1781421251,
      1781421410,
      1781421471,
      1781421651,
      1781421711,
      1781421711,
      1781421891,
      1781421951,
      1781421951,
      1781422011,
      1781422071,
      1781422131,
      1781422251,
      1781422311,
      1781422351,
      1781422410,
      1781422431,
      1781422470,
      1781422491,
      1781422531,
      1781422650,
      1781422772,
      1781422772,
      1781422851,
      1781422911,
      1781422950,
      1781423031,
      1781423131,
      1781423152,
      1781423152,
      1781423392,
      1781423432,
      1781423452,
      1781423490,
      1781423490,
      1781423512,
      1781423550,
      1781423611,
      1781423632,
      1781423671,
      1781423692,
      1781423731,
      1781423812,
      1781423851,
      1781423851,
      1781424574,
      1781425227,
      1781426222,
      1781426608,
      1781427508,
      1781427843,
      1781428083,
      1781428167,
      1781428203,
      1781428263,
      1781428347,
      1781428407,
      1781428443,
      1781428563,
      1781428587,
      1781428683,
      1781428767,
      1781428803,
      1781428827
    ],
    "wof:geomhash": "f9a364982632e1ac29480be5bf589abf",
    "wof:id": 2031533429,
    "wof:repo": "sfomuseum-data-flights-2026-06"
  },
  "bbox": [
    -122.40083333333334,
    37.67111111111111,
    -74.0911111111111,
    43.15277777777778
  ],
  "geometry": {"coordinates":[[-122.40083333333334,37.67111111111111],[-122.04416666666667,37.969722222222224],[-122.04416666666667,37.969722222222224],[-121.43,38.51888888888889],[-121.28999999999999,38.60333333333333],[-120.43333333333334,39.117222222222225],[-120.2538888888889,39.22222222222222],[-120.11305555555555,39.30333333333333],[-120.02805555555555,39.355555555555554],[-120.02805555555555,39.355555555555554],[-119.96972222222223,39.382777777777775],[-119.96972222222223,39.382777777777775],[-119.80194444444444,39.431666666666665],[-119.46583333333334,39.52194444444444],[-119.46583333333334,39.52194444444444],[-119.02333333333333,39.63638888888889],[-119.02333333333333,39.63638888888889],[-119.02333333333333,39.63638888888889],[-118.9563888888889,39.65361111111111],[-118.27027777777778,39.82972222222222],[-118.16472222222222,39.85638888888889],[-118.16472222222222,39.85638888888889],[-117.81888888888888,39.94277777777778],[-117.76305555555555,39.95666666666667],[-117.76305555555555,39.95666666666667],[-117.76305555555555,39.95666666666667],[-117.64694444444446,39.98527777777778],[-117.58972222222222,39.99944444444444],[-117.41583333333334,40.04194444444444],[-117.13722222222223,40.109722222222224],[-117.06861111111111,40.126111111111115],[-116.96305555555556,40.15138888888889],[-116.69222222222223,40.21611111111111],[-116.69222222222223,40.21611111111111],[-116.69222222222223,40.21611111111111],[-115.99361111111111,40.37861111111111],[-115.99361111111111,40.37861111111111],[-115.81722222222221,40.41916666666666],[-115.28555555555555,40.53861111111111],[-115.10888888888888,40.57777777777778],[-114.93194444444445,40.61666666666667],[-114.93194444444445,40.61666666666667],[-114.74722222222222,40.65694444444444],[-114.56694444444445,40.69583333333333],[-114.56694444444445,40.69583333333333],[-114.3888888888889,40.73388888888889],[-114.02833333333334,40.809999999999995],[-113.12194444444444,40.99583333333334],[-112.20694444444445,41.17527777777777],[-112.02388888888889,41.21027777777778],[-112.02388888888889,41.21027777777778],[-109.53555555555555,41.652499999999996],[-108.9975,41.74],[-108.9975,41.74],[-108.0775,41.88388888888889],[-107.88472222222222,41.91277777777778],[-106.7125,42.0825],[-106.53777777777778,42.10666666666667],[-104.6738888888889,42.34666666666667],[-104.6738888888889,42.34666666666667],[-103.06583333333333,42.528055555555554],[-102.25166666666667,42.61083333333333],[-101.80916666666667,42.65361111111111],[-101.42194444444445,42.68944444444444],[-101.07416666666666,42.72027777777778],[-100.86361111111111,42.73861111111111],[-100.795,42.74444444444445],[-100.65444444444445,42.756388888888885],[-100.57888888888888,42.7625],[-100.4388888888889,42.774166666666666],[-100.155,42.79694444444444],[-100.01611111111112,42.80777777777777],[-99.94444444444444,42.81333333333333],[-99.80333333333333,42.82416666666667],[-99.80333333333333,42.82416666666667],[-99.58805555555556,42.84055555555556],[-99.16305555555556,42.87111111111111],[-99.07694444444444,42.87722222222222],[-98.52027777777778,42.914722222222224],[-98.30805555555555,42.92805555555555],[-97.67527777777778,42.96611111111111],[-97.46361111111112,42.97805555555556],[-97.46361111111112,42.97805555555556],[-96.82527777777777,43.01166666666666],[-96.61388888888888,43.02194444444444],[-96.61388888888888,43.02194444444444],[-96.40027777777779,43.03194444444444],[-96.18694444444445,43.041666666666664],[-95.9725,43.05083333333333],[-95.545,43.068333333333335],[-95.33222222222221,43.07638888888889],[-95.215,43.07694444444445],[-94.99666666666667,43.08416666666667],[-94.90194444444445,43.09111111111111],[-94.78083333333333,43.0925],[-94.68472222222222,43.09805555555556],[-94.56611111111111,43.10277777777778],[-94.09416666666667,43.11472222222223],[-93.66833333333334,43.125],[-93.66833333333334,43.125],[-93.41194444444444,43.13027777777778],[-93.19583333333334,43.13444444444444],[-93.02694444444444,43.13722222222222],[-92.76416666666667,43.14138888888889],[-92.42055555555557,43.14555555555555],[-92.33055555555555,43.14666666666667],[-92.33055555555555,43.14666666666667],[-91.44611111111111,43.15222222222222],[-91.31055555555555,43.152499999999996],[-91.22416666666666,43.152499999999996],[-91.09027777777777,43.15277777777778],[-91.09027777777777,43.15277777777778],[-90.99777777777778,43.152499999999996],[-90.86583333333333,43.152499999999996],[-90.64444444444445,43.151666666666664],[-90.55305555555556,43.151111111111106],[-90.41833333333334,43.150277777777774],[-90.32666666666667,43.14972222222222],[-90.18111111111112,43.14861111111111],[-89.86138888888888,43.14555555555555],[-89.73416666666667,43.14388888888889],[-89.73416666666667,43.14388888888889],[-87.08555555555554,42.84027777777778],[-84.65611111111112,42.44694444444444],[-81.02527777777777,41.82888888888889],[-79.63777777777779,41.6375],[-76.56194444444444,41.14472222222222],[-75.62555555555555,40.97694444444445],[-75.09277777777777,40.87555555555556],[-74.93333333333334,40.833333333333336],[-74.87249999999999,40.819722222222225],[-74.76472222222222,40.83583333333333],[-74.61666666666666,40.86666666666667],[-74.5,40.86666666666667],[-74.4475,40.86472222222223],[-74.24111111111111,40.849444444444444],[-74.2,40.85],[-74.0911111111111,40.816111111111105],[-74.13333333333334,40.75],[-74.13916666666667,40.73277777777778],[-74.15,40.71666666666667]],"type":"LineString"}
}
