{
  "id": 2031592337,
  "type": "Feature",
  "properties": {
    "geom:area": 0,
    "geom:bbox": "-122.343500,37.492540,-121.261440,37.607820",
    "geom:latitude": 37.541428716962685,
    "geom:longitude": -121.8091825982315,
    "src:alt_label": "swim-approach",
    "src:geom": "swim",
    "swim:elevations": [
      4631,
      4393,
      4369,
      4108,
      3819,
      3694,
      3604,
      3562,
      3428,
      3383,
      3337,
      3321,
      3296,
      3267,
      3260,
      3205,
      3120,
      3098,
      3074,
      2801,
      2743,
      2652,
      2565,
      2483,
      2262,
      2216,
      2160,
      2070,
      2018,
      1998,
      1958,
      1904,
      1826,
      1829,
      1797,
      1779,
      1740,
      1656,
      1537,
      1464,
      1125,
      893,
      699,
      566,
      425,
      271,
      248,
      109
    ],
    "swim:geom": "approach",
    "swim:timestamps": [
      1781943492,
      1781943523,
      1781943527,
      1781943556,
      1781943590,
      1781943605,
      1781943614,
      1781943619,
      1781943633,
      1781943641,
      1781943651,
      1781943657,
      1781943663,
      1781943675,
      1781943678,
      1781943691,
      1781943703,
      1781943706,
      1781943710,
      1781943747,
      1781943755,
      1781943770,
      1781943784,
      1781943795,
      1781943827,
      1781943833,
      1781943841,
      1781943860,
      1781943867,
      1781943870,
      1781943876,
      1781943882,
      1781943907,
      1781943924,
      1781943934,
      1781943940,
      1781943946,
      1781943961,
      1781943983,
      1781943992,
      1781944030,
      1781944064,
      1781944101,
      1781944130,
      1781944158,
      1781944189,
      1781944192,
      1781944231
    ],
    "wof:geomhash": "ff6ad7042da4e95c6e4c2c2b4207b7cb",
    "wof:id": 2031592337,
    "wof:repo": "sfomuseum-data-flights-2026-06"
  },
  "bbox": [
    -122.3435,
    37.49254,
    -121.26144,
    37.60782
  ],
  "geometry": {"coordinates":[[-121.26144,37.59289],[-121.3203,37.5858],[-121.32729,37.58506],[-121.38187,37.57908],[-121.44429,37.57196],[-121.47251,37.5687],[-121.48972,37.56669],[-121.49874,37.56561],[-121.52644,37.56234],[-121.54129,37.56062],[-121.55889,37.55855],[-121.57014,37.55723],[-121.58116,37.5559],[-121.60266,37.55333],[-121.60792,37.55262],[-121.63092,37.54874],[-121.65108,37.54451],[-121.65604,37.54334],[-121.6626,37.54175],[-121.72258,37.52748],[-121.7365,37.52409],[-121.76136,37.51814],[-121.78302,37.51292],[-121.80104,37.50859],[-121.85092,37.49669],[-121.86051,37.49463],[-121.87344,37.49289],[-121.90359,37.49254],[-121.91461,37.49319],[-121.91944,37.49344],[-121.92914,37.49394],[-121.93993,37.49451],[-121.97946,37.4967],[-122.00774,37.49841],[-122.02325,37.4993],[-122.0328,37.49988],[-122.04137,37.50038],[-122.06396,37.50172],[-122.0953,37.50505],[-122.107,37.50835],[-122.15287,37.5276],[-122.1929,37.54439],[-122.23095,37.56046],[-122.25932,37.57251],[-122.2859,37.58353],[-122.3125,37.59483],[-122.31484,37.5958],[-122.3435,37.60782]],"type":"LineString"}
}
