{
  "id": 2031474421,
  "type": "Feature",
  "properties": {
    "geom:area": 0,
    "geom:bbox": "-122.361810,37.473840,-121.257110,37.614740",
    "geom:latitude": 37.54525383990595,
    "geom:longitude": -121.81539809780588,
    "src:alt_label": "swim-approach",
    "src:geom": "swim",
    "swim:elevations": [
      4736,
      4676,
      4252,
      3968,
      3649,
      3433,
      3392,
      3357,
      3354,
      3353,
      3258,
      3140,
      3077,
      3016,
      2960,
      2772,
      2763,
      2741,
      2691,
      2414,
      2218,
      1996,
      1946,
      1887,
      1839,
      1830,
      1818,
      1678,
      1423,
      1278,
      1212,
      1044,
      974,
      899,
      770,
      642,
      554,
      456,
      387,
      336,
      304,
      119,
      28,
      607
    ],
    "swim:geom": "approach",
    "swim:timestamps": [
      1780869326,
      1780869333,
      1780869376,
      1780869408,
      1780869438,
      1780869464,
      1780869470,
      1780869476,
      1780869485,
      1780869505,
      1780869530,
      1780869561,
      1780869587,
      1780869615,
      1780869626,
      1780869656,
      1780869662,
      1780869668,
      1780869699,
      1780869733,
      1780869764,
      1780869800,
      1780869806,
      1780869815,
      1780869833,
      1780869845,
      1780869864,
      1780869887,
      1780869924,
      1780869951,
      1780869975,
      1780870001,
      1780870017,
      1780870032,
      1780870067,
      1780870091,
      1780870113,
      1780870134,
      1780870156,
      1780870171,
      1780870181,
      1780870229,
      1780870251,
      1780870262
    ],
    "wof:geomhash": "f8772c4a5af47ead71354f0d4369171d",
    "wof:id": 2031474421,
    "wof:repo": "sfomuseum-data-flights-2026-06"
  },
  "bbox": [
    -122.36181,
    37.47384,
    -121.25711,
    37.61474
  ],
  "geometry": {"coordinates":[[-121.25711,37.5936],[-121.27094,37.59171],[-121.35479,37.58205],[-121.41548,37.57517],[-121.47426,37.56829],[-121.52362,37.56251],[-121.53493,37.56119],[-121.54619,37.55992],[-121.56272,37.55803],[-121.59818,37.55385],[-121.63722,37.55916],[-121.68123,37.57455],[-121.71431,37.58603],[-121.7528,37.58623],[-121.76472,37.57873],[-121.77368,37.54606],[-121.77227,37.53917],[-121.77153,37.53232],[-121.79024,37.50325],[-121.83516,37.49482],[-121.87739,37.48999],[-121.92372,37.48437],[-121.93148,37.48342],[-121.94318,37.48191],[-121.96737,37.47887],[-121.98238,37.47694],[-122.00758,37.47384],[-122.03678,37.47881],[-122.07882,37.49619],[-122.10912,37.50902],[-122.13379,37.51945],[-122.15982,37.53048],[-122.17453,37.53668],[-122.18803,37.54237],[-122.21857,37.55523],[-122.23849,37.56366],[-122.25737,37.57162],[-122.27437,37.57872],[-122.28975,37.5852],[-122.3006,37.58976],[-122.30784,37.59282],[-122.33913,37.60597],[-122.35437,37.61242],[-122.36181,37.61474]],"type":"LineString"}
}
