{
  "id": 2031466195,
  "type": "Feature",
  "properties": {
    "geom:area": 0,
    "geom:bbox": "-156.133333,19.716667,-122.144167,37.575833",
    "geom:latitude": 29.810626839247607,
    "geom:longitude": -139.08714574943613,
    "src:alt_label": "swim-path",
    "src:geom": "swim",
    "swim:altitudes": [
      "008C",
      "008C",
      "008C",
      "109C",
      "109C",
      "109C",
      "109C",
      "191C",
      "191C",
      "191C",
      "225C",
      "225C",
      "225C",
      "257C",
      "257C",
      "257C",
      "296C",
      "296C",
      "296C",
      "316C",
      "330",
      "330",
      "330",
      "330",
      "330",
      "330",
      "330",
      "330",
      "330",
      "330",
      "330",
      "330",
      "330",
      "330",
      "330",
      "330",
      "330",
      "330",
      "330",
      "330",
      "330",
      "330C",
      "330C",
      "330C",
      "330C",
      "329C",
      "330C",
      "330C",
      "330C",
      "330",
      "330",
      "330",
      "330",
      "330",
      "330",
      "330",
      "330",
      "330",
      "330",
      "320",
      "290",
      "290",
      "276",
      "276",
      "262",
      "262",
      "262",
      "151",
      "151",
      "151",
      "110",
      "110",
      "110",
      "100",
      "089",
      "089",
      "100",
      "100",
      "100",
      "100",
      "100",
      "100",
      "100",
      "100",
      "100",
      "100",
      "100",
      "100",
      "100",
      "100",
      "099",
      "099",
      "092",
      "090",
      "089",
      "089",
      "091",
      "091",
      "090",
      "069",
      "060",
      "060",
      "056",
      "050",
      "050",
      "044",
      "028",
      "016"
    ],
    "swim:geom": "path",
    "swim:speeds": [
      160,
      160,
      160,
      290,
      290,
      290,
      290,
      410,
      410,
      410,
      440,
      440,
      440,
      460,
      460,
      460,
      480,
      480,
      480,
      470,
      480,
      480,
      480,
      480,
      480,
      480,
      470,
      470,
      470,
      470,
      470,
      470,
      490,
      490,
      490,
      480,
      480,
      480,
      480,
      480,
      480,
      505,
      505,
      506,
      506,
      457,
      430,
      430,
      430,
      430,
      430,
      431,
      431,
      433,
      433,
      435,
      435,
      440,
      439,
      439,
      414,
      414,
      398,
      398,
      382,
      382,
      382,
      336,
      336,
      336,
      289,
      289,
      289,
      267,
      261,
      261,
      254,
      268,
      270,
      270,
      270,
      270,
      250,
      259,
      259,
      260,
      260,
      281,
      253,
      253,
      254,
      256,
      260,
      257,
      259,
      259,
      255,
      255,
      243,
      233,
      237,
      237,
      244,
      217,
      217,
      192,
      154,
      153
    ],
    "swim:timestamps": [
      1780790117,
      1780790117,
      1780790117,
      1780790418,
      1780790418,
      1780790418,
      1780790418,
      1780790779,
      1780790779,
      1780790779,
      1780790959,
      1780790959,
      1780790959,
      1780791140,
      1780791140,
      1780791140,
      1780791381,
      1780791381,
      1780791381,
      1780791501,
      1780791621,
      1780791621,
      1780791741,
      1780791862,
      1780791862,
      1780791862,
      1780792102,
      1780792102,
      1780792163,
      1780792222,
      1780792222,
      1780792222,
      1780792339,
      1780792339,
      1780792339,
      1780792523,
      1780792523,
      1780792523,
      1780792757,
      1780792757,
      1780792757,
      1780804678,
      1780804678,
      1780804859,
      1780804859,
      1780804919,
      1780805039,
      1780805039,
      1780805039,
      1780805227,
      1780805227,
      1780805279,
      1780805279,
      1780805339,
      1780805339,
      1780805399,
      1780805399,
      1780805407,
      1780805519,
      1780805639,
      1780805759,
      1780805759,
      1780805819,
      1780805819,
      1780805879,
      1780805879,
      1780805879,
      1780806300,
      1780806300,
      1780806300,
      1780806480,
      1780806480,
      1780806480,
      1780806600,
      1780806780,
      1780806780,
      1780806900,
      1780806960,
      1780807020,
      1780807020,
      1780807020,
      1780807080,
      1780807201,
      1780807321,
      1780807321,
      1780807381,
      1780807381,
      1780807519,
      1780807700,
      1780807700,
      1780807741,
      1780807861,
      1780808000,
      1780808060,
      1780808101,
      1780808101,
      1780808120,
      1780808120,
      1780808180,
      1780808342,
      1780808402,
      1780808402,
      1780808420,
      1780808480,
      1780808480,
      1780808522,
      1780808660,
      1780808762
    ],
    "wof:geomhash": "359954aea54bb69eaec1abdff93bd79d",
    "wof:id": 2031466195,
    "wof:repo": "sfomuseum-data-flights-2026-06"
  },
  "bbox": [
    -156.13333333333333,
    19.716666666666665,
    -122.14416666666668,
    37.575833333333335
  ],
  "geometry": {"coordinates":[[-156.03333333333333,19.716666666666665],[-156.03333333333333,19.716666666666665],[-156.03333333333333,19.716666666666665],[-156.13333333333333,19.9],[-156.13333333333333,19.9],[-156.13333333333333,19.9],[-156.13333333333333,19.9],[-155.81666666666666,20.45],[-155.81666666666666,20.45],[-155.81666666666666,20.45],[-155.61666666666667,20.75],[-155.61666666666667,20.75],[-155.61666666666667,20.75],[-155.38333333333333,21.066666666666666],[-155.38333333333333,21.066666666666666],[-155.38333333333333,21.066666666666666],[-155.06666666666666,21.5],[-155.06666666666666,21.5],[-155.06666666666666,21.5],[-154.9,21.716666666666665],[-154.73333333333332,21.933333333333334],[-154.73333333333332,21.933333333333334],[-154.58333333333334,22.166666666666668],[-154.41666666666666,22.383333333333333],[-154.41666666666666,22.383333333333333],[-154.41666666666666,22.383333333333333],[-154.08333333333334,22.816666666666666],[-154.08333333333334,22.816666666666666],[-154,22.916666666666668],[-153.91666666666666,23.033333333333335],[-153.91666666666666,23.033333333333335],[-153.91666666666666,23.033333333333335],[-153.76666666666668,23.233333333333334],[-153.76666666666668,23.233333333333334],[-153.76666666666668,23.233333333333334],[-153.51666666666668,23.566666666666666],[-153.51666666666668,23.566666666666666],[-153.51666666666668,23.566666666666666],[-153.1,23.933333333333334],[-153.1,23.933333333333334],[-153.1,23.933333333333334],[-126.35638888888889,35.408055555555556],[-126.35638888888889,35.408055555555556],[-125.9075,35.615],[-125.9075,35.615],[-125.77527777777777,35.68888888888888],[-125.53361111111111,35.825],[-125.53361111111111,35.825],[-125.53361111111111,35.825],[-125.13333333333334,36.016666666666666],[-125.13333333333334,36.016666666666666],[-125.04722222222222,36.094166666666666],[-125.04722222222222,36.094166666666666],[-124.92222222222223,36.16277777777778],[-124.92222222222223,36.16277777777778],[-124.79888888888888,36.230555555555554],[-124.79888888888888,36.230555555555554],[-124.76666666666667,36.233333333333334],[-124.54722222222222,36.367222222222225],[-124.29583333333333,36.50277777777778],[-124.05555555555556,36.63194444444444],[-124.05555555555556,36.63194444444444],[-123.93916666666667,36.693888888888885],[-123.93916666666667,36.693888888888885],[-123.82972222222222,36.75194444444445],[-123.82972222222222,36.75194444444445],[-123.82972222222222,36.75194444444445],[-123.135,37.11694444444444],[-123.135,37.11694444444444],[-123.135,37.11694444444444],[-122.85472222222222,37.26222222222222],[-122.85472222222222,37.26222222222222],[-122.85472222222222,37.26222222222222],[-122.93388888888889,37.32555555555556],[-123.05833333333334,37.190555555555555],[-123.05833333333334,37.190555555555555],[-123.18666666666667,37.245],[-123.11277777777777,37.27444444444444],[-123.01805555555555,37.26833333333333],[-123.01805555555555,37.26833333333333],[-123.01805555555555,37.26833333333333],[-122.92472222222223,37.261944444444445],[-122.83277777777778,37.32972222222222],[-123.00416666666666,37.31027777777778],[-123.00416666666666,37.31027777777778],[-123.09194444444444,37.28861111111111],[-123.09194444444444,37.28861111111111],[-123.1,37.11666666666667],[-122.91666666666667,37.18333333333333],[-122.91666666666667,37.18333333333333],[-122.89694444444446,37.22],[-122.74722222222222,37.27638888888889],[-122.53333333333333,37.2],[-122.46666666666667,37.166666666666664],[-122.42111111111112,37.151666666666664],[-122.42111111111112,37.151666666666664],[-122.38333333333334,37.13333333333333],[-122.38333333333334,37.13333333333333],[-122.31666666666666,37.166666666666664],[-122.32388888888889,37.33305555555556],[-122.2538888888889,37.36805555555556],[-122.2538888888889,37.36805555555556],[-122.23333333333333,37.38333333333333],[-122.16666666666667,37.416666666666664],[-122.16666666666667,37.416666666666664],[-122.14416666666668,37.445277777777775],[-122.18333333333334,37.53333333333333],[-122.2675,37.575833333333335]],"type":"LineString"}
}
