{
  "id": 2031516527,
  "type": "Feature",
  "properties": {
    "geom:area": 0,
    "geom:bbox": "-122.755920,37.333380,-122.122140,38.511600",
    "geom:latitude": 37.81516222476489,
    "geom:longitude": -122.46020212928043,
    "src:alt_label": "swim-approach",
    "src:geom": "swim",
    "swim:elevations": [
      8023,
      7785,
      7552,
      7320,
      7186,
      6851,
      6322,
      6218,
      5983,
      5794,
      5630,
      5347,
      5289,
      5116,
      4841,
      4652,
      4301,
      4053,
      3783,
      3540,
      3466,
      3353,
      3353,
      3291,
      3076,
      2978,
      2956,
      2832,
      2743,
      2743,
      2743,
      2743,
      2743,
      2688,
      2532,
      2271,
      2098,
      1311,
      1157,
      796,
      293,
      247,
      293
    ],
    "swim:geom": "approach",
    "swim:timestamps": [
      1781297218,
      1781297246,
      1781297274,
      1781297304,
      1781297320,
      1781297359,
      1781297423,
      1781297435,
      1781297462,
      1781297485,
      1781297504,
      1781297535,
      1781297544,
      1781297564,
      1781297598,
      1781297621,
      1781297663,
      1781297693,
      1781297727,
      1781297756,
      1781297766,
      1781297800,
      1781297840,
      1781297873,
      1781297908,
      1781297929,
      1781297935,
      1781297956,
      1781297984,
      1781298011,
      1781298038,
      1781298050,
      1781298067,
      1781298091,
      1781298113,
      1781298167,
      1781298194,
      1781298358,
      1781298434,
      1781298504,
      1781298626,
      1781298638,
      1781298706
    ],
    "wof:geomhash": "977edb265bc20082a3eef2c798922bc5",
    "wof:id": 2031516527,
    "wof:repo": "sfomuseum-data-flights-2026-06"
  },
  "bbox": [
    -122.75592,
    37.33338,
    -122.12214,
    38.5116
  ],
  "geometry": {"coordinates":[[-122.47377,38.5116],[-122.51209,38.4741],[-122.54914,38.43699],[-122.58866,38.39884],[-122.61106,38.37714],[-122.66202,38.32777],[-122.74525,38.24578],[-122.75592,38.22807],[-122.75568,38.18347],[-122.74473,38.14757],[-122.73576,38.11726],[-122.72167,38.06691],[-122.71771,38.0527],[-122.70909,38.02237],[-122.69358,37.96905],[-122.68324,37.93377],[-122.64759,37.87515],[-122.6097,37.83997],[-122.56875,37.8009],[-122.53258,37.76658],[-122.52069,37.75526],[-122.48042,37.71703],[-122.43697,37.67676],[-122.40408,37.64602],[-122.36985,37.61347],[-122.35369,37.59213],[-122.35029,37.58549],[-122.34009,37.56173],[-122.32184,37.53099],[-122.30406,37.50239],[-122.28585,37.47286],[-122.2804,37.45932],[-122.28433,37.44003],[-122.29861,37.41333],[-122.3116,37.38913],[-122.29351,37.33453],[-122.25648,37.33338],[-122.12214,37.46258],[-122.12845,37.51538],[-122.19627,37.54367],[-122.30257,37.58836],[-122.31236,37.59233],[-122.36206,37.61386]],"type":"LineString"}
}
