{
  "id": 2031474673,
  "type": "Feature",
  "properties": {
    "geom:area": 0,
    "geom:bbox": "-122.317500,28.008611,-81.316667,38.183889",
    "geom:latitude": 34.07496959794657,
    "geom:longitude": -101.60177784637303,
    "src:alt_label": "swim-path",
    "src:geom": "swim",
    "swim:altitudes": [
      "006",
      "006",
      "029",
      "029",
      "029",
      "040",
      "040",
      "040",
      "123",
      "123",
      "123",
      "123",
      "132",
      "132",
      "132",
      "162",
      "162",
      "162",
      "162",
      "184",
      "184",
      "184",
      "184",
      "184",
      "202",
      "202",
      "213",
      "215",
      "215",
      "215",
      "215",
      "246",
      "246",
      "246",
      "257",
      "257",
      "268",
      "268",
      "268",
      "273",
      "279",
      "279",
      "292",
      "299C",
      "299C",
      "300C",
      "300C",
      "300C",
      "300C",
      "300C",
      "300C",
      "300C",
      "300C",
      "300C",
      "300C",
      "300C",
      "300C",
      "300C",
      "300C",
      "300C",
      "300C",
      "300C",
      "300C",
      "300C",
      "300C",
      "300C",
      "300C",
      "300C",
      "300C",
      "300C",
      "300C",
      "300C",
      "300C",
      "300C",
      "300C",
      "300C",
      "300C",
      "300C",
      "300C",
      "300C",
      "300C",
      "300C",
      "300C",
      "300C",
      "300C",
      "300C",
      "300C",
      "300C",
      "300C",
      "300C",
      "300C",
      "300C",
      "300C",
      "300C",
      "300C",
      "300C",
      "300C",
      "300C",
      "300C",
      "300C",
      "300C",
      "300C",
      "300C",
      "300C",
      "300C",
      "300C",
      "300C",
      "300C",
      "300C",
      "300C",
      "300C",
      "300C",
      "300C",
      "300C",
      "300C",
      "300C",
      "300C",
      "300C",
      "300C",
      "300C",
      "300C",
      "300C",
      "300C",
      "300C",
      "300C",
      "300C",
      "300C",
      "300C",
      "300C",
      "300C",
      "300C",
      "300C",
      "300C",
      "300C",
      "300C",
      "300C",
      "300C",
      "300C",
      "300C",
      "300C",
      "300C",
      "300C",
      "300C",
      "300C",
      "300C",
      "300C",
      "300C",
      "300C",
      "300C",
      "300C",
      "300C",
      "300C",
      "300C",
      "300C",
      "300C",
      "300C",
      "300C",
      "300C",
      "300C",
      "300C",
      "300C",
      "300C",
      "300C",
      "300C",
      "300C",
      "300C",
      "300C",
      "300C",
      "300C",
      "300C",
      "300C",
      "300C",
      "300C",
      "300C",
      "300C",
      "300C",
      "300C",
      "300C",
      "300C",
      "300C",
      "300C",
      "300C",
      "300C",
      "300C",
      "300C",
      "300C",
      "300C",
      "300C",
      "300C",
      "300C",
      "300C",
      "300C",
      "300C",
      "300C",
      "300C",
      "300C",
      "300C",
      "300C",
      "300C",
      "300C",
      "300C",
      "300C",
      "300C",
      "300C",
      "300C",
      "300C",
      "300C",
      "300C",
      "300C",
      "300C",
      "300C",
      "300C",
      "300C",
      "300C",
      "300C",
      "300C",
      "300C",
      "300C",
      "300C",
      "300C",
      "300C",
      "300C",
      "300C",
      "300C",
      "300C",
      "300C",
      "300C",
      "300C",
      "300C",
      "300C",
      "300C",
      "300C",
      "300C",
      "300C",
      "300C",
      "300C",
      "300C",
      "300C",
      "300C",
      "300C",
      "300C",
      "300C",
      "300C",
      "300C",
      "300C",
      "300C",
      "300C",
      "300C",
      "300C",
      "300C",
      "300C",
      "300C",
      "300C",
      "300C",
      "300C",
      "300C",
      "300C",
      "302",
      "314",
      "314",
      "314",
      "320C",
      "320C",
      "320C",
      "320C",
      "320C",
      "320C",
      "320C",
      "320C",
      "320C",
      "320C",
      "320C",
      "320C",
      "320C",
      "320C",
      "320C",
      "320C",
      "320C",
      "320C",
      "320C",
      "320C",
      "320C",
      "320C",
      "320C",
      "320C",
      "320C",
      "320C",
      "320C",
      "320C",
      "320C",
      "320C",
      "320C",
      "320C",
      "320C",
      "320C",
      "320C",
      "320C",
      "320C",
      "320C",
      "320C",
      "320C",
      "310",
      "310",
      "310",
      "310",
      "300C",
      "300C",
      "300C",
      "300C",
      "300C",
      "300C",
      "300C",
      "300C",
      "300C",
      "300C",
      "300C",
      "300C",
      "300C",
      "300C",
      "300C",
      "300C",
      "300C",
      "300C",
      "300C",
      "300C",
      "300C",
      "300C",
      "300C",
      "300C",
      "300C",
      "300C",
      "300C",
      "300C",
      "300C",
      "300C",
      "300C",
      "300C",
      "300C",
      "300C",
      "300C",
      "300C",
      "300C",
      "300C",
      "300C",
      "300C",
      "300C",
      "300C",
      "300C",
      "300C",
      "300C",
      "300C",
      "300C",
      "300C",
      "300C",
      "300C",
      "300C",
      "300C",
      "300C",
      "300C",
      "300C",
      "300C",
      "300C",
      "300C",
      "300C",
      "300C",
      "300C",
      "300C",
      "300C",
      "300C",
      "300C",
      "300C",
      "300C",
      "300C",
      "300C",
      "300C",
      "300C",
      "300C",
      "300C",
      "300C",
      "300C",
      "300C",
      "300C",
      "300C",
      "300C",
      "300C",
      "300C",
      "300C",
      "300C",
      "300C",
      "300C",
      "300",
      "300",
      "300",
      "300",
      "300",
      "300",
      "260",
      "260",
      "260",
      "260",
      "250",
      "220",
      "220",
      "200",
      "200",
      "196",
      "179",
      "174",
      "174",
      "174",
      "144",
      "144",
      "125",
      "125",
      "103",
      "101",
      "101",
      "092",
      "090",
      "090",
      "090",
      "083",
      "083",
      "069",
      "069",
      "060",
      "060",
      "040",
      "040",
      "036",
      "036",
      "036",
      "031",
      "028",
      "020",
      "020",
      "020",
      "015",
      "007",
      "007"
    ],
    "swim:geom": "path",
    "swim:speeds": [
      197,
      197,
      257,
      257,
      257,
      261,
      261,
      261,
      354,
      354,
      354,
      354,
      386,
      386,
      386,
      402,
      402,
      402,
      402,
      414,
      414,
      414,
      414,
      414,
      429,
      429,
      433,
      435,
      435,
      435,
      435,
      459,
      459,
      459,
      461,
      461,
      471,
      472,
      472,
      475,
      477,
      477,
      470,
      465,
      465,
      463,
      462,
      462,
      462,
      461,
      461,
      461,
      461,
      461,
      461,
      460,
      459,
      459,
      459,
      459,
      459,
      459,
      459,
      459,
      461,
      461,
      464,
      464,
      464,
      467,
      467,
      467,
      467,
      468,
      468,
      467,
      467,
      467,
      468,
      468,
      468,
      468,
      468,
      468,
      468,
      468,
      469,
      469,
      470,
      470,
      470,
      472,
      472,
      468,
      468,
      468,
      468,
      465,
      465,
      465,
      465,
      465,
      463,
      463,
      463,
      462,
      462,
      459,
      459,
      459,
      458,
      457,
      457,
      457,
      457,
      458,
      458,
      458,
      458,
      459,
      461,
      461,
      461,
      464,
      464,
      464,
      468,
      468,
      469,
      471,
      471,
      471,
      471,
      471,
      470,
      470,
      467,
      467,
      467,
      465,
      465,
      465,
      462,
      462,
      461,
      457,
      457,
      457,
      457,
      452,
      452,
      444,
      444,
      444,
      438,
      438,
      443,
      443,
      443,
      443,
      448,
      448,
      449,
      449,
      450,
      450,
      451,
      451,
      453,
      453,
      455,
      455,
      455,
      465,
      465,
      465,
      465,
      468,
      468,
      468,
      468,
      469,
      469,
      470,
      470,
      470,
      470,
      470,
      468,
      468,
      468,
      468,
      467,
      459,
      459,
      459,
      459,
      458,
      458,
      458,
      457,
      456,
      456,
      456,
      456,
      453,
      453,
      453,
      452,
      452,
      450,
      450,
      450,
      449,
      449,
      450,
      450,
      450,
      451,
      451,
      451,
      451,
      451,
      451,
      452,
      452,
      452,
      452,
      452,
      459,
      459,
      459,
      461,
      461,
      461,
      460,
      460,
      460,
      455,
      455,
      455,
      455,
      455,
      455,
      454,
      454,
      454,
      454,
      453,
      453,
      450,
      449,
      449,
      449,
      449,
      448,
      448,
      446,
      450,
      450,
      450,
      448,
      452,
      452,
      452,
      452,
      452,
      452,
      451,
      451,
      451,
      451,
      452,
      452,
      452,
      452,
      452,
      452,
      452,
      452,
      452,
      452,
      452,
      452,
      452,
      452,
      452,
      452,
      452,
      451,
      451,
      451,
      450,
      450,
      450,
      450,
      442,
      442,
      438,
      438,
      438,
      438,
      438,
      438,
      438,
      444,
      444,
      444,
      445,
      445,
      445,
      443,
      443,
      440,
      440,
      440,
      440,
      442,
      442,
      443,
      442,
      442,
      442,
      442,
      442,
      441,
      441,
      441,
      441,
      441,
      441,
      441,
      439,
      439,
      437,
      438,
      438,
      440,
      449,
      449,
      449,
      453,
      453,
      453,
      453,
      453,
      453,
      455,
      455,
      455,
      455,
      454,
      452,
      452,
      452,
      447,
      447,
      447,
      446,
      446,
      446,
      445,
      445,
      445,
      446,
      446,
      444,
      444,
      444,
      444,
      444,
      444,
      444,
      447,
      447,
      432,
      432,
      430,
      425,
      425,
      425,
      426,
      426,
      426,
      426,
      435,
      436,
      436,
      436,
      436,
      434,
      434,
      434,
      433,
      431,
      428,
      418,
      418,
      418,
      418,
      413,
      385,
      385,
      373,
      373,
      366,
      363,
      356,
      356,
      356,
      347,
      347,
      342,
      342,
      311,
      283,
      283,
      253,
      249,
      249,
      242,
      233,
      233,
      227,
      227,
      219,
      219,
      167,
      167,
      163,
      163,
      163,
      160,
      153,
      155,
      155,
      155,
      149,
      147,
      147
    ],
    "swim:timestamps": [
      1780875958,
      1780875958,
      1780876037,
      1780876037,
      1780876037,
      1780876054,
      1780876054,
      1780876054,
      1780876337,
      1780876337,
      1780876337,
      1780876337,
      1780876397,
      1780876397,
      1780876397,
      1780876519,
      1780876519,
      1780876519,
      1780876519,
      1780876637,
      1780876637,
      1780876637,
      1780876637,
      1780876637,
      1780876747,
      1780876747,
      1780876807,
      1780876818,
      1780876818,
      1780876818,
      1780876818,
      1780877058,
      1780877058,
      1780877058,
      1780877168,
      1780877168,
      1780877288,
      1780877298,
      1780877298,
      1780877348,
      1780877408,
      1780877408,
      1780877479,
      1780877528,
      1780877528,
      1780877588,
      1780877599,
      1780877599,
      1780877649,
      1780877709,
      1780877709,
      1780877829,
      1780877889,
      1780877889,
      1780877946,
      1780878009,
      1780878069,
      1780878069,
      1780878069,
      1780878249,
      1780878249,
      1780878309,
      1780878309,
      1780878309,
      1780878430,
      1780878430,
      1780878550,
      1780878550,
      1780878550,
      1780878730,
      1780878730,
      1780878730,
      1780878730,
      1780878850,
      1780878850,
      1780878910,
      1780878910,
      1780878910,
      1780879271,
      1780879271,
      1780879271,
      1780879271,
      1780879688,
      1780879688,
      1780879688,
      1780879688,
      1780879929,
      1780879929,
      1780879989,
      1780879989,
      1780879989,
      1780880289,
      1780880289,
      1780880409,
      1780880409,
      1780880409,
      1780880409,
      1780880548,
      1780880548,
      1780880548,
      1780880548,
      1780880728,
      1780880770,
      1780880770,
      1780880770,
      1780880830,
      1780880848,
      1780880950,
      1780880950,
      1780880969,
      1780881010,
      1780881089,
      1780881130,
      1780881191,
      1780881191,
      1780881311,
      1780881311,
      1780881329,
      1780881329,
      1780881371,
      1780881431,
      1780881431,
      1780881431,
      1780881491,
      1780881491,
      1780881491,
      1780881611,
      1780881611,
      1780881630,
      1780881690,
      1780881690,
      1780881810,
      1780881810,
      1780881810,
      1780881852,
      1780881852,
      1780881990,
      1780881990,
      1780881990,
      1780882092,
      1780882092,
      1780882092,
      1780882212,
      1780882212,
      1780882230,
      1780882290,
      1780882290,
      1780882290,
      1780882290,
      1780882351,
      1780882351,
      1780882531,
      1780882531,
      1780882531,
      1780882651,
      1780882651,
      1780882711,
      1780882711,
      1780882711,
      1780882711,
      1780882891,
      1780882891,
      1780882951,
      1780882951,
      1780883011,
      1780883011,
      1780883072,
      1780883072,
      1780883192,
      1780883192,
      1780883252,
      1780883252,
      1780883252,
      1780883432,
      1780883432,
      1780883432,
      1780883432,
      1780883612,
      1780883612,
      1780883612,
      1780883612,
      1780883672,
      1780883672,
      1780883793,
      1780883793,
      1780883853,
      1780883853,
      1780883853,
      1780883913,
      1780883913,
      1780883913,
      1780883913,
      1780883973,
      1780884125,
      1780884125,
      1780884125,
      1780884125,
      1780884366,
      1780884366,
      1780884366,
      1780884426,
      1780884453,
      1780884453,
      1780884453,
      1780884486,
      1780884634,
      1780884634,
      1780884634,
      1780884694,
      1780884694,
      1780884814,
      1780884814,
      1780884814,
      1780884967,
      1780884967,
      1780885027,
      1780885027,
      1780885087,
      1780885114,
      1780885114,
      1780885147,
      1780885147,
      1780885147,
      1780885208,
      1780885268,
      1780885268,
      1780885268,
      1780885295,
      1780885295,
      1780885867,
      1780885867,
      1780885867,
      1780885927,
      1780885927,
      1780885927,
      1780886016,
      1780886016,
      1780886016,
      1780886136,
      1780886136,
      1780886256,
      1780886256,
      1780886288,
      1780886316,
      1780886348,
      1780886348,
      1780886376,
      1780886376,
      1780886408,
      1780886408,
      1780886557,
      1780886588,
      1780886588,
      1780886588,
      1780886648,
      1780886710,
      1780886710,
      1780886770,
      1780886830,
      1780886830,
      1780886830,
      1780886857,
      1780886950,
      1780886977,
      1780887010,
      1780887010,
      1780887010,
      1780887010,
      1780887097,
      1780887157,
      1780887157,
      1780887157,
      1780887251,
      1780887251,
      1780887251,
      1780887338,
      1780887371,
      1780887371,
      1780887371,
      1780887398,
      1780887431,
      1780887431,
      1780887518,
      1780887518,
      1780887578,
      1780887578,
      1780887578,
      1780887638,
      1780887638,
      1780887758,
      1780887758,
      1780887758,
      1780887878,
      1780887878,
      1780887878,
      1780887878,
      1780888059,
      1780888059,
      1780888179,
      1780888179,
      1780888179,
      1780888301,
      1780888301,
      1780888301,
      1780888301,
      1780888479,
      1780888479,
      1780888479,
      1780888539,
      1780888539,
      1780888539,
      1780888599,
      1780888599,
      1780888840,
      1780888840,
      1780888840,
      1780888840,
      1780888900,
      1780888900,
      1780888960,
      1780889080,
      1780889080,
      1780889140,
      1780889140,
      1780889140,
      1780889200,
      1780889200,
      1780889381,
      1780889381,
      1780889381,
      1780889381,
      1780889441,
      1780889502,
      1780889502,
      1780889683,
      1780889743,
      1780889743,
      1780889803,
      1780889923,
      1780889923,
      1780889923,
      1780890163,
      1780890163,
      1780890163,
      1780890223,
      1780890223,
      1780890223,
      1780890404,
      1780890404,
      1780890404,
      1780890404,
      1780890524,
      1780890584,
      1780890584,
      1780890584,
      1780890706,
      1780890706,
      1780890706,
      1780890764,
      1780890764,
      1780890764,
      1780890824,
      1780890824,
      1780890824,
      1780890887,
      1780890887,
      1780890944,
      1780891004,
      1780891004,
      1780891004,
      1780891067,
      1780891067,
      1780891067,
      1780891185,
      1780891185,
      1780891245,
      1780891245,
      1780891365,
      1780891665,
      1780891665,
      1780891665,
      1780891725,
      1780891786,
      1780891786,
      1780891786,
      1780892148,
      1780892208,
      1780892208,
      1780892208,
      1780892208,
      1780892388,
      1780892388,
      1780892388,
      1780892448,
      1780892508,
      1780892628,
      1780892748,
      1780892748,
      1780892748,
      1780892748,
      1780892772,
      1780892868,
      1780892868,
      1780892929,
      1780892929,
      1780892940,
      1780892989,
      1780893000,
      1780893000,
      1780893000,
      1780893109,
      1780893109,
      1780893169,
      1780893169,
      1780893246,
      1780893289,
      1780893289,
      1780893349,
      1780893360,
      1780893360,
      1780893409,
      1780893420,
      1780893420,
      1780893480,
      1780893480,
      1780893540,
      1780893540,
      1780893661,
      1780893709,
      1780893720,
      1780893720,
      1780893720,
      1780893769,
      1780893781,
      1780893841,
      1780893841,
      1780893841,
      1780893889,
      1780893949,
      1780893949
    ],
    "wof:geomhash": "945367355a93d8aa2550ba57b2055e9f",
    "wof:id": 2031474673,
    "wof:repo": "sfomuseum-data-flights-2026-06"
  },
  "bbox": [
    -122.3175,
    28.00861111111111,
    -81.31666666666666,
    38.18388888888889
  ],
  "geometry": {"coordinates":[[-81.31666666666666,28.416666666666668],[-81.31666666666666,28.416666666666668],[-81.35888888888888,28.344444444444445],[-81.35888888888888,28.344444444444445],[-81.35888888888888,28.344444444444445],[-81.38333333333334,28.333333333333332],[-81.38333333333334,28.333333333333332],[-81.38333333333334,28.333333333333332],[-81.8125,28.296944444444446],[-81.8125,28.296944444444446],[-81.8125,28.296944444444446],[-81.8125,28.296944444444446],[-81.93027777777779,28.28777777777778],[-81.93027777777779,28.28777777777778],[-81.93027777777779,28.28777777777778],[-82.19166666666668,28.238055555555558],[-82.19166666666668,28.238055555555558],[-82.19166666666668,28.238055555555558],[-82.19166666666668,28.238055555555558],[-82.43305555555555,28.191388888888888],[-82.43305555555555,28.191388888888888],[-82.43305555555555,28.191388888888888],[-82.43305555555555,28.191388888888888],[-82.43305555555555,28.191388888888888],[-82.67027777777778,28.145],[-82.67027777777778,28.145],[-82.8025,28.11916666666667],[-82.82916666666667,28.11388888888889],[-82.82916666666667,28.11388888888889],[-82.82916666666667,28.11388888888889],[-82.82916666666667,28.11388888888889],[-83.385,28.00861111111111],[-83.385,28.00861111111111],[-83.385,28.00861111111111],[-83.63444444444445,28.065833333333334],[-83.63444444444445,28.065833333333334],[-83.93166666666667,28.15722222222222],[-83.94361111111111,28.16111111111111],[-83.94361111111111,28.16111111111111],[-84.0736111111111,28.200833333333332],[-84.21694444444445,28.244444444444447],[-84.21694444444445,28.244444444444447],[-84.38527777777779,28.29527777777778],[-84.49916666666667,28.329444444444444],[-84.49916666666667,28.329444444444444],[-84.635,28.37027777777778],[-84.66250000000001,28.378611111111113],[-84.66250000000001,28.378611111111113],[-84.77388888888889,28.411944444444444],[-84.91166666666668,28.453055555555554],[-84.91166666666668,28.453055555555554],[-85.1863888888889,28.534166666666668],[-85.3261111111111,28.575277777777778],[-85.3261111111111,28.575277777777778],[-85.43555555555555,28.6075],[-85.60222222222221,28.65611111111111],[-85.73944444444444,28.695833333333333],[-85.73944444444444,28.695833333333333],[-85.73944444444444,28.695833333333333],[-86.15444444444445,28.815555555555555],[-86.15444444444445,28.815555555555555],[-86.29277777777777,28.855],[-86.29277777777777,28.855],[-86.29277777777777,28.855],[-86.57055555555556,28.933611111111112],[-86.57055555555556,28.933611111111112],[-86.8536111111111,29.013333333333332],[-86.8536111111111,29.013333333333332],[-86.8536111111111,29.013333333333332],[-87.27722222222222,29.130833333333335],[-87.27722222222222,29.130833333333335],[-87.27722222222222,29.130833333333335],[-87.27722222222222,29.130833333333335],[-87.55777777777777,29.208055555555553],[-87.55777777777777,29.208055555555553],[-87.70083333333334,29.246944444444445],[-87.70083333333334,29.246944444444445],[-87.70083333333334,29.246944444444445],[-88.55583333333333,29.476666666666667],[-88.55583333333333,29.476666666666667],[-88.55583333333333,29.476666666666667],[-88.55583333333333,29.476666666666667],[-89.55166666666666,29.735555555555557],[-89.55166666666666,29.735555555555557],[-89.55166666666666,29.735555555555557],[-89.55166666666666,29.735555555555557],[-90.08944444444444,29.900277777777777],[-90.08944444444444,29.900277777777777],[-90.21944444444445,29.967777777777776],[-90.21944444444445,29.967777777777776],[-90.21944444444445,29.967777777777776],[-90.875,30.304444444444446],[-90.875,30.304444444444446],[-91.13388888888889,30.43611111111111],[-91.13388888888889,30.43611111111111],[-91.13388888888889,30.43611111111111],[-91.13388888888889,30.43611111111111],[-91.42861111111111,30.58611111111111],[-91.42861111111111,30.58611111111111],[-91.42861111111111,30.58611111111111],[-91.42861111111111,30.58611111111111],[-91.81722222222221,30.778888888888886],[-91.9225,30.83111111111111],[-91.9225,30.83111111111111],[-91.9225,30.83111111111111],[-92.05083333333333,30.894444444444446],[-92.10222222222221,30.92],[-92.31222222222222,31.023333333333333],[-92.31222222222222,31.023333333333333],[-92.35944444444443,31.04638888888889],[-92.4413888888889,31.086666666666666],[-92.59444444444443,31.161388888888887],[-92.69944444444445,31.2125],[-92.82694444444444,31.274166666666666],[-92.82694444444444,31.274166666666666],[-93.08694444444444,31.4],[-93.08694444444444,31.4],[-93.11916666666666,31.415277777777778],[-93.11916666666666,31.415277777777778],[-93.21722222222222,31.4625],[-93.32833333333333,31.515555555555554],[-93.32833333333333,31.515555555555554],[-93.32833333333333,31.515555555555554],[-93.4625,31.579444444444444],[-93.4625,31.579444444444444],[-93.4625,31.579444444444444],[-93.74472222222222,31.71333333333333],[-93.74472222222222,31.71333333333333],[-93.78277777777778,31.731388888888887],[-93.91722222222222,31.794722222222223],[-93.91722222222222,31.794722222222223],[-94.20416666666667,31.929166666666667],[-94.20416666666667,31.929166666666667],[-94.20416666666667,31.929166666666667],[-94.28111111111112,31.965],[-94.28111111111112,31.965],[-94.60555555555555,32.11555555555556],[-94.60555555555555,32.11555555555556],[-94.60555555555555,32.11555555555556],[-94.81527777777778,32.21222222222222],[-94.81527777777778,32.21222222222222],[-94.81527777777778,32.21222222222222],[-95.08027777777778,32.33305555555556],[-95.08027777777778,32.33305555555556],[-95.13555555555556,32.358333333333334],[-95.26833333333333,32.41861111111111],[-95.26833333333333,32.41861111111111],[-95.26833333333333,32.41861111111111],[-95.26833333333333,32.41861111111111],[-95.37972222222221,32.469166666666666],[-95.37972222222221,32.469166666666666],[-95.76777777777778,32.64361111111111],[-95.76777777777778,32.64361111111111],[-95.76777777777778,32.64361111111111],[-96.0225,32.75694444444444],[-96.0225,32.75694444444444],[-96.15111111111112,32.814166666666665],[-96.15111111111112,32.814166666666665],[-96.15111111111112,32.814166666666665],[-96.15111111111112,32.814166666666665],[-96.54583333333333,32.98722222222222],[-96.54583333333333,32.98722222222222],[-96.67611111111111,33.044444444444444],[-96.67611111111111,33.044444444444444],[-96.80972222222222,33.10277777777778],[-96.80972222222222,33.10277777777778],[-96.94333333333334,33.16083333333333],[-96.94333333333334,33.16083333333333],[-97.23555555555555,33.28666666666666],[-97.23555555555555,33.28666666666666],[-97.36333333333333,33.34138888888889],[-97.36333333333333,33.34138888888889],[-97.36333333333333,33.34138888888889],[-97.77305555555556,33.515277777777776],[-97.77305555555556,33.515277777777776],[-97.77305555555556,33.515277777777776],[-97.77305555555556,33.515277777777776],[-98.12249999999999,33.77222222222222],[-98.12249999999999,33.77222222222222],[-98.12249999999999,33.77222222222222],[-98.12249999999999,33.77222222222222],[-98.23138888888889,33.864444444444445],[-98.23138888888889,33.864444444444445],[-98.45027777777779,34.051944444444445],[-98.45027777777779,34.051944444444445],[-98.56,34.145833333333336],[-98.56,34.145833333333336],[-98.56,34.145833333333336],[-98.66888888888889,34.237500000000004],[-98.66888888888889,34.237500000000004],[-98.66888888888889,34.237500000000004],[-98.66888888888889,34.237500000000004],[-98.78083333333333,34.331388888888895],[-99.14972222222222,34.455555555555556],[-99.14972222222222,34.455555555555556],[-99.14972222222222,34.455555555555556],[-99.14972222222222,34.455555555555556],[-99.70583333333333,34.621944444444445],[-99.70583333333333,34.621944444444445],[-99.70583333333333,34.621944444444445],[-99.85027777777778,34.66444444444444],[-99.935,34.68944444444444],[-99.935,34.68944444444444],[-99.935,34.68944444444444],[-99.99583333333334,34.70722222222223],[-100.37388888888889,34.81722222222223],[-100.37388888888889,34.81722222222223],[-100.37388888888889,34.81722222222223],[-100.51777777777778,34.85861111111111],[-100.51777777777778,34.85861111111111],[-100.80444444444444,34.940555555555555],[-100.80444444444444,34.940555555555555],[-100.80444444444444,34.940555555555555],[-101.14916666666667,35.03777777777778],[-101.14916666666667,35.03777777777778],[-101.29388888888889,35.07833333333333],[-101.29388888888889,35.07833333333333],[-101.44194444444445,35.11944444444445],[-101.52638888888889,35.143055555555556],[-101.52638888888889,35.143055555555556],[-101.58666666666666,35.15972222222222],[-101.58666666666666,35.15972222222222],[-101.58666666666666,35.15972222222222],[-101.73444444444445,35.20027777777778],[-101.88,35.24027777777778],[-101.88,35.24027777777778],[-101.88,35.24027777777778],[-101.94416666666667,35.257777777777775],[-101.94416666666667,35.257777777777775],[-103.35333333333332,35.63194444444444],[-103.35333333333332,35.63194444444444],[-103.35333333333332,35.63194444444444],[-103.5025,35.67055555555555],[-103.5025,35.67055555555555],[-103.5025,35.67055555555555],[-103.74083333333333,35.730555555555554],[-103.74083333333333,35.730555555555554],[-103.74083333333333,35.730555555555554],[-104.03722222222223,35.805],[-104.03722222222223,35.805],[-104.33666666666666,35.88166666666667],[-104.33666666666666,35.88166666666667],[-104.41527777777779,35.901111111111106],[-104.48333333333333,35.918055555555554],[-104.56277777777777,35.937777777777775],[-104.56277777777777,35.937777777777775],[-104.63166666666666,35.95472222222222],[-104.63166666666666,35.95472222222222],[-104.70916666666668,35.97361111111111],[-104.70916666666668,35.97361111111111],[-105.075,36.0625],[-105.15027777777779,36.08083333333334],[-105.15027777777779,36.08083333333334],[-105.15027777777779,36.08083333333334],[-105.29833333333333,36.11638888888889],[-105.44555555555556,36.15138888888889],[-105.44555555555556,36.15138888888889],[-105.59722222222221,36.1875],[-105.73555555555555,36.22],[-105.73555555555555,36.22],[-105.73555555555555,36.22],[-105.80472222222222,36.23638888888889],[-106.03916666666666,36.29083333333333],[-106.10749999999999,36.306666666666665],[-106.18944444444445,36.32555555555556],[-106.18944444444445,36.32555555555556],[-106.18944444444445,36.32555555555556],[-106.18944444444445,36.32555555555556],[-106.41222222222223,36.376666666666665],[-106.55916666666667,36.41027777777778],[-106.55916666666667,36.41027777777778],[-106.55916666666667,36.41027777777778],[-106.77166666666666,36.458333333333336],[-106.77166666666666,36.458333333333336],[-106.77166666666666,36.458333333333336],[-107.0111111111111,36.511944444444445],[-107.06972222222223,36.525],[-107.06972222222223,36.525],[-107.06972222222223,36.525],[-107.1588888888889,36.54472222222222],[-107.21888888888888,36.55777777777777],[-107.21888888888888,36.55777777777777],[-107.46027777777778,36.61083333333333],[-107.46027777777778,36.61083333333333],[-107.61055555555555,36.64361111111111],[-107.61055555555555,36.64361111111111],[-107.61055555555555,36.64361111111111],[-107.76083333333334,36.67611111111111],[-107.76083333333334,36.67611111111111],[-108.06222222222222,36.74055555555556],[-108.06222222222222,36.74055555555556],[-108.06222222222222,36.74055555555556],[-108.35249999999999,36.82666666666667],[-108.35249999999999,36.82666666666667],[-108.35249999999999,36.82666666666667],[-108.35249999999999,36.82666666666667],[-108.77944444444444,36.956944444444446],[-108.77944444444444,36.956944444444446],[-109.0625,37.04222222222222],[-109.0625,37.04222222222222],[-109.0625,37.04222222222222],[-109.35249999999999,37.12888888888889],[-109.35249999999999,37.12888888888889],[-109.35249999999999,37.12888888888889],[-109.35249999999999,37.12888888888889],[-109.78166666666667,37.25472222222222],[-109.78166666666667,37.25472222222222],[-109.78166666666667,37.25472222222222],[-109.92694444444444,37.29694444444444],[-109.92694444444444,37.29694444444444],[-109.92694444444444,37.29694444444444],[-110.07249999999999,37.339444444444446],[-110.07249999999999,37.339444444444446],[-110.64750000000001,37.50361111111111],[-110.64750000000001,37.50361111111111],[-110.64750000000001,37.50361111111111],[-110.64750000000001,37.50361111111111],[-110.7936111111111,37.54472222222222],[-110.7936111111111,37.54472222222222],[-110.94111111111111,37.58361111111111],[-111.23805555555556,37.65333333333333],[-111.23805555555556,37.65333333333333],[-111.38472222222222,37.6875],[-111.38472222222222,37.6875],[-111.38472222222222,37.6875],[-111.53194444444445,37.72138888888889],[-111.53194444444445,37.72138888888889],[-111.97666666666667,37.82277777777778],[-111.97666666666667,37.82277777777778],[-111.97666666666667,37.82277777777778],[-111.97666666666667,37.82277777777778],[-112.12888888888888,37.85166666666667],[-112.3,37.882777777777775],[-112.3,37.882777777777775],[-112.74361111111111,37.96138888888889],[-112.89527777777778,37.98833333333334],[-112.89527777777778,37.98833333333334],[-113.045,38.01416666666667],[-113.35166666666666,38.066944444444445],[-113.35166666666666,38.066944444444445],[-113.35166666666666,38.066944444444445],[-113.97555555555556,38.171388888888885],[-113.97555555555556,38.171388888888885],[-113.97555555555556,38.171388888888885],[-114.13361111111112,38.18388888888889],[-114.13361111111112,38.18388888888889],[-114.13361111111112,38.18388888888889],[-114.61388888888888,38.1625],[-114.61388888888888,38.1625],[-114.61388888888888,38.1625],[-114.61388888888888,38.1625],[-114.93055555555556,38.14722222222222],[-115.08916666666666,38.13944444444444],[-115.08916666666666,38.13944444444444],[-115.08916666666666,38.13944444444444],[-115.4,38.12277777777778],[-115.4,38.12277777777778],[-115.4,38.12277777777778],[-115.55444444444444,38.11527777777778],[-115.55444444444444,38.11527777777778],[-115.55444444444444,38.11527777777778],[-115.71000000000001,38.10638888888889],[-115.71000000000001,38.10638888888889],[-115.71000000000001,38.10638888888889],[-115.87027777777777,38.097500000000004],[-115.87027777777777,38.097500000000004],[-116.02166666666666,38.08861111111111],[-116.17888888888889,38.07916666666667],[-116.17888888888889,38.07916666666667],[-116.17888888888889,38.07916666666667],[-116.33722222222222,38.069722222222225],[-116.33722222222222,38.069722222222225],[-116.33722222222222,38.069722222222225],[-116.64944444444446,38.05],[-116.64944444444446,38.05],[-116.80527777777777,38.040277777777774],[-116.80527777777777,38.040277777777774],[-117.11027777777777,38.01972222222222],[-117.86555555555555,37.96611111111111],[-117.86555555555555,37.96611111111111],[-117.86555555555555,37.96611111111111],[-118.01416666666667,37.955000000000005],[-118.16277777777778,37.94361111111111],[-118.16277777777778,37.94361111111111],[-118.16277777777778,37.94361111111111],[-119.0775,37.86],[-119.22833333333334,37.8425],[-119.22833333333334,37.8425],[-119.22833333333334,37.8425],[-119.22833333333334,37.8425],[-119.68305555555555,37.78861111111111],[-119.68305555555555,37.78861111111111],[-119.68305555555555,37.78861111111111],[-119.83138888888888,37.77055555555555],[-119.98083333333334,37.75222222222222],[-120.27722222222222,37.71527777777778],[-120.57055555555556,37.67972222222222],[-120.57055555555556,37.67972222222222],[-120.57055555555556,37.67972222222222],[-120.57055555555556,37.67972222222222],[-120.63333333333334,37.666666666666664],[-120.84722222222221,37.64694444444444],[-120.84722222222221,37.64694444444444],[-120.97583333333334,37.63138888888889],[-120.97583333333334,37.63138888888889],[-121,37.63333333333333],[-121.10249999999999,37.614444444444445],[-121.13333333333334,37.61666666666667],[-121.13333333333334,37.61666666666667],[-121.13333333333334,37.61666666666667],[-121.32,37.58583333333333],[-121.32,37.58583333333333],[-121.43777777777778,37.57277777777778],[-121.43777777777778,37.57277777777778],[-121.6,37.55],[-121.65611111111112,37.543055555555554],[-121.65611111111112,37.543055555555554],[-121.72944444444444,37.50861111111111],[-121.73333333333333,37.483333333333334],[-121.73333333333333,37.483333333333334],[-121.77055555555556,37.45277777777778],[-121.8,37.45],[-121.8,37.45],[-121.88333333333334,37.46666666666667],[-121.88333333333334,37.46666666666667],[-121.95,37.483333333333334],[-121.95,37.483333333333334],[-122.1,37.5],[-122.12944444444443,37.51722222222222],[-122.15,37.53333333333333],[-122.15,37.53333333333333],[-122.15,37.53333333333333],[-122.17861111111111,37.538333333333334],[-122.2,37.55],[-122.25,37.56666666666667],[-122.25,37.56666666666667],[-122.25,37.56666666666667],[-122.2725,37.57805555555556],[-122.3175,37.59666666666667],[-122.3175,37.59666666666667]],"type":"LineString"}
}
