{
  "id": 2031461861,
  "type": "Feature",
  "properties": {
    "date:inception_lower": "2026-06-05",
    "date:inception_upper": "2026-06-05",
    "edtf:cessation": "",
    "edtf:inception": "2026-06-05",
    "flysfo:actual_timestamp": -1,
    "flysfo:airline": "UA",
    "flysfo:date": "2026-06-05",
    "flysfo:estimated_timestamp": 1780725120,
    "flysfo:event": "D",
    "flysfo:flight_number": "UA8148",
    "flysfo:gate": "",
    "flysfo:journey": "SFO-PDX",
    "flysfo:scheduled_timestamp": 1780725120,
    "flysfo:timestamp": 1780725120,
    "geom:area": 0,
    "geom:bbox": "-122.597389,37.617990,-122.370943,45.586144",
    "geom:latitude": 41.602067,
    "geom:longitude": -122.484166,
    "iata:airline": "UA",
    "icao:airline": "UAL",
    "lbl:latitude": 37.61799,
    "lbl:longitude": -122.370943,
    "sfomuseum:airline_id": 1159285413,
    "sfomuseum:arrival_id": 102532251,
    "sfomuseum:departure_id": 102527513,
    "sfomuseum:flight_id": "20260605-D-UAL-8148",
    "sfomuseum:flight_number": [
      "UAL8148",
      "UA8148"
    ],
    "sfomuseum:placetype": "flight",
    "src:geom": "flysfo",
    "wof:belongsto": [],
    "wof:country": "US",
    "wof:created": 1780762639,
    "wof:geomhash": "a0e250e9237d15725a2a6f51d6b7a6b6",
    "wof:hierarchy": [
      {
        "custom_id": 2031461861,
        "flight_id": 2031461861
      }
    ],
    "wof:id": 2031461861,
    "wof:involves": [
      102532251,
      102527513,
      1159285413,
      -1
    ],
    "wof:lastmodified": 1780762639,
    "wof:name": "UA8148 (SFO-PDX)",
    "wof:parent_id": -1,
    "wof:placetype": "custom",
    "wof:placetype_alt": [
      "flight"
    ],
    "wof:repo": "sfomuseum-data-flights-2026-06",
    "wof:superseded_by": [],
    "wof:supersedes": []
  },
  "bbox": [
    -122.597389,
    37.61799,
    -122.370943,
    45.586144
  ],
  "geometry": {"coordinates":[[-122.370943,37.61799],[-122.597389,45.586144]],"type":"MultiPoint"}
}
