{
  "id": 2031601629,
  "type": "Feature",
  "properties": {
    "geom:area": 0,
    "geom:bbox": "-123.477120,36.976160,-122.118520,37.612400",
    "geom:latitude": 37.28793369937892,
    "geom:longitude": -122.68505631563055,
    "src:alt_label": "swim-approach",
    "src:geom": "swim",
    "swim:elevations": [
      6234,
      5784,
      5640,
      5323,
      4850,
      4627,
      4237,
      3983,
      3926,
      3642,
      3264,
      3048,
      3048,
      3048,
      3048,
      3048,
      3041,
      2905,
      2866,
      2743,
      2743,
      2671,
      2589,
      2399,
      2199,
      2071,
      1899,
      1829,
      1829,
      1829,
      1669,
      1547,
      1241,
      1219,
      1219,
      1219,
      1219,
      1219,
      1219,
      1187,
      1036,
      944,
      883,
      831,
      716,
      627,
      481,
      337,
      199,
      153,
      68,
      107
    ],
    "swim:geom": "approach",
    "swim:timestamps": [
      1782076632,
      1782076674,
      1782076689,
      1782076718,
      1782076763,
      1782076784,
      1782076824,
      1782076848,
      1782076854,
      1782076883,
      1782076917,
      1782076947,
      1782076970,
      1782076987,
      1782077007,
      1782077033,
      1782077067,
      1782077094,
      1782077103,
      1782077153,
      1782077183,
      1782077199,
      1782077212,
      1782077243,
      1782077277,
      1782077301,
      1782077323,
      1782077365,
      1782077385,
      1782077398,
      1782077428,
      1782077447,
      1782077488,
      1782077497,
      1782077518,
      1782077530,
      1782077556,
      1782077576,
      1782077588,
      1782077634,
      1782077664,
      1782077690,
      1782077721,
      1782077730,
      1782077747,
      1782077765,
      1782077802,
      1782077840,
      1782077877,
      1782077885,
      1782077905,
      1782077922
    ],
    "wof:geomhash": "88370e51829d6313abcf69426229969f",
    "wof:id": 2031601629,
    "wof:repo": "sfomuseum-data-flights-2026-06"
  },
  "bbox": [
    -123.47712,
    36.97616,
    -122.11852,
    37.6124
  ],
  "geometry": {"coordinates":[[-123.47712,36.97616],[-123.38663,37.01786],[-123.35468,37.03279],[-123.29531,37.06026],[-123.20265,37.10274],[-123.16007,37.12223],[-123.08126,37.1583],[-123.03546,37.1793],[-123.02413,37.18444],[-122.96971,37.20904],[-122.90749,37.23753],[-122.85165,37.25961],[-122.80644,37.27075],[-122.77443,37.27839],[-122.74017,37.28642],[-122.69667,37.29648],[-122.64646,37.30828],[-122.60862,37.31714],[-122.59615,37.32008],[-122.52768,37.33108],[-122.49072,37.31378],[-122.47124,37.30303],[-122.45667,37.29498],[-122.41839,37.27389],[-122.37367,37.2735],[-122.35718,37.2945],[-122.35016,37.31696],[-122.33741,37.35951],[-122.32354,37.37785],[-122.30898,37.38301],[-122.2691,37.38605],[-122.24412,37.38763],[-122.18956,37.39143],[-122.17778,37.39312],[-122.15891,37.40625],[-122.15303,37.41611],[-122.14039,37.43737],[-122.13111,37.45311],[-122.12534,37.46272],[-122.11852,37.49983],[-122.13905,37.5183],[-122.16294,37.52938],[-122.19163,37.54088],[-122.19989,37.54447],[-122.21617,37.55179],[-122.23232,37.55883],[-122.26773,37.57337],[-122.29833,37.58658],[-122.32676,37.59842],[-122.33268,37.6009],[-122.34748,37.60726],[-122.35979,37.6124]],"type":"LineString"}
}
