{
  "id": 2031551733,
  "type": "Feature",
  "properties": {
    "geom:area": 0,
    "geom:bbox": "-123.344610,37.629780,-122.401220,38.445440",
    "geom:latitude": 37.99623998115518,
    "geom:longitude": -122.907894812445,
    "src:alt_label": "swim-takeoff",
    "src:geom": "swim",
    "swim:elevations": [
      244,
      624,
      948,
      1073,
      1233,
      1356,
      1664,
      2069,
      2343,
      2449,
      2649,
      2788,
      3148,
      3194,
      3378,
      3486,
      3921,
      4095,
      4413,
      4540,
      5004,
      5087,
      5365,
      5791,
      5974,
      6157
    ],
    "swim:geom": "takeoff",
    "swim:timestamps": [
      1781531652,
      1781531685,
      1781531724,
      1781531754,
      1781531781,
      1781531799,
      1781531829,
      1781531866,
      1781531897,
      1781531913,
      1781531932,
      1781531948,
      1781531990,
      1781532001,
      1781532049,
      1781532065,
      1781532114,
      1781532132,
      1781532168,
      1781532182,
      1781532237,
      1781532246,
      1781532276,
      1781532316,
      1781532340,
      1781532364
    ],
    "wof:geomhash": "f97dee88449885939a74c02c1b4ddad3",
    "wof:id": 2031551733,
    "wof:repo": "sfomuseum-data-flights-2026-06"
  },
  "bbox": [
    -123.34461,
    37.62978,
    -122.40122,
    38.44544
  ],
  "geometry": {"coordinates":[[-122.40122,37.62978],[-122.43545,37.64486],[-122.47634,37.66296],[-122.51051,37.67941],[-122.54353,37.69875],[-122.56688,37.71246],[-122.60675,37.73578],[-122.65659,37.76513],[-122.69969,37.79034],[-122.72349,37.80409],[-122.75078,37.82219],[-122.76982,37.83998],[-122.81272,37.89254],[-122.82441,37.90659],[-122.88542,37.97023],[-122.91109,37.98979],[-122.99344,38.05157],[-123.02406,38.07427],[-123.08468,38.1206],[-123.10871,38.13922],[-123.18568,38.22592],[-123.19694,38.24131],[-123.23527,38.29302],[-123.285,38.36189],[-123.31525,38.404],[-123.34461,38.44544]],"type":"LineString"}
}
