{
  "id": 2031619377,
  "type": "Feature",
  "properties": {
    "geom:area": 0,
    "geom:bbox": "-122.757280,37.578640,-122.344460,38.494890",
    "geom:latitude": 38.02174873467983,
    "geom:longitude": -122.61463491467484,
    "src:alt_label": "swim-approach",
    "src:geom": "swim",
    "swim:elevations": [
      8230,
      7492,
      7319,
      6881,
      6609,
      6441,
      5994,
      5829,
      5678,
      5550,
      5140,
      4824,
      4633,
      4387,
      4302,
      4146,
      4127,
      4021,
      3908,
      3850,
      3637,
      3302,
      3117,
      2864,
      2659
    ],
    "swim:geom": "approach",
    "swim:timestamps": [
      1782228463,
      1782228534,
      1782228551,
      1782228595,
      1782228622,
      1782228638,
      1782228682,
      1782228700,
      1782228715,
      1782228728,
      1782228768,
      1782228804,
      1782228826,
      1782228856,
      1782228864,
      1782228895,
      1782228901,
      1782228940,
      1782228981,
      1782228997,
      1782229028,
      1782229075,
      1782229100,
      1782229135,
      1782229162
    ],
    "wof:geomhash": "947037cd1fdfbb37122288805efcc3d6",
    "wof:id": 2031619377,
    "wof:repo": "sfomuseum-data-flights-2026-06"
  },
  "bbox": [
    -122.75728,
    37.57864,
    -122.34446,
    38.49489
  ],
  "geometry": {"coordinates":[[-122.55397,38.49489],[-122.64121,38.38432],[-122.66088,38.35963],[-122.71296,38.29363],[-122.74302,38.25564],[-122.75728,38.23118],[-122.74718,38.15634],[-122.7388,38.12606],[-122.73228,38.10264],[-122.72616,38.08124],[-122.70696,38.01567],[-122.68976,37.9566],[-122.67965,37.92218],[-122.65191,37.87954],[-122.64152,37.86962],[-122.60213,37.8323],[-122.59546,37.82587],[-122.5494,37.78234],[-122.50691,37.74246],[-122.49136,37.72766],[-122.46146,37.69974],[-122.4172,37.65769],[-122.39368,37.63599],[-122.36261,37.60546],[-122.34446,37.57864]],"type":"LineString"}
}
