{
  "id": 2031546575,
  "type": "Feature",
  "properties": {
    "geom:area": 0,
    "geom:bbox": "-122.333333,36.200000,-86.683333,38.454444",
    "geom:latitude": 37.850010726831684,
    "geom:longitude": -104.51267432321012,
    "src:alt_label": "swim-path",
    "src:geom": "swim",
    "swim:altitudes": [
      "032",
      "032",
      "082",
      "082",
      "082",
      "108",
      "140",
      "140",
      "140",
      "158",
      "158",
      "158",
      "163",
      "179",
      "179",
      "195",
      "195",
      "211",
      "211",
      "225",
      "225",
      "238",
      "241",
      "241",
      "251",
      "254",
      "279C",
      "279C",
      "280C",
      "280C",
      "280C",
      "280C",
      "280C",
      "280C",
      "280C",
      "280C",
      "280C",
      "280C",
      "280C",
      "280C",
      "280C",
      "280C",
      "280C",
      "280C",
      "280C",
      "280C",
      "292",
      "300C",
      "300C",
      "300C",
      "300C",
      "300C",
      "300C",
      "300C",
      "300C",
      "300C",
      "300C",
      "300C",
      "300C",
      "300C",
      "300C",
      "300C",
      "300C",
      "300C",
      "300C",
      "300C",
      "300C",
      "300C",
      "300C",
      "300C",
      "300C",
      "300C",
      "300C",
      "300C",
      "300C",
      "300C",
      "300C",
      "300C",
      "300C",
      "300C",
      "300C",
      "300C",
      "300C",
      "300C",
      "300C",
      "300C",
      "300C",
      "300C",
      "300C",
      "300C",
      "300C",
      "300C",
      "300C",
      "300C",
      "300C",
      "300C",
      "300C",
      "300C",
      "300C",
      "300C",
      "300C",
      "300C",
      "300C",
      "300C",
      "300C",
      "300C",
      "300C",
      "300C",
      "300C",
      "300C",
      "300C",
      "300C",
      "300C",
      "300C",
      "300C",
      "300C",
      "300C",
      "300C",
      "300C",
      "300C",
      "300C",
      "300C",
      "300C",
      "300C",
      "300C",
      "300C",
      "300C",
      "300C",
      "300C",
      "300C",
      "300C",
      "300C",
      "300",
      "300",
      "300",
      "300",
      "300",
      "320C",
      "320C",
      "320C",
      "320C",
      "320C",
      "320C",
      "320C",
      "320C",
      "320C",
      "320C",
      "320C",
      "320C",
      "320C",
      "320C",
      "320C",
      "320C",
      "320C",
      "320C",
      "320C",
      "320C",
      "320C",
      "320C",
      "320C",
      "320C",
      "320C",
      "320C",
      "320C",
      "320C",
      "320C",
      "320C",
      "320C",
      "320C",
      "320C",
      "320C",
      "320C",
      "320C",
      "320C",
      "320C",
      "320C",
      "320C",
      "320C",
      "320C",
      "320C",
      "320C",
      "320C",
      "320C",
      "320C",
      "320C",
      "320C",
      "320C",
      "320C",
      "320C",
      "320C",
      "320C",
      "320C",
      "320C",
      "320C",
      "320C",
      "320C",
      "320C",
      "320C",
      "320C",
      "320C",
      "320C",
      "320C",
      "320C",
      "320C",
      "320C",
      "320C",
      "320C",
      "320C",
      "320C",
      "320C",
      "320C",
      "320C",
      "320C",
      "320C",
      "320C",
      "320C",
      "320C",
      "320C",
      "320C",
      "320C",
      "320C",
      "320C",
      "320C",
      "320C",
      "320C",
      "320C",
      "320C",
      "320C",
      "320C",
      "320C",
      "320C",
      "320C",
      "320C",
      "320C",
      "320C",
      "320C",
      "320C",
      "320C",
      "320C",
      "320C",
      "320C",
      "320C",
      "320C",
      "320C",
      "320C",
      "320C",
      "320C",
      "320C",
      "320C",
      "320C",
      "320C",
      "320C",
      "320C",
      "320C",
      "320C",
      "320C",
      "320C",
      "320C",
      "320C",
      "320C",
      "320C",
      "320C",
      "320C",
      "320C",
      "320C",
      "320C",
      "320C",
      "320C",
      "320C",
      "320C",
      "320C",
      "320C",
      "320C",
      "320C",
      "320C",
      "324",
      "324",
      "324",
      "340C",
      "340C",
      "340C",
      "340C",
      "340C",
      "340C",
      "340C",
      "340C",
      "340C",
      "340C",
      "340C",
      "340C",
      "340C",
      "340C",
      "340C",
      "340C",
      "340C",
      "340C",
      "340C",
      "340C",
      "340C",
      "340C",
      "340C",
      "340C",
      "340C",
      "340C",
      "340C",
      "340C",
      "340C",
      "340C",
      "340C",
      "340C",
      "340C",
      "340C",
      "340C",
      "340C",
      "340C",
      "340C",
      "340C",
      "340C",
      "340C",
      "340C",
      "340C",
      "340C",
      "340C",
      "340C",
      "340C",
      "340C",
      "340C",
      "340C",
      "340C",
      "340C",
      "340C",
      "340C",
      "340C",
      "340C",
      "340C",
      "340C",
      "340C",
      "340C",
      "340C",
      "340C",
      "340C",
      "339C",
      "340C",
      "340C",
      "340C",
      "340C",
      "340C",
      "340C",
      "340C",
      "340C",
      "340C",
      "340C",
      "340C",
      "340C",
      "340C",
      "340C",
      "340C",
      "340C",
      "340C",
      "340C",
      "340C",
      "340C",
      "340C",
      "340C",
      "340C",
      "340C",
      "340C",
      "340C",
      "340C",
      "340C",
      "340C",
      "340C",
      "340C",
      "340C",
      "340C",
      "340C",
      "340",
      "340",
      "340",
      "340",
      "340",
      "340",
      "340",
      "297",
      "297",
      "261",
      "261",
      "230",
      "230",
      "230",
      "198",
      "198",
      "191",
      "191",
      "181",
      "181",
      "156",
      "140",
      "134",
      "134",
      "128",
      "122",
      "122",
      "122",
      "108",
      "103",
      "103",
      "100",
      "098",
      "098",
      "092",
      "092",
      "092",
      "080",
      "080",
      "080",
      "070",
      "051",
      "042",
      "042",
      "042",
      "042",
      "037",
      "027",
      "027",
      "020",
      "020",
      "020",
      "004",
      "004",
      "004",
      "004"
    ],
    "swim:geom": "path",
    "swim:speeds": [
      225,
      225,
      247,
      247,
      247,
      261,
      344,
      344,
      344,
      358,
      358,
      358,
      352,
      366,
      366,
      377,
      377,
      385,
      385,
      393,
      393,
      400,
      403,
      403,
      404,
      406,
      411,
      411,
      370,
      370,
      395,
      395,
      395,
      397,
      397,
      398,
      398,
      398,
      398,
      398,
      398,
      398,
      397,
      396,
      396,
      396,
      395,
      389,
      388,
      388,
      388,
      388,
      387,
      387,
      387,
      387,
      387,
      387,
      387,
      387,
      385,
      386,
      386,
      385,
      385,
      385,
      385,
      385,
      385,
      385,
      385,
      385,
      385,
      385,
      386,
      386,
      387,
      387,
      387,
      387,
      387,
      387,
      387,
      387,
      387,
      387,
      386,
      386,
      386,
      386,
      386,
      387,
      387,
      387,
      387,
      387,
      387,
      386,
      386,
      386,
      386,
      387,
      387,
      387,
      387,
      386,
      385,
      385,
      385,
      385,
      385,
      385,
      385,
      385,
      385,
      385,
      385,
      385,
      385,
      386,
      386,
      387,
      387,
      388,
      388,
      388,
      388,
      389,
      389,
      389,
      389,
      389,
      391,
      391,
      391,
      391,
      391,
      381,
      381,
      381,
      380,
      380,
      381,
      381,
      382,
      382,
      382,
      382,
      382,
      381,
      381,
      381,
      381,
      381,
      381,
      382,
      382,
      382,
      383,
      383,
      383,
      383,
      383,
      383,
      384,
      384,
      383,
      384,
      384,
      383,
      383,
      383,
      383,
      384,
      384,
      384,
      384,
      384,
      384,
      383,
      383,
      383,
      383,
      384,
      385,
      385,
      385,
      385,
      385,
      386,
      386,
      386,
      387,
      389,
      389,
      389,
      389,
      390,
      390,
      390,
      391,
      391,
      391,
      391,
      392,
      392,
      393,
      393,
      392,
      392,
      392,
      392,
      392,
      392,
      392,
      392,
      392,
      392,
      392,
      392,
      392,
      392,
      392,
      393,
      393,
      394,
      394,
      394,
      393,
      393,
      394,
      395,
      395,
      395,
      398,
      398,
      397,
      399,
      399,
      397,
      397,
      397,
      397,
      401,
      401,
      399,
      403,
      400,
      400,
      400,
      400,
      402,
      402,
      400,
      400,
      400,
      400,
      400,
      400,
      401,
      400,
      400,
      400,
      400,
      400,
      400,
      400,
      400,
      401,
      400,
      400,
      401,
      401,
      401,
      400,
      400,
      400,
      400,
      402,
      402,
      399,
      396,
      396,
      397,
      397,
      397,
      397,
      398,
      401,
      402,
      402,
      402,
      402,
      402,
      404,
      404,
      404,
      404,
      404,
      405,
      407,
      407,
      407,
      409,
      409,
      410,
      413,
      413,
      413,
      416,
      416,
      416,
      418,
      424,
      424,
      425,
      425,
      425,
      426,
      426,
      426,
      427,
      427,
      430,
      430,
      431,
      431,
      434,
      434,
      434,
      435,
      435,
      436,
      436,
      436,
      436,
      436,
      434,
      434,
      434,
      434,
      435,
      436,
      436,
      438,
      438,
      437,
      438,
      440,
      440,
      440,
      440,
      441,
      441,
      441,
      441,
      442,
      442,
      442,
      442,
      442,
      442,
      442,
      442,
      442,
      441,
      441,
      441,
      441,
      441,
      441,
      440,
      440,
      441,
      441,
      441,
      441,
      441,
      441,
      442,
      442,
      442,
      442,
      441,
      441,
      428,
      428,
      421,
      421,
      421,
      416,
      416,
      406,
      406,
      391,
      391,
      375,
      376,
      368,
      368,
      335,
      324,
      324,
      324,
      318,
      319,
      319,
      319,
      275,
      275,
      262,
      262,
      262,
      250,
      252,
      252,
      254,
      234,
      229,
      229,
      229,
      229,
      214,
      195,
      195,
      186,
      186,
      186,
      135,
      135,
      135,
      135
    ],
    "swim:timestamps": [
      1781524345,
      1781524345,
      1781524450,
      1781524450,
      1781524450,
      1781524510,
      1781524630,
      1781524630,
      1781524630,
      1781524690,
      1781524690,
      1781524690,
      1781524712,
      1781524750,
      1781524750,
      1781524810,
      1781524810,
      1781524870,
      1781524870,
      1781524930,
      1781524930,
      1781524990,
      1781525012,
      1781525012,
      1781525050,
      1781525073,
      1781525193,
      1781525193,
      1781525231,
      1781525231,
      1781525313,
      1781525313,
      1781525313,
      1781525411,
      1781525471,
      1781525554,
      1781525591,
      1781525591,
      1781525591,
      1781525614,
      1781525614,
      1781525651,
      1781525674,
      1781525711,
      1781525734,
      1781525734,
      1781525854,
      1781526034,
      1781526072,
      1781526072,
      1781526094,
      1781526094,
      1781526155,
      1781526155,
      1781526155,
      1781526155,
      1781526275,
      1781526275,
      1781526275,
      1781526335,
      1781526372,
      1781526395,
      1781526395,
      1781526432,
      1781526432,
      1781526432,
      1781526432,
      1781526515,
      1781526793,
      1781526815,
      1781526815,
      1781526815,
      1781526815,
      1781526815,
      1781526913,
      1781526973,
      1781526996,
      1781526996,
      1781527056,
      1781527056,
      1781527116,
      1781527116,
      1781527116,
      1781527213,
      1781527213,
      1781527213,
      1781527356,
      1781527416,
      1781527416,
      1781527476,
      1781527476,
      1781527536,
      1781527597,
      1781527597,
      1781527657,
      1781527657,
      1781527657,
      1781527777,
      1781527777,
      1781527777,
      1781527777,
      1781527897,
      1781527897,
      1781527897,
      1781527897,
      1781527957,
      1781528017,
      1781528017,
      1781528017,
      1781528077,
      1781528077,
      1781528137,
      1781528137,
      1781528137,
      1781528197,
      1781528197,
      1781528318,
      1781528318,
      1781528318,
      1781528378,
      1781528378,
      1781528498,
      1781528498,
      1781528678,
      1781528678,
      1781528678,
      1781528678,
      1781528858,
      1781528858,
      1781528858,
      1781528858,
      1781528858,
      1781529219,
      1781529219,
      1781529219,
      1781529219,
      1781529219,
      1781529339,
      1781529339,
      1781529339,
      1781529519,
      1781529519,
      1781529640,
      1781529640,
      1781529700,
      1781529700,
      1781529700,
      1781529760,
      1781529880,
      1781529899,
      1781529899,
      1781529899,
      1781529959,
      1781529959,
      1781529959,
      1781530079,
      1781530079,
      1781530079,
      1781530180,
      1781530180,
      1781530199,
      1781530199,
      1781530199,
      1781530241,
      1781530260,
      1781530260,
      1781530301,
      1781530361,
      1781530361,
      1781530421,
      1781530421,
      1781530421,
      1781530421,
      1781530541,
      1781530560,
      1781530560,
      1781530680,
      1781530680,
      1781530680,
      1781530740,
      1781530740,
      1781530781,
      1781530781,
      1781530800,
      1781530920,
      1781530920,
      1781531022,
      1781531022,
      1781531022,
      1781531142,
      1781531142,
      1781531221,
      1781531322,
      1781531401,
      1781531401,
      1781531401,
      1781531461,
      1781531533,
      1781531533,
      1781531533,
      1781531653,
      1781531653,
      1781531653,
      1781531653,
      1781531774,
      1781531774,
      1781532014,
      1781532014,
      1781532074,
      1781532074,
      1781532074,
      1781532134,
      1781532134,
      1781532134,
      1781532194,
      1781532194,
      1781532194,
      1781532254,
      1781532254,
      1781532314,
      1781532314,
      1781532374,
      1781532374,
      1781532435,
      1781532435,
      1781532615,
      1781532615,
      1781532615,
      1781532675,
      1781532675,
      1781532735,
      1781532795,
      1781532795,
      1781532795,
      1781532975,
      1781532975,
      1781533010,
      1781533035,
      1781533035,
      1781533070,
      1781533070,
      1781533070,
      1781533070,
      1781533156,
      1781533156,
      1781533250,
      1781533276,
      1781533310,
      1781533370,
      1781533370,
      1781533370,
      1781533396,
      1781533396,
      1781533550,
      1781533550,
      1781533550,
      1781533611,
      1781533611,
      1781533636,
      1781533708,
      1781533768,
      1781533768,
      1781533768,
      1781533768,
      1781533791,
      1781533828,
      1781534009,
      1781534009,
      1781534069,
      1781534091,
      1781534091,
      1781534129,
      1781534129,
      1781534129,
      1781534151,
      1781534211,
      1781534211,
      1781534211,
      1781534309,
      1781534309,
      1781534332,
      1781534369,
      1781534369,
      1781534392,
      1781534392,
      1781534429,
      1781534429,
      1781534452,
      1781534572,
      1781534632,
      1781534632,
      1781534632,
      1781534632,
      1781534692,
      1781534752,
      1781534752,
      1781534752,
      1781534790,
      1781534790,
      1781534812,
      1781534932,
      1781534970,
      1781534970,
      1781535030,
      1781535030,
      1781535113,
      1781535233,
      1781535233,
      1781535233,
      1781535353,
      1781535353,
      1781535353,
      1781535473,
      1781535713,
      1781535713,
      1781535773,
      1781535773,
      1781535773,
      1781535834,
      1781535834,
      1781535834,
      1781535954,
      1781535954,
      1781536134,
      1781536134,
      1781536194,
      1781536194,
      1781536314,
      1781536314,
      1781536314,
      1781536374,
      1781536374,
      1781536434,
      1781536434,
      1781536434,
      1781536555,
      1781536555,
      1781536780,
      1781536780,
      1781536780,
      1781536780,
      1781536840,
      1781536900,
      1781536900,
      1781536915,
      1781536915,
      1781536960,
      1781537020,
      1781537035,
      1781537035,
      1781537035,
      1781537035,
      1781537275,
      1781537275,
      1781537275,
      1781537275,
      1781537441,
      1781537441,
      1781537441,
      1781537441,
      1781537621,
      1781537621,
      1781537621,
      1781537636,
      1781537636,
      1781537801,
      1781537816,
      1781537816,
      1781537816,
      1781537861,
      1781537861,
      1781537936,
      1781537936,
      1781537996,
      1781537996,
      1781538462,
      1781538522,
      1781538522,
      1781538522,
      1781538643,
      1781538643,
      1781538643,
      1781538643,
      1781538823,
      1781538823,
      1781538919,
      1781538919,
      1781539003,
      1781539003,
      1781539003,
      1781539093,
      1781539093,
      1781539123,
      1781539123,
      1781539183,
      1781539183,
      1781539243,
      1781539273,
      1781539303,
      1781539303,
      1781539333,
      1781539364,
      1781539364,
      1781539364,
      1781539393,
      1781539424,
      1781539424,
      1781539453,
      1781539544,
      1781539544,
      1781539568,
      1781539568,
      1781539568,
      1781539633,
      1781539664,
      1781539664,
      1781539724,
      1781539844,
      1781539869,
      1781539869,
      1781539869,
      1781539869,
      1781539904,
      1781539964,
      1781539964,
      1781539994,
      1781539994,
      1781539994,
      1781540120,
      1781540120,
      1781540120,
      1781540120
    ],
    "wof:geomhash": "e5bbb7609c6b05ca0e51cbc185375e48",
    "wof:id": 2031546575,
    "wof:repo": "sfomuseum-data-flights-2026-06"
  },
  "bbox": [
    -122.33333333333333,
    36.2,
    -86.68333333333334,
    38.45444444444445
  ],
  "geometry": {"coordinates":[[-86.68333333333334,36.2],[-86.68333333333334,36.2],[-86.81666666666666,36.215833333333336],[-86.81666666666666,36.215833333333336],[-86.81666666666666,36.215833333333336],[-86.90666666666667,36.22888888888889],[-87.12833333333333,36.25833333333333],[-87.12833333333333,36.25833333333333],[-87.12833333333333,36.25833333333333],[-87.24888888888889,36.275277777777774],[-87.24888888888889,36.275277777777774],[-87.24888888888889,36.275277777777774],[-87.28166666666667,36.278888888888886],[-87.37277777777777,36.29527777777778],[-87.37277777777777,36.29527777777778],[-87.49944444444445,36.316944444444445],[-87.49944444444445,36.316944444444445],[-87.61611111111111,36.3675],[-87.61611111111111,36.3675],[-87.73666666666666,36.421388888888885],[-87.73666666666666,36.421388888888885],[-87.85694444444444,36.47527777777778],[-87.89027777777778,36.489444444444445],[-87.89027777777778,36.489444444444445],[-87.98027777777779,36.53055555555555],[-88.01388888888889,36.544444444444444],[-88.25694444444444,36.645833333333336],[-88.25694444444444,36.645833333333336],[-88.3386111111111,36.66166666666666],[-88.3386111111111,36.66166666666666],[-88.52638888888889,36.69194444444444],[-88.52638888888889,36.69194444444444],[-88.52638888888889,36.69194444444444],[-88.74166666666667,36.726111111111116],[-88.87583333333333,36.74722222222222],[-89.06472222222222,36.776666666666664],[-89.17222222222223,36.793055555555554],[-89.17222222222223,36.793055555555554],[-89.17222222222223,36.793055555555554],[-89.19916666666667,36.79722222222222],[-89.19916666666667,36.79722222222222],[-89.30666666666666,36.81388888888888],[-89.33388888888888,36.81805555555556],[-89.44027777777778,36.83388888888889],[-89.46666666666667,36.838055555555556],[-89.46666666666667,36.838055555555556],[-89.73666666666666,36.87861111111111],[-90.13166666666666,36.93666666666666],[-90.23805555555556,36.95194444444445],[-90.23805555555556,36.95194444444445],[-90.26472222222222,36.95583333333334],[-90.26472222222222,36.95583333333334],[-90.3963888888889,36.974722222222226],[-90.3963888888889,36.974722222222226],[-90.3963888888889,36.974722222222226],[-90.3963888888889,36.974722222222226],[-90.66111111111111,37.01222222222222],[-90.66111111111111,37.01222222222222],[-90.66111111111111,37.01222222222222],[-90.79527777777777,37.03111111111111],[-90.88805555555557,37.04388888888889],[-90.92472222222223,37.04888888888889],[-90.92472222222223,37.04888888888889],[-91.0213888888889,37.06222222222222],[-91.0213888888889,37.06222222222222],[-91.0213888888889,37.06222222222222],[-91.0213888888889,37.06222222222222],[-91.20527777777778,37.08722222222222],[-91.81388888888888,37.16833333333333],[-91.86749999999999,37.17527777777777],[-91.86749999999999,37.17527777777777],[-91.86749999999999,37.17527777777777],[-91.86749999999999,37.17527777777777],[-91.86749999999999,37.17527777777777],[-92.07888888888888,37.2025],[-92.21333333333334,37.219722222222224],[-92.26805555555555,37.22666666666667],[-92.26805555555555,37.22666666666667],[-92.40166666666667,37.24333333333333],[-92.40166666666667,37.24333333333333],[-92.51,37.25694444444444],[-92.51,37.25694444444444],[-92.51,37.25694444444444],[-92.74972222222222,37.28638888888889],[-92.74972222222222,37.28638888888889],[-92.74972222222222,37.28638888888889],[-93.04416666666667,37.32194444444445],[-93.17972222222222,37.338055555555556],[-93.17972222222222,37.338055555555556],[-93.31305555555555,37.353611111111114],[-93.31305555555555,37.353611111111114],[-93.44611111111111,37.368611111111115],[-93.58055555555555,37.38305555555556],[-93.58055555555555,37.38305555555556],[-93.71416666666667,37.3975],[-93.71416666666667,37.3975],[-93.71416666666667,37.3975],[-93.98305555555555,37.425555555555555],[-93.98305555555555,37.425555555555555],[-93.98305555555555,37.425555555555555],[-93.98305555555555,37.425555555555555],[-94.2611111111111,37.45444444444445],[-94.2611111111111,37.45444444444445],[-94.2611111111111,37.45444444444445],[-94.2611111111111,37.45444444444445],[-94.3963888888889,37.46805555555556],[-94.52972222222222,37.481388888888894],[-94.52972222222222,37.481388888888894],[-94.52972222222222,37.481388888888894],[-94.66305555555556,37.49472222222222],[-94.66305555555556,37.49472222222222],[-94.79777777777778,37.507777777777775],[-94.79777777777778,37.507777777777775],[-94.79777777777778,37.507777777777775],[-94.93222222222222,37.52111111111111],[-94.93222222222222,37.52111111111111],[-95.19916666666667,37.54611111111111],[-95.19916666666667,37.54611111111111],[-95.19916666666667,37.54611111111111],[-95.33305555555555,37.558611111111105],[-95.33305555555555,37.558611111111105],[-95.59972222222221,37.58305555555556],[-95.59972222222221,37.58305555555556],[-96.00277777777778,37.61888888888889],[-96.00277777777778,37.61888888888889],[-96.00277777777778,37.61888888888889],[-96.00277777777778,37.61888888888889],[-96.41194444444444,37.65361111111111],[-96.41194444444444,37.65361111111111],[-96.41194444444444,37.65361111111111],[-96.41194444444444,37.65361111111111],[-96.41194444444444,37.65361111111111],[-97.23833333333333,37.719722222222224],[-97.23833333333333,37.719722222222224],[-97.23833333333333,37.719722222222224],[-97.23833333333333,37.719722222222224],[-97.23833333333333,37.719722222222224],[-97.50666666666666,37.73972222222222],[-97.50666666666666,37.73972222222222],[-97.50666666666666,37.73972222222222],[-97.90472222222223,37.78194444444444],[-97.90472222222223,37.78194444444444],[-98.14444444444445,37.80888888888889],[-98.14444444444445,37.80888888888889],[-98.28527777777778,37.824444444444445],[-98.28527777777778,37.824444444444445],[-98.28527777777778,37.824444444444445],[-98.41888888888889,37.83916666666667],[-98.68583333333333,37.8675],[-98.73444444444445,37.87111111111111],[-98.73444444444445,37.87111111111111],[-98.73444444444445,37.87111111111111],[-98.86638888888888,37.88583333333333],[-98.86638888888888,37.88583333333333],[-98.86638888888888,37.88583333333333],[-99.13305555555554,37.91444444444444],[-99.13305555555554,37.91444444444444],[-99.13305555555554,37.91444444444444],[-99.35194444444444,37.936388888888885],[-99.35194444444444,37.936388888888885],[-99.39694444444446,37.941111111111105],[-99.39694444444446,37.941111111111105],[-99.39694444444446,37.941111111111105],[-99.48555555555555,37.95],[-99.53472222222221,37.95472222222222],[-99.53472222222221,37.95472222222222],[-99.63944444444445,37.965],[-99.77277777777778,37.97777777777778],[-99.77277777777778,37.97777777777778],[-99.9075,37.990833333333335],[-99.9075,37.990833333333335],[-99.9075,37.990833333333335],[-99.9075,37.990833333333335],[-100.17305555555556,38.01583333333333],[-100.20277777777778,38.01861111111111],[-100.20277777777778,38.01861111111111],[-100.46833333333333,38.043055555555554],[-100.46833333333333,38.043055555555554],[-100.46833333333333,38.043055555555554],[-100.60222222222221,38.055],[-100.60222222222221,38.055],[-100.70583333333333,38.064166666666665],[-100.70583333333333,38.064166666666665],[-100.76222222222222,38.06916666666667],[-101.02944444444444,38.0925],[-101.02944444444444,38.0925],[-101.24166666666667,38.11055555555556],[-101.24166666666667,38.11055555555556],[-101.24166666666667,38.11055555555556],[-101.50888888888889,38.132777777777775],[-101.50888888888889,38.132777777777775],[-101.70333333333333,38.14833333333333],[-101.91694444444445,38.165277777777774],[-102.11083333333333,38.180277777777775],[-102.11083333333333,38.180277777777775],[-102.11083333333333,38.180277777777775],[-102.24833333333333,38.190555555555555],[-102.4113888888889,38.20277777777778],[-102.4113888888889,38.20277777777778],[-102.4113888888889,38.20277777777778],[-102.68777777777778,38.22277777777778],[-102.68777777777778,38.22277777777778],[-102.68777777777778,38.22277777777778],[-102.68777777777778,38.22277777777778],[-102.96166666666667,38.242222222222225],[-102.96166666666667,38.242222222222225],[-103.51972222222223,38.27916666666667],[-103.51972222222223,38.27916666666667],[-103.65722222222223,38.28777777777778],[-103.65722222222223,38.28777777777778],[-103.65722222222223,38.28777777777778],[-103.79305555555555,38.296388888888885],[-103.79305555555555,38.296388888888885],[-103.79305555555555,38.296388888888885],[-103.92916666666667,38.30472222222222],[-103.92916666666667,38.30472222222222],[-103.92916666666667,38.30472222222222],[-104.0675,38.31305555555555],[-104.0675,38.31305555555555],[-104.20527777777778,38.321111111111115],[-104.20527777777778,38.321111111111115],[-104.34138888888889,38.32916666666667],[-104.34138888888889,38.32916666666667],[-104.48083333333334,38.33722222222222],[-104.48083333333334,38.33722222222222],[-104.89500000000001,38.35944444444445],[-104.89500000000001,38.35944444444445],[-104.89500000000001,38.35944444444445],[-105.03388888888888,38.36638888888889],[-105.03388888888888,38.36638888888889],[-105.1738888888889,38.37388888888889],[-105.31194444444444,38.38055555555555],[-105.31194444444444,38.38055555555555],[-105.31194444444444,38.38055555555555],[-105.73305555555555,38.400277777777774],[-105.73305555555555,38.400277777777774],[-105.80444444444444,38.402499999999996],[-105.87416666666665,38.406666666666666],[-105.87416666666665,38.406666666666666],[-105.94444444444444,38.41083333333333],[-105.94444444444444,38.41083333333333],[-105.94444444444444,38.41083333333333],[-105.94444444444444,38.41083333333333],[-106.15861111111111,38.41888888888889],[-106.15861111111111,38.41888888888889],[-106.37222222222222,38.42611111111111],[-106.4538888888889,38.43083333333333],[-106.515,38.43222222222222],[-106.6563888888889,38.43805555555555],[-106.6563888888889,38.43805555555555],[-106.6563888888889,38.43805555555555],[-106.74027777777778,38.44166666666666],[-106.74027777777778,38.44166666666666],[-107.08333333333333,38.45194444444445],[-107.08333333333333,38.45194444444445],[-107.08333333333333,38.45194444444445],[-107.22333333333333,38.452222222222225],[-107.22333333333333,38.452222222222225],[-107.28,38.453611111111115],[-107.47805555555556,38.45416666666667],[-107.62055555555555,38.45416666666667],[-107.62055555555555,38.45416666666667],[-107.62055555555555,38.45416666666667],[-107.62055555555555,38.45416666666667],[-107.64944444444446,38.45305555555556],[-107.76222222222222,38.45444444444445],[-108.18666666666667,38.45333333333333],[-108.18666666666667,38.45333333333333],[-108.3286111111111,38.45277777777778],[-108.3586111111111,38.45194444444445],[-108.3586111111111,38.45194444444445],[-108.47222222222223,38.45194444444445],[-108.47222222222223,38.45194444444445],[-108.47222222222223,38.45194444444445],[-108.50055555555555,38.450833333333335],[-108.6438888888889,38.45],[-108.6438888888889,38.45],[-108.6438888888889,38.45],[-108.87138888888889,38.44888888888889],[-108.87138888888889,38.44888888888889],[-108.92805555555556,38.44833333333333],[-109.0111111111111,38.447222222222216],[-109.0111111111111,38.447222222222216],[-109.06694444444445,38.446666666666665],[-109.06694444444445,38.446666666666665],[-109.15138888888889,38.44583333333333],[-109.15138888888889,38.44583333333333],[-109.21000000000001,38.44499999999999],[-109.49388888888889,38.441111111111105],[-109.63777777777779,38.43888888888888],[-109.63777777777779,38.43888888888888],[-109.63777777777779,38.43888888888888],[-109.63777777777779,38.43888888888888],[-109.77888888888889,38.43666666666666],[-109.9225,38.43388888888889],[-109.9225,38.43388888888889],[-109.9225,38.43388888888889],[-110.00722222222223,38.4325],[-110.00722222222223,38.4325],[-110.06694444444445,38.43111111111111],[-110.35555555555555,38.42722222222222],[-110.44111111111111,38.42611111111111],[-110.44111111111111,38.42611111111111],[-110.58694444444444,38.42388888888889],[-110.58694444444444,38.42388888888889],[-110.7911111111111,38.42055555555555],[-111.09666666666666,38.414722222222224],[-111.09666666666666,38.414722222222224],[-111.09666666666666,38.414722222222224],[-111.39111111111112,38.40833333333333],[-111.39111111111112,38.40833333333333],[-111.39111111111112,38.40833333333333],[-111.68611111111112,38.40138888888889],[-112.28361111111111,38.38472222222222],[-112.28361111111111,38.38472222222222],[-112.43361111111112,38.38027777777778],[-112.43361111111112,38.38027777777778],[-112.43361111111112,38.38027777777778],[-112.58361111111111,38.375277777777775],[-112.58361111111111,38.375277777777775],[-112.58361111111111,38.375277777777775],[-112.88361111111112,38.36527777777778],[-112.88361111111112,38.36527777777778],[-113.33611111111111,38.3575],[-113.33611111111111,38.3575],[-113.48944444444444,38.35583333333334],[-113.48944444444444,38.35583333333334],[-113.79722222222222,38.35166666666667],[-113.79722222222222,38.35166666666667],[-113.79722222222222,38.35166666666667],[-113.94861111111112,38.349444444444444],[-113.94861111111112,38.349444444444444],[-114.10333333333332,38.346944444444446],[-114.10333333333332,38.346944444444446],[-114.10333333333332,38.346944444444446],[-114.41166666666668,38.34111111111111],[-114.41166666666668,38.34111111111111],[-114.9888888888889,38.32888888888889],[-114.9888888888889,38.32888888888889],[-114.9888888888889,38.32888888888889],[-114.9888888888889,38.32888888888889],[-115.14333333333335,38.33111111111111],[-115.29944444444445,38.33222222222223],[-115.29944444444445,38.33222222222223],[-115.36,38.331944444444446],[-115.36,38.331944444444446],[-115.45472222222223,38.33277777777778],[-115.61055555555555,38.325],[-115.6713888888889,38.315],[-115.6713888888889,38.315],[-115.6713888888889,38.315],[-115.6713888888889,38.315],[-116.28694444444444,38.23861111111111],[-116.28694444444444,38.23861111111111],[-116.28694444444444,38.23861111111111],[-116.28694444444444,38.23861111111111],[-116.69027777777778,38.18666666666666],[-116.69027777777778,38.18666666666666],[-116.69027777777778,38.18666666666666],[-116.69027777777778,38.18666666666666],[-117.14972222222222,38.12555555555556],[-117.14972222222222,38.12555555555556],[-117.14972222222222,38.12555555555556],[-117.18527777777778,38.120555555555555],[-117.18527777777778,38.120555555555555],[-117.62527777777777,38.06027777777778],[-117.65222222222222,38.05638888888888],[-117.65222222222222,38.05638888888888],[-117.65222222222222,38.05638888888888],[-117.77638888888889,38.03916666666667],[-117.77638888888889,38.03916666666667],[-117.95694444444445,38.01361111111111],[-117.95694444444445,38.01361111111111],[-118.11305555555555,37.99138888888889],[-118.11305555555555,37.99138888888889],[-119.30972222222222,37.83305555555556],[-119.46638888888889,37.81444444444444],[-119.46638888888889,37.81444444444444],[-119.46638888888889,37.81444444444444],[-119.77416666666666,37.777499999999996],[-119.77416666666666,37.777499999999996],[-119.77416666666666,37.777499999999996],[-119.77416666666666,37.777499999999996],[-120.23138888888889,37.721111111111114],[-120.23138888888889,37.721111111111114],[-120.46666666666667,37.7],[-120.46666666666667,37.7],[-120.67527777777778,37.6675],[-120.67527777777778,37.6675],[-120.67527777777778,37.6675],[-120.9,37.63333333333333],[-120.9,37.63333333333333],[-120.9625,37.63305555555556],[-120.9625,37.63305555555556],[-121.09833333333333,37.615],[-121.09833333333333,37.615],[-121.2125,37.599722222222226],[-121.3,37.583333333333336],[-121.3411111111111,37.58361111111111],[-121.3411111111111,37.58361111111111],[-121.41666666666667,37.583333333333336],[-121.45861111111111,37.57027777777778],[-121.45861111111111,37.57027777777778],[-121.45861111111111,37.57027777777778],[-121.53333333333333,37.56666666666667],[-121.56861111111111,37.55722222222222],[-121.56861111111111,37.55722222222222],[-121.63333333333334,37.55],[-121.77472222222222,37.551111111111105],[-121.77472222222222,37.551111111111105],[-121.81666666666666,37.56666666666667],[-121.81666666666666,37.56666666666667],[-121.81666666666666,37.56666666666667],[-121.88333333333334,37.516666666666666],[-121.8875,37.494166666666665],[-121.8875,37.494166666666665],[-121.92666666666668,37.44166666666666],[-122.07833333333333,37.49583333333334],[-122.11666666666666,37.516666666666666],[-122.11666666666666,37.516666666666666],[-122.11666666666666,37.516666666666666],[-122.11666666666666,37.516666666666666],[-122.14722222222223,37.525],[-122.20666666666666,37.55027777777777],[-122.20666666666666,37.55027777777777],[-122.25,37.56666666666667],[-122.25,37.56666666666667],[-122.25,37.56666666666667],[-122.33333333333333,37.6],[-122.33333333333333,37.6],[-122.33333333333333,37.6],[-122.33333333333333,37.6]],"type":"LineString"}
}
