{
  "id": 2031514631,
  "type": "Feature",
  "properties": {
    "geom:area": 0,
    "geom:bbox": "-123.530000,37.620000,-121.330000,49.190000",
    "geom:latitude": 43.379074247801476,
    "geom:longitude": -122.14605047541892,
    "src:alt_label": "swim-route",
    "src:geom": "swim",
    "swim:geom": "route",
    "wof:geomhash": "0d8420965f80812ece04639da1e3a6ab",
    "wof:id": 2031514631,
    "wof:repo": "sfomuseum-data-flights-2026-06"
  },
  "bbox": [
    -123.53,
    37.62,
    -121.33,
    49.19
  ],
  "geometry": {"coordinates":[[-122.38,37.62],[-122.49,37.67],[-122.49,37.67],[-122.52,37.68],[-122.53,37.72],[-122.53,37.72],[-122.53,37.75],[-122.53,37.8],[-122.53,37.8],[-122.52,37.81],[-122.43,37.84],[-122.39,37.91],[-122.29,38.06],[-122.27,38.09],[-122.26,38.11],[-122.22,38.17],[-122.15,38.27],[-122.11,38.34],[-122.11,38.35],[-122.12,38.48],[-122.13,38.54],[-122.02,38.58],[-121.94,38.61],[-121.7,38.7],[-121.61,38.73],[-121.52,38.76],[-121.47,38.78],[-121.43,38.79],[-121.4,38.8],[-121.33,38.83],[-121.34,38.84],[-121.36,39.08],[-121.84,39.13],[-121.84,39.31],[-121.8,39.44],[-121.76,39.53],[-121.69,39.74],[-121.88,40.11],[-121.89,40.29],[-121.93,41.2],[-122.05,43.76],[-122.14,45.49],[-122.17,46],[-122.24,47.27],[-122.25,47.36],[-122.26,47.62],[-122.27,47.81],[-122.28,47.88],[-122.28,47.92],[-122.31,48.03],[-122.35,48.18],[-122.44,48.46],[-122.46,48.54],[-122.51,48.7],[-122.51,48.71],[-122.63,48.79],[-122.67,48.81],[-122.79,48.89],[-122.91,48.97],[-122.97,49],[-123.06,49.06],[-123.19,49.1],[-123.26,49.1],[-123.27,49.1],[-123.51,49.13],[-123.53,49.13],[-123.47,49.14],[-123.43,49.15],[-123.31,49.17],[-123.18,49.19]],"type":"LineString"}
}
