{
  "id": 2031496661,
  "type": "Feature",
  "properties": {
    "geom:area": 0,
    "geom:bbox": "-122.532778,26.034167,-97.479722,37.653889",
    "geom:latitude": 32.3176004494818,
    "geom:longitude": -109.76338347546182,
    "src:alt_label": "swim-path",
    "src:geom": "swim",
    "swim:altitudes": [
      "033",
      "033",
      "033",
      "033",
      "033",
      "033",
      "064",
      "064",
      "087",
      "087",
      "087",
      "087",
      "110",
      "110",
      "110",
      "110",
      "129",
      "129",
      "135",
      "135",
      "135",
      "152",
      "152",
      "152",
      "166",
      "166",
      "166",
      "179",
      "179",
      "179",
      "179",
      "193",
      "193",
      "208",
      "208",
      "208",
      "208",
      "208",
      "231",
      "231",
      "231",
      "231",
      "305",
      "305",
      "305",
      "312",
      "312",
      "312",
      "312",
      "319",
      "325",
      "325",
      "325",
      "330C",
      "330C",
      "330C",
      "330C",
      "330C",
      "330C",
      "330C",
      "330C",
      "330C",
      "330C",
      "330C",
      "330C",
      "330C",
      "330C",
      "330C",
      "330C",
      "330C",
      "330C",
      "330C",
      "330C",
      "330C",
      "330C",
      "330C",
      "330C",
      "330C",
      "330C",
      "330C",
      "330C",
      "330C",
      "330C",
      "330C",
      "330C",
      "330C",
      "330C",
      "330C",
      "330C",
      "330C",
      "330C",
      "330C",
      "330C",
      "330C",
      "330C",
      "330C",
      "330C",
      "330C",
      "330C",
      "330C",
      "330C",
      "330C",
      "330C",
      "330C",
      "330C",
      "330C",
      "330C",
      "330C",
      "330C",
      "330C",
      "330C",
      "330C",
      "330C",
      "330C",
      "330C",
      "330C",
      "330C",
      "330C",
      "330C",
      "330C",
      "330C",
      "330C",
      "330C",
      "330C",
      "330C",
      "330C",
      "330C",
      "330C",
      "330C",
      "330C",
      "330C",
      "330C",
      "330C",
      "330C",
      "330C",
      "330C",
      "330C",
      "330C",
      "330C",
      "330C",
      "330C",
      "330C",
      "330C",
      "330C",
      "330C",
      "330C",
      "330C",
      "330C",
      "330C",
      "330C",
      "330C",
      "334",
      "334",
      "334",
      "334",
      "334",
      "334",
      "342",
      "342",
      "348C",
      "348C",
      "348C",
      "348C",
      "348C",
      "350C",
      "350C",
      "350C",
      "350C",
      "350C",
      "350C",
      "350C",
      "350C",
      "350C",
      "350C",
      "350C",
      "350C",
      "350C",
      "350C",
      "350C",
      "350C",
      "350C",
      "350C",
      "350C",
      "350C",
      "350C",
      "350C",
      "350C",
      "350C",
      "350C",
      "350C",
      "350C",
      "350C",
      "350C",
      "350C",
      "350C",
      "350C",
      "350C",
      "350C",
      "350C",
      "350C",
      "350C",
      "350C",
      "350C",
      "350C",
      "350C",
      "350C",
      "350C",
      "350C",
      "350C",
      "350C",
      "350C",
      "350C",
      "350C",
      "350C",
      "350C",
      "350C",
      "350C",
      "350C",
      "350C",
      "350C",
      "350C",
      "350C",
      "350C",
      "350C",
      "350C",
      "350C",
      "350C",
      "350C",
      "350C",
      "350C",
      "350C",
      "350C",
      "350C",
      "350C",
      "350C",
      "350C",
      "350C",
      "350C",
      "350C",
      "350C",
      "350C",
      "350C",
      "350C",
      "350C",
      "350C",
      "350C",
      "350C",
      "350C",
      "350C",
      "350C",
      "350C",
      "350C",
      "350C",
      "350C",
      "350C",
      "350C",
      "350C",
      "350C",
      "350C",
      "350C",
      "350C",
      "350C",
      "350C",
      "350C",
      "350C",
      "350C",
      "350C",
      "350C",
      "350C",
      "350C",
      "350C",
      "350C",
      "350C",
      "350C",
      "350C",
      "350C",
      "350C",
      "350C",
      "350C",
      "350C",
      "350C",
      "350C",
      "350C",
      "350C",
      "350C",
      "350C",
      "350C",
      "350C",
      "350C",
      "350C",
      "350C",
      "350C",
      "350C",
      "350C",
      "350C",
      "350C",
      "350C",
      "350C",
      "350C",
      "350C",
      "350C",
      "350C",
      "350C",
      "350C",
      "350C",
      "350C",
      "350C",
      "350C",
      "350C",
      "350C",
      "350C",
      "350C",
      "350C",
      "350C",
      "350C",
      "350C",
      "350C",
      "350C",
      "350C",
      "350C",
      "350C",
      "350C",
      "350C",
      "350C",
      "350C",
      "350C",
      "350C",
      "350C",
      "350C",
      "350C",
      "350C",
      "350C",
      "350C",
      "350C",
      "350C",
      "350C",
      "350C",
      "350C",
      "350C",
      "350C",
      "350C",
      "350C",
      "350C",
      "350C",
      "350C",
      "350C",
      "350C",
      "350C",
      "350C",
      "350C",
      "350C",
      "350C",
      "350C",
      "350C",
      "350C",
      "350C",
      "350C",
      "350C",
      "350C",
      "350C",
      "350C",
      "350C",
      "350C",
      "350C",
      "350C",
      "350C",
      "350C",
      "350C",
      "350C",
      "350C",
      "350C",
      "350C",
      "350C",
      "350C",
      "350C",
      "350C",
      "350C",
      "350C",
      "350C",
      "350C",
      "350C",
      "350C",
      "350C",
      "350C",
      "350C",
      "350C",
      "350C",
      "350C",
      "350C",
      "350C",
      "350C",
      "350C",
      "350C",
      "350C",
      "350C",
      "350C",
      "350C",
      "350C",
      "350C",
      "350C",
      "350C",
      "350C",
      "350C",
      "350C",
      "350C",
      "350C",
      "350C",
      "350C",
      "350C",
      "350C",
      "350C",
      "350C",
      "350C"
    ],
    "swim:geom": "path",
    "swim:speeds": [
      180,
      180,
      180,
      180,
      180,
      180,
      288,
      288,
      297,
      297,
      297,
      297,
      339,
      339,
      339,
      339,
      365,
      365,
      353,
      353,
      353,
      367,
      367,
      367,
      384,
      384,
      384,
      399,
      399,
      399,
      399,
      410,
      410,
      419,
      419,
      419,
      419,
      419,
      434,
      434,
      434,
      434,
      482,
      482,
      482,
      490,
      490,
      490,
      490,
      494,
      497,
      497,
      497,
      499,
      501,
      501,
      501,
      501,
      502,
      502,
      503,
      503,
      503,
      503,
      503,
      503,
      501,
      501,
      501,
      500,
      500,
      500,
      499,
      499,
      499,
      499,
      499,
      498,
      498,
      494,
      494,
      494,
      494,
      494,
      494,
      489,
      489,
      489,
      489,
      489,
      489,
      488,
      488,
      488,
      489,
      489,
      489,
      489,
      489,
      489,
      489,
      489,
      489,
      489,
      489,
      489,
      489,
      489,
      488,
      488,
      488,
      488,
      488,
      487,
      487,
      487,
      485,
      485,
      485,
      485,
      485,
      485,
      485,
      485,
      486,
      486,
      486,
      486,
      487,
      487,
      487,
      486,
      486,
      486,
      486,
      486,
      486,
      486,
      486,
      485,
      485,
      485,
      485,
      485,
      485,
      480,
      480,
      480,
      480,
      480,
      480,
      479,
      479,
      479,
      479,
      479,
      479,
      479,
      479,
      479,
      479,
      479,
      479,
      479,
      478,
      478,
      478,
      478,
      478,
      478,
      478,
      478,
      478,
      478,
      478,
      475,
      475,
      475,
      475,
      475,
      475,
      475,
      475,
      475,
      475,
      475,
      476,
      476,
      476,
      476,
      475,
      475,
      474,
      474,
      474,
      474,
      474,
      473,
      473,
      473,
      469,
      469,
      469,
      469,
      467,
      467,
      467,
      464,
      464,
      464,
      464,
      463,
      463,
      463,
      463,
      463,
      463,
      463,
      464,
      464,
      464,
      464,
      473,
      473,
      473,
      473,
      481,
      481,
      481,
      481,
      481,
      489,
      489,
      489,
      489,
      489,
      489,
      488,
      488,
      488,
      488,
      488,
      488,
      486,
      486,
      486,
      486,
      486,
      486,
      486,
      486,
      487,
      487,
      488,
      488,
      488,
      490,
      490,
      490,
      490,
      490,
      490,
      498,
      498,
      498,
      498,
      498,
      500,
      500,
      500,
      498,
      498,
      498,
      498,
      498,
      495,
      495,
      495,
      495,
      495,
      495,
      495,
      495,
      495,
      495,
      495,
      495,
      495,
      488,
      488,
      488,
      488,
      488,
      488,
      488,
      488,
      488,
      488,
      488,
      488,
      488,
      488,
      490,
      490,
      491,
      491,
      491,
      485,
      485,
      485,
      485,
      485,
      485,
      485,
      485,
      485,
      485,
      485,
      486,
      486,
      486,
      486,
      486,
      492,
      492,
      492,
      492,
      492,
      492,
      493,
      493,
      493,
      493,
      493,
      493,
      493,
      493,
      480,
      480,
      478,
      478,
      478,
      478,
      475,
      475,
      475,
      475,
      475,
      475,
      476,
      476,
      476,
      476,
      476,
      476,
      476,
      476,
      476,
      476,
      476,
      476,
      473,
      473,
      473,
      473,
      473,
      473,
      473,
      473,
      474,
      474,
      474,
      474,
      474,
      478,
      478,
      478,
      478,
      478,
      478,
      482,
      482,
      482,
      482,
      482,
      483,
      483,
      483,
      483,
      483,
      483,
      482,
      482,
      482,
      482,
      482,
      480,
      480,
      480,
      480,
      480,
      480,
      479,
      479,
      478,
      478,
      478,
      478,
      478,
      478,
      478,
      478,
      478
    ],
    "swim:timestamps": [
      1781021174,
      1781021174,
      1781021174,
      1781021174,
      1781021174,
      1781021174,
      1781021294,
      1781021294,
      1781021355,
      1781021355,
      1781021355,
      1781021355,
      1781021424,
      1781021424,
      1781021424,
      1781021424,
      1781021490,
      1781021490,
      1781021530,
      1781021530,
      1781021530,
      1781021590,
      1781021590,
      1781021590,
      1781021650,
      1781021650,
      1781021650,
      1781021710,
      1781021710,
      1781021710,
      1781021710,
      1781021770,
      1781021770,
      1781021831,
      1781021831,
      1781021831,
      1781021831,
      1781021831,
      1781021951,
      1781021951,
      1781021951,
      1781021951,
      1781022371,
      1781022371,
      1781022371,
      1781022431,
      1781022431,
      1781022431,
      1781022431,
      1781022492,
      1781022552,
      1781022552,
      1781022552,
      1781022612,
      1781022672,
      1781022672,
      1781022672,
      1781022672,
      1781022792,
      1781022792,
      1781022852,
      1781022852,
      1781022852,
      1781022852,
      1781022852,
      1781022852,
      1781023153,
      1781023153,
      1781023153,
      1781023213,
      1781023213,
      1781023213,
      1781023273,
      1781023273,
      1781023273,
      1781023273,
      1781023273,
      1781023333,
      1781023333,
      1781023453,
      1781023453,
      1781023453,
      1781023453,
      1781023453,
      1781023453,
      1781023573,
      1781023573,
      1781023573,
      1781023573,
      1781023573,
      1781023573,
      1781023813,
      1781023813,
      1781023813,
      1781023874,
      1781023874,
      1781023874,
      1781023874,
      1781023934,
      1781023934,
      1781023934,
      1781023934,
      1781024054,
      1781024054,
      1781024054,
      1781024054,
      1781024054,
      1781024054,
      1781024114,
      1781024114,
      1781024114,
      1781024114,
      1781024114,
      1781024174,
      1781024174,
      1781024174,
      1781024294,
      1781024294,
      1781024294,
      1781024354,
      1781024354,
      1781024354,
      1781024354,
      1781024354,
      1781024474,
      1781024474,
      1781024474,
      1781024474,
      1781024535,
      1781024535,
      1781024535,
      1781024595,
      1781024595,
      1781024595,
      1781024655,
      1781024655,
      1781024655,
      1781024655,
      1781024655,
      1781024835,
      1781024835,
      1781024835,
      1781024835,
      1781024835,
      1781024835,
      1781025015,
      1781025015,
      1781025015,
      1781025015,
      1781025015,
      1781025015,
      1781025196,
      1781025196,
      1781025196,
      1781025196,
      1781025196,
      1781025196,
      1781025256,
      1781025256,
      1781025310,
      1781025310,
      1781025310,
      1781025310,
      1781025310,
      1781025430,
      1781025430,
      1781025430,
      1781025436,
      1781025436,
      1781025436,
      1781025490,
      1781025490,
      1781025490,
      1781025490,
      1781025490,
      1781025730,
      1781025730,
      1781025730,
      1781025730,
      1781025790,
      1781025790,
      1781025790,
      1781025790,
      1781025850,
      1781025850,
      1781025850,
      1781025911,
      1781025911,
      1781025911,
      1781025911,
      1781026031,
      1781026031,
      1781026091,
      1781026091,
      1781026091,
      1781026091,
      1781026091,
      1781026151,
      1781026151,
      1781026151,
      1781026271,
      1781026271,
      1781026271,
      1781026271,
      1781026331,
      1781026331,
      1781026331,
      1781026451,
      1781026451,
      1781026451,
      1781026451,
      1781026511,
      1781026511,
      1781026511,
      1781026572,
      1781026572,
      1781026572,
      1781026572,
      1781026632,
      1781026632,
      1781026632,
      1781026632,
      1781026812,
      1781026812,
      1781026812,
      1781026812,
      1781026932,
      1781026932,
      1781026932,
      1781026932,
      1781026932,
      1781027112,
      1781027112,
      1781027112,
      1781027112,
      1781027112,
      1781027112,
      1781027293,
      1781027293,
      1781027293,
      1781027293,
      1781027293,
      1781027293,
      1781027473,
      1781027473,
      1781027473,
      1781027473,
      1781027533,
      1781027533,
      1781027533,
      1781027533,
      1781027593,
      1781027593,
      1781027653,
      1781027653,
      1781027653,
      1781027773,
      1781027773,
      1781027773,
      1781027773,
      1781027773,
      1781027773,
      1781028014,
      1781028014,
      1781028014,
      1781028014,
      1781028014,
      1781028134,
      1781028134,
      1781028134,
      1781028194,
      1781028194,
      1781028194,
      1781028194,
      1781028194,
      1781028493,
      1781028493,
      1781028493,
      1781028493,
      1781028493,
      1781028553,
      1781028553,
      1781028553,
      1781028553,
      1781028613,
      1781028613,
      1781028613,
      1781028613,
      1781028734,
      1781028734,
      1781028734,
      1781028734,
      1781028794,
      1781028794,
      1781028794,
      1781028794,
      1781028794,
      1781029034,
      1781029034,
      1781029034,
      1781029034,
      1781029034,
      1781029094,
      1781029094,
      1781029154,
      1781029154,
      1781029154,
      1781029334,
      1781029334,
      1781029334,
      1781029334,
      1781029334,
      1781029334,
      1781029575,
      1781029575,
      1781029575,
      1781029575,
      1781029575,
      1781029635,
      1781029635,
      1781029635,
      1781029635,
      1781029635,
      1781029875,
      1781029875,
      1781029875,
      1781029875,
      1781029875,
      1781029875,
      1781030056,
      1781030056,
      1781030056,
      1781030116,
      1781030116,
      1781030116,
      1781030116,
      1781030116,
      1781030236,
      1781030236,
      1781030296,
      1781030296,
      1781030296,
      1781030296,
      1781030416,
      1781030416,
      1781030416,
      1781030416,
      1781030416,
      1781030416,
      1781030717,
      1781030717,
      1781030717,
      1781030717,
      1781030717,
      1781030717,
      1781030837,
      1781030837,
      1781030837,
      1781030837,
      1781030837,
      1781030837,
      1781031077,
      1781031077,
      1781031077,
      1781031077,
      1781031077,
      1781031197,
      1781031197,
      1781031197,
      1781031257,
      1781031257,
      1781031257,
      1781031257,
      1781031257,
      1781031438,
      1781031438,
      1781031438,
      1781031438,
      1781031438,
      1781031438,
      1781031678,
      1781031678,
      1781031678,
      1781031678,
      1781031678,
      1781031918,
      1781031918,
      1781031918,
      1781031978,
      1781031978,
      1781031978,
      1781032038,
      1781032038,
      1781032038,
      1781032038,
      1781032038,
      1781032219,
      1781032219,
      1781032219,
      1781032279,
      1781032279,
      1781032279,
      1781032399,
      1781032399,
      1781032459,
      1781032459,
      1781032459,
      1781032459,
      1781032519,
      1781032519,
      1781032519,
      1781032519,
      1781032519
    ],
    "wof:geomhash": "6899deeb24b732dae6bfb52e42ab43c3",
    "wof:id": 2031496661,
    "wof:repo": "sfomuseum-data-flights-2026-06"
  },
  "bbox": [
    -122.53277777777778,
    26.034166666666668,
    -97.47972222222222,
    37.653888888888886
  ],
  "geometry": {"coordinates":[[-122.45611111111111,37.653888888888886],[-122.45611111111111,37.653888888888886],[-122.45611111111111,37.653888888888886],[-122.45611111111111,37.653888888888886],[-122.45611111111111,37.653888888888886],[-122.45611111111111,37.653888888888886],[-122.53277777777778,37.593333333333334],[-122.53277777777778,37.593333333333334],[-122.49,37.51777777777777],[-122.49,37.51777777777777],[-122.49,37.51777777777777],[-122.49,37.51777777777777],[-122.38333333333334,37.43333333333333],[-122.38333333333334,37.43333333333333],[-122.38333333333334,37.43333333333333],[-122.38333333333334,37.43333333333333],[-122.28333333333333,37.36666666666667],[-122.28333333333333,37.36666666666667],[-122.23805555555556,37.33583333333333],[-122.23805555555556,37.33583333333333],[-122.23805555555556,37.33583333333333],[-122.13805555555557,37.26861111111111],[-122.13805555555557,37.26861111111111],[-122.13805555555557,37.26861111111111],[-122.03055555555555,37.19833333333333],[-122.03055555555555,37.19833333333333],[-122.03055555555555,37.19833333333333],[-121.91888888888889,37.12638888888889],[-121.91888888888889,37.12638888888889],[-121.91888888888889,37.12638888888889],[-121.91888888888889,37.12638888888889],[-121.80638888888889,37.052499999999995],[-121.80638888888889,37.052499999999995],[-121.68972222222223,36.97805555555556],[-121.68972222222223,36.97805555555556],[-121.68972222222223,36.97805555555556],[-121.68972222222223,36.97805555555556],[-121.68972222222223,36.97805555555556],[-121.45555555555556,36.82416666666667],[-121.45555555555556,36.82416666666667],[-121.45555555555556,36.82416666666667],[-121.45555555555556,36.82416666666667],[-120.55166666666666,36.222500000000004],[-120.55166666666666,36.222500000000004],[-120.55166666666666,36.222500000000004],[-120.4213888888889,36.134166666666665],[-120.4213888888889,36.134166666666665],[-120.4213888888889,36.134166666666665],[-120.4213888888889,36.134166666666665],[-120.29027777777777,36.04527777777778],[-120.18305555555555,35.972500000000004],[-120.18305555555555,35.972500000000004],[-120.18305555555555,35.972500000000004],[-120.05166666666666,35.8825],[-119.91944444444445,35.790277777777774],[-119.91944444444445,35.790277777777774],[-119.91944444444445,35.790277777777774],[-119.91944444444445,35.790277777777774],[-119.6588888888889,35.60666666666667],[-119.6588888888889,35.60666666666667],[-119.52888888888889,35.51444444444444],[-119.52888888888889,35.51444444444444],[-119.52888888888889,35.51444444444444],[-119.52888888888889,35.51444444444444],[-119.52888888888889,35.51444444444444],[-119.52888888888889,35.51444444444444],[-118.88583333333334,35.05333333333333],[-118.88583333333334,35.05333333333333],[-118.88583333333334,35.05333333333333],[-118.76027777777777,34.96222222222222],[-118.76027777777777,34.96222222222222],[-118.76027777777777,34.96222222222222],[-118.635,34.87083333333334],[-118.635,34.87083333333334],[-118.635,34.87083333333334],[-118.635,34.87083333333334],[-118.635,34.87083333333334],[-118.50916666666667,34.77861111111111],[-118.50916666666667,34.77861111111111],[-118.26055555555556,34.59638888888889],[-118.26055555555556,34.59638888888889],[-118.26055555555556,34.59638888888889],[-118.26055555555556,34.59638888888889],[-118.26055555555556,34.59638888888889],[-118.26055555555556,34.59638888888889],[-118.00833333333334,34.4225],[-118.00833333333334,34.4225],[-118.00833333333334,34.4225],[-118.00833333333334,34.4225],[-118.00833333333334,34.4225],[-118.00833333333334,34.4225],[-117.37805555555555,34.266666666666666],[-117.37805555555555,34.266666666666666],[-117.37805555555555,34.266666666666666],[-117.22,34.22805555555556],[-117.22,34.22805555555556],[-117.22,34.22805555555556],[-117.22,34.22805555555556],[-117.06305555555555,34.18944444444444],[-117.06305555555555,34.18944444444444],[-117.06305555555555,34.18944444444444],[-117.06305555555555,34.18944444444444],[-116.745,34.11027777777778],[-116.745,34.11027777777778],[-116.745,34.11027777777778],[-116.745,34.11027777777778],[-116.745,34.11027777777778],[-116.745,34.11027777777778],[-116.58833333333332,34.071111111111115],[-116.58833333333332,34.071111111111115],[-116.58833333333332,34.071111111111115],[-116.58833333333332,34.071111111111115],[-116.58833333333332,34.071111111111115],[-116.43277777777779,34.03194444444444],[-116.43277777777779,34.03194444444444],[-116.43277777777779,34.03194444444444],[-116.12277777777777,33.95305555555556],[-116.12277777777777,33.95305555555556],[-116.12277777777777,33.95305555555556],[-115.96583333333334,33.91305555555555],[-115.96583333333334,33.91305555555555],[-115.96583333333334,33.91305555555555],[-115.96583333333334,33.91305555555555],[-115.96583333333334,33.91305555555555],[-115.65611111111112,33.83277777777778],[-115.65611111111112,33.83277777777778],[-115.65611111111112,33.83277777777778],[-115.65611111111112,33.83277777777778],[-115.49861111111112,33.791666666666664],[-115.49861111111112,33.791666666666664],[-115.49861111111112,33.791666666666664],[-115.34527777777777,33.75138888888889],[-115.34527777777777,33.75138888888889],[-115.34527777777777,33.75138888888889],[-115.18777777777778,33.71],[-115.18777777777778,33.71],[-115.18777777777778,33.71],[-115.18777777777778,33.71],[-115.18777777777778,33.71],[-114.72472222222223,33.593611111111116],[-114.72472222222223,33.593611111111116],[-114.72472222222223,33.593611111111116],[-114.72472222222223,33.593611111111116],[-114.72472222222223,33.593611111111116],[-114.72472222222223,33.593611111111116],[-114.24833333333333,33.55694444444444],[-114.24833333333333,33.55694444444444],[-114.24833333333333,33.55694444444444],[-114.24833333333333,33.55694444444444],[-114.24833333333333,33.55694444444444],[-114.24833333333333,33.55694444444444],[-113.77083333333333,33.51888888888889],[-113.77083333333333,33.51888888888889],[-113.77083333333333,33.51888888888889],[-113.77083333333333,33.51888888888889],[-113.77083333333333,33.51888888888889],[-113.77083333333333,33.51888888888889],[-113.61472222222221,33.505833333333335],[-113.61472222222221,33.505833333333335],[-113.47972222222222,33.49444444444445],[-113.47972222222222,33.49444444444445],[-113.47972222222222,33.49444444444445],[-113.47972222222222,33.49444444444445],[-113.47972222222222,33.49444444444445],[-113.16388888888889,33.4675],[-113.16388888888889,33.4675],[-113.16388888888889,33.4675],[-113.13027777777778,33.46472222222223],[-113.13027777777778,33.46472222222223],[-113.13027777777778,33.46472222222223],[-113.0038888888889,33.453611111111115],[-113.0038888888889,33.453611111111115],[-113.0038888888889,33.453611111111115],[-113.0038888888889,33.453611111111115],[-113.0038888888889,33.453611111111115],[-112.37777777777777,33.39666666666667],[-112.37777777777777,33.39666666666667],[-112.37777777777777,33.39666666666667],[-112.37777777777777,33.39666666666667],[-112.22500000000001,33.37833333333333],[-112.22500000000001,33.37833333333333],[-112.22500000000001,33.37833333333333],[-112.22500000000001,33.37833333333333],[-112.07694444444444,33.32944444444445],[-112.07694444444444,33.32944444444445],[-112.07694444444444,33.32944444444445],[-111.93444444444445,33.27861111111111],[-111.93444444444445,33.27861111111111],[-111.93444444444445,33.27861111111111],[-111.93444444444445,33.27861111111111],[-111.63305555555554,33.2075],[-111.63305555555554,33.2075],[-111.48333333333333,33.17222222222222],[-111.48333333333333,33.17222222222222],[-111.48333333333333,33.17222222222222],[-111.48333333333333,33.17222222222222],[-111.48333333333333,33.17222222222222],[-111.33416666666666,33.13666666666666],[-111.33416666666666,33.13666666666666],[-111.33416666666666,33.13666666666666],[-111.03583333333333,33.065555555555555],[-111.03583333333333,33.065555555555555],[-111.03583333333333,33.065555555555555],[-111.03583333333333,33.065555555555555],[-110.88916666666667,33.030277777777776],[-110.88916666666667,33.030277777777776],[-110.88916666666667,33.030277777777776],[-110.57666666666667,32.95416666666667],[-110.57666666666667,32.95416666666667],[-110.57666666666667,32.95416666666667],[-110.57666666666667,32.95416666666667],[-110.43027777777779,32.918055555555554],[-110.43027777777779,32.918055555555554],[-110.43027777777779,32.918055555555554],[-110.28361111111111,32.88194444444444],[-110.28361111111111,32.88194444444444],[-110.28361111111111,32.88194444444444],[-110.28361111111111,32.88194444444444],[-110.13611111111112,32.845555555555556],[-110.13611111111112,32.845555555555556],[-110.13611111111112,32.845555555555556],[-110.13611111111112,32.845555555555556],[-109.68944444444445,32.733333333333334],[-109.68944444444445,32.733333333333334],[-109.68944444444445,32.733333333333334],[-109.68944444444445,32.733333333333334],[-109.3875,32.656666666666666],[-109.3875,32.656666666666666],[-109.3875,32.656666666666666],[-109.3875,32.656666666666666],[-109.3875,32.656666666666666],[-108.92777777777778,32.53777777777778],[-108.92777777777778,32.53777777777778],[-108.92777777777778,32.53777777777778],[-108.92777777777778,32.53777777777778],[-108.92777777777778,32.53777777777778],[-108.92777777777778,32.53777777777778],[-108.46916666666667,32.4175],[-108.46916666666667,32.4175],[-108.46916666666667,32.4175],[-108.46916666666667,32.4175],[-108.46916666666667,32.4175],[-108.46916666666667,32.4175],[-107.99833333333333,32.291666666666664],[-107.99833333333333,32.291666666666664],[-107.99833333333333,32.291666666666664],[-107.99833333333333,32.291666666666664],[-107.84805555555555,32.25138888888889],[-107.84805555555555,32.25138888888889],[-107.84805555555555,32.25138888888889],[-107.84805555555555,32.25138888888889],[-107.69583333333334,32.21],[-107.69583333333334,32.21],[-107.54527777777777,32.16888888888889],[-107.54527777777777,32.16888888888889],[-107.54527777777777,32.16888888888889],[-107.24111111111111,32.085],[-107.24111111111111,32.085],[-107.24111111111111,32.085],[-107.24111111111111,32.085],[-107.24111111111111,32.085],[-107.24111111111111,32.085],[-106.62583333333333,31.91361111111111],[-106.62583333333333,31.91361111111111],[-106.62583333333333,31.91361111111111],[-106.62583333333333,31.91361111111111],[-106.62583333333333,31.91361111111111],[-106.31555555555555,31.825555555555557],[-106.31555555555555,31.825555555555557],[-106.31555555555555,31.825555555555557],[-106.1588888888889,31.76972222222222],[-106.1588888888889,31.76972222222222],[-106.1588888888889,31.76972222222222],[-106.1588888888889,31.76972222222222],[-106.1588888888889,31.76972222222222],[-105.44444444444444,31.499722222222225],[-105.44444444444444,31.499722222222225],[-105.44444444444444,31.499722222222225],[-105.44444444444444,31.499722222222225],[-105.44444444444444,31.499722222222225],[-105.29888888888888,31.441944444444445],[-105.29888888888888,31.441944444444445],[-105.29888888888888,31.441944444444445],[-105.29888888888888,31.441944444444445],[-105.15305555555557,31.38611111111111],[-105.15305555555557,31.38611111111111],[-105.15305555555557,31.38611111111111],[-105.15305555555557,31.38611111111111],[-104.86777777777777,31.276944444444442],[-104.86777777777777,31.276944444444442],[-104.86777777777777,31.276944444444442],[-104.86777777777777,31.276944444444442],[-104.69722222222222,31.206944444444442],[-104.69722222222222,31.206944444444442],[-104.69722222222222,31.206944444444442],[-104.69722222222222,31.206944444444442],[-104.69722222222222,31.206944444444442],[-104.12416666666665,30.984444444444446],[-104.12416666666665,30.984444444444446],[-104.12416666666665,30.984444444444446],[-104.12416666666665,30.984444444444446],[-104.12416666666665,30.984444444444446],[-103.97972222222222,30.92666666666667],[-103.97972222222222,30.92666666666667],[-103.83722222222222,30.868333333333332],[-103.83722222222222,30.868333333333332],[-103.83722222222222,30.868333333333332],[-103.40805555555556,30.694444444444446],[-103.40805555555556,30.694444444444446],[-103.40805555555556,30.694444444444446],[-103.40805555555556,30.694444444444446],[-103.40805555555556,30.694444444444446],[-103.40805555555556,30.694444444444446],[-102.84638888888888,30.464444444444442],[-102.84638888888888,30.464444444444442],[-102.84638888888888,30.464444444444442],[-102.84638888888888,30.464444444444442],[-102.84638888888888,30.464444444444442],[-102.70666666666666,30.406388888888888],[-102.70666666666666,30.406388888888888],[-102.70666666666666,30.406388888888888],[-102.70666666666666,30.406388888888888],[-102.70666666666666,30.406388888888888],[-102.13666666666667,30.16888888888889],[-102.13666666666667,30.16888888888889],[-102.13666666666667,30.16888888888889],[-102.13666666666667,30.16888888888889],[-102.13666666666667,30.16888888888889],[-102.13666666666667,30.16888888888889],[-101.72277777777778,29.99416666666667],[-101.72277777777778,29.99416666666667],[-101.72277777777778,29.99416666666667],[-101.5825,29.934444444444445],[-101.5825,29.934444444444445],[-101.5825,29.934444444444445],[-101.5825,29.934444444444445],[-101.5825,29.934444444444445],[-101.3261111111111,29.786944444444448],[-101.3261111111111,29.786944444444448],[-101.21305555555556,29.700555555555553],[-101.21305555555556,29.700555555555553],[-101.21305555555556,29.700555555555553],[-101.21305555555556,29.700555555555553],[-100.98694444444445,29.526944444444442],[-100.98694444444445,29.526944444444442],[-100.98694444444445,29.526944444444442],[-100.98694444444445,29.526944444444442],[-100.98694444444445,29.526944444444442],[-100.98694444444445,29.526944444444442],[-100.44166666666668,29.040000000000003],[-100.44166666666668,29.040000000000003],[-100.44166666666668,29.040000000000003],[-100.44166666666668,29.040000000000003],[-100.44166666666668,29.040000000000003],[-100.44166666666668,29.040000000000003],[-100.23916666666666,28.841944444444444],[-100.23916666666666,28.841944444444444],[-100.23916666666666,28.841944444444444],[-100.23916666666666,28.841944444444444],[-100.23916666666666,28.841944444444444],[-100.23916666666666,28.841944444444444],[-99.85027777777778,28.458055555555553],[-99.85027777777778,28.458055555555553],[-99.85027777777778,28.458055555555553],[-99.85027777777778,28.458055555555553],[-99.85027777777778,28.458055555555553],[-99.65194444444445,28.260555555555555],[-99.65194444444445,28.260555555555555],[-99.65194444444445,28.260555555555555],[-99.55222222222221,28.161388888888887],[-99.55222222222221,28.161388888888887],[-99.55222222222221,28.161388888888887],[-99.55222222222221,28.161388888888887],[-99.55222222222221,28.161388888888887],[-99.25305555555556,27.860833333333336],[-99.25305555555556,27.860833333333336],[-99.25305555555556,27.860833333333336],[-99.25305555555556,27.860833333333336],[-99.25305555555556,27.860833333333336],[-99.25305555555556,27.860833333333336],[-98.84694444444445,27.450555555555553],[-98.84694444444445,27.450555555555553],[-98.84694444444445,27.450555555555553],[-98.84694444444445,27.450555555555553],[-98.84694444444445,27.450555555555553],[-98.45,27.04388888888889],[-98.45,27.04388888888889],[-98.45,27.04388888888889],[-98.35138888888888,26.9425],[-98.35138888888888,26.9425],[-98.35138888888888,26.9425],[-98.25361111111111,26.841666666666665],[-98.25361111111111,26.841666666666665],[-98.25361111111111,26.841666666666665],[-98.25361111111111,26.841666666666665],[-98.25361111111111,26.841666666666665],[-97.95805555555556,26.53527777777778],[-97.95805555555556,26.53527777777778],[-97.95805555555556,26.53527777777778],[-97.86083333333333,26.433888888888887],[-97.86083333333333,26.433888888888887],[-97.86083333333333,26.433888888888887],[-97.66694444444445,26.230833333333333],[-97.66694444444445,26.230833333333333],[-97.57722222222222,26.136388888888888],[-97.57722222222222,26.136388888888888],[-97.57722222222222,26.136388888888888],[-97.57722222222222,26.136388888888888],[-97.47972222222222,26.034166666666668],[-97.47972222222222,26.034166666666668],[-97.47972222222222,26.034166666666668],[-97.47972222222222,26.034166666666668],[-97.47972222222222,26.034166666666668]],"type":"LineString"}
}
