{
  "id": 2031470023,
  "type": "Feature",
  "properties": {
    "geom:area": 0,
    "geom:bbox": "-122.592710,37.221800,-121.273100,37.680680",
    "geom:latitude": 37.42186248819975,
    "geom:longitude": -122.04612276766558,
    "src:alt_label": "swim-takeoff",
    "src:geom": "swim",
    "swim:elevations": [
      427,
      881,
      935,
      1407,
      1793,
      2052,
      2365,
      2811,
      3047,
      3347,
      3946,
      4092,
      4313,
      4579,
      4650,
      4801,
      5339,
      5654,
      6154,
      6374,
      6587,
      6662,
      6859,
      7318,
      7473,
      7758,
      8242,
      8502,
      8897,
      9153,
      9384,
      9449,
      9449,
      9449,
      9449
    ],
    "swim:geom": "takeoff",
    "swim:timestamps": [
      1780775929,
      1780775961,
      1780775995,
      1780776027,
      1780776055,
      1780776071,
      1780776088,
      1780776114,
      1780776131,
      1780776154,
      1780776198,
      1780776207,
      1780776219,
      1780776238,
      1780776243,
      1780776255,
      1780776291,
      1780776312,
      1780776351,
      1780776369,
      1780776388,
      1780776393,
      1780776408,
      1780776445,
      1780776460,
      1780776487,
      1780776538,
      1780776559,
      1780776598,
      1780776628,
      1780776654,
      1780776686,
      1780776695,
      1780776704,
      1780776739
    ],
    "wof:geomhash": "be2a2cb5df796ff80d874c8240820d68",
    "wof:id": 2031470023,
    "wof:repo": "sfomuseum-data-flights-2026-06"
  },
  "bbox": [
    -122.59271,
    37.2218,
    -121.2731,
    37.68068
  ],
  "geometry": {"coordinates":[[-122.38747,37.62447],[-122.41298,37.63521],[-122.44783,37.64995],[-122.48571,37.66501],[-122.52008,37.67822],[-122.54396,37.68068],[-122.56936,37.67226],[-122.59213,37.64302],[-122.59271,37.61928],[-122.58781,37.58535],[-122.54814,37.52454],[-122.53476,37.51403],[-122.51619,37.5009],[-122.48192,37.48687],[-122.4712,37.48415],[-122.44628,37.4792],[-122.36908,37.4631],[-122.32314,37.45326],[-122.23596,37.43464],[-122.19389,37.42553],[-122.15102,37.4163],[-122.13794,37.41342],[-122.10311,37.4059],[-122.01476,37.38661],[-121.9783,37.37862],[-121.9144,37.3645],[-121.78733,37.33672],[-121.73293,37.32519],[-121.63584,37.30342],[-121.56004,37.28644],[-121.49404,37.27171],[-121.41342,37.25319],[-121.39032,37.24802],[-121.36742,37.24301],[-121.2731,37.2218]],"type":"LineString"}
}
