{
  "id": 2031474755,
  "type": "Feature",
  "properties": {
    "geom:area": 0,
    "geom:bbox": "-122.359570,37.456330,-121.253580,37.614770",
    "geom:latitude": 37.541421914151634,
    "geom:longitude": -121.81647387751272,
    "src:alt_label": "swim-approach",
    "src:geom": "swim",
    "swim:elevations": [
      4154,
      4011,
      3674,
      3511,
      3450,
      3351,
      3322,
      3339,
      3353,
      3353,
      3353,
      3254,
      3155,
      2784,
      2743,
      2668,
      2469,
      2438,
      2454,
      2434,
      2131,
      1932,
      1829,
      1829,
      1809,
      1544,
      1373,
      1280,
      1221,
      1179,
      1077,
      946,
      916,
      775,
      606,
      523,
      370,
      237,
      182,
      124,
      109
    ],
    "swim:geom": "approach",
    "swim:timestamps": [
      1780864044,
      1780864064,
      1780864107,
      1780864131,
      1780864138,
      1780864155,
      1780864181,
      1780864223,
      1780864245,
      1780864286,
      1780864291,
      1780864316,
      1780864329,
      1780864376,
      1780864405,
      1780864415,
      1780864449,
      1780864471,
      1780864494,
      1780864506,
      1780864557,
      1780864588,
      1780864612,
      1780864641,
      1780864663,
      1780864704,
      1780864734,
      1780864748,
      1780864771,
      1780864797,
      1780864811,
      1780864839,
      1780864848,
      1780864876,
      1780864916,
      1780864929,
      1780864969,
      1780865004,
      1780865018,
      1780865033,
      1780865063
    ],
    "wof:geomhash": "51bda60b750eee7c9119ecdf8e2005c0",
    "wof:id": 2031474755,
    "wof:repo": "sfomuseum-data-flights-2026-06"
  },
  "bbox": [
    -122.35957,
    37.45633,
    -121.25358,
    37.61477
  ],
  "geometry": {"coordinates":[[-121.25358,37.56729],[-121.28119,37.57528],[-121.3443,37.57323],[-121.37931,37.57064],[-121.3895,37.56984],[-121.41357,37.56798],[-121.4489,37.56514],[-121.50762,37.56057],[-121.53882,37.55803],[-121.59529,37.55327],[-121.60211,37.55267],[-121.63566,37.55579],[-121.65376,37.55936],[-121.71714,37.57158],[-121.75589,37.57882],[-121.76929,37.58105],[-121.80771,37.56617],[-121.8192,37.54345],[-121.83115,37.51862],[-121.83948,37.50702],[-121.88682,37.46694],[-121.92736,37.46008],[-121.95744,37.45633],[-121.99032,37.46043],[-122.0129,37.46761],[-122.05239,37.48496],[-122.08051,37.49709],[-122.09356,37.5026],[-122.11512,37.5116],[-122.13923,37.5217],[-122.15263,37.52747],[-122.17911,37.53862],[-122.18714,37.542],[-122.21186,37.55243],[-122.24779,37.5676],[-122.25921,37.57243],[-122.29119,37.58577],[-122.31578,37.59612],[-122.32613,37.60045],[-122.33694,37.60508],[-122.35957,37.61477]],"type":"LineString"}
}
