{
  "id": 2031430117,
  "type": "Feature",
  "properties": {
    "geom:area": 0,
    "geom:bbox": "-122.380000,37.490000,-87.750000,41.790000",
    "geom:latitude": 40.13424412240141,
    "geom:longitude": -105.19664012459117,
    "src:alt_label": "swim-route",
    "src:geom": "swim",
    "swim:geom": "route",
    "wof:geomhash": "f3272703b583d17a4081a09732d0324d",
    "wof:id": 2031430117,
    "wof:repo": "sfomuseum-data-flights-2026-06"
  },
  "bbox": [
    -122.38,
    37.49,
    -87.75,
    41.79
  ],
  "geometry": {"coordinates":[[-87.75,41.79],[-87.84,41.78],[-87.87,41.78],[-87.96,41.77],[-87.96,41.77],[-88.06,41.76],[-88.08,41.76],[-88.29,41.74],[-88.31,41.74],[-88.51,41.73],[-88.55,41.73],[-88.59,41.73],[-88.67,41.72],[-88.95,41.71],[-89.08,41.7],[-89.21,41.7],[-89.48,41.68],[-89.58,41.68],[-89.74,41.67],[-89.79,41.67],[-89.96,41.66],[-90.24,41.64],[-90.37,41.63],[-91.22,41.58],[-91.83,41.54],[-92.35,41.5],[-93.48,41.4],[-93.52,41.4],[-94.5,41.41],[-95.76,41.5],[-96.01,41.49],[-98.35,41.38],[-99.03,41.35],[-101.3,41.22],[-102.98,41.1],[-103.3,41.04],[-103.52,41],[-103.65,40.97],[-104.46,40.73],[-104.6,40.71],[-104.8,40.63],[-105.2,40.64],[-105.35,40.48],[-105.99,40.53],[-106.01,40.51],[-106.17,40.25],[-106.46,40.15],[-106.57,40.11],[-106.98,40.04],[-107.02,40.03],[-110.11,39.65],[-112.51,39.3],[-113.32,39.12],[-114.13,39.06],[-114.49,38.99],[-116.62,38.36],[-117.27,38.16],[-117.53,37.83],[-117.54,37.8],[-117.76,37.73],[-119.08,37.76],[-119.26,37.75],[-119.37,37.75],[-119.94,37.72],[-120.03,37.72],[-120.22,37.71],[-120.4,37.7],[-120.41,37.7],[-120.48,37.69],[-120.69,37.67],[-120.75,37.66],[-120.77,37.66],[-120.83,37.65],[-120.96,37.63],[-121,37.63],[-121.08,37.62],[-121.17,37.6],[-121.26,37.59],[-121.39,37.58],[-121.41,37.58],[-121.6,37.55],[-121.61,37.55],[-121.62,37.55],[-121.7,37.53],[-121.8,37.51],[-121.83,37.5],[-121.88,37.49],[-122.08,37.54],[-122.14,37.56],[-122.18,37.57],[-122.28,37.59],[-122.33,37.61],[-122.36,37.61],[-122.38,37.62]],"type":"LineString"}
}
