{
  "id": 2031582581,
  "type": "Feature",
  "properties": {
    "geom:area": 0,
    "geom:bbox": "-122.359530,36.724900,-121.880340,37.612550",
    "geom:latitude": 37.21353294078709,
    "geom:longitude": -122.07093330291427,
    "src:alt_label": "swim-approach",
    "src:geom": "swim",
    "swim:elevations": [
      5611,
      5368,
      5190,
      4966,
      4553,
      4105,
      3760,
      3646,
      3326,
      3142,
      3046,
      2831,
      2669,
      2452,
      2130,
      2111,
      1928,
      1819,
      1498,
      1444,
      1133,
      955,
      767,
      642,
      575,
      349,
      306,
      235,
      173,
      96,
      87
    ],
    "swim:geom": "approach",
    "swim:timestamps": [
      1781894638,
      1781894662,
      1781894679,
      1781894703,
      1781894742,
      1781894786,
      1781894818,
      1781894830,
      1781894861,
      1781894890,
      1781894927,
      1781894962,
      1781894986,
      1781895016,
      1781895058,
      1781895061,
      1781895084,
      1781895098,
      1781895144,
      1781895152,
      1781895203,
      1781895235,
      1781895266,
      1781895291,
      1781895305,
      1781895358,
      1781895370,
      1781895391,
      1781895409,
      1781895430,
      1781895451
    ],
    "wof:geomhash": "c821b55c70169282a261b109204fedfe",
    "wof:id": 2031582581,
    "wof:repo": "sfomuseum-data-flights-2026-06"
  },
  "bbox": [
    -122.35953,
    36.7249,
    -121.88034,
    37.61255
  ],
  "geometry": {"coordinates":[[-121.88034,36.7249],[-121.89892,36.76127],[-121.90732,36.78893],[-121.91778,36.82611],[-121.9354,36.88892],[-121.95501,36.95683],[-121.97422,37.00632],[-121.98133,37.02437],[-121.99889,37.06947],[-122.01573,37.11252],[-122.03497,37.16173],[-122.05243,37.20633],[-122.06426,37.23621],[-122.07889,37.27353],[-122.09904,37.32544],[-122.10059,37.3293],[-122.11168,37.35731],[-122.11896,37.37553],[-122.13887,37.43286],[-122.14203,37.44262],[-122.16258,37.50391],[-122.17766,37.53565],[-122.20978,37.54931],[-122.23384,37.55938],[-122.24748,37.56512],[-122.29416,37.58468],[-122.30289,37.58836],[-122.31764,37.59455],[-122.33011,37.59978],[-122.34442,37.60592],[-122.35953,37.61255]],"type":"LineString"}
}
