{
  "id": 2031447685,
  "type": "Feature",
  "properties": {
    "geom:area": 0,
    "geom:bbox": "-122.380000,32.730000,-117.190000,37.620000",
    "geom:latitude": 35.08080662624734,
    "geom:longitude": -120.02120777911156,
    "src:alt_label": "swim-route",
    "src:geom": "swim",
    "swim:geom": "route",
    "wof:geomhash": "bb1e759ceea37e6d627d1234a39784d5",
    "wof:id": 2031447685,
    "wof:repo": "sfomuseum-data-flights-2026-06"
  },
  "bbox": [
    -122.38,
    32.73,
    -117.19,
    37.62
  ],
  "geometry": {"coordinates":[[-117.19,32.73],[-117.29,32.79],[-117.32,32.8],[-117.34,32.81],[-117.36,32.83],[-117.39,32.85],[-117.42,32.86],[-117.44,32.88],[-117.52,32.93],[-117.59,32.98],[-117.73,33.06],[-117.75,33.08],[-117.75,33.08],[-117.77,33.11],[-117.79,33.13],[-117.8,33.13],[-117.82,33.16],[-117.85,33.18],[-117.86,33.19],[-117.9,33.23],[-117.96,33.27],[-118.04,33.34],[-118.14,33.42],[-118.19,33.47],[-118.21,33.48],[-118.34,33.59],[-118.4,33.64],[-118.46,33.7],[-118.53,33.75],[-118.58,33.79],[-118.83,34],[-118.9,34.06],[-119.01,34.14],[-119.08,34.32],[-119.09,34.35],[-119.22,34.45],[-119.45,34.46],[-120.7,35.52],[-120.75,35.56],[-120.82,35.63],[-120.89,35.7],[-121.17,35.98],[-121.21,36.02],[-121.24,36.05],[-121.34,36.15],[-121.35,36.16],[-121.42,36.22],[-121.67,36.47],[-121.7,36.5],[-121.71,36.5],[-121.76,36.57],[-121.82,36.65],[-121.84,36.67],[-121.89,36.74],[-121.9,36.76],[-121.94,36.91],[-121.95,36.95],[-121.97,36.99],[-122,37.07],[-122.1,37.11],[-122.16,37.14],[-122.24,37.17],[-122.16,37.22],[-122.13,37.24],[-122.08,37.27],[-122.08,37.28],[-122.1,37.33],[-122.12,37.37],[-122.17,37.43],[-122.22,37.47],[-122.24,37.49],[-122.31,37.56],[-122.36,37.6],[-122.37,37.61],[-122.38,37.62]],"type":"LineString"}
}
