{
  "id": 2031483057,
  "type": "Feature",
  "properties": {
    "geom:area": 0,
    "geom:bbox": "-122.380000,37.490000,-93.220000,45.040000",
    "geom:latitude": 41.32892104621399,
    "geom:longitude": -107.77826704552689,
    "src:alt_label": "swim-route",
    "src:geom": "swim",
    "swim:geom": "route",
    "wof:geomhash": "6905afc6e92a1530a265cda68028e4d9",
    "wof:id": 2031483057,
    "wof:repo": "sfomuseum-data-flights-2026-06"
  },
  "bbox": [
    -122.38,
    37.49,
    -93.22,
    45.04
  ],
  "geometry": {"coordinates":[[-93.22,44.88],[-93.34,44.89],[-93.43,44.9],[-93.54,44.91],[-93.63,44.92],[-93.78,44.92],[-94.01,44.93],[-94.03,44.93],[-94.11,44.94],[-94.29,44.95],[-94.35,44.95],[-94.48,44.95],[-94.66,44.96],[-94.75,44.96],[-95.03,44.97],[-95.14,44.98],[-95.32,44.98],[-95.37,44.99],[-95.84,45],[-95.98,45],[-97.61,45.04],[-97.96,44.95],[-100.16,44.39],[-100.58,44.23],[-101.42,43.89],[-103.24,43.12],[-104,42.78],[-104.66,42.48],[-106,41.85],[-106.41,41.69],[-106.62,41.61],[-107.22,41.37],[-109.12,40.58],[-109.8,40.29],[-110.13,40.15],[-112.51,39.3],[-113.32,39.12],[-114.46,38.85],[-116.15,38.43],[-117.27,38.14],[-117.77,38],[-118.76,37.9],[-119.1,37.86],[-119.27,37.84],[-119.38,37.82],[-119.94,37.76],[-120.04,37.75],[-120.22,37.72],[-120.4,37.7],[-120.41,37.7],[-120.48,37.69],[-120.69,37.67],[-120.75,37.66],[-120.77,37.66],[-120.83,37.65],[-120.96,37.63],[-121,37.63],[-121.08,37.62],[-121.17,37.6],[-121.26,37.59],[-121.39,37.58],[-121.41,37.58],[-121.6,37.55],[-121.61,37.55],[-121.62,37.55],[-121.7,37.53],[-121.8,37.51],[-121.83,37.5],[-121.88,37.49],[-122.08,37.54],[-122.14,37.56],[-122.18,37.57],[-122.28,37.59],[-122.33,37.61],[-122.36,37.61],[-122.38,37.62]],"type":"LineString"}
}
