{
  "id": 2031443507,
  "type": "Feature",
  "properties": {
    "geom:area": 0,
    "geom:bbox": "-122.383333,35.942222,-86.676111,38.938333",
    "geom:latitude": 38.35725821135588,
    "geom:longitude": -104.09256076177985,
    "src:alt_label": "swim-path",
    "src:geom": "swim",
    "swim:altitudes": [
      "006",
      "006",
      "006",
      "006",
      "006",
      "042",
      "042",
      "042",
      "042",
      "042",
      "042",
      "089",
      "089",
      "089",
      "089",
      "089",
      "089",
      "190",
      "190",
      "190",
      "190",
      "190",
      "190",
      "214",
      "214",
      "214",
      "214",
      "214",
      "241",
      "256",
      "256",
      "256",
      "258",
      "258",
      "268",
      "268",
      "268",
      "268",
      "268",
      "284",
      "284",
      "291",
      "291",
      "291",
      "291",
      "291",
      "322",
      "322",
      "322",
      "329C",
      "329C",
      "329C",
      "329C",
      "329C",
      "334",
      "350C",
      "350C",
      "350C",
      "350C",
      "350C",
      "350C",
      "350C",
      "350C",
      "350C",
      "350C",
      "350C",
      "350C",
      "350C",
      "350C",
      "350C",
      "350C",
      "350C",
      "350C",
      "350C",
      "350C",
      "350C",
      "350C",
      "350C",
      "350C",
      "350C",
      "350C",
      "350C",
      "350C",
      "350C",
      "350C",
      "350C",
      "350C",
      "350C",
      "350C",
      "350C",
      "350C",
      "350C",
      "350C",
      "350C",
      "350C",
      "350C",
      "350C",
      "350C",
      "350C",
      "350C",
      "350C",
      "350C",
      "350C",
      "350C",
      "350C",
      "350C",
      "350C",
      "350C",
      "350C",
      "350C",
      "350C",
      "350C",
      "350C",
      "350C",
      "350C",
      "350C",
      "350C",
      "350C",
      "350C",
      "350C",
      "350C",
      "350C",
      "350C",
      "350C",
      "350C",
      "350C",
      "350C",
      "350C",
      "350C",
      "350C",
      "350C",
      "350C",
      "350C",
      "350C",
      "350C",
      "350C",
      "350C",
      "350C",
      "350C",
      "350C",
      "350C",
      "350C",
      "350C",
      "350C",
      "350C",
      "350C",
      "350C",
      "350C",
      "350C",
      "350C",
      "350C",
      "350C",
      "350C",
      "350C",
      "350C",
      "350C",
      "350C",
      "350C",
      "350C",
      "350C",
      "350C",
      "350C",
      "350C",
      "350C",
      "350C",
      "350C",
      "350C",
      "350C",
      "350C",
      "350C",
      "350C",
      "350C",
      "350C",
      "350C",
      "350C",
      "350C",
      "350C",
      "350C",
      "350C",
      "350C",
      "350C",
      "350C",
      "350C",
      "350C",
      "350C",
      "350C",
      "350C",
      "350C",
      "350C",
      "350C",
      "350C",
      "350C",
      "350C",
      "350C",
      "350C",
      "350C",
      "350C",
      "350C",
      "350C",
      "350C",
      "350C",
      "349C",
      "349C",
      "350C",
      "350C",
      "350C",
      "350C",
      "350C",
      "350C",
      "350C",
      "350C",
      "350C",
      "350C",
      "350C",
      "350C",
      "350C",
      "350C",
      "350C",
      "350C",
      "350C",
      "350C",
      "350C",
      "350C",
      "350C",
      "350C",
      "350C",
      "350C",
      "350C",
      "350C",
      "350C",
      "350C",
      "350C",
      "350C",
      "350C",
      "350C",
      "350C",
      "350C",
      "350C",
      "350C",
      "350C",
      "350C",
      "350C",
      "350C",
      "350C",
      "350C",
      "350C",
      "350C",
      "350C",
      "350C",
      "350C",
      "350C",
      "350C",
      "350C",
      "350C",
      "350C",
      "350C",
      "350C",
      "350C",
      "350C",
      "350C",
      "350C",
      "350C",
      "350C",
      "350C",
      "350C",
      "350C",
      "350C",
      "349C",
      "349C",
      "350C",
      "350C",
      "350C",
      "350C",
      "350C",
      "350C",
      "350C",
      "350C",
      "350C",
      "350C",
      "350C",
      "350C",
      "350C",
      "350C",
      "350C",
      "350C",
      "350C",
      "350C",
      "350C",
      "350C",
      "350C",
      "350C",
      "350C",
      "350C",
      "350C",
      "350C",
      "350C",
      "350C",
      "350C",
      "350C",
      "350C",
      "350C",
      "350C",
      "350C",
      "350C",
      "350C",
      "350C",
      "350C",
      "350C",
      "350C",
      "350C",
      "350C",
      "350C",
      "350C",
      "350C",
      "350C",
      "350C",
      "350C",
      "350C",
      "350",
      "350",
      "350",
      "350",
      "370C",
      "370C",
      "370C",
      "370C",
      "370C",
      "370C",
      "370C",
      "370C",
      "370C",
      "370C",
      "370C",
      "370C",
      "370C",
      "370C",
      "370C",
      "370C",
      "370C",
      "370C",
      "370C",
      "370C",
      "370C",
      "369C",
      "369C",
      "369C",
      "369C",
      "369C",
      "370C",
      "370C",
      "370C",
      "370C",
      "370C",
      "370C",
      "370C",
      "370C",
      "370C",
      "370C",
      "370C",
      "370C",
      "370C",
      "370C",
      "370C",
      "370C",
      "370C",
      "370C",
      "370C",
      "370C",
      "370C",
      "370C",
      "370C",
      "370C",
      "370C",
      "370C",
      "370C",
      "370C",
      "370C",
      "370C",
      "370C",
      "370C",
      "370C",
      "370C",
      "370C",
      "370C",
      "370C",
      "370C",
      "370C",
      "370C",
      "370C",
      "370C",
      "370C",
      "370C",
      "370C",
      "370C",
      "370C",
      "370C",
      "370C",
      "370C",
      "370C",
      "370C",
      "370C",
      "370C",
      "370C",
      "370C",
      "370C",
      "370C",
      "370C",
      "370C",
      "370C",
      "370C",
      "370C",
      "370C",
      "370C",
      "370C",
      "370C",
      "370C",
      "370C",
      "370C",
      "370C",
      "370C",
      "370C",
      "370C",
      "370C",
      "370C",
      "370C",
      "370C",
      "370C",
      "370C",
      "370C",
      "370C",
      "370C",
      "370C",
      "370C",
      "370C",
      "370C",
      "370C",
      "370C",
      "370C",
      "370C",
      "370C",
      "370C",
      "370C",
      "370C",
      "370C",
      "370",
      "370",
      "370",
      "361",
      "361",
      "361",
      "351",
      "351",
      "351",
      "342",
      "342",
      "331C",
      "331C",
      "330C",
      "330C",
      "330C",
      "330C",
      "330C",
      "330C",
      "330C",
      "330C",
      "330C",
      "330C",
      "330C",
      "330C",
      "330C",
      "330C",
      "325",
      "322",
      "322",
      "322",
      "316",
      "316",
      "306",
      "306",
      "295",
      "295",
      "295",
      "292",
      "288",
      "288",
      "278",
      "278",
      "278",
      "278",
      "248",
      "248",
      "246",
      "246",
      "246",
      "239",
      "239",
      "239",
      "184",
      "184",
      "184",
      "184",
      "170",
      "170",
      "170",
      "154",
      "143",
      "143",
      "137",
      "137",
      "137",
      "121",
      "121",
      "106",
      "102",
      "102",
      "102",
      "100",
      "100",
      "086",
      "086",
      "086",
      "086",
      "053",
      "053",
      "053",
      "046",
      "046",
      "039",
      "032",
      "030",
      "030",
      "029",
      "029",
      "013",
      "013",
      "007",
      "007",
      "007",
      "007"
    ],
    "swim:geom": "path",
    "swim:speeds": [
      155,
      155,
      155,
      155,
      155,
      248,
      248,
      248,
      248,
      248,
      248,
      290,
      290,
      290,
      290,
      290,
      290,
      451,
      451,
      451,
      451,
      451,
      451,
      470,
      470,
      470,
      470,
      470,
      464,
      458,
      458,
      458,
      474,
      474,
      486,
      486,
      486,
      486,
      486,
      498,
      498,
      498,
      498,
      498,
      498,
      498,
      489,
      489,
      489,
      490,
      490,
      490,
      490,
      490,
      489,
      474,
      474,
      474,
      474,
      478,
      478,
      478,
      479,
      479,
      479,
      478,
      478,
      478,
      478,
      478,
      479,
      480,
      480,
      480,
      480,
      480,
      480,
      480,
      480,
      480,
      480,
      480,
      478,
      478,
      478,
      478,
      478,
      478,
      478,
      476,
      476,
      476,
      476,
      476,
      476,
      475,
      475,
      473,
      473,
      473,
      473,
      473,
      470,
      465,
      465,
      465,
      465,
      465,
      459,
      459,
      459,
      459,
      459,
      459,
      460,
      463,
      463,
      463,
      463,
      471,
      471,
      471,
      472,
      472,
      472,
      472,
      474,
      474,
      474,
      474,
      476,
      476,
      476,
      476,
      476,
      477,
      477,
      477,
      477,
      477,
      476,
      476,
      476,
      476,
      477,
      477,
      477,
      478,
      478,
      478,
      478,
      478,
      478,
      478,
      478,
      479,
      479,
      479,
      479,
      479,
      480,
      480,
      480,
      480,
      481,
      481,
      481,
      481,
      481,
      481,
      481,
      480,
      480,
      481,
      481,
      481,
      481,
      480,
      480,
      478,
      478,
      478,
      478,
      478,
      478,
      478,
      478,
      477,
      477,
      477,
      477,
      477,
      477,
      477,
      478,
      478,
      478,
      478,
      478,
      478,
      478,
      474,
      474,
      474,
      474,
      474,
      474,
      474,
      474,
      474,
      474,
      474,
      474,
      474,
      474,
      474,
      471,
      471,
      471,
      471,
      471,
      471,
      465,
      465,
      465,
      465,
      463,
      463,
      463,
      462,
      462,
      462,
      462,
      462,
      462,
      461,
      461,
      461,
      461,
      466,
      466,
      466,
      466,
      466,
      466,
      466,
      466,
      466,
      466,
      466,
      465,
      465,
      467,
      467,
      466,
      466,
      466,
      466,
      466,
      466,
      467,
      467,
      467,
      467,
      466,
      466,
      466,
      462,
      462,
      463,
      463,
      461,
      462,
      462,
      462,
      462,
      461,
      461,
      461,
      461,
      461,
      461,
      462,
      462,
      462,
      462,
      462,
      462,
      462,
      462,
      462,
      462,
      462,
      463,
      463,
      465,
      465,
      465,
      467,
      467,
      468,
      468,
      470,
      470,
      470,
      470,
      470,
      471,
      471,
      470,
      470,
      470,
      470,
      470,
      470,
      468,
      468,
      468,
      467,
      467,
      467,
      467,
      452,
      452,
      452,
      452,
      458,
      458,
      458,
      458,
      459,
      459,
      459,
      459,
      459,
      459,
      457,
      459,
      459,
      459,
      459,
      459,
      459,
      458,
      458,
      458,
      458,
      458,
      464,
      464,
      464,
      461,
      461,
      461,
      461,
      461,
      461,
      451,
      451,
      451,
      454,
      454,
      454,
      454,
      454,
      454,
      454,
      454,
      454,
      454,
      455,
      455,
      455,
      455,
      455,
      455,
      455,
      455,
      455,
      455,
      455,
      455,
      455,
      455,
      457,
      457,
      457,
      457,
      459,
      460,
      460,
      457,
      457,
      457,
      461,
      461,
      461,
      461,
      461,
      461,
      461,
      459,
      459,
      459,
      462,
      462,
      462,
      462,
      462,
      462,
      462,
      471,
      471,
      471,
      471,
      463,
      463,
      463,
      463,
      463,
      465,
      465,
      464,
      464,
      464,
      464,
      464,
      464,
      464,
      464,
      464,
      464,
      463,
      464,
      464,
      464,
      464,
      464,
      465,
      466,
      466,
      466,
      466,
      466,
      467,
      467,
      467,
      466,
      466,
      466,
      471,
      471,
      471,
      471,
      471,
      471,
      471,
      476,
      476,
      476,
      476,
      477,
      477,
      477,
      477,
      478,
      478,
      478,
      478,
      478,
      478,
      478,
      479,
      479,
      479,
      479,
      479,
      478,
      478,
      486,
      486,
      486,
      485,
      479,
      479,
      471,
      471,
      471,
      471,
      452,
      452,
      448,
      448,
      448,
      445,
      445,
      445,
      423,
      423,
      423,
      423,
      380,
      380,
      380,
      361,
      349,
      349,
      350,
      350,
      350,
      344,
      344,
      329,
      325,
      325,
      325,
      314,
      314,
      280,
      280,
      280,
      280,
      233,
      233,
      233,
      232,
      232,
      225,
      220,
      210,
      210,
      196,
      196,
      142,
      142,
      146,
      146,
      146,
      146
    ],
    "swim:timestamps": [
      1780505063,
      1780505063,
      1780505063,
      1780505063,
      1780505063,
      1780505215,
      1780505215,
      1780505215,
      1780505215,
      1780505215,
      1780505215,
      1780505335,
      1780505335,
      1780505335,
      1780505335,
      1780505335,
      1780505335,
      1780505755,
      1780505755,
      1780505755,
      1780505755,
      1780505755,
      1780505755,
      1780505876,
      1780505876,
      1780505876,
      1780505876,
      1780505876,
      1780505996,
      1780506047,
      1780506047,
      1780506047,
      1780506056,
      1780506056,
      1780506116,
      1780506116,
      1780506116,
      1780506116,
      1780506116,
      1780506236,
      1780506236,
      1780506288,
      1780506288,
      1780506288,
      1780506288,
      1780506288,
      1780506537,
      1780506537,
      1780506537,
      1780506588,
      1780506588,
      1780506588,
      1780506588,
      1780506588,
      1780506657,
      1780506777,
      1780506777,
      1780506777,
      1780506777,
      1780506829,
      1780506829,
      1780506829,
      1780506897,
      1780506957,
      1780506957,
      1780507009,
      1780507077,
      1780507077,
      1780507077,
      1780507077,
      1780507189,
      1780507249,
      1780507249,
      1780507249,
      1780507249,
      1780507249,
      1780507309,
      1780507309,
      1780507318,
      1780507378,
      1780507378,
      1780507378,
      1780507549,
      1780507549,
      1780507549,
      1780507549,
      1780507610,
      1780507610,
      1780507610,
      1780507730,
      1780507730,
      1780507730,
      1780507730,
      1780507730,
      1780507730,
      1780507850,
      1780507850,
      1780507970,
      1780507970,
      1780507970,
      1780507970,
      1780507970,
      1780508150,
      1780508210,
      1780508210,
      1780508210,
      1780508210,
      1780508210,
      1780508331,
      1780508331,
      1780508391,
      1780508391,
      1780508391,
      1780508391,
      1780508451,
      1780508571,
      1780508571,
      1780508571,
      1780508571,
      1780508751,
      1780508751,
      1780508751,
      1780508811,
      1780508811,
      1780508811,
      1780508811,
      1780508871,
      1780508871,
      1780508871,
      1780508871,
      1780508991,
      1780508991,
      1780508991,
      1780508991,
      1780508991,
      1780509352,
      1780509352,
      1780509352,
      1780509352,
      1780509375,
      1780509412,
      1780509412,
      1780509412,
      1780509412,
      1780509495,
      1780509495,
      1780509495,
      1780509555,
      1780509555,
      1780509555,
      1780509592,
      1780509592,
      1780509652,
      1780509652,
      1780509652,
      1780509712,
      1780509712,
      1780509712,
      1780509712,
      1780509736,
      1780509856,
      1780509856,
      1780509856,
      1780509856,
      1780509893,
      1780509916,
      1780509916,
      1780509953,
      1780509953,
      1780509953,
      1780509953,
      1780510013,
      1780510013,
      1780510036,
      1780510036,
      1780510036,
      1780510036,
      1780510073,
      1780510073,
      1780510216,
      1780510216,
      1780510216,
      1780510216,
      1780510276,
      1780510276,
      1780510276,
      1780510276,
      1780510396,
      1780510396,
      1780510396,
      1780510457,
      1780510457,
      1780510457,
      1780510457,
      1780510577,
      1780510577,
      1780510577,
      1780510637,
      1780510637,
      1780510637,
      1780510637,
      1780510757,
      1780510757,
      1780510817,
      1780510817,
      1780510817,
      1780510817,
      1780510817,
      1780510937,
      1780510937,
      1780510937,
      1780510997,
      1780510997,
      1780510997,
      1780510997,
      1780510997,
      1780511117,
      1780511117,
      1780511117,
      1780511117,
      1780511117,
      1780511117,
      1780511298,
      1780511298,
      1780511298,
      1780511298,
      1780511358,
      1780511358,
      1780511358,
      1780511418,
      1780511418,
      1780511478,
      1780511478,
      1780511478,
      1780511478,
      1780511538,
      1780511538,
      1780511538,
      1780511538,
      1780511748,
      1780511748,
      1780511748,
      1780511778,
      1780511778,
      1780511808,
      1780511808,
      1780511808,
      1780511808,
      1780511808,
      1780511838,
      1780511898,
      1780511898,
      1780511928,
      1780511928,
      1780511959,
      1780511959,
      1780511959,
      1780512019,
      1780512019,
      1780512019,
      1780512049,
      1780512049,
      1780512109,
      1780512109,
      1780512169,
      1780512169,
      1780512169,
      1780512199,
      1780512199,
      1780512229,
      1780512229,
      1780512319,
      1780512349,
      1780512349,
      1780512349,
      1780512349,
      1780512379,
      1780512379,
      1780512439,
      1780512439,
      1780512439,
      1780512439,
      1780512469,
      1780512529,
      1780512529,
      1780512529,
      1780512589,
      1780512589,
      1780512619,
      1780512619,
      1780512680,
      1780512680,
      1780512680,
      1780512710,
      1780512710,
      1780512740,
      1780512740,
      1780512740,
      1780512800,
      1780512800,
      1780512890,
      1780512890,
      1780512920,
      1780512920,
      1780512950,
      1780512950,
      1780512950,
      1780512980,
      1780512980,
      1780513130,
      1780513130,
      1780513130,
      1780513130,
      1780513130,
      1780513130,
      1780513250,
      1780513250,
      1780513250,
      1780513280,
      1780513280,
      1780513280,
      1780513280,
      1780513461,
      1780513461,
      1780513461,
      1780513461,
      1780513491,
      1780513491,
      1780513521,
      1780513521,
      1780513551,
      1780513551,
      1780513581,
      1780513581,
      1780513581,
      1780513581,
      1780513611,
      1780513671,
      1780513671,
      1780513791,
      1780513791,
      1780513791,
      1780513791,
      1780513851,
      1780513851,
      1780513851,
      1780513851,
      1780513851,
      1780514212,
      1780514212,
      1780514212,
      1780514272,
      1780514272,
      1780514272,
      1780514272,
      1780514272,
      1780514272,
      1780514573,
      1780514573,
      1780514573,
      1780514933,
      1780514933,
      1780514933,
      1780514933,
      1780514933,
      1780514933,
      1780515113,
      1780515113,
      1780515113,
      1780515113,
      1780515234,
      1780515234,
      1780515234,
      1780515234,
      1780515234,
      1780515354,
      1780515354,
      1780515354,
      1780515414,
      1780515414,
      1780515414,
      1780515414,
      1780515414,
      1780515414,
      1780515534,
      1780515534,
      1780515534,
      1780515534,
      1780515594,
      1780515654,
      1780515654,
      1780515678,
      1780515678,
      1780515678,
      1780515774,
      1780515774,
      1780515774,
      1780515774,
      1780515774,
      1780515835,
      1780515835,
      1780515918,
      1780515918,
      1780515918,
      1780515955,
      1780515955,
      1780516015,
      1780516015,
      1780516015,
      1780516015,
      1780516015,
      1780516219,
      1780516219,
      1780516219,
      1780516219,
      1780516255,
      1780516255,
      1780516255,
      1780516315,
      1780516315,
      1780516375,
      1780516375,
      1780516399,
      1780516399,
      1780516399,
      1780516459,
      1780516459,
      1780516496,
      1780516519,
      1780516519,
      1780516519,
      1780516519,
      1780516556,
      1780516579,
      1780516579,
      1780516579,
      1780516676,
      1780516676,
      1780516699,
      1780516736,
      1780516736,
      1780516736,
      1780516819,
      1780516819,
      1780516856,
      1780516879,
      1780516879,
      1780516940,
      1780516940,
      1780516940,
      1780517000,
      1780517000,
      1780517000,
      1780517060,
      1780517060,
      1780517120,
      1780517120,
      1780517217,
      1780517217,
      1780517240,
      1780517240,
      1780517277,
      1780517300,
      1780517300,
      1780517300,
      1780517337,
      1780517337,
      1780517420,
      1780517420,
      1780517420,
      1780517420,
      1780517480,
      1780517517,
      1780517517,
      1780517517,
      1780517540,
      1780517540,
      1780517600,
      1780517600,
      1780517661,
      1780517661,
      1780517661,
      1780517697,
      1780517721,
      1780517721,
      1780517781,
      1780517781,
      1780517781,
      1780517781,
      1780517961,
      1780517961,
      1780517968,
      1780517968,
      1780517968,
      1780518021,
      1780518021,
      1780518021,
      1780518201,
      1780518201,
      1780518201,
      1780518201,
      1780518261,
      1780518261,
      1780518261,
      1780518321,
      1780518355,
      1780518355,
      1780518382,
      1780518382,
      1780518382,
      1780518442,
      1780518442,
      1780518502,
      1780518529,
      1780518529,
      1780518529,
      1780518562,
      1780518562,
      1780518709,
      1780518709,
      1780518709,
      1780518709,
      1780518862,
      1780518862,
      1780518862,
      1780518889,
      1780518889,
      1780518943,
      1780518982,
      1780519042,
      1780519042,
      1780519070,
      1780519070,
      1780519184,
      1780519184,
      1780519283,
      1780519283,
      1780519283,
      1780519283
    ],
    "wof:geomhash": "fe0c9157bb167de021cadfe9ae88791b",
    "wof:id": 2031443507,
    "wof:repo": "sfomuseum-data-flights-2026-06"
  },
  "bbox": [
    -122.38333333333334,
    35.94222222222222,
    -86.67611111111111,
    38.93833333333333
  ],
  "geometry": {"coordinates":[[-122.38333333333334,37.61666666666667],[-122.38333333333334,37.61666666666667],[-122.38333333333334,37.61666666666667],[-122.38333333333334,37.61666666666667],[-122.38333333333334,37.61666666666667],[-122.2875,37.69194444444444],[-122.2875,37.69194444444444],[-122.2875,37.69194444444444],[-122.2875,37.69194444444444],[-122.2875,37.69194444444444],[-122.2875,37.69194444444444],[-122.11694444444444,37.76416666666667],[-122.11694444444444,37.76416666666667],[-122.11694444444444,37.76416666666667],[-122.11694444444444,37.76416666666667],[-122.11694444444444,37.76416666666667],[-122.11694444444444,37.76416666666667],[-121.18388888888889,38.02305555555555],[-121.18388888888889,38.02305555555555],[-121.18388888888889,38.02305555555555],[-121.18388888888889,38.02305555555555],[-121.18388888888889,38.02305555555555],[-121.18388888888889,38.02305555555555],[-120.85972222222222,38.06305555555555],[-120.85972222222222,38.06305555555555],[-120.85972222222222,38.06305555555555],[-120.85972222222222,38.06305555555555],[-120.85972222222222,38.06305555555555],[-120.53472222222221,38.11027777777778],[-120.40916666666668,38.15333333333333],[-120.40916666666668,38.15333333333333],[-120.40916666666668,38.15333333333333],[-120.38527777777779,38.1625],[-120.38527777777779,38.1625],[-120.21527777777779,38.183055555555555],[-120.21527777777779,38.183055555555555],[-120.21527777777779,38.183055555555555],[-120.21527777777779,38.183055555555555],[-120.21527777777779,38.183055555555555],[-119.86833333333333,38.222500000000004],[-119.86833333333333,38.222500000000004],[-119.7238888888889,38.23861111111111],[-119.7238888888889,38.23861111111111],[-119.7238888888889,38.23861111111111],[-119.7238888888889,38.23861111111111],[-119.7238888888889,38.23861111111111],[-118.99583333333334,38.316111111111105],[-118.99583333333334,38.316111111111105],[-118.99583333333334,38.316111111111105],[-118.86222222222221,38.32805555555556],[-118.86222222222221,38.32805555555556],[-118.86222222222221,38.32805555555556],[-118.86222222222221,38.32805555555556],[-118.86222222222221,38.32805555555556],[-118.65666666666667,38.350833333333334],[-118.32638888888889,38.38361111111111],[-118.32638888888889,38.38361111111111],[-118.32638888888889,38.38361111111111],[-118.32638888888889,38.38361111111111],[-118.18083333333334,38.397777777777776],[-118.18083333333334,38.397777777777776],[-118.18083333333334,38.397777777777776],[-117.97083333333333,38.41777777777777],[-117.80333333333333,38.433611111111105],[-117.80333333333333,38.433611111111105],[-117.67305555555556,38.44583333333333],[-117.49722222222222,38.461666666666666],[-117.49722222222222,38.461666666666666],[-117.49722222222222,38.461666666666666],[-117.49722222222222,38.461666666666666],[-117.1575,38.492222222222225],[-116.9888888888889,38.50694444444444],[-116.9888888888889,38.50694444444444],[-116.9888888888889,38.50694444444444],[-116.9888888888889,38.50694444444444],[-116.9888888888889,38.50694444444444],[-116.81555555555555,38.52166666666667],[-116.81555555555555,38.52166666666667],[-116.81277777777777,38.52194444444444],[-116.6463888888889,38.53583333333333],[-116.6463888888889,38.53583333333333],[-116.6463888888889,38.53583333333333],[-116.13861111111112,38.57694444444445],[-116.13861111111112,38.57694444444445],[-116.13861111111112,38.57694444444445],[-116.13861111111112,38.57694444444445],[-115.97,38.59027777777778],[-115.97,38.59027777777778],[-115.97,38.59027777777778],[-115.635,38.61555555555556],[-115.635,38.61555555555556],[-115.635,38.61555555555556],[-115.635,38.61555555555556],[-115.635,38.61555555555556],[-115.635,38.61555555555556],[-115.33194444444445,38.63777777777778],[-115.33194444444445,38.63777777777778],[-114.99444444444444,38.66166666666666],[-114.99444444444444,38.66166666666666],[-114.99444444444444,38.66166666666666],[-114.99444444444444,38.66166666666666],[-114.99444444444444,38.66166666666666],[-114.49361111111111,38.69499999999999],[-114.32916666666667,38.705555555555556],[-114.32916666666667,38.705555555555556],[-114.32916666666667,38.705555555555556],[-114.32916666666667,38.705555555555556],[-114.32916666666667,38.705555555555556],[-114.00583333333333,38.72555555555556],[-114.00583333333333,38.72555555555556],[-113.84138888888889,38.73527777777778],[-113.84138888888889,38.73527777777778],[-113.84138888888889,38.73527777777778],[-113.84138888888889,38.73527777777778],[-113.67833333333334,38.74472222222222],[-113.34944444444444,38.763333333333335],[-113.34944444444444,38.763333333333335],[-113.34944444444444,38.763333333333335],[-113.34944444444444,38.763333333333335],[-112.84694444444445,38.78944444444444],[-112.84694444444445,38.78944444444444],[-112.84694444444445,38.78944444444444],[-112.67666666666668,38.79805555555556],[-112.67666666666668,38.79805555555556],[-112.67666666666668,38.79805555555556],[-112.67666666666668,38.79805555555556],[-112.50833333333334,38.80611111111111],[-112.50833333333334,38.80611111111111],[-112.50833333333334,38.80611111111111],[-112.50833333333334,38.80611111111111],[-112.16888888888889,38.82194444444445],[-112.16888888888889,38.82194444444445],[-112.16888888888889,38.82194444444445],[-112.16888888888889,38.82194444444445],[-112.16888888888889,38.82194444444445],[-111.14694444444446,38.863055555555555],[-111.14694444444446,38.863055555555555],[-111.14694444444446,38.863055555555555],[-111.14694444444446,38.863055555555555],[-111.09055555555555,38.865],[-110.9775,38.86888888888889],[-110.9775,38.86888888888889],[-110.9775,38.86888888888889],[-110.9775,38.86888888888889],[-110.75055555555555,38.87638888888889],[-110.75055555555555,38.87638888888889],[-110.75055555555555,38.87638888888889],[-110.54944444444445,38.882777777777775],[-110.54944444444445,38.882777777777775],[-110.54944444444445,38.882777777777775],[-110.44500000000001,38.88611111111111],[-110.44500000000001,38.88611111111111],[-110.27555555555556,38.89111111111111],[-110.27555555555556,38.89111111111111],[-110.27555555555556,38.89111111111111],[-110.10583333333332,38.895833333333336],[-110.10583333333332,38.895833333333336],[-110.10583333333332,38.895833333333336],[-110.10583333333332,38.895833333333336],[-110.03861111111111,38.8975],[-109.69805555555556,38.90611111111111],[-109.69805555555556,38.90611111111111],[-109.69805555555556,38.90611111111111],[-109.69805555555556,38.90611111111111],[-109.5936111111111,38.90833333333333],[-109.52555555555556,38.91],[-109.52555555555556,38.91],[-109.42222222222223,38.91222222222222],[-109.42222222222223,38.91222222222222],[-109.42222222222223,38.91222222222222],[-109.42222222222223,38.91222222222222],[-109.25222222222222,38.91555555555556],[-109.25222222222222,38.91555555555556],[-109.18444444444445,38.91694444444444],[-109.18444444444445,38.91694444444444],[-109.18444444444445,38.91694444444444],[-109.18444444444445,38.91694444444444],[-109.085,38.91888888888889],[-109.085,38.91888888888889],[-108.67805555555556,38.925555555555555],[-108.67805555555556,38.925555555555555],[-108.67805555555556,38.925555555555555],[-108.67805555555556,38.925555555555555],[-108.5111111111111,38.92777777777778],[-108.5111111111111,38.92777777777778],[-108.5111111111111,38.92777777777778],[-108.5111111111111,38.92777777777778],[-108.17277777777778,38.93194444444444],[-108.17277777777778,38.93194444444444],[-108.17277777777778,38.93194444444444],[-108.00222222222222,38.93333333333333],[-108.00222222222222,38.93333333333333],[-108.00222222222222,38.93333333333333],[-108.00222222222222,38.93333333333333],[-107.66166666666668,38.93611111111111],[-107.66166666666668,38.93611111111111],[-107.66166666666668,38.93611111111111],[-107.49194444444444,38.93694444444444],[-107.49194444444444,38.93694444444444],[-107.49194444444444,38.93694444444444],[-107.49194444444444,38.93694444444444],[-107.15722222222223,38.93805555555555],[-107.15722222222223,38.93805555555555],[-106.98722222222223,38.93833333333333],[-106.98722222222223,38.93833333333333],[-106.98722222222223,38.93833333333333],[-106.98722222222223,38.93833333333333],[-106.98722222222223,38.93833333333333],[-106.65027777777779,38.937777777777775],[-106.65027777777779,38.937777777777775],[-106.65027777777779,38.937777777777775],[-106.48333333333333,38.93722222222222],[-106.48333333333333,38.93722222222222],[-106.48333333333333,38.93722222222222],[-106.48333333333333,38.93722222222222],[-106.48333333333333,38.93722222222222],[-106.13444444444445,38.93555555555555],[-106.13444444444445,38.93555555555555],[-106.13444444444445,38.93555555555555],[-106.13444444444445,38.93555555555555],[-106.13444444444445,38.93555555555555],[-106.13444444444445,38.93555555555555],[-105.63916666666667,38.93083333333333],[-105.63916666666667,38.93083333333333],[-105.63916666666667,38.93083333333333],[-105.63916666666667,38.93083333333333],[-105.47583333333334,38.928888888888885],[-105.47583333333334,38.928888888888885],[-105.47583333333334,38.928888888888885],[-105.31194444444444,38.92666666666666],[-105.31194444444444,38.92666666666666],[-105.14805555555556,38.92444444444444],[-105.14805555555556,38.92444444444444],[-105.14805555555556,38.92444444444444],[-105.14805555555556,38.92444444444444],[-104.985,38.92166666666667],[-104.985,38.92166666666667],[-104.985,38.92166666666667],[-104.985,38.92166666666667],[-104.40611111111112,38.911944444444444],[-104.40611111111112,38.911944444444444],[-104.40611111111112,38.911944444444444],[-104.32805555555555,38.90888888888889],[-104.32805555555555,38.90888888888889],[-104.24,38.908055555555556],[-104.24,38.908055555555556],[-104.24,38.908055555555556],[-104.24,38.908055555555556],[-104.24,38.908055555555556],[-104.16250000000001,38.905],[-103.99833333333333,38.90083333333333],[-103.99833333333333,38.90083333333333],[-103.90861111111111,38.89972222222222],[-103.90861111111111,38.89972222222222],[-103.83166666666666,38.89666666666667],[-103.83166666666666,38.89666666666667],[-103.83166666666666,38.89666666666667],[-103.66833333333334,38.89222222222222],[-103.66833333333334,38.89222222222222],[-103.66833333333334,38.89222222222222],[-103.57694444444444,38.88944444444444],[-103.57694444444444,38.88944444444444],[-103.4113888888889,38.88527777777778],[-103.4113888888889,38.88527777777778],[-103.24833333333333,38.88055555555555],[-103.24833333333333,38.88055555555555],[-103.24833333333333,38.88055555555555],[-103.17722222222223,38.8775],[-103.17722222222223,38.8775],[-103.08611111111111,38.873333333333335],[-103.08611111111111,38.873333333333335],[-102.84916666666666,38.86638888888889],[-102.7575,38.862500000000004],[-102.7575,38.862500000000004],[-102.7575,38.862500000000004],[-102.7575,38.862500000000004],[-102.69166666666668,38.86083333333333],[-102.69166666666668,38.86083333333333],[-102.52472222222222,38.85472222222222],[-102.52472222222222,38.85472222222222],[-102.52472222222222,38.85472222222222],[-102.52472222222222,38.85472222222222],[-102.43,38.849444444444444],[-102.26527777777778,38.84444444444445],[-102.26527777777778,38.84444444444445],[-102.26527777777778,38.84444444444445],[-102.10138888888888,38.83777777777778],[-102.10138888888888,38.83777777777778],[-102.03305555555555,38.835],[-102.03305555555555,38.835],[-101.86805555555554,38.82805555555556],[-101.86805555555554,38.82805555555556],[-101.86805555555554,38.82805555555556],[-101.77222222222223,38.82333333333334],[-101.77222222222223,38.82333333333334],[-101.70333333333333,38.82055555555556],[-101.70333333333333,38.82055555555556],[-101.70333333333333,38.82055555555556],[-101.53416666666666,38.81305555555555],[-101.53416666666666,38.81305555555555],[-101.27055555555556,38.800555555555555],[-101.27055555555556,38.800555555555555],[-101.19916666666667,38.79694444444444],[-101.19916666666667,38.79694444444444],[-101.10222222222221,38.79222222222222],[-101.10222222222221,38.79222222222222],[-101.10222222222221,38.79222222222222],[-101.03138888888888,38.78861111111111],[-101.03138888888888,38.78861111111111],[-100.60027777777778,38.76583333333333],[-100.60027777777778,38.76583333333333],[-100.60027777777778,38.76583333333333],[-100.60027777777778,38.76583333333333],[-100.60027777777778,38.76583333333333],[-100.60027777777778,38.76583333333333],[-100.27111111111111,38.7475],[-100.27111111111111,38.7475],[-100.27111111111111,38.7475],[-100.19972222222222,38.743611111111115],[-100.19972222222222,38.743611111111115],[-100.19972222222222,38.743611111111115],[-100.19972222222222,38.743611111111115],[-99.75222222222222,38.60583333333334],[-99.75222222222222,38.60583333333334],[-99.75222222222222,38.60583333333334],[-99.75222222222222,38.60583333333334],[-99.65694444444445,38.60055555555556],[-99.65694444444445,38.60055555555556],[-99.5911111111111,38.59777777777778],[-99.5911111111111,38.59777777777778],[-99.48805555555556,38.593333333333334],[-99.48805555555556,38.593333333333334],[-99.42805555555556,38.59055555555556],[-99.42805555555556,38.59055555555556],[-99.42805555555556,38.59055555555556],[-99.42805555555556,38.59055555555556],[-99.32916666666667,38.586111111111116],[-99.165,38.57888888888889],[-99.165,38.57888888888889],[-98.83749999999999,38.56333333333333],[-98.83749999999999,38.56333333333333],[-98.83749999999999,38.56333333333333],[-98.83749999999999,38.56333333333333],[-98.67833333333334,38.55555555555555],[-98.67833333333334,38.55555555555555],[-98.67833333333334,38.55555555555555],[-98.67833333333334,38.55555555555555],[-98.67833333333334,38.55555555555555],[-97.72555555555556,38.504444444444445],[-97.72555555555556,38.504444444444445],[-97.72555555555556,38.504444444444445],[-97.56166666666667,38.495],[-97.56166666666667,38.495],[-97.56166666666667,38.495],[-97.56166666666667,38.495],[-97.56166666666667,38.495],[-97.56166666666667,38.495],[-96.76472222222222,38.44499999999999],[-96.76472222222222,38.44499999999999],[-96.76472222222222,38.44499999999999],[-95.79694444444445,38.37694444444445],[-95.79694444444445,38.37694444444445],[-95.79694444444445,38.37694444444445],[-95.79694444444445,38.37694444444445],[-95.79694444444445,38.37694444444445],[-95.79694444444445,38.37694444444445],[-95.32249999999999,38.340833333333336],[-95.32249999999999,38.340833333333336],[-95.32249999999999,38.340833333333336],[-95.32249999999999,38.340833333333336],[-95.00444444444445,38.31527777777777],[-95.00444444444445,38.31527777777777],[-95.00444444444445,38.31527777777777],[-95.00444444444445,38.31527777777777],[-95.00444444444445,38.31527777777777],[-94.68611111111112,38.279444444444444],[-94.68611111111112,38.279444444444444],[-94.68611111111112,38.279444444444444],[-94.5275,38.25972222222222],[-94.5275,38.25972222222222],[-94.5275,38.25972222222222],[-94.5275,38.25972222222222],[-94.5275,38.25972222222222],[-94.5275,38.25972222222222],[-94.20916666666668,38.22],[-94.20916666666668,38.22],[-94.20916666666668,38.22],[-94.20916666666668,38.22],[-94.04694444444445,38.19916666666666],[-93.88444444444445,38.17833333333333],[-93.88444444444445,38.17833333333333],[-93.82388888888889,38.17333333333333],[-93.82388888888889,38.17333333333333],[-93.82388888888889,38.17333333333333],[-93.56361111111111,38.13611111111111],[-93.56361111111111,38.13611111111111],[-93.56361111111111,38.13611111111111],[-93.56361111111111,38.13611111111111],[-93.56361111111111,38.13611111111111],[-93.4038888888889,38.115],[-93.4038888888889,38.115],[-93.18138888888889,38.08833333333334],[-93.18138888888889,38.08833333333334],[-93.18138888888889,38.08833333333334],[-93.08111111111111,38.071111111111115],[-93.08111111111111,38.071111111111115],[-92.92222222222223,38.04944444444444],[-92.92222222222223,38.04944444444444],[-92.92222222222223,38.04944444444444],[-92.92222222222223,38.04944444444444],[-92.92222222222223,38.04944444444444],[-92.38138888888888,37.98111111111111],[-92.38138888888888,37.98111111111111],[-92.38138888888888,37.98111111111111],[-92.38138888888888,37.98111111111111],[-92.28555555555555,37.95944444444445],[-92.28555555555555,37.95944444444445],[-92.28555555555555,37.95944444444445],[-92.12388888888889,37.93583333333333],[-92.12388888888889,37.93583333333333],[-91.93972222222223,37.90888888888889],[-91.93972222222223,37.90888888888889],[-91.87944444444443,37.9],[-91.87944444444443,37.9],[-91.87944444444443,37.9],[-91.71583333333334,37.87583333333333],[-91.71583333333334,37.87583333333333],[-91.62083333333332,37.861666666666665],[-91.56027777777777,37.8525],[-91.56027777777777,37.8525],[-91.56027777777777,37.8525],[-91.56027777777777,37.8525],[-91.45972222222223,37.83722222222222],[-91.39861111111112,37.82805555555556],[-91.39861111111112,37.82805555555556],[-91.39861111111112,37.82805555555556],[-91.13916666666667,37.78805555555555],[-91.13916666666667,37.78805555555555],[-91.07944444444443,37.778888888888886],[-90.97333333333333,37.7625],[-90.97333333333333,37.7625],[-90.97333333333333,37.7625],[-90.75444444444445,37.72805555555556],[-90.75444444444445,37.72805555555556],[-90.65305555555557,37.71194444444445],[-90.59527777777777,37.70277777777778],[-90.59527777777777,37.70277777777778],[-90.43305555555555,37.676944444444445],[-90.43305555555555,37.676944444444445],[-90.43305555555555,37.676944444444445],[-90.26722222222222,37.65],[-90.26722222222222,37.65],[-90.26722222222222,37.65],[-90.10499999999999,37.62361111111111],[-90.10499999999999,37.62361111111111],[-89.94166666666668,37.59666666666667],[-89.94166666666668,37.59666666666667],[-89.67777777777778,37.55277777777778],[-89.67777777777778,37.55277777777778],[-89.61638888888888,37.5425],[-89.61638888888888,37.5425],[-89.51277777777777,37.525],[-89.45,37.51416666666667],[-89.45,37.51416666666667],[-89.45,37.51416666666667],[-89.35,37.49722222222222],[-89.35,37.49722222222222],[-89.12083333333332,37.45777777777778],[-89.12083333333332,37.45777777777778],[-89.12083333333332,37.45777777777778],[-89.12083333333332,37.45777777777778],[-88.95444444444445,37.428888888888885],[-88.89055555555557,37.41777777777777],[-88.89055555555557,37.41777777777777],[-88.89055555555557,37.41777777777777],[-88.79194444444444,37.400555555555556],[-88.79194444444444,37.400555555555556],[-88.6275,37.37138888888889],[-88.6275,37.37138888888889],[-88.45972222222223,37.34138888888889],[-88.45972222222223,37.34138888888889],[-88.45972222222223,37.34138888888889],[-88.39277777777778,37.32944444444445],[-88.32805555555555,37.31777777777778],[-88.32805555555555,37.31777777777778],[-88.17083333333333,37.28944444444444],[-88.17083333333333,37.28944444444444],[-88.17083333333333,37.28944444444444],[-88.17083333333333,37.28944444444444],[-87.69027777777778,37.18833333333333],[-87.69027777777778,37.18833333333333],[-87.66944444444445,37.176944444444445],[-87.66944444444445,37.176944444444445],[-87.66944444444445,37.176944444444445],[-87.56861111111111,37.11333333333334],[-87.56861111111111,37.11333333333334],[-87.56861111111111,37.11333333333334],[-87.21611111111112,36.89222222222222],[-87.21611111111112,36.89222222222222],[-87.21611111111112,36.89222222222222],[-87.21611111111112,36.89222222222222],[-87.10805555555555,36.823055555555555],[-87.10805555555555,36.823055555555555],[-87.10805555555555,36.823055555555555],[-87.04777777777778,36.73555555555556],[-87.01666666666667,36.68333333333333],[-87.01666666666667,36.68333333333333],[-86.99444444444444,36.64833333333333],[-86.99444444444444,36.64833333333333],[-86.99444444444444,36.64833333333333],[-86.94166666666668,36.56222222222222],[-86.94166666666668,36.56222222222222],[-86.8913888888889,36.47972222222222],[-86.86666666666666,36.43333333333333],[-86.86666666666666,36.43333333333333],[-86.86666666666666,36.43333333333333],[-86.84194444444444,36.397777777777776],[-86.84194444444444,36.397777777777776],[-86.75,36.21666666666667],[-86.75,36.21666666666667],[-86.75,36.21666666666667],[-86.75,36.21666666666667],[-86.81638888888888,36.0575],[-86.81638888888888,36.0575],[-86.81638888888888,36.0575],[-86.83333333333333,36.016666666666666],[-86.83333333333333,36.016666666666666],[-86.85,35.96666666666667],[-86.82638888888889,35.94222222222222],[-86.765,35.95944444444445],[-86.765,35.95944444444445],[-86.73333333333333,35.983333333333334],[-86.73333333333333,35.983333333333334],[-86.7,36.06666666666667],[-86.7,36.06666666666667],[-86.67611111111111,36.13305555555556],[-86.67611111111111,36.13305555555556],[-86.67611111111111,36.13305555555556],[-86.67611111111111,36.13305555555556]],"type":"LineString"}
}
