{
  "id": 2031478985,
  "type": "Feature",
  "properties": {
    "geom:area": 0,
    "geom:bbox": "-122.483333,35.998611,-114.920000,37.666667",
    "geom:latitude": 36.999865936168234,
    "geom:longitude": -118.56095533155593,
    "src:alt_label": "swim-path",
    "src:geom": "swim",
    "swim:altitudes": [
      "004",
      "036",
      "044",
      "044",
      "172",
      "172",
      "172",
      "242",
      "242",
      "242",
      "297",
      "297",
      "310C",
      "310C",
      "310C",
      "310C",
      "310C",
      "310C",
      "310C",
      "310C",
      "310C",
      "310C",
      "310C",
      "310C",
      "310C",
      "310C",
      "310C",
      "310C",
      "310C",
      "310C",
      "310C",
      "310C",
      "310C",
      "310C",
      "310C",
      "310C",
      "310C",
      "310C",
      "310C",
      "310C",
      "310C",
      "310C",
      "310C",
      "310C",
      "310C",
      "310C",
      "310C",
      "310C",
      "310C",
      "310",
      "310",
      "294",
      "276",
      "276",
      "276",
      "259",
      "210C",
      "210C",
      "210C",
      "210C",
      "210",
      "210",
      "195",
      "195",
      "162",
      "162",
      "162",
      "162",
      "160",
      "160",
      "160",
      "160",
      "146",
      "146",
      "136",
      "136",
      "136",
      "126",
      "110",
      "108",
      "108",
      "095",
      "092",
      "092",
      "081",
      "081",
      "080",
      "079",
      "079",
      "079",
      "050",
      "050",
      "050",
      "041",
      "034",
      "032",
      "032",
      "032"
    ],
    "swim:geom": "path",
    "swim:speeds": [
      160,
      212,
      228,
      228,
      346,
      346,
      346,
      407,
      407,
      407,
      443,
      443,
      452,
      452,
      449,
      449,
      449,
      447,
      447,
      447,
      449,
      449,
      447,
      447,
      438,
      438,
      438,
      438,
      438,
      438,
      437,
      437,
      437,
      437,
      438,
      438,
      438,
      435,
      435,
      435,
      432,
      432,
      425,
      422,
      421,
      420,
      420,
      420,
      420,
      420,
      420,
      417,
      407,
      407,
      407,
      387,
      358,
      358,
      358,
      358,
      349,
      349,
      349,
      349,
      338,
      338,
      338,
      338,
      332,
      332,
      329,
      329,
      325,
      325,
      320,
      320,
      320,
      318,
      308,
      310,
      310,
      291,
      294,
      294,
      283,
      283,
      223,
      219,
      219,
      219,
      200,
      200,
      201,
      189,
      167,
      168,
      168,
      168
    ],
    "swim:timestamps": [
      1780887933,
      1780888028,
      1780888035,
      1780888035,
      1780888324,
      1780888324,
      1780888324,
      1780888505,
      1780888505,
      1780888505,
      1780888685,
      1780888685,
      1780888748,
      1780888748,
      1780888805,
      1780888805,
      1780888865,
      1780888929,
      1780888929,
      1780888929,
      1780888985,
      1780888985,
      1780889109,
      1780889109,
      1780889226,
      1780889226,
      1780889226,
      1780889346,
      1780889346,
      1780889346,
      1780889586,
      1780889586,
      1780889586,
      1780889586,
      1780889709,
      1780889709,
      1780889709,
      1780889890,
      1780889890,
      1780889890,
      1780889947,
      1780889947,
      1780890250,
      1780890307,
      1780890367,
      1780890430,
      1780890430,
      1780890430,
      1780890430,
      1780890488,
      1780890488,
      1780890548,
      1780890608,
      1780890608,
      1780890608,
      1780890668,
      1780890908,
      1780890908,
      1780890908,
      1780890908,
      1780891088,
      1780891088,
      1780891149,
      1780891149,
      1780891269,
      1780891269,
      1780891269,
      1780891269,
      1780891312,
      1780891312,
      1780891372,
      1780891372,
      1780891509,
      1780891509,
      1780891569,
      1780891569,
      1780891569,
      1780891629,
      1780891793,
      1780891810,
      1780891810,
      1780891854,
      1780891870,
      1780891870,
      1780891930,
      1780891930,
      1780891974,
      1780891990,
      1780891990,
      1780891990,
      1780892161,
      1780892161,
      1780892170,
      1780892230,
      1780892275,
      1780892290,
      1780892290,
      1780892290
    ],
    "wof:geomhash": "34125003f8470998def8ab165aa226c9",
    "wof:id": 2031478985,
    "wof:repo": "sfomuseum-data-flights-2026-06"
  },
  "bbox": [
    -122.48333333333333,
    35.99861111111111,
    -114.92,
    37.666666666666664
  ],
  "geometry": {"coordinates":[[-122.38333333333334,37.63333333333333],[-122.46555555555555,37.6575],[-122.48333333333333,37.666666666666664],[-122.48333333333333,37.666666666666664],[-122.20083333333334,37.47277777777778],[-122.20083333333334,37.47277777777778],[-122.20083333333334,37.47277777777778],[-121.78416666666666,37.37444444444444],[-121.78416666666666,37.37444444444444],[-121.78416666666666,37.37444444444444],[-121.33555555555554,37.266666666666666],[-121.33555555555554,37.266666666666666],[-121.15138888888889,37.22277777777778],[-121.15138888888889,37.22277777777778],[-121.03222222222222,37.192499999999995],[-121.03222222222222,37.192499999999995],[-120.88277777777778,37.155277777777776],[-120.70611111111111,37.11055555555556],[-120.70611111111111,37.11055555555556],[-120.70611111111111,37.11055555555556],[-120.5886111111111,37.08111111111111],[-120.5886111111111,37.08111111111111],[-120.26444444444445,36.99805555555556],[-120.26444444444445,36.99805555555556],[-119.98916666666666,37.035555555555554],[-119.98916666666666,37.035555555555554],[-119.98916666666666,37.035555555555554],[-119.69416666666667,37.092222222222226],[-119.69416666666667,37.092222222222226],[-119.69416666666667,37.092222222222226],[-119.09305555555555,37.20722222222223],[-119.09305555555555,37.20722222222223],[-119.09305555555555,37.20722222222223],[-119.09305555555555,37.20722222222223],[-118.79972222222221,37.261944444444445],[-118.79972222222221,37.261944444444445],[-118.79972222222221,37.261944444444445],[-118.33694444444444,37.30583333333333],[-118.33694444444444,37.30583333333333],[-118.33694444444444,37.30583333333333],[-118.1888888888889,37.31805555555556],[-118.1888888888889,37.31805555555556],[-117.55472222222222,37.598333333333336],[-117.44500000000001,37.52361111111111],[-117.34055555555555,37.441111111111105],[-117.235,37.359722222222224],[-117.235,37.359722222222224],[-117.235,37.359722222222224],[-117.235,37.359722222222224],[-117.12722222222222,37.282222222222224],[-117.12722222222222,37.282222222222224],[-117.01888888888888,37.20416666666667],[-116.91472222222222,37.12888888888889],[-116.91472222222222,37.12888888888889],[-116.91472222222222,37.12888888888889],[-116.82777777777777,37.044999999999995],[-116.53999999999999,36.70861111111111],[-116.53999999999999,36.70861111111111],[-116.53999999999999,36.70861111111111],[-116.53999999999999,36.70861111111111],[-116.47333333333333,36.42027777777778],[-116.47333333333333,36.42027777777778],[-116.42472222222223,36.338055555555556],[-116.42472222222223,36.338055555555556],[-116.19583333333334,36.29666666666667],[-116.19583333333334,36.29666666666667],[-116.19583333333334,36.29666666666667],[-116.19583333333334,36.29666666666667],[-116.1125,36.2825],[-116.1125,36.2825],[-116.00416666666666,36.26416666666667],[-116.00416666666666,36.26416666666667],[-115.78833333333333,36.1625],[-115.78833333333333,36.1625],[-115.69250000000001,36.12083333333334],[-115.69250000000001,36.12083333333334],[-115.69250000000001,36.12083333333334],[-115.59083333333332,36.08972222222222],[-115.31361111111111,36.013888888888886],[-115.28972222222222,36.01305555555555],[-115.28972222222222,36.01305555555555],[-115.21305555555556,36.00888888888889],[-115.19055555555556,36.00805555555556],[-115.19055555555556,36.00805555555556],[-115.08749999999999,36.00277777777778],[-115.08749999999999,36.00277777777778],[-115.02694444444444,35.99861111111111],[-115.00888888888889,35.999722222222225],[-115.00888888888889,35.999722222222225],[-115.00888888888889,35.999722222222225],[-114.92,36.073055555555555],[-114.92,36.073055555555555],[-114.92694444444444,36.07472222222223],[-114.99222222222222,36.07361111111111],[-115.03805555555556,36.072500000000005],[-115.05111111111111,36.07361111111111],[-115.05111111111111,36.07361111111111],[-115.05111111111111,36.07361111111111]],"type":"LineString"}
}
