{
  "id": 2031619477,
  "type": "Feature",
  "properties": {
    "geom:area": 0,
    "geom:bbox": "-122.349470,37.483840,-122.055490,37.610250",
    "geom:latitude": 37.546905647993434,
    "geom:longitude": -122.2025515056938,
    "src:alt_label": "swim-approach",
    "src:geom": "swim",
    "swim:elevations": [
      1775,
      1556,
      1365,
      1252,
      997,
      875,
      610,
      536,
      423,
      250,
      133,
      69
    ],
    "swim:geom": "approach",
    "swim:timestamps": [
      1782235893,
      1782235938,
      1782235969,
      1782235987,
      1782236035,
      1782236048,
      1782236088,
      1782236113,
      1782236141,
      1782236177,
      1782236205,
      1782236224
    ],
    "wof:geomhash": "9fa987645a7e6b6f8b41a564836d728a",
    "wof:id": 2031619477,
    "wof:repo": "sfomuseum-data-flights-2026-06"
  },
  "bbox": [
    -122.34947,
    37.48384,
    -122.05549,
    37.61025
  ],
  "geometry": {"coordinates":[[-122.05549,37.48384],[-122.10269,37.50397],[-122.13292,37.51676],[-122.14952,37.5238],[-122.19363,37.54228],[-122.20574,37.54741],[-122.24191,37.56323],[-122.26272,37.57389],[-122.28531,37.58357],[-122.31591,37.59614],[-122.33619,37.60458],[-122.34947,37.61025]],"type":"LineString"}
}
