{
  "id": 2031608593,
  "type": "Feature",
  "properties": {
    "geom:area": 0,
    "geom:bbox": "-123.131010,37.428830,-122.116420,38.513190",
    "geom:latitude": 37.88029899930251,
    "geom:longitude": -122.5667198510863,
    "src:alt_label": "swim-approach",
    "src:geom": "swim",
    "swim:elevations": [
      7446,
      7273,
      7123,
      6954,
      6819,
      6576,
      6345,
      6148,
      5940,
      5644,
      5550,
      5366,
      5066,
      4744,
      4645,
      4516,
      4447,
      4166,
      3999,
      3689,
      3543,
      3354,
      3353,
      3353,
      3353,
      3353,
      3260,
      3170,
      2903,
      2680,
      2498,
      2401,
      2141,
      1968,
      1935,
      1651,
      1393,
      1271,
      1124,
      874,
      712,
      624,
      516,
      363,
      219,
      132,
      112,
      0
    ],
    "swim:geom": "approach",
    "swim:timestamps": [
      1782115126,
      1782115149,
      1782115167,
      1782115193,
      1782115216,
      1782115254,
      1782115288,
      1782115313,
      1782115339,
      1782115373,
      1782115392,
      1782115429,
      1782115460,
      1782115495,
      1782115504,
      1782115522,
      1782115531,
      1782115578,
      1782115594,
      1782115636,
      1782115664,
      1782115707,
      1782115719,
      1782115751,
      1782115793,
      1782115828,
      1782115858,
      1782115873,
      1782115912,
      1782115948,
      1782115975,
      1782115992,
      1782116037,
      1782116065,
      1782116070,
      1782116109,
      1782116155,
      1782116188,
      1782116218,
      1782116248,
      1782116276,
      1782116292,
      1782116319,
      1782116351,
      1782116386,
      1782116407,
      1782116413,
      1782116439
    ],
    "wof:geomhash": "61a0a80f6dbf9bd6b35f2963bc94e797",
    "wof:id": 2031608593,
    "wof:repo": "sfomuseum-data-flights-2026-06"
  },
  "bbox": [
    -123.13101,
    37.42883,
    -122.11642,
    38.51319
  ],
  "geometry": {"coordinates":[[-123.13101,38.51319],[-123.08996,38.48095],[-123.05816,38.45565],[-123.01436,38.42164],[-122.97469,38.39012],[-122.90928,38.33789],[-122.85231,38.29242],[-122.81086,38.25931],[-122.77329,38.22074],[-122.74931,38.16301],[-122.73952,38.12999],[-122.7227,38.07074],[-122.70903,38.02226],[-122.69373,37.96974],[-122.68983,37.95643],[-122.6821,37.9299],[-122.67801,37.9167],[-122.6322,37.86102],[-122.61427,37.8438],[-122.57165,37.8037],[-122.54388,37.77742],[-122.50149,37.73731],[-122.48974,37.72625],[-122.45889,37.69731],[-122.41766,37.6585],[-122.38338,37.62616],[-122.35728,37.5973],[-122.34978,37.58081],[-122.32771,37.53896],[-122.30467,37.50113],[-122.28652,37.47294],[-122.2759,37.45669],[-122.22224,37.4299],[-122.18656,37.42883],[-122.18024,37.43158],[-122.13766,37.45632],[-122.11642,37.49718],[-122.14156,37.52256],[-122.17253,37.53576],[-122.20164,37.54812],[-122.22781,37.55914],[-122.24328,37.56566],[-122.26648,37.57546],[-122.29304,37.58661],[-122.32013,37.59794],[-122.33582,37.60455],[-122.34027,37.60643],[-122.359,37.61457]],"type":"LineString"}
}
