{
  "id": 2031683473,
  "type": "Feature",
  "properties": {
    "geom:area": 0,
    "geom:bbox": "-122.360050,37.465560,-121.254500,37.614610",
    "geom:latitude": 37.532233304152136,
    "geom:longitude": -121.81407090247761,
    "src:alt_label": "swim-approach",
    "src:geom": "swim",
    "swim:elevations": [
      4587,
      4393,
      4077,
      3867,
      3816,
      3573,
      3505,
      3413,
      3146,
      3020,
      2865,
      2754,
      2529,
      2390,
      2296,
      2011,
      1889,
      1856,
      1829,
      1637,
      1523,
      1389,
      1128,
      973,
      823,
      639,
      550,
      407,
      304,
      208,
      59,
      0
    ],
    "swim:geom": "approach",
    "swim:timestamps": [
      1782839051,
      1782839074,
      1782839112,
      1782839140,
      1782839144,
      1782839185,
      1782839199,
      1782839223,
      1782839262,
      1782839283,
      1782839308,
      1782839328,
      1782839364,
      1782839391,
      1782839406,
      1782839454,
      1782839485,
      1782839491,
      1782839538,
      1782839577,
      1782839603,
      1782839621,
      1782839662,
      1782839686,
      1782839718,
      1782839756,
      1782839770,
      1782839805,
      1782839833,
      1782839859,
      1782839897,
      1782839910
    ],
    "wof:geomhash": "51fb5cdf7ee7bf3137d22feb41c0d620",
    "wof:id": 2031683473,
    "wof:repo": "sfomuseum-data-flights-2026-06"
  },
  "bbox": [
    -122.36005,
    37.46556,
    -121.2545,
    37.61461
  ],
  "geometry": {"coordinates":[[-121.2545,37.59406],[-121.30018,37.58814],[-121.3744,37.58],[-121.42821,37.57373],[-121.43589,37.57285],[-121.51249,37.56398],[-121.53559,37.56124],[-121.57404,37.55671],[-121.63344,37.54867],[-121.65995,37.53475],[-121.68664,37.51093],[-121.71132,37.49675],[-121.76115,37.47935],[-121.80082,37.47624],[-121.82332,37.47481],[-121.89561,37.46979],[-121.94178,37.46628],[-121.9509,37.46556],[-122.0146,37.46871],[-122.05913,37.4879],[-122.08937,37.5007],[-122.10961,37.50926],[-122.15282,37.5275],[-122.1771,37.53769],[-122.20715,37.5504],[-122.24353,37.56571],[-122.25647,37.57122],[-122.28588,37.58354],[-122.30503,37.59163],[-122.32359,37.59944],[-122.35036,37.61075],[-122.36005,37.61461]],"type":"LineString"}
}
