{
  "id": 2031660727,
  "type": "Feature",
  "properties": {
    "geom:area": 0,
    "geom:bbox": "-123.492470,37.679830,-122.580390,37.731670",
    "geom:latitude": 37.70630644828873,
    "geom:longitude": -123.03639859952453,
    "src:alt_label": "swim-takeoff",
    "src:geom": "swim",
    "swim:elevations": [
      1585,
      1676,
      2009,
      2903,
      3150,
      3359,
      3509,
      3993,
      4279,
      4395,
      4563,
      4753,
      5160,
      5246,
      5651,
      5736
    ],
    "swim:geom": "takeoff",
    "swim:timestamps": [
      1782570235,
      1782570244,
      1782570274,
      1782570349,
      1782570372,
      1782570400,
      1782570427,
      1782570477,
      1782570506,
      1782570524,
      1782570555,
      1782570580,
      1782570621,
      1782570630,
      1782570684,
      1782570697
    ],
    "wof:geomhash": "0dfe8efe41ab9582efee1157a604012f",
    "wof:id": 2031660727,
    "wof:repo": "sfomuseum-data-flights-2026-06"
  },
  "bbox": [
    -123.49247,
    37.67983,
    -122.58039,
    37.73167
  ],
  "geometry": {"coordinates":[[-122.58039,37.67983],[-122.59444,37.68047],[-122.64391,37.6831],[-122.77324,37.6911],[-122.81309,37.69393],[-122.865,37.69698],[-122.9158,37.69986],[-123.01761,37.70575],[-123.07767,37.70953],[-123.11345,37.7116],[-123.18076,37.71475],[-123.23601,37.71708],[-123.32573,37.72261],[-123.34465,37.72378],[-123.46234,37.7302],[-123.49247,37.73167]],"type":"LineString"}
}
