{
  "id": 2031555369,
  "type": "Feature",
  "properties": {
    "geom:area": 0,
    "geom:bbox": "-122.789190,37.539700,-122.077070,38.493950",
    "geom:latitude": 37.86781541958197,
    "geom:longitude": -122.48873363459069,
    "src:alt_label": "swim-approach",
    "src:geom": "swim",
    "swim:elevations": [
      7433,
      7105,
      6914,
      6702,
      6268,
      6197,
      5753,
      5545,
      5348,
      5153,
      4787,
      4391,
      4077,
      3869,
      3545,
      3441,
      3412,
      3353,
      3269,
      3098,
      2930,
      2660,
      2466,
      2236,
      2147,
      2037,
      1983,
      1830,
      1829,
      1829,
      1688,
      1278,
      1185,
      1073,
      704,
      641,
      428,
      330,
      160,
      0
    ],
    "swim:geom": "approach",
    "swim:timestamps": [
      1781599004,
      1781599039,
      1781599058,
      1781599088,
      1781599137,
      1781599145,
      1781599198,
      1781599220,
      1781599241,
      1781599265,
      1781599313,
      1781599342,
      1781599372,
      1781599397,
      1781599433,
      1781599455,
      1781599471,
      1781599523,
      1781599552,
      1781599575,
      1781599594,
      1781599624,
      1781599648,
      1781599677,
      1781599690,
      1781599703,
      1781599714,
      1781599764,
      1781599794,
      1781599804,
      1781599830,
      1781599887,
      1781599911,
      1781599930,
      1781599977,
      1781599989,
      1781600036,
      1781600061,
      1781600106,
      1781600142
    ],
    "wof:geomhash": "63c0600e8eaa33f100b331ba94f6406f",
    "wof:id": 2031555369,
    "wof:repo": "sfomuseum-data-flights-2026-06"
  },
  "bbox": [
    -122.78919,
    37.5397,
    -122.07707,
    38.49395
  ],
  "geometry": {"coordinates":[[-122.78919,38.49395],[-122.78376,38.42755],[-122.78079,38.39114],[-122.77642,38.33576],[-122.76936,38.24783],[-122.76813,38.23368],[-122.74342,38.1433],[-122.73333,38.10758],[-122.72295,38.07146],[-122.71122,38.03114],[-122.68852,37.95309],[-122.6759,37.90938],[-122.64187,37.86994],[-122.60986,37.84076],[-122.56524,37.79772],[-122.53846,37.77222],[-122.51909,37.7539],[-122.45034,37.71321],[-122.4105,37.702],[-122.37988,37.69316],[-122.35481,37.68579],[-122.31512,37.67358],[-122.28318,37.66347],[-122.2456,37.65182],[-122.22911,37.64675],[-122.21182,37.6415],[-122.19882,37.63749],[-122.13439,37.61816],[-122.0959,37.60603],[-122.08536,37.59895],[-122.07707,37.5715],[-122.13803,37.54249],[-122.16675,37.5397],[-122.1873,37.54254],[-122.23132,37.56068],[-122.24246,37.56533],[-122.281,37.58155],[-122.30016,37.58962],[-122.33208,37.603],[-122.35806,37.61416]],"type":"LineString"}
}
