{
  "id": 2031510731,
  "type": "Feature",
  "properties": {
    "geom:area": 0,
    "geom:bbox": "-122.335470,37.492310,-121.291120,37.604470",
    "geom:latitude": 37.53952132573541,
    "geom:longitude": -121.81974150709951,
    "src:alt_label": "swim-approach",
    "src:geom": "swim",
    "swim:elevations": [
      4447,
      4143,
      4057,
      3578,
      3216,
      3170,
      3080,
      2984,
      2977,
      2797,
      2509,
      2436,
      2154,
      2131,
      2045,
      1761,
      1617,
      1488,
      1326,
      1238,
      1218,
      1073,
      964,
      758,
      694,
      425,
      389,
      209,
      205,
      129
    ],
    "swim:geom": "approach",
    "swim:timestamps": [
      1781182375,
      1781182405,
      1781182414,
      1781182462,
      1781182495,
      1781182505,
      1781182534,
      1781182563,
      1781182571,
      1781182594,
      1781182637,
      1781182657,
      1781182703,
      1781182712,
      1781182757,
      1781182795,
      1781182813,
      1781182839,
      1781182871,
      1781182886,
      1781182890,
      1781182918,
      1781182938,
      1781182972,
      1781182986,
      1781183035,
      1781183046,
      1781183087,
      1781183090,
      1781183110
    ],
    "wof:geomhash": "e5843af08fd4e1c116567ed4944ba968",
    "wof:id": 2031510731,
    "wof:repo": "sfomuseum-data-flights-2026-06"
  },
  "bbox": [
    -122.33547,
    37.49231,
    -121.29112,
    37.60447
  ],
  "geometry": {"coordinates":[[-121.29112,37.58911],[-121.35179,37.58245],[-121.37153,37.58034],[-121.47018,37.56888],[-121.53711,37.56105],[-121.55699,37.55878],[-121.61196,37.55226],[-121.6609,37.54198],[-121.67516,37.53859],[-121.71027,37.53029],[-121.77228,37.51564],[-121.7994,37.50908],[-121.86329,37.49385],[-121.87526,37.49231],[-121.938,37.49446],[-121.99091,37.49756],[-122.01474,37.49886],[-122.05073,37.50077],[-122.09451,37.50457],[-122.11361,37.51108],[-122.11838,37.51315],[-122.15082,37.52669],[-122.17296,37.53591],[-122.2096,37.55146],[-122.22472,37.55787],[-122.2735,37.57846],[-122.28256,37.58226],[-122.31705,37.59684],[-122.31944,37.59782],[-122.33547,37.60447]],"type":"LineString"}
}
