{
  "id": 2031667745,
  "type": "Feature",
  "properties": {
    "geom:area": 0,
    "geom:bbox": "-122.403600,37.623750,-121.264820,37.962320",
    "geom:latitude": 37.82982225869531,
    "geom:longitude": -121.85700416427646,
    "src:alt_label": "swim-takeoff",
    "src:geom": "swim",
    "swim:elevations": [
      152,
      534,
      575,
      767,
      1062,
      1334,
      1966,
      2162,
      2729,
      3021,
      3297,
      3571,
      3703,
      3979,
      4065,
      4440,
      4543,
      4572,
      4754,
      4847,
      5069,
      5161,
      5462,
      5605,
      5701
    ],
    "swim:geom": "takeoff",
    "swim:timestamps": [
      1782649542,
      1782649572,
      1782649579,
      1782649615,
      1782649641,
      1782649661,
      1782649709,
      1782649722,
      1782649767,
      1782649792,
      1782649818,
      1782649843,
      1782649856,
      1782649885,
      1782649893,
      1782649946,
      1782649974,
      1782649982,
      1782650031,
      1782650057,
      1782650092,
      1782650101,
      1782650153,
      1782650178,
      1782650196
    ],
    "wof:geomhash": "7cfed6a95abc52344da196d28f14727a",
    "wof:id": 2031667745,
    "wof:repo": "sfomuseum-data-flights-2026-06"
  },
  "bbox": [
    -122.4036,
    37.62375,
    -121.26482,
    37.96232
  ],
  "geometry": {"coordinates":[[-122.38697,37.62375],[-122.4036,37.64282],[-122.40178,37.64918],[-122.36413,37.66859],[-122.32761,37.6788],[-122.29931,37.68788],[-122.2317,37.71176],[-122.21174,37.71911],[-122.15149,37.75034],[-122.11854,37.76753],[-122.08115,37.78693],[-122.0463,37.80476],[-122.02732,37.81444],[-121.98052,37.83103],[-121.96599,37.83362],[-121.86863,37.85154],[-121.81254,37.86205],[-121.7959,37.86518],[-121.68519,37.88581],[-121.6243,37.89699],[-121.53807,37.91271],[-121.51348,37.91722],[-121.38046,37.94147],[-121.31393,37.9535],[-121.26482,37.96232]],"type":"LineString"}
}
