{
  "id": 2031532049,
  "type": "Feature",
  "properties": {
    "geom:area": 0,
    "geom:bbox": "-122.526389,37.633333,-67.987500,46.859722",
    "geom:latitude": 43.8618322118511,
    "geom:longitude": -95.73464623072698,
    "src:alt_label": "swim-path",
    "src:geom": "swim",
    "swim:altitudes": [
      "007",
      "007",
      "036",
      "036",
      "036",
      "097",
      "097",
      "116",
      "116",
      "153",
      "153",
      "153",
      "183",
      "183",
      "211",
      "211",
      "211",
      "246",
      "246",
      "246",
      "253",
      "253",
      "253",
      "280",
      "284",
      "284",
      "284",
      "291",
      "291",
      "291",
      "309",
      "309",
      "309",
      "309",
      "318",
      "331",
      "331",
      "350C",
      "350C",
      "350C",
      "350C",
      "350C",
      "350C",
      "350C",
      "350C",
      "350C",
      "350C",
      "350C",
      "350C",
      "350C",
      "350C",
      "350C",
      "350C",
      "350C",
      "350C",
      "350C",
      "350C",
      "350C",
      "350C",
      "350C",
      "350C",
      "350C",
      "350C",
      "350C",
      "350C",
      "350C",
      "350C",
      "350C",
      "350C",
      "350C",
      "350C",
      "350C",
      "350C",
      "350C",
      "350C",
      "350C",
      "350C",
      "350C",
      "350C",
      "350C",
      "350C",
      "350C",
      "350C",
      "350C",
      "350C",
      "350C",
      "350C",
      "350C",
      "350C",
      "350C",
      "350C",
      "350C",
      "350C",
      "350C",
      "350C",
      "350C",
      "350C",
      "350C",
      "350C",
      "350C",
      "350C",
      "350C",
      "350C",
      "350C",
      "350C",
      "350C",
      "350C",
      "350C",
      "350C",
      "350C",
      "350C",
      "350C",
      "350C",
      "350C",
      "350C",
      "350C",
      "350C",
      "350C",
      "350C",
      "350C",
      "350C",
      "350C",
      "350C",
      "350C",
      "350C",
      "350C",
      "350C",
      "350C",
      "350C",
      "350C",
      "350C",
      "350C",
      "350C",
      "350C",
      "350C",
      "350C",
      "350C",
      "350C",
      "350C",
      "350C",
      "350C",
      "350C",
      "350C",
      "350C",
      "350C",
      "350C",
      "350C",
      "350C",
      "350C",
      "350C",
      "350C",
      "350C",
      "350C",
      "350C",
      "350C",
      "350C",
      "350C",
      "350C",
      "350C",
      "350C",
      "350C",
      "350C",
      "350C",
      "350C",
      "350C",
      "350C",
      "350C",
      "350C",
      "350C",
      "350C",
      "350C",
      "350C",
      "370C",
      "370C",
      "370C",
      "370C",
      "370C",
      "370C",
      "370C",
      "370C",
      "370C",
      "370C",
      "370C",
      "370C",
      "370C",
      "370C",
      "370C",
      "370C",
      "370C",
      "370C",
      "370C",
      "370C",
      "370C",
      "370C",
      "370C",
      "370C",
      "370C",
      "370C",
      "370C",
      "370C",
      "370C",
      "370C",
      "370C",
      "370C",
      "370C",
      "370C",
      "370C",
      "370C",
      "370C",
      "370C",
      "370C",
      "370C",
      "370C",
      "370C",
      "370C",
      "370C",
      "370C"
    ],
    "swim:geom": "path",
    "swim:speeds": [
      162,
      162,
      243,
      243,
      243,
      303,
      303,
      360,
      360,
      393,
      393,
      393,
      389,
      389,
      416,
      416,
      416,
      442,
      442,
      442,
      451,
      451,
      451,
      468,
      477,
      477,
      477,
      479,
      479,
      479,
      496,
      496,
      496,
      496,
      502,
      506,
      506,
      504,
      504,
      504,
      507,
      507,
      507,
      511,
      511,
      511,
      511,
      511,
      511,
      511,
      509,
      509,
      509,
      509,
      507,
      507,
      507,
      505,
      505,
      505,
      503,
      503,
      504,
      504,
      504,
      505,
      505,
      505,
      505,
      508,
      509,
      508,
      508,
      508,
      506,
      506,
      506,
      508,
      509,
      509,
      514,
      514,
      517,
      519,
      519,
      520,
      530,
      533,
      533,
      533,
      533,
      533,
      533,
      534,
      534,
      534,
      534,
      537,
      539,
      539,
      539,
      544,
      546,
      546,
      546,
      544,
      545,
      549,
      549,
      549,
      553,
      557,
      559,
      559,
      563,
      563,
      565,
      570,
      570,
      572,
      572,
      572,
      571,
      571,
      571,
      571,
      570,
      570,
      570,
      571,
      571,
      571,
      575,
      575,
      575,
      579,
      579,
      571,
      571,
      571,
      570,
      575,
      575,
      579,
      579,
      581,
      581,
      582,
      582,
      582,
      583,
      583,
      583,
      583,
      583,
      582,
      582,
      582,
      581,
      581,
      580,
      580,
      580,
      580,
      580,
      580,
      581,
      581,
      581,
      581,
      581,
      581,
      576,
      576,
      576,
      572,
      572,
      572,
      571,
      569,
      569,
      569,
      565,
      565,
      565,
      563,
      562,
      562,
      561,
      561,
      561,
      555,
      555,
      555,
      492,
      492,
      492,
      506,
      506,
      519,
      519,
      524,
      522,
      523,
      523,
      521,
      521,
      525,
      525,
      531,
      531,
      531,
      531,
      532,
      522,
      522,
      522
    ],
    "swim:timestamps": [
      1781390920,
      1781390920,
      1781391078,
      1781391078,
      1781391078,
      1781391318,
      1781391318,
      1781391438,
      1781391438,
      1781391619,
      1781391619,
      1781391619,
      1781391739,
      1781391739,
      1781391919,
      1781391919,
      1781391919,
      1781392159,
      1781392159,
      1781392159,
      1781392218,
      1781392218,
      1781392218,
      1781392459,
      1781392520,
      1781392520,
      1781392520,
      1781392579,
      1781392579,
      1781392579,
      1781392819,
      1781392819,
      1781392819,
      1781392819,
      1781392940,
      1781393060,
      1781393060,
      1781393301,
      1781393301,
      1781393301,
      1781393360,
      1781393360,
      1781393360,
      1781393481,
      1781393481,
      1781393540,
      1781393540,
      1781393540,
      1781393601,
      1781393601,
      1781393781,
      1781393781,
      1781393781,
      1781393781,
      1781394021,
      1781394081,
      1781394081,
      1781394261,
      1781394261,
      1781394261,
      1781394441,
      1781394441,
      1781394502,
      1781394502,
      1781394502,
      1781394622,
      1781394622,
      1781394622,
      1781394622,
      1781394742,
      1781394802,
      1781394862,
      1781394862,
      1781394862,
      1781395162,
      1781395162,
      1781395162,
      1781395283,
      1781395403,
      1781395403,
      1781395583,
      1781395583,
      1781395643,
      1781395763,
      1781395763,
      1781395823,
      1781396004,
      1781396064,
      1781396064,
      1781396184,
      1781396304,
      1781396304,
      1781396304,
      1781396544,
      1781396578,
      1781396578,
      1781396578,
      1781396698,
      1781396818,
      1781396818,
      1781396818,
      1781397025,
      1781397085,
      1781397145,
      1781397145,
      1781397299,
      1781397385,
      1781397446,
      1781397446,
      1781397446,
      1781397566,
      1781397659,
      1781397779,
      1781397779,
      1781398020,
      1781398020,
      1781398080,
      1781398200,
      1781398200,
      1781398299,
      1781398320,
      1781398359,
      1781398560,
      1781398681,
      1781398681,
      1781398780,
      1781398840,
      1781398840,
      1781398840,
      1781399080,
      1781399080,
      1781399080,
      1781399381,
      1781399381,
      1781399381,
      1781399501,
      1781399501,
      1781399801,
      1781399801,
      1781399801,
      1781400042,
      1781400102,
      1781400102,
      1781400162,
      1781400162,
      1781400282,
      1781400282,
      1781400462,
      1781400462,
      1781400522,
      1781400582,
      1781400643,
      1781400643,
      1781400643,
      1781400703,
      1781400763,
      1781400763,
      1781400823,
      1781400883,
      1781400883,
      1781401003,
      1781401003,
      1781401003,
      1781401243,
      1781401243,
      1781401304,
      1781401364,
      1781401364,
      1781401424,
      1781401484,
      1781401484,
      1781401484,
      1781401965,
      1781401965,
      1781401965,
      1781402145,
      1781402145,
      1781402145,
      1781402205,
      1781402265,
      1781402265,
      1781402265,
      1781402445,
      1781402445,
      1781402445,
      1781402505,
      1781402626,
      1781402626,
      1781402746,
      1781402746,
      1781402746,
      1781403106,
      1781403106,
      1781403106,
      1781406609,
      1781406609,
      1781406609,
      1781406969,
      1781406969,
      1781407029,
      1781407029,
      1781407089,
      1781407209,
      1781407330,
      1781407330,
      1781407390,
      1781407390,
      1781407450,
      1781407450,
      1781407630,
      1781407630,
      1781407690,
      1781407690,
      1781407750,
      1781407810,
      1781407810,
      1781407810
    ],
    "wof:geomhash": "3085b677717ee2d88f919aec31da0474",
    "wof:id": 2031532049,
    "wof:repo": "sfomuseum-data-flights-2026-06"
  },
  "bbox": [
    -122.52638888888889,
    37.63333333333333,
    -67.9875,
    46.859722222222224
  ],
  "geometry": {"coordinates":[[-122.38333333333334,37.63333333333333],[-122.38333333333334,37.63333333333333],[-122.52638888888889,37.705555555555556],[-122.52638888888889,37.705555555555556],[-122.52638888888889,37.705555555555556],[-122.26416666666667,37.93277777777777],[-122.26416666666667,37.93277777777777],[-122.08388888888888,38.06361111111111],[-122.08388888888888,38.06361111111111],[-121.75305555555556,38.25694444444444],[-121.75305555555556,38.25694444444444],[-121.75305555555556,38.25694444444444],[-121.52333333333333,38.375],[-121.52333333333333,38.375],[-121.16972222222223,38.555277777777775],[-121.16972222222223,38.555277777777775],[-121.16972222222223,38.555277777777775],[-120.65194444444445,38.81527777777777],[-120.65194444444445,38.81527777777777],[-120.65194444444445,38.81527777777777],[-120.51083333333334,38.88361111111111],[-120.51083333333334,38.88361111111111],[-120.51083333333334,38.88361111111111],[-119.94861111111112,39.160555555555554],[-119.80138888888888,39.23388888888889],[-119.80138888888888,39.23388888888889],[-119.80138888888888,39.23388888888889],[-119.65472222222223,39.30305555555555],[-119.65472222222223,39.30305555555555],[-119.65472222222223,39.30305555555555],[-119.04694444444445,39.596111111111114],[-119.04694444444445,39.596111111111114],[-119.04694444444445,39.596111111111114],[-119.04694444444445,39.596111111111114],[-118.7325,39.743611111111115],[-118.40111111111112,39.86666666666667],[-118.40111111111112,39.86666666666667],[-117.74305555555556,40.11277777777778],[-117.74305555555556,40.11277777777778],[-117.74305555555556,40.11277777777778],[-117.58583333333333,40.17055555555555],[-117.58583333333333,40.17055555555555],[-117.58583333333333,40.17055555555555],[-117.24583333333334,40.294999999999995],[-117.24583333333334,40.294999999999995],[-117.08055555555555,40.35472222222222],[-117.08055555555555,40.35472222222222],[-117.08055555555555,40.35472222222222],[-116.90416666666667,40.41833333333333],[-116.90416666666667,40.41833333333333],[-116.39194444444445,40.60055555555556],[-116.39194444444445,40.60055555555556],[-116.39194444444445,40.60055555555556],[-116.39194444444445,40.60055555555556],[-115.71972222222223,40.834722222222226],[-115.55111111111111,40.89277777777778],[-115.55111111111111,40.89277777777778],[-115.04416666666667,41.06472222222222],[-115.04416666666667,41.06472222222222],[-115.04416666666667,41.06472222222222],[-114.52777777777777,41.236666666666665],[-114.52777777777777,41.236666666666665],[-114.35722222222222,41.29277777777778],[-114.35722222222222,41.29277777777778],[-114.35722222222222,41.29277777777778],[-114.01444444444445,41.404444444444444],[-114.01444444444445,41.404444444444444],[-114.01444444444445,41.404444444444444],[-114.01444444444445,41.404444444444444],[-113.66722222222222,41.51611111111111],[-113.5261111111111,41.56111111111111],[-113.35416666666666,41.61555555555556],[-113.35416666666666,41.61555555555556],[-113.35416666666666,41.61555555555556],[-112.48472222222222,41.88583333333333],[-112.48472222222222,41.88583333333333],[-112.48472222222222,41.88583333333333],[-112.13388888888889,41.992222222222225],[-111.7786111111111,42.098888888888894],[-111.7786111111111,42.098888888888894],[-111.24027777777778,42.257222222222225],[-111.24027777777778,42.257222222222225],[-111.05972222222222,42.30972222222222],[-110.67722222222223,42.419444444444444],[-110.67722222222223,42.419444444444444],[-110.49277777777777,42.471944444444446],[-109.92861111111111,42.60638888888889],[-109.7275,42.63638888888889],[-109.7275,42.63638888888889],[-109.33361111111111,42.69416666666666],[-108.9388888888889,42.750277777777775],[-108.9388888888889,42.750277777777775],[-108.9388888888889,42.750277777777775],[-108.14194444444445,42.85916666666667],[-108.06333333333333,42.86944444444445],[-108.06333333333333,42.86944444444445],[-108.06333333333333,42.86944444444445],[-107.66305555555556,42.92166666666667],[-107.24583333333334,42.974444444444444],[-107.24583333333334,42.974444444444444],[-107.24583333333334,42.974444444444444],[-106.54472222222222,43.059444444444445],[-106.33888888888889,43.084722222222226],[-106.14194444444445,43.13],[-106.14194444444445,43.13],[-105.64083333333333,43.272777777777776],[-105.36722222222221,43.349722222222226],[-105.16861111111112,43.40472222222222],[-105.16861111111112,43.40472222222222],[-105.16861111111112,43.40472222222222],[-104.76972222222223,43.515],[-104.45083333333334,43.600833333333334],[-104.04388888888889,43.70944444444445],[-104.04388888888889,43.70944444444445],[-103.2275,43.921388888888885],[-103.2275,43.921388888888885],[-103.01805555555555,43.964444444444446],[-102.58527777777778,43.98416666666667],[-102.58527777777778,43.98416666666667],[-102.23361111111112,43.98972222222222],[-102.1463888888889,43.99111111111111],[-102.01416666666667,43.99277777777778],[-101.26972222222223,44.02972222222222],[-100.83555555555554,44.07166666666667],[-100.83555555555554,44.07166666666667],[-100.4863888888889,44.10416666666667],[-100.26944444444445,44.12416666666667],[-100.26944444444445,44.12416666666667],[-100.26944444444445,44.12416666666667],[-99.40111111111112,44.198611111111106],[-99.40111111111112,44.198611111111106],[-99.40111111111112,44.198611111111106],[-98.265,44.28583333333333],[-98.265,44.28583333333333],[-98.265,44.28583333333333],[-97.81861111111111,44.316944444444445],[-97.81861111111111,44.316944444444445],[-96.71055555555556,44.38666666666666],[-96.71055555555556,44.38666666666666],[-96.71055555555556,44.38666666666666],[-95.82444444444444,44.43444444444444],[-95.59888888888888,44.44555555555555],[-95.59888888888888,44.44555555555555],[-95.37555555555555,44.45611111111111],[-95.37555555555555,44.45611111111111],[-94.96777777777778,44.47638888888889],[-94.96777777777778,44.47638888888889],[-94.26222222222222,44.51861111111111],[-94.26222222222222,44.51861111111111],[-94.03722222222223,44.530833333333334],[-93.81194444444444,44.54277777777778],[-93.58722222222222,44.553888888888885],[-93.58722222222222,44.553888888888885],[-93.58722222222222,44.553888888888885],[-93.36277777777777,44.565],[-93.14222222222223,44.57527777777778],[-93.14222222222223,44.57527777777778],[-92.92166666666667,44.585],[-92.69805555555556,44.594722222222224],[-92.69805555555556,44.594722222222224],[-92.24972222222222,44.612500000000004],[-92.24972222222222,44.612500000000004],[-92.24972222222222,44.612500000000004],[-91.34888888888888,44.64277777777778],[-91.34888888888888,44.64277777777778],[-91.12416666666665,44.649166666666666],[-90.89694444444446,44.655277777777776],[-90.89694444444446,44.655277777777776],[-90.67444444444445,44.66083333333333],[-90.42333333333333,44.666666666666664],[-90.42333333333333,44.666666666666664],[-90.42333333333333,44.666666666666664],[-88.64083333333333,44.85583333333334],[-88.64083333333333,44.85583333333334],[-88.64083333333333,44.85583333333334],[-87.97777777777777,44.93083333333333],[-87.97777777777777,44.93083333333333],[-87.97777777777777,44.93083333333333],[-87.75972222222222,44.95472222222222],[-87.5375,44.97833333333333],[-87.5375,44.97833333333333],[-87.5375,44.97833333333333],[-86.88055555555555,45.04611111111111],[-86.88055555555555,45.04611111111111],[-86.88055555555555,45.04611111111111],[-86.65305555555557,45.06861111111112],[-86.21583333333334,45.11027777777778],[-86.21583333333334,45.11027777777778],[-85.77833333333334,45.15083333333333],[-85.77833333333334,45.15083333333333],[-85.77833333333334,45.15083333333333],[-84.48361111111112,45.3275],[-84.48361111111112,45.3275],[-84.48361111111112,45.3275],[-72.19388888888889,46.70138888888889],[-72.19388888888889,46.70138888888889],[-72.19388888888889,46.70138888888889],[-70.95305555555557,46.764722222222225],[-70.95305555555557,46.764722222222225],[-70.74472222222222,46.77388888888889],[-70.74472222222222,46.77388888888889],[-70.53194444444445,46.782777777777774],[-70.1111111111111,46.79944444444444],[-69.6875,46.81444444444444],[-69.6875,46.81444444444444],[-69.47972222222222,46.82138888888889],[-69.47972222222222,46.82138888888889],[-69.26694444444445,46.82805555555556],[-69.26694444444445,46.82805555555556],[-68.6325,46.845555555555556],[-68.6325,46.845555555555556],[-68.41888888888889,46.85055555555556],[-68.41888888888889,46.85055555555556],[-68.20111111111112,46.85527777777778],[-67.9875,46.859722222222224],[-67.9875,46.859722222222224],[-67.9875,46.859722222222224]],"type":"LineString"}
}
