{
  "id": 2031434735,
  "type": "Feature",
  "properties": {
    "geom:area": 0,
    "geom:bbox": "-122.380000,37.620000,-116.210000,43.560000",
    "geom:latitude": 40.553612605542,
    "geom:longitude": -119.22158185121512,
    "src:alt_label": "swim-route",
    "src:geom": "swim",
    "swim:geom": "route",
    "wof:geomhash": "d57835fba8584301df1f4631b89bd8d0",
    "wof:id": 2031434735,
    "wof:repo": "sfomuseum-data-flights-2026-06"
  },
  "bbox": [
    -122.38,
    37.62,
    -116.21,
    43.56
  ],
  "geometry": {"coordinates":[[-122.38,37.62],[-122.28,37.68],[-122.27,37.69],[-122.27,37.69],[-122.21,37.72],[-122.21,37.72],[-122.21,37.73],[-122.19,37.75],[-122.15,37.79],[-122.14,37.8],[-122.07,37.88],[-122.03,37.92],[-121.9,38.06],[-121.9,38.06],[-121.86,38.11],[-121.81,38.16],[-121.73,38.25],[-121.72,38.26],[-121.66,38.33],[-121.64,38.35],[-121.58,38.41],[-121.56,38.43],[-121.55,38.44],[-121.5,38.47],[-121.29,38.6],[-121.21,38.64],[-121.13,38.69],[-121.09,38.71],[-121.05,38.74],[-120.71,38.94],[-120.33,39.15],[-119.66,39.53],[-118.93,40.72],[-118.19,41.87],[-118,42.16],[-118,42.16],[-117.93,42.27],[-117.88,42.34],[-117.86,42.37],[-117.81,42.44],[-117.78,42.47],[-117.62,42.56],[-117.32,42.74],[-117.25,42.78],[-117.11,42.87],[-117.05,42.9],[-116.8,43.04],[-116.78,43.06],[-116.77,43.06],[-116.59,43.17],[-116.57,43.18],[-116.37,43.31],[-116.29,43.36],[-116.21,43.41],[-116.22,43.43],[-116.22,43.48],[-116.22,43.51],[-116.22,43.56]],"type":"LineString"}
}
