{
  "id": 2031443277,
  "type": "Feature",
  "properties": {
    "geom:area": 0,
    "geom:bbox": "-123.445220,37.427850,-122.388860,37.670570",
    "geom:latitude": 37.56288849121055,
    "geom:longitude": -122.91503495777725,
    "src:alt_label": "swim-takeoff",
    "src:geom": "swim",
    "swim:elevations": [
      122,
      414,
      864,
      1148,
      1244,
      1458,
      1996,
      2427,
      2693,
      2902,
      3187,
      3264,
      3396,
      3614,
      3881,
      4145,
      4319,
      4497,
      4615,
      4813,
      5247,
      5517,
      5808,
      5846
    ],
    "swim:geom": "takeoff",
    "swim:timestamps": [
      1780475218,
      1780475242,
      1780475276,
      1780475308,
      1780475331,
      1780475356,
      1780475397,
      1780475427,
      1780475448,
      1780475463,
      1780475487,
      1780475502,
      1780475529,
      1780475574,
      1780475604,
      1780475631,
      1780475650,
      1780475666,
      1780475678,
      1780475703,
      1780475752,
      1780475784,
      1780475817,
      1780475823
    ],
    "wof:geomhash": "b1510e4f299086bb265658854cc8ac2d",
    "wof:id": 2031443277,
    "wof:repo": "sfomuseum-data-flights-2026-06"
  },
  "bbox": [
    -123.44522,
    37.42785,
    -122.38886,
    37.67057
  ],
  "geometry": {"coordinates":[[-122.38886,37.62456],[-122.4096,37.63356],[-122.43944,37.64662],[-122.46961,37.66008],[-122.49562,37.67057],[-122.53244,37.66741],[-122.5939,37.65142],[-122.64093,37.63931],[-122.67196,37.63127],[-122.69646,37.62499],[-122.73466,37.615],[-122.75988,37.60837],[-122.80732,37.59609],[-122.89851,37.57236],[-122.96029,37.55616],[-123.01939,37.54061],[-123.05974,37.52993],[-123.09654,37.52027],[-123.12217,37.51352],[-123.17694,37.49915],[-123.28654,37.47023],[-123.35958,37.45084],[-123.43176,37.43144],[-123.44522,37.42785]],"type":"LineString"}
}
