{
  "id": 2031556853,
  "type": "Feature",
  "properties": {
    "geom:area": 0,
    "geom:bbox": "-122.380000,25.800000,-80.290000,38.520000",
    "geom:latitude": 34.7109400635636,
    "geom:longitude": -100.07887950068836,
    "src:alt_label": "swim-route",
    "src:geom": "swim",
    "swim:geom": "route",
    "wof:geomhash": "0066a66dcf0c6dcd8d4e4488cc3c7693",
    "wof:id": 2031556853,
    "wof:repo": "sfomuseum-data-flights-2026-06"
  },
  "bbox": [
    -122.38,
    25.8,
    -80.29,
    38.52
  ],
  "geometry": {"coordinates":[[-122.38,37.62],[-122.28,37.68],[-122.27,37.69],[-122.27,37.69],[-122.21,37.72],[-122.21,37.72],[-122.2,37.72],[-122.18,37.73],[-122.18,37.74],[-122.16,37.75],[-122.12,37.76],[-122.11,37.77],[-122,37.83],[-121.93,37.84],[-121.73,37.88],[-121.7,37.88],[-121.65,37.89],[-121.58,37.91],[-121.43,37.93],[-121.34,37.95],[-121.32,37.95],[-121.2,37.97],[-121.16,37.98],[-121.1,37.99],[-121.09,37.99],[-120.83,38.03],[-120.73,38.05],[-119.18,38.27],[-119.08,38.29],[-118.77,38.33],[-118.36,38.38],[-117.81,38.46],[-117.28,38.52],[-117.21,38.52],[-114,38.24],[-112.42,38.07],[-110.93,37.89],[-110.79,37.87],[-109.1,37.64],[-108.84,37.6],[-107.04,37.32],[-106.27,37.19],[-104.52,36.88],[-104.32,36.84],[-103.93,36.77],[-103.88,36.76],[-103.46,36.67],[-103.01,36.58],[-102.97,36.58],[-102.84,36.55],[-101.71,36.31],[-101.63,36.3],[-101.45,36.26],[-101.43,36.26],[-100.65,36.08],[-100.44,36.04],[-100.34,36.01],[-99.55,35.83],[-99.35,35.79],[-98.79,35.65],[-97.61,35.36],[-97.17,35.23],[-95.52,34.73],[-93.85,34.19],[-93.15,33.95],[-92.09,33.59],[-92.08,33.59],[-90.03,32.85],[-89.62,32.69],[-88.8,32.38],[-88.35,32.29],[-85.86,31.77],[-85.79,31.72],[-85.36,31.39],[-84.93,31.05],[-84.08,30.37],[-84.04,30.32],[-83.71,29.81],[-83.34,29.26],[-83.24,29.05],[-82.72,28.01],[-82.71,27.95],[-82.62,27.53],[-82.53,27.22],[-82.44,26.92],[-82.23,26.7],[-82.07,26.53],[-81.91,26.36],[-81.85,26.3],[-81.79,26.24],[-81.78,26.24],[-81.5,26.12],[-81.4,26.07],[-81.12,25.95],[-81.07,25.93],[-81.04,25.91],[-80.94,25.85],[-80.93,25.85],[-80.92,25.84],[-80.75,25.82],[-80.58,25.81],[-80.57,25.81],[-80.47,25.81],[-80.46,25.81],[-80.42,25.8],[-80.38,25.8],[-80.29,25.8]],"type":"LineString"}
}
