{
  "id": 2031583067,
  "type": "Feature",
  "properties": {
    "geom:area": 0,
    "geom:bbox": "-122.359600,37.493740,-121.254390,37.614320",
    "geom:latitude": 37.5428481045828,
    "geom:longitude": -121.81401346425962,
    "src:alt_label": "swim-approach",
    "src:geom": "swim",
    "swim:elevations": [
      4659,
      4285,
      4105,
      3748,
      3445,
      3284,
      3165,
      3036,
      2929,
      2863,
      2615,
      2325,
      2224,
      1976,
      1870,
      1667,
      1491,
      1396,
      1267,
      1058,
      1013,
      859,
      688,
      656,
      396,
      371,
      244,
      132,
      117,
      0
    ],
    "swim:geom": "approach",
    "swim:timestamps": [
      1781911486,
      1781911526,
      1781911545,
      1781911584,
      1781911617,
      1781911635,
      1781911653,
      1781911702,
      1781911735,
      1781911747,
      1781911781,
      1781911825,
      1781911840,
      1781911886,
      1781911906,
      1781911943,
      1781911975,
      1781911996,
      1781912023,
      1781912068,
      1781912074,
      1781912097,
      1781912126,
      1781912135,
      1781912186,
      1781912194,
      1781912224,
      1781912248,
      1781912254,
      1781912278
    ],
    "wof:geomhash": "9adf813d9e9c60558e206a3c4091fdf5",
    "wof:id": 2031583067,
    "wof:repo": "sfomuseum-data-flights-2026-06"
  },
  "bbox": [
    -122.3596,
    37.49374,
    -121.25439,
    37.61432
  ],
  "geometry": {"coordinates":[[-121.25439,37.5938],[-121.32966,37.58486],[-121.36477,37.58106],[-121.43781,37.57284],[-121.49833,37.56559],[-121.53092,37.5618],[-121.56406,37.55796],[-121.64878,37.54459],[-121.69804,37.53307],[-121.71583,37.52893],[-121.76565,37.51704],[-121.83157,37.50138],[-121.85515,37.49587],[-121.92416,37.49374],[-121.9528,37.49544],[-122.00518,37.49826],[-122.04758,37.50073],[-122.07593,37.50227],[-122.1108,37.50931],[-122.16544,37.53285],[-122.17269,37.53587],[-122.2,37.54745],[-122.23072,37.56049],[-122.23993,37.56427],[-122.28626,37.58379],[-122.29279,37.5865],[-122.31673,37.59654],[-122.3356,37.60449],[-122.34039,37.60652],[-122.3596,37.61432]],"type":"LineString"}
}
