{
  "id": 2031654707,
  "type": "Feature",
  "properties": {
    "geom:area": 0,
    "geom:bbox": "-122.038350,36.727540,-121.882850,37.169920",
    "geom:latitude": 36.94944537421074,
    "geom:longitude": -121.95826920850473,
    "src:alt_label": "swim-approach",
    "src:geom": "swim",
    "swim:elevations": [
      5779,
      5408,
      5145,
      4871,
      4397,
      4270,
      3835,
      3457,
      3241,
      3083,
      2899
    ],
    "swim:geom": "approach",
    "swim:timestamps": [
      1782574518,
      1782574552,
      1782574579,
      1782574606,
      1782574643,
      1782574654,
      1782574696,
      1782574733,
      1782574758,
      1782574789,
      1782574822
    ],
    "wof:geomhash": "4bab863a80a97b49d7139f6147a7f42d",
    "wof:id": 2031654707,
    "wof:repo": "sfomuseum-data-flights-2026-06"
  },
  "bbox": [
    -122.03835,
    36.72754,
    -121.88285,
    37.16992
  ],
  "geometry": {"coordinates":[[-121.88285,36.72754],[-121.90469,36.77925],[-121.91589,36.82125],[-121.92786,36.86287],[-121.944,36.91898],[-121.94901,36.93715],[-121.97278,36.9998],[-121.99347,37.05327],[-122.00684,37.08765],[-122.02283,37.12973],[-122.03835,37.16992]],"type":"LineString"}
}
