{
  "id": 2031488117,
  "type": "Feature",
  "properties": {
    "geom:area": 0,
    "geom:bbox": "-122.553120,36.719680,-121.294510,37.666280",
    "geom:latitude": 37.2054060473189,
    "geom:longitude": -121.99983267231181,
    "src:alt_label": "swim-takeoff",
    "src:geom": "swim",
    "swim:elevations": [
      152,
      781,
      1057,
      1266,
      1588,
      2251,
      2653,
      4836,
      5181,
      5470,
      5884,
      6045,
      6320,
      6633,
      6945,
      7159,
      7253,
      7554,
      7876,
      8075,
      8305,
      8485,
      8580,
      8763,
      8838,
      9023
    ],
    "swim:geom": "takeoff",
    "swim:timestamps": [
      1780916079,
      1780916123,
      1780916148,
      1780916174,
      1780916201,
      1780916243,
      1780916271,
      1780916453,
      1780916483,
      1780916508,
      1780916546,
      1780916565,
      1780916593,
      1780916628,
      1780916663,
      1780916688,
      1780916702,
      1780916739,
      1780916785,
      1780916804,
      1780916835,
      1780916868,
      1780916891,
      1780916927,
      1780916941,
      1780916979
    ],
    "wof:geomhash": "10bb4adb260acfee9862a0dc68b4af3d",
    "wof:id": 2031488117,
    "wof:repo": "sfomuseum-data-flights-2026-06"
  },
  "bbox": [
    -122.55312,
    36.71968,
    -121.29451,
    37.66628
  ],
  "geometry": {"coordinates":[[-122.39169,37.62583],[-122.42857,37.64164],[-122.45085,37.65137],[-122.4782,37.66296],[-122.5143,37.66628],[-122.55312,37.62752],[-122.53916,37.59139],[-122.30129,37.37831],[-122.25024,37.34556],[-122.20706,37.31766],[-122.13994,37.27412],[-122.10604,37.25212],[-122.05432,37.21856],[-121.99063,37.17709],[-121.92517,37.13438],[-121.87795,37.10359],[-121.85266,37.08708],[-121.77977,37.03939],[-121.6901,36.98029],[-121.654,36.95715],[-121.5927,36.91586],[-121.52681,36.87251],[-121.48128,36.84223],[-121.40582,36.79244],[-121.37691,36.77339],[-121.29451,36.71968]],"type":"LineString"}
}
