{
  "id": 2031660321,
  "type": "Feature",
  "properties": {
    "geom:area": 0,
    "geom:bbox": "-122.413280,37.638160,-122.043390,38.487600",
    "geom:latitude": 38.02727163162553,
    "geom:longitude": -122.19739929089222,
    "src:alt_label": "swim-takeoff",
    "src:geom": "swim",
    "swim:elevations": [
      520,
      926,
      1055,
      1195,
      1982,
      2314,
      2808,
      3134,
      3238,
      3463,
      3533,
      4058,
      4368,
      4698,
      4989,
      5124,
      5492,
      5731,
      5900,
      5980,
      6059,
      6235,
      6387,
      6584
    ],
    "swim:geom": "takeoff",
    "swim:timestamps": [
      1782549084,
      1782549113,
      1782549127,
      1782549152,
      1782549201,
      1782549226,
      1782549268,
      1782549292,
      1782549308,
      1782549353,
      1782549365,
      1782549409,
      1782549438,
      1782549473,
      1782549508,
      1782549520,
      1782549553,
      1782549591,
      1782549617,
      1782549633,
      1782549644,
      1782549672,
      1782549694,
      1782549726
    ],
    "wof:geomhash": "5df65a528e30ef27c14f5ff12d77348e",
    "wof:id": 2031660321,
    "wof:repo": "sfomuseum-data-flights-2026-06"
  },
  "bbox": [
    -122.41328,
    37.63816,
    -122.04339,
    38.4876
  ],
  "geometry": {"coordinates":[[-122.41328,37.63816],[-122.40777,37.66123],[-122.39204,37.66639],[-122.35834,37.67327],[-122.29022,37.69392],[-122.26473,37.71281],[-122.25486,37.75906],[-122.24762,37.78748],[-122.24316,37.80553],[-122.22839,37.86698],[-122.22344,37.88669],[-122.20642,37.95461],[-122.19526,38.00042],[-122.18154,38.05726],[-122.16718,38.11571],[-122.16237,38.13492],[-122.14873,38.18997],[-122.13345,38.25272],[-122.12245,38.29718],[-122.11197,38.32463],[-122.10294,38.34322],[-122.07884,38.39197],[-122.06018,38.42999],[-122.04339,38.4876]],"type":"LineString"}
}
