{
  "id": 2031565067,
  "type": "Feature",
  "properties": {
    "geom:area": 0,
    "geom:bbox": "-122.415670,36.734290,-121.886740,37.610830",
    "geom:latitude": 37.238276733779706,
    "geom:longitude": -122.17810420307352,
    "src:alt_label": "swim-approach",
    "src:geom": "swim",
    "swim:elevations": [
      5556,
      5237,
      4779,
      4575,
      4221,
      3995,
      3698,
      3510,
      3393,
      3279,
      3109,
      3048,
      3048,
      3002,
      2756,
      2529,
      2434,
      2306,
      2142,
      2108,
      1828,
      1829,
      1829,
      1829,
      1829,
      1829,
      1792,
      1669,
      1610,
      1567,
      1550,
      1249,
      1219,
      1216,
      961,
      912,
      824,
      712,
      534,
      364,
      273,
      201,
      59
    ],
    "swim:geom": "approach",
    "swim:timestamps": [
      1781693037,
      1781693062,
      1781693096,
      1781693113,
      1781693152,
      1781693174,
      1781693212,
      1781693240,
      1781693265,
      1781693295,
      1781693328,
      1781693353,
      1781693376,
      1781693403,
      1781693439,
      1781693474,
      1781693501,
      1781693524,
      1781693547,
      1781693551,
      1781693607,
      1781693636,
      1781693660,
      1781693691,
      1781693724,
      1781693736,
      1781693787,
      1781693813,
      1781693831,
      1781693845,
      1781693860,
      1781693902,
      1781693926,
      1781693967,
      1781694021,
      1781694042,
      1781694071,
      1781694094,
      1781694137,
      1781694178,
      1781694204,
      1781694223,
      1781694264
    ],
    "wof:geomhash": "79e66c6b2b386491675db1a1d8b6c66a",
    "wof:id": 2031565067,
    "wof:repo": "sfomuseum-data-flights-2026-06"
  },
  "bbox": [
    -122.41567,
    36.73429,
    -121.88674,
    37.61083
  ],
  "geometry": {"coordinates":[[-121.88674,36.73429],[-121.90341,36.77716],[-121.92005,36.83578],[-121.92827,36.86497],[-121.94668,36.93122],[-121.95818,36.96629],[-121.98846,37.02398],[-122.03263,37.05008],[-122.07333,37.06964],[-122.1181,37.09098],[-122.16944,37.11536],[-122.20662,37.1331],[-122.23856,37.14824],[-122.27236,37.16417],[-122.31796,37.18568],[-122.36315,37.20745],[-122.39346,37.22625],[-122.40592,37.25063],[-122.4151,37.27477],[-122.41567,37.27947],[-122.40081,37.33836],[-122.39216,37.36953],[-122.38516,37.39488],[-122.35718,37.41722],[-122.31293,37.41195],[-122.298,37.40864],[-122.23133,37.39438],[-122.19665,37.39078],[-122.17517,37.39761],[-122.16,37.40371],[-122.14456,37.40996],[-122.11273,37.4365],[-122.10165,37.45697],[-122.11007,37.49206],[-122.15239,37.52446],[-122.17132,37.53288],[-122.19915,37.54484],[-122.22074,37.55412],[-122.25965,37.57229],[-122.29305,37.58664],[-122.31065,37.59401],[-122.32324,37.59925],[-122.35063,37.61083]],"type":"LineString"}
}
