{
  "id": 2031511421,
  "type": "Feature",
  "properties": {
    "geom:area": 0,
    "geom:bbox": "-122.409750,37.645350,-121.292140,37.957260",
    "geom:latitude": 37.83070859746566,
    "geom:longitude": -121.86069738165065,
    "src:alt_label": "swim-takeoff",
    "src:geom": "swim",
    "swim:elevations": [
      395,
      501,
      564,
      1134,
      1375,
      1398,
      1642,
      1720,
      1811,
      2066,
      2181,
      2643,
      2820,
      3071,
      3204,
      3324,
      3382,
      3475,
      3712,
      3723,
      3911,
      4242
    ],
    "swim:geom": "takeoff",
    "swim:timestamps": [
      1781185217,
      1781185255,
      1781185279,
      1781185346,
      1781185367,
      1781185370,
      1781185400,
      1781185415,
      1781185427,
      1781185458,
      1781185470,
      1781185526,
      1781185548,
      1781185583,
      1781185611,
      1781185645,
      1781185663,
      1781185687,
      1781185766,
      1781185770,
      1781185831,
      1781185884
    ],
    "wof:geomhash": "8bf0151fc932e300eadcf9ea45f55f38",
    "wof:id": 2031511421,
    "wof:repo": "sfomuseum-data-flights-2026-06"
  },
  "bbox": [
    -122.40975,
    37.64535,
    -121.29214,
    37.95726
  ],
  "geometry": {"coordinates":[[-122.40975,37.64535],[-122.3772,37.66755],[-122.34773,37.67543],[-122.25359,37.70476],[-122.22376,37.71441],[-122.21941,37.71588],[-122.18132,37.73467],[-122.16105,37.7452],[-122.14485,37.75369],[-122.10231,37.77567],[-122.08609,37.78405],[-122.00923,37.82308],[-121.97538,37.83142],[-121.91759,37.84231],[-121.86988,37.85128],[-121.8099,37.86247],[-121.77747,37.86847],[-121.73037,37.87709],[-121.56423,37.90777],[-121.55538,37.90942],[-121.4166,37.93476],[-121.29214,37.95726]],"type":"LineString"}
}
