{
  "id": 2031546777,
  "type": "Feature",
  "properties": {
    "geom:area": 0,
    "geom:bbox": "-123.207500,37.364167,-122.083333,47.610833",
    "geom:latitude": 42.43422804922897,
    "geom:longitude": -122.95181170737342,
    "src:alt_label": "swim-path",
    "src:geom": "swim",
    "swim:altitudes": [
      "036",
      "036",
      "094",
      "094",
      "154",
      "154",
      "173",
      "190",
      "221",
      "221",
      "253",
      "264",
      "273",
      "273",
      "292",
      "327",
      "327",
      "337",
      "337",
      "347",
      "350C",
      "350C",
      "350C",
      "350C",
      "350C",
      "350C",
      "350C",
      "350C",
      "350C",
      "350C",
      "350C",
      "350C",
      "350C",
      "350C",
      "350C",
      "350C",
      "350C",
      "350C",
      "350C",
      "350C",
      "350C",
      "350C",
      "350C",
      "350C",
      "350C",
      "350C",
      "350C",
      "350C",
      "350C",
      "350C",
      "350C",
      "350C",
      "350C",
      "350C",
      "350C",
      "350C",
      "350C",
      "350C",
      "350C",
      "350C",
      "350C",
      "350C",
      "350C",
      "350C",
      "350C",
      "350C",
      "350C",
      "350C",
      "350C",
      "350C",
      "350C",
      "350C",
      "350C",
      "350C",
      "350C",
      "350C",
      "350C",
      "350C",
      "350C",
      "350C",
      "350C",
      "350C",
      "350C",
      "350C",
      "350C",
      "350C",
      "350C",
      "350C",
      "350C",
      "350C",
      "350C",
      "350C",
      "350C",
      "350C",
      "346",
      "337",
      "337",
      "337",
      "262",
      "262",
      "262",
      "242",
      "185",
      "185",
      "150",
      "129",
      "114",
      "110C",
      "110",
      "110",
      "100",
      "070",
      "058",
      "039",
      "025",
      "003"
    ],
    "swim:geom": "path",
    "swim:speeds": [
      235,
      235,
      273,
      273,
      351,
      351,
      360,
      371,
      395,
      395,
      450,
      455,
      463,
      463,
      481,
      478,
      478,
      478,
      478,
      473,
      479,
      481,
      481,
      481,
      482,
      482,
      482,
      482,
      482,
      483,
      483,
      481,
      481,
      481,
      481,
      483,
      483,
      483,
      486,
      486,
      486,
      487,
      486,
      486,
      486,
      486,
      486,
      486,
      486,
      485,
      485,
      485,
      485,
      484,
      485,
      485,
      487,
      487,
      486,
      485,
      485,
      485,
      485,
      485,
      485,
      485,
      485,
      485,
      485,
      485,
      484,
      484,
      483,
      483,
      484,
      484,
      484,
      461,
      461,
      462,
      461,
      462,
      462,
      462,
      462,
      462,
      462,
      462,
      462,
      462,
      462,
      461,
      461,
      461,
      461,
      460,
      460,
      460,
      431,
      431,
      431,
      417,
      383,
      383,
      358,
      338,
      319,
      297,
      252,
      252,
      249,
      236,
      243,
      218,
      179,
      135
    ],
    "swim:timestamps": [
      1781561138,
      1781561138,
      1781561262,
      1781561262,
      1781561442,
      1781561442,
      1781561502,
      1781561562,
      1781561682,
      1781561682,
      1781561862,
      1781561923,
      1781561983,
      1781561983,
      1781562103,
      1781562283,
      1781562283,
      1781562343,
      1781562343,
      1781562403,
      1781562523,
      1781562644,
      1781562644,
      1781562644,
      1781562704,
      1781562704,
      1781562704,
      1781562884,
      1781562884,
      1781562944,
      1781562944,
      1781563124,
      1781563124,
      1781563184,
      1781563184,
      1781563244,
      1781563244,
      1781563244,
      1781563365,
      1781563365,
      1781563425,
      1781563470,
      1781563485,
      1781563485,
      1781563485,
      1781563545,
      1781563545,
      1781563650,
      1781563650,
      1781563725,
      1781563725,
      1781563770,
      1781563770,
      1781563845,
      1781563966,
      1781563966,
      1781564010,
      1781564010,
      1781564070,
      1781564146,
      1781564146,
      1781564146,
      1781564191,
      1781564191,
      1781564206,
      1781564251,
      1781564266,
      1781564266,
      1781564386,
      1781564386,
      1781564431,
      1781564446,
      1781564491,
      1781564491,
      1781564627,
      1781564627,
      1781564627,
      1781564731,
      1781564731,
      1781564747,
      1781564791,
      1781564852,
      1781564912,
      1781564912,
      1781564912,
      1781564927,
      1781564972,
      1781564972,
      1781564987,
      1781564987,
      1781565032,
      1781565048,
      1781565092,
      1781565108,
      1781565212,
      1781565272,
      1781565272,
      1781565272,
      1781565573,
      1781565573,
      1781565573,
      1781565633,
      1781565813,
      1781565813,
      1781565933,
      1781566000,
      1781566066,
      1781566173,
      1781566246,
      1781566246,
      1781566366,
      1781566534,
      1781566606,
      1781566720,
      1781566780,
      1781566954
    ],
    "wof:geomhash": "e2d6ac2440a3591455c2bd36230f050d",
    "wof:id": 2031546777,
    "wof:repo": "sfomuseum-data-flights-2026-06"
  },
  "bbox": [
    -123.2075,
    37.36416666666667,
    -122.08333333333333,
    47.61083333333333
  ],
  "geometry": {"coordinates":[[-122.31055555555555,47.54194444444444],[-122.31055555555555,47.54194444444444],[-122.47805555555556,47.61083333333333],[-122.47805555555556,47.61083333333333],[-122.76305555555555,47.42666666666666],[-122.76305555555555,47.42666666666666],[-122.86972222222222,47.35611111111111],[-122.97611111111111,47.285555555555554],[-123.17722222222223,47.11833333333333],[-123.17722222222223,47.11833333333333],[-123.2075,46.76222222222222],[-123.20333333333333,46.634166666666665],[-123.19916666666667,46.505],[-123.19916666666667,46.505],[-123.19027777777778,46.23694444444445],[-123.17750000000001,45.835],[-123.17750000000001,45.835],[-123.17333333333333,45.70194444444445],[-123.17333333333333,45.70194444444445],[-123.16916666666667,45.571111111111115],[-123.16083333333334,45.30472222222222],[-123.15222222222222,45.03388888888889],[-123.15222222222222,45.03388888888889],[-123.15222222222222,45.03388888888889],[-123.14805555555556,44.899166666666666],[-123.14805555555556,44.899166666666666],[-123.14805555555556,44.899166666666666],[-123.13611111111112,44.519999999999996],[-123.13611111111112,44.519999999999996],[-123.13166666666666,44.38611111111111],[-123.13166666666666,44.38611111111111],[-123.11666666666666,43.967222222222226],[-123.11666666666666,43.967222222222226],[-123.11166666666666,43.83361111111111],[-123.11166666666666,43.83361111111111],[-123.10694444444444,43.69944444444444],[-123.10694444444444,43.69944444444444],[-123.10694444444444,43.69944444444444],[-123.0975,43.426944444444445],[-123.0975,43.426944444444445],[-123.09277777777777,43.291666666666664],[-123.08944444444444,43.21138888888889],[-123.08833333333332,43.156666666666666],[-123.08833333333332,43.156666666666666],[-123.08833333333332,43.156666666666666],[-123.08361111111111,43.021388888888886],[-123.08361111111111,43.021388888888886],[-123.07555555555555,42.80611111111111],[-123.07555555555555,42.80611111111111],[-123.07,42.617777777777775],[-123.07,42.617777777777775],[-123.06611111111111,42.51166666666666],[-123.06611111111111,42.51166666666666],[-123.0611111111111,42.35],[-123.0525,42.081388888888895],[-123.0525,42.081388888888895],[-123.04888888888888,41.97361111111111],[-123.04888888888888,41.97361111111111],[-123.04472222222222,41.84],[-123.03944444444444,41.680277777777775],[-123.03944444444444,41.680277777777775],[-123.03944444444444,41.680277777777775],[-123.0363888888889,41.57277777777778],[-123.0363888888889,41.57277777777778],[-123.03555555555555,41.546388888888885],[-123.0325,41.43666666666666],[-123.03166666666667,41.41111111111111],[-123.03166666666667,41.41111111111111],[-123.02333333333333,41.138888888888886],[-123.02333333333333,41.138888888888886],[-123.02027777777778,41.030833333333334],[-123.01944444444445,41.00277777777778],[-123.01611111111112,40.896388888888886],[-123.01611111111112,40.896388888888886],[-123.0075,40.5925],[-123.0075,40.5925],[-123.0075,40.5925],[-123.00055555555555,40.35805555555556],[-123.00055555555555,40.35805555555556],[-123,40.3325],[-122.99694444444445,40.230000000000004],[-122.99333333333334,40.102222222222224],[-122.98972222222223,39.974722222222226],[-122.98972222222223,39.974722222222226],[-122.98972222222223,39.974722222222226],[-122.9888888888889,39.95],[-122.98611111111111,39.84861111111111],[-122.98611111111111,39.84861111111111],[-122.98527777777778,39.82138888888889],[-122.98527777777778,39.82138888888889],[-122.98222222222222,39.720555555555556],[-122.98166666666667,39.69277777777778],[-122.9786111111111,39.5925],[-122.97805555555556,39.565555555555555],[-122.97194444444445,39.35388888888889],[-122.96833333333333,39.22777777777778],[-122.96833333333333,39.22777777777778],[-122.96833333333333,39.22777777777778],[-122.87166666666666,38.580555555555556],[-122.87166666666666,38.580555555555556],[-122.87166666666666,38.580555555555556],[-122.8386111111111,38.468611111111116],[-122.74444444444444,38.14722222222222],[-122.74444444444444,38.14722222222222],[-122.68777777777778,37.95194444444445],[-122.61666666666666,37.85],[-122.55,37.78333333333333],[-122.43055555555556,37.67111111111111],[-122.36666666666666,37.6],[-122.36666666666666,37.6],[-122.28333333333333,37.46666666666667],[-122.13583333333334,37.36416666666667],[-122.08333333333333,37.43333333333333],[-122.15,37.53333333333333],[-122.21666666666667,37.55],[-122.3461111111111,37.60888888888889]],"type":"LineString"}
}
