{
  "id": 2031527109,
  "type": "Feature",
  "properties": {
    "geom:area": 0,
    "geom:bbox": "-122.770000,37.620000,-93.220000,45.040000",
    "geom:latitude": 42.69458026397687,
    "geom:longitude": -108.63312874183308,
    "src:alt_label": "swim-route",
    "src:geom": "swim",
    "swim:geom": "route",
    "wof:geomhash": "047e40183dc37da046ca892fe94e9b38",
    "wof:id": 2031527109,
    "wof:repo": "sfomuseum-data-flights-2026-06"
  },
  "bbox": [
    -122.77,
    37.62,
    -93.22,
    45.04
  ],
  "geometry": {"coordinates":[[-93.22,44.88],[-93.4,44.9],[-93.52,44.91],[-93.63,44.92],[-93.67,44.92],[-93.76,44.92],[-93.99,44.93],[-94.03,44.93],[-94.11,44.94],[-94.35,44.95],[-94.36,44.95],[-94.46,44.95],[-94.64,44.96],[-94.95,44.97],[-95.22,44.98],[-95.35,44.99],[-95.83,45],[-96,45.01],[-96.36,45.01],[-96.92,45.03],[-97.61,45.04],[-97.94,45.01],[-97.95,45.01],[-99.42,44.89],[-101.21,44.71],[-101.48,44.68],[-101.75,44.65],[-102.01,44.62],[-103.32,44.46],[-103.89,44.38],[-104.46,44.3],[-106.44,44],[-107.26,43.77],[-108.3,43.46],[-110.14,42.93],[-112.04,42.33],[-112.45,42.2],[-113.3,41.91],[-113.47,41.85],[-114.49,41.49],[-115.71,41.04],[-116.92,40.57],[-118.03,40.27],[-118.58,40.13],[-120.5,39.53],[-121.1,39.34],[-121.1,39.33],[-121.38,39.17],[-121.46,39.12],[-121.55,39.07],[-121.63,39.03],[-121.86,38.89],[-121.93,38.85],[-122.08,38.76],[-122.26,38.65],[-122.26,38.65],[-122.44,38.54],[-122.44,38.54],[-122.68,38.31],[-122.69,38.3],[-122.77,38.22],[-122.75,38.16],[-122.69,37.96],[-122.69,37.95],[-122.67,37.9],[-122.65,37.87],[-122.63,37.86],[-122.62,37.85],[-122.59,37.82],[-122.58,37.81],[-122.51,37.74],[-122.51,37.74],[-122.5,37.73],[-122.44,37.68],[-122.37,37.62],[-122.38,37.62]],"type":"LineString"}
}
