{
  "id": 2031509571,
  "type": "Feature",
  "properties": {
    "geom:area": 0,
    "geom:bbox": "-122.350000,34.050000,-117.250000,37.616667",
    "geom:latitude": 35.59766520188957,
    "geom:longitude": -120.01515497584569,
    "src:alt_label": "swim-path",
    "src:geom": "swim",
    "swim:altitudes": [
      "019",
      "019",
      "019",
      "038",
      "038",
      "046",
      "046",
      "073",
      "073",
      "080",
      "080",
      "080",
      "080",
      "098",
      "098",
      "098",
      "098",
      "184",
      "184",
      "184",
      "195",
      "195",
      "195",
      "209",
      "209",
      "231",
      "231",
      "231",
      "240",
      "251",
      "251",
      "251",
      "252",
      "252",
      "277",
      "277",
      "277",
      "295",
      "295",
      "295",
      "304",
      "304",
      "304",
      "317",
      "317",
      "320C",
      "320C",
      "320C",
      "320C",
      "320C",
      "320C",
      "320C",
      "320C",
      "320C",
      "320C",
      "320C",
      "320C",
      "320C",
      "320C",
      "320C",
      "320C",
      "320C",
      "320C",
      "320C",
      "310",
      "310",
      "310",
      "310",
      "290",
      "217",
      "217",
      "217",
      "189",
      "189",
      "189",
      "189",
      "157",
      "157",
      "157",
      "130",
      "130",
      "117",
      "117",
      "117",
      "117",
      "090",
      "090",
      "090",
      "043",
      "043",
      "043",
      "034",
      "025",
      "025",
      "025",
      "025",
      "001",
      "001",
      "001",
      "001"
    ],
    "swim:geom": "path",
    "swim:speeds": [
      143,
      143,
      143,
      188,
      188,
      231,
      231,
      279,
      279,
      286,
      286,
      286,
      286,
      293,
      293,
      293,
      293,
      365,
      365,
      365,
      385,
      385,
      385,
      390,
      390,
      404,
      404,
      404,
      404,
      420,
      420,
      420,
      420,
      420,
      422,
      422,
      422,
      436,
      436,
      436,
      441,
      441,
      441,
      441,
      441,
      434,
      434,
      434,
      432,
      432,
      432,
      428,
      428,
      428,
      428,
      429,
      429,
      430,
      431,
      430,
      430,
      430,
      427,
      427,
      428,
      428,
      428,
      428,
      418,
      350,
      350,
      350,
      339,
      339,
      339,
      339,
      333,
      333,
      333,
      309,
      309,
      310,
      310,
      310,
      310,
      285,
      285,
      285,
      195,
      195,
      195,
      196,
      192,
      192,
      192,
      192,
      126,
      126,
      126,
      126
    ],
    "swim:timestamps": [
      1781224862,
      1781224862,
      1781224862,
      1781224930,
      1781224930,
      1781224959,
      1781224959,
      1781225050,
      1781225050,
      1781225110,
      1781225110,
      1781225110,
      1781225110,
      1781225291,
      1781225291,
      1781225291,
      1781225291,
      1781225591,
      1781225591,
      1781225591,
      1781225651,
      1781225651,
      1781225651,
      1781225711,
      1781225711,
      1781225831,
      1781225831,
      1781225831,
      1781225881,
      1781225941,
      1781225941,
      1781225941,
      1781225952,
      1781225952,
      1781226072,
      1781226072,
      1781226072,
      1781226182,
      1781226182,
      1781226182,
      1781226242,
      1781226242,
      1781226242,
      1781226312,
      1781226312,
      1781226422,
      1781226422,
      1781226422,
      1781226492,
      1781226492,
      1781226492,
      1781226733,
      1781226733,
      1781226733,
      1781226733,
      1781226843,
      1781226843,
      1781226853,
      1781226903,
      1781226963,
      1781226963,
      1781226973,
      1781227095,
      1781227095,
      1781227155,
      1781227155,
      1781227155,
      1781227155,
      1781227215,
      1781227451,
      1781227451,
      1781227451,
      1781227576,
      1781227576,
      1781227576,
      1781227576,
      1781227696,
      1781227696,
      1781227696,
      1781227811,
      1781227811,
      1781227876,
      1781227876,
      1781227876,
      1781227876,
      1781227991,
      1781227991,
      1781227991,
      1781228231,
      1781228231,
      1781228231,
      1781228291,
      1781228356,
      1781228356,
      1781228356,
      1781228356,
      1781228532,
      1781228532,
      1781228532,
      1781228532
    ],
    "wof:geomhash": "7ca81736f5654314cc83f5956243dc5f",
    "wof:id": 2031509571,
    "wof:repo": "sfomuseum-data-flights-2026-06"
  },
  "bbox": [
    -122.35,
    34.05,
    -117.25,
    37.61666666666667
  ],
  "geometry": {"coordinates":[[-117.25,34.083333333333336],[-117.25,34.083333333333336],[-117.25,34.083333333333336],[-117.3025,34.055277777777775],[-117.3025,34.055277777777775],[-117.33333333333333,34.05],[-117.33333333333333,34.05],[-117.4675,34.056666666666665],[-117.4675,34.056666666666665],[-117.55722222222222,34.06305555555555],[-117.55722222222222,34.06305555555555],[-117.55722222222222,34.06305555555555],[-117.55722222222222,34.06305555555555],[-117.83694444444444,34.11277777777778],[-117.83694444444444,34.11277777777778],[-117.83694444444444,34.11277777777778],[-117.83694444444444,34.11277777777778],[-118.27583333333334,34.41111111111111],[-118.27583333333334,34.41111111111111],[-118.27583333333334,34.41111111111111],[-118.37472222222222,34.47777777777778],[-118.37472222222222,34.47777777777778],[-118.37472222222222,34.47777777777778],[-118.47666666666667,34.54666666666667],[-118.47666666666667,34.54666666666667],[-118.68694444444445,34.6875],[-118.68694444444445,34.6875],[-118.68694444444445,34.6875],[-118.78416666666666,34.7525],[-118.88861111111112,34.83777777777778],[-118.88861111111112,34.83777777777778],[-118.88861111111112,34.83777777777778],[-118.89277777777778,34.84277777777778],[-118.89277777777778,34.84277777777778],[-119.06194444444444,35.04861111111111],[-119.06194444444444,35.04861111111111],[-119.06194444444444,35.04861111111111],[-119.21333333333334,35.231388888888894],[-119.21333333333334,35.231388888888894],[-119.21333333333334,35.231388888888894],[-119.2975,35.33305555555556],[-119.2975,35.33305555555556],[-119.2975,35.33305555555556],[-119.3963888888889,35.45194444444445],[-119.3963888888889,35.45194444444445],[-119.60722222222222,35.575],[-119.60722222222222,35.575],[-119.60722222222222,35.575],[-119.77694444444444,35.60027777777778],[-119.77694444444444,35.60027777777778],[-119.77694444444444,35.60027777777778],[-120.34333333333333,35.68472222222222],[-120.34333333333333,35.68472222222222],[-120.34333333333333,35.68472222222222],[-120.34333333333333,35.68472222222222],[-120.58555555555554,35.775277777777774],[-120.58555555555554,35.775277777777774],[-120.61,35.78444444444444],[-120.71861111111112,35.825833333333335],[-120.85138888888888,35.876111111111115],[-120.85138888888888,35.876111111111115],[-120.87472222222222,35.88472222222222],[-121.14111111111112,35.985],[-121.14111111111112,35.985],[-121.27583333333334,36.03527777777778],[-121.27583333333334,36.03527777777778],[-121.27583333333334,36.03527777777778],[-121.27583333333334,36.03527777777778],[-121.38944444444445,36.100833333333334],[-121.68333333333334,36.483333333333334],[-121.68333333333334,36.483333333333334],[-121.68333333333334,36.483333333333334],[-121.80666666666666,36.63111111111111],[-121.80666666666666,36.63111111111111],[-121.80666666666666,36.63111111111111],[-121.80666666666666,36.63111111111111],[-121.91111111111111,36.80277777777778],[-121.91111111111111,36.80277777777778],[-121.91111111111111,36.80277777777778],[-121.96666666666667,36.983333333333334],[-121.96666666666667,36.983333333333334],[-121.99361111111111,37.055277777777775],[-121.99361111111111,37.055277777777775],[-121.99361111111111,37.055277777777775],[-121.99361111111111,37.055277777777775],[-122.05,37.21666666666667],[-122.05,37.21666666666667],[-122.05,37.21666666666667],[-122.11666666666666,37.483333333333334],[-122.11666666666666,37.483333333333334],[-122.11666666666666,37.483333333333334],[-122.15,37.53333333333333],[-122.21277777777777,37.55027777777777],[-122.21277777777777,37.55027777777777],[-122.21277777777777,37.55027777777777],[-122.21277777777777,37.55027777777777],[-122.35,37.61666666666667],[-122.35,37.61666666666667],[-122.35,37.61666666666667],[-122.35,37.61666666666667]],"type":"LineString"}
}
