{
  "id": 2031534003,
  "type": "Feature",
  "properties": {
    "geom:area": 0,
    "geom:bbox": "-122.648611,37.454444,-73.126389,43.971111",
    "geom:latitude": 42.41960094674718,
    "geom:longitude": -97.74453045861009,
    "src:alt_label": "swim-path",
    "src:geom": "swim",
    "swim:altitudes": [
      "008",
      "031",
      "031",
      "031",
      "048",
      "077",
      "077",
      "120",
      "120",
      "134",
      "134",
      "159",
      "170",
      "183",
      "183",
      "183",
      "198",
      "223",
      "240",
      "240",
      "246",
      "251",
      "251",
      "251",
      "257",
      "257",
      "265",
      "265",
      "280",
      "280",
      "313",
      "313",
      "313",
      "333",
      "333",
      "339C",
      "339C",
      "340C",
      "340C",
      "340C",
      "340C",
      "340C",
      "340C",
      "340C",
      "340C",
      "340C",
      "340C",
      "340C",
      "340C",
      "340C",
      "340C",
      "340C",
      "340C",
      "340C",
      "340C",
      "340C",
      "340C",
      "340C",
      "340C",
      "340C",
      "340C",
      "340C",
      "340C",
      "340C",
      "340C",
      "340C",
      "340C",
      "340C",
      "340C",
      "340C",
      "340C",
      "340C",
      "340C",
      "340C",
      "340C",
      "341C",
      "341C",
      "341C",
      "340C",
      "340C",
      "340C",
      "340C",
      "340C",
      "340C",
      "340C",
      "340C",
      "340C",
      "340C",
      "340C",
      "340C",
      "340C",
      "340C",
      "340C",
      "340C",
      "340C",
      "340C",
      "340C",
      "340C",
      "340C",
      "340C",
      "340C",
      "340C",
      "340C",
      "340C",
      "340C",
      "340C",
      "340C",
      "340C",
      "340C",
      "340C",
      "340C",
      "340C",
      "340C",
      "340C",
      "340C",
      "340C",
      "340C",
      "340C",
      "340C",
      "340C",
      "340C",
      "340C",
      "340C",
      "340C",
      "340C",
      "340C",
      "340C",
      "340C",
      "340C",
      "340C",
      "340C",
      "340C",
      "340C",
      "340C",
      "340C",
      "340C",
      "340C",
      "340C",
      "340C",
      "340C",
      "340C",
      "340C",
      "340C",
      "340C",
      "359C",
      "359C",
      "360C",
      "360C",
      "360C",
      "360C",
      "360C",
      "360C",
      "360C",
      "360C",
      "360C",
      "360C",
      "360C",
      "360C",
      "360C",
      "360C",
      "360C",
      "360C",
      "360C",
      "360C",
      "360C",
      "360C",
      "360C",
      "360C",
      "360C",
      "360C",
      "360C",
      "360C",
      "360C",
      "360C",
      "360C",
      "360C",
      "360C",
      "360C",
      "360C",
      "360C",
      "360C",
      "360C",
      "360C",
      "360C",
      "360C",
      "360C",
      "360C",
      "360C",
      "360C",
      "360C",
      "360C",
      "360C",
      "360C",
      "360C",
      "360C",
      "361C",
      "361C",
      "360C",
      "360C",
      "360C",
      "360C",
      "360C",
      "360C",
      "360C",
      "360C",
      "360C",
      "360C",
      "360C",
      "360C",
      "360C",
      "360C",
      "360C",
      "360C",
      "360C",
      "360C",
      "360C",
      "360C",
      "360C",
      "361C",
      "360C",
      "360C",
      "360C",
      "360C",
      "360C",
      "360C",
      "360C",
      "360C",
      "360C",
      "361C",
      "360C",
      "360C",
      "360C",
      "360C",
      "360C",
      "360C",
      "360C",
      "360C",
      "360C",
      "360C",
      "360C",
      "360C",
      "360C",
      "360C",
      "360C",
      "360C",
      "360C",
      "360C",
      "360C",
      "360C",
      "360C",
      "360C",
      "360C",
      "360C",
      "360C",
      "360C",
      "360C",
      "360C",
      "360C",
      "360C",
      "360C",
      "360C",
      "360C",
      "360C",
      "360C",
      "360C",
      "360C",
      "360C",
      "360C",
      "360C",
      "360C",
      "360C",
      "360",
      "360",
      "360",
      "360",
      "360",
      "360",
      "360",
      "360",
      "360",
      "360",
      "360",
      "352",
      "343",
      "333",
      "323",
      "277",
      "206",
      "190",
      "189",
      "169",
      "148",
      "111C",
      "108",
      "094",
      "094",
      "063",
      "052",
      "031",
      "030",
      "022",
      "022",
      "005"
    ],
    "swim:geom": "path",
    "swim:speeds": [
      169,
      259,
      259,
      259,
      294,
      309,
      309,
      334,
      334,
      346,
      346,
      323,
      340,
      373,
      373,
      373,
      376,
      408,
      402,
      402,
      420,
      438,
      438,
      438,
      454,
      454,
      444,
      444,
      413,
      413,
      419,
      419,
      419,
      424,
      424,
      402,
      402,
      398,
      400,
      400,
      400,
      413,
      413,
      417,
      417,
      418,
      418,
      418,
      416,
      402,
      402,
      385,
      385,
      385,
      382,
      382,
      382,
      382,
      375,
      375,
      375,
      377,
      379,
      380,
      380,
      380,
      381,
      381,
      383,
      383,
      383,
      384,
      384,
      386,
      386,
      394,
      394,
      394,
      388,
      388,
      389,
      389,
      389,
      389,
      390,
      390,
      389,
      389,
      389,
      389,
      379,
      370,
      370,
      370,
      372,
      379,
      379,
      379,
      380,
      380,
      381,
      381,
      382,
      382,
      383,
      383,
      389,
      389,
      389,
      388,
      388,
      386,
      385,
      385,
      385,
      385,
      385,
      383,
      380,
      379,
      377,
      377,
      374,
      371,
      371,
      367,
      367,
      367,
      367,
      374,
      370,
      370,
      375,
      390,
      394,
      403,
      403,
      415,
      415,
      417,
      416,
      416,
      407,
      407,
      409,
      409,
      405,
      402,
      400,
      395,
      400,
      400,
      400,
      401,
      401,
      402,
      402,
      401,
      399,
      399,
      402,
      402,
      402,
      402,
      402,
      404,
      404,
      407,
      408,
      408,
      408,
      405,
      404,
      404,
      404,
      404,
      404,
      405,
      404,
      404,
      406,
      405,
      405,
      409,
      408,
      408,
      415,
      410,
      410,
      409,
      409,
      408,
      408,
      413,
      413,
      417,
      417,
      422,
      426,
      426,
      427,
      427,
      426,
      426,
      430,
      434,
      436,
      438,
      438,
      437,
      437,
      437,
      438,
      440,
      440,
      443,
      446,
      446,
      449,
      451,
      450,
      451,
      452,
      452,
      441,
      457,
      457,
      458,
      460,
      462,
      461,
      459,
      457,
      456,
      456,
      457,
      455,
      457,
      456,
      455,
      455,
      455,
      455,
      455,
      455,
      454,
      455,
      454,
      453,
      453,
      452,
      449,
      448,
      448,
      446,
      445,
      445,
      445,
      445,
      445,
      446,
      447,
      448,
      448,
      449,
      449,
      449,
      450,
      449,
      450,
      451,
      452,
      453,
      455,
      456,
      457,
      459,
      459,
      460,
      461,
      461,
      464,
      467,
      469,
      468,
      469,
      489,
      427,
      419,
      423,
      410,
      394,
      265,
      268,
      257,
      257,
      259,
      248,
      196,
      193,
      188,
      188,
      148
    ],
    "swim:timestamps": [
      1781490566,
      1781490663,
      1781490663,
      1781490663,
      1781490704,
      1781490783,
      1781490783,
      1781490904,
      1781490904,
      1781490944,
      1781490944,
      1781491024,
      1781491084,
      1781491204,
      1781491204,
      1781491204,
      1781491264,
      1781491384,
      1781491504,
      1781491504,
      1781491570,
      1781491624,
      1781491624,
      1781491624,
      1781491684,
      1781491684,
      1781491745,
      1781491745,
      1781491865,
      1781491865,
      1781492105,
      1781492105,
      1781492105,
      1781492279,
      1781492279,
      1781492345,
      1781492345,
      1781492405,
      1781492459,
      1781492459,
      1781492465,
      1781492579,
      1781492579,
      1781492646,
      1781492646,
      1781492766,
      1781492766,
      1781492766,
      1781492820,
      1781492946,
      1781492946,
      1781493126,
      1781493126,
      1781493126,
      1781493186,
      1781493240,
      1781493240,
      1781493240,
      1781493426,
      1781493426,
      1781493426,
      1781493486,
      1781493546,
      1781493601,
      1781493601,
      1781493601,
      1781493661,
      1781493721,
      1781493781,
      1781493781,
      1781493781,
      1781493841,
      1781493841,
      1781493901,
      1781493901,
      1781494081,
      1781494081,
      1781494081,
      1781494694,
      1781494694,
      1781494754,
      1781494814,
      1781494814,
      1781494814,
      1781494874,
      1781494874,
      1781495595,
      1781495595,
      1781495655,
      1781495655,
      1781495952,
      1781496132,
      1781496132,
      1781496132,
      1781496192,
      1781496313,
      1781496313,
      1781496313,
      1781496375,
      1781496375,
      1781496435,
      1781496435,
      1781496493,
      1781496493,
      1781496556,
      1781496556,
      1781496796,
      1781496851,
      1781496976,
      1781497092,
      1781497092,
      1781497396,
      1781497632,
      1781497632,
      1781497812,
      1781498297,
      1781498297,
      1781498414,
      1781498533,
      1781498597,
      1781498717,
      1781498717,
      1781498837,
      1781498958,
      1781498958,
      1781499192,
      1781499258,
      1781499258,
      1781499313,
      1781499675,
      1781499853,
      1781499913,
      1781500034,
      1781500219,
      1781500279,
      1781500579,
      1781500579,
      1781500939,
      1781500939,
      1781501179,
      1781501299,
      1781501299,
      1781501600,
      1781501600,
      1781501900,
      1781501900,
      1781502200,
      1781502320,
      1781502380,
      1781502401,
      1781502440,
      1781502560,
      1781502560,
      1781502641,
      1781502701,
      1781502822,
      1781502941,
      1781502980,
      1781503062,
      1781503062,
      1781503101,
      1781503121,
      1781503182,
      1781503182,
      1781503221,
      1781503341,
      1781503422,
      1781503581,
      1781503602,
      1781503701,
      1781503701,
      1781503842,
      1781503881,
      1781503902,
      1781503941,
      1781503963,
      1781503963,
      1781504023,
      1781504143,
      1781504143,
      1781504262,
      1781504323,
      1781504383,
      1781504442,
      1781504803,
      1781504803,
      1781504923,
      1781504983,
      1781505043,
      1781505163,
      1781505163,
      1781505284,
      1781505284,
      1781505523,
      1781505523,
      1781505644,
      1781505644,
      1781505824,
      1781506004,
      1781506004,
      1781506124,
      1781506184,
      1781506244,
      1781506244,
      1781506485,
      1781506605,
      1781506665,
      1781506785,
      1781506785,
      1781506845,
      1781506845,
      1781506905,
      1781506965,
      1781507205,
      1781507205,
      1781507325,
      1781507385,
      1781507385,
      1781507445,
      1781507506,
      1781507686,
      1781507806,
      1781507866,
      1781507866,
      1781507986,
      1781508106,
      1781508106,
      1781508166,
      1781508226,
      1781508346,
      1781508406,
      1781508466,
      1781508526,
      1781508586,
      1781508586,
      1781508706,
      1781508744,
      1781508767,
      1781508827,
      1781508864,
      1781508887,
      1781508924,
      1781508985,
      1781509007,
      1781509045,
      1781509067,
      1781509105,
      1781509127,
      1781509187,
      1781509187,
      1781509405,
      1781509525,
      1781509547,
      1781509547,
      1781509607,
      1781509667,
      1781509705,
      1781509727,
      1781509727,
      1781509765,
      1781509967,
      1781510005,
      1781510065,
      1781510088,
      1781510125,
      1781510148,
      1781510148,
      1781510185,
      1781510245,
      1781510425,
      1781510485,
      1781510545,
      1781510605,
      1781510725,
      1781510785,
      1781510845,
      1781510905,
      1781510905,
      1781510966,
      1781511026,
      1781511026,
      1781511086,
      1781511206,
      1781511266,
      1781511326,
      1781511386,
      1781511566,
      1781511755,
      1781511797,
      1781511806,
      1781511866,
      1781511926,
      1781512106,
      1781512163,
      1781512226,
      1781512226,
      1781512346,
      1781512406,
      1781512586,
      1781512596,
      1781512646,
      1781512646,
      1781512766
    ],
    "wof:geomhash": "ac091f9e48a5a8eac73d2e4298966af6",
    "wof:id": 2031534003,
    "wof:repo": "sfomuseum-data-flights-2026-06"
  },
  "bbox": [
    -122.64861111111112,
    37.45444444444445,
    -73.12638888888888,
    43.971111111111114
  ],
  "geometry": {"coordinates":[[-73.78333333333333,40.61666666666667],[-73.76972222222223,40.5625],[-73.76972222222223,40.5625],[-73.76972222222223,40.5625],[-73.7,40.583333333333336],[-73.60666666666665,40.65861111111111],[-73.60666666666665,40.65861111111111],[-73.45972222222223,40.801944444444445],[-73.45972222222223,40.801944444444445],[-73.4,40.85],[-73.4,40.85],[-73.43305555555555,40.96555555555556],[-73.48555555555555,41.04694444444444],[-73.41305555555556,41.24333333333333],[-73.41305555555556,41.24333333333333],[-73.41305555555556,41.24333333333333],[-73.3711111111111,41.344166666666666],[-73.24055555555556,41.535555555555554],[-73.12638888888888,41.73833333333334],[-73.12638888888888,41.73833333333334],[-73.14583333333334,41.85333333333333],[-73.16611111111112,41.972500000000004],[-73.16611111111112,41.972500000000004],[-73.16611111111112,41.972500000000004],[-73.18777777777778,42.1],[-73.18777777777778,42.1],[-73.22305555555556,42.225],[-73.22305555555556,42.225],[-73.41083333333334,42.37861111111111],[-73.41083333333334,42.37861111111111],[-73.86027777777777,42.72027777777778],[-73.86027777777777,42.72027777777778],[-73.86027777777777,42.72027777777778],[-74.18944444444445,42.96527777777778],[-74.18944444444445,42.96527777777778],[-74.35916666666667,43.01777777777777],[-74.35916666666667,43.01777777777777],[-74.51027777777777,43.025555555555556],[-74.63138888888888,43.030277777777776],[-74.63138888888888,43.030277777777776],[-74.66222222222223,43.032222222222224],[-74.94388888888889,43.04416666666666],[-74.94388888888889,43.04416666666666],[-75.13611111111112,43.05166666666666],[-75.13611111111112,43.05166666666666],[-75.45666666666666,43.06222222222222],[-75.45666666666666,43.06222222222222],[-75.45666666666666,43.06222222222222],[-75.58472222222221,43.065555555555555],[-75.89111111111112,43.07333333333334],[-75.89111111111112,43.07333333333334],[-76.33111111111111,43.08277777777778],[-76.33111111111111,43.08277777777778],[-76.33111111111111,43.08277777777778],[-76.47638888888889,43.08555555555556],[-76.62222222222222,43.08694444444445],[-76.62222222222222,43.08694444444445],[-76.62222222222222,43.08694444444445],[-77.02388888888889,42.98861111111111],[-77.02388888888889,42.98861111111111],[-77.02388888888889,42.98861111111111],[-77.15611111111112,42.948611111111106],[-77.29055555555556,42.908055555555556],[-77.41722222222222,42.869166666666665],[-77.41722222222222,42.869166666666665],[-77.41722222222222,42.869166666666665],[-77.54888888888888,42.82916666666667],[-77.67888888888889,42.79],[-77.82,42.78916666666667],[-77.82,42.78916666666667],[-77.82,42.78916666666667],[-77.96416666666667,42.79972222222222],[-77.96416666666667,42.79972222222222],[-78.13833333333334,42.81305555555555],[-78.13833333333334,42.81305555555555],[-78.58166666666666,42.845],[-78.58166666666666,42.845],[-78.58166666666666,42.845],[-80.08138888888888,42.941111111111105],[-80.08138888888888,42.941111111111105],[-80.22777777777777,42.94944444444444],[-80.37444444444444,42.9575],[-80.37444444444444,42.9575],[-80.37444444444444,42.9575],[-80.52083333333333,42.96555555555556],[-80.52083333333333,42.96555555555556],[-82.2611111111111,43.04527777777778],[-82.2611111111111,43.04527777777778],[-82.4075,43.05083333333333],[-82.4075,43.05083333333333],[-83.11166666666666,43.07472222222223],[-83.54055555555556,43.086666666666666],[-83.54055555555556,43.086666666666666],[-83.54055555555556,43.086666666666666],[-83.71138888888889,43.09138888888889],[-83.99805555555555,43.098333333333336],[-83.99805555555555,43.098333333333336],[-83.99805555555555,43.098333333333336],[-84.15527777777778,43.10166666666667],[-84.15527777777778,43.10166666666667],[-84.28861111111111,43.10444444444445],[-84.28861111111111,43.10444444444445],[-84.43277777777779,43.1075],[-84.43277777777779,43.1075],[-84.57666666666667,43.11027777777778],[-84.57666666666667,43.11027777777778],[-85.16611111111112,43.119166666666665],[-85.31527777777778,43.12111111111111],[-85.60916666666667,43.12388888888889],[-85.90083333333334,43.12638888888889],[-85.90083333333334,43.12638888888889],[-86.65361111111112,43.12861111111111],[-87.20694444444445,43.12722222222222],[-87.20694444444445,43.12722222222222],[-87.65972222222223,43.12416666666667],[-88.83194444444445,43.124722222222225],[-88.83194444444445,43.124722222222225],[-89.09527777777777,43.12833333333333],[-89.38277777777778,43.13111111111111],[-89.55333333333333,43.130833333333335],[-89.84472222222222,43.13388888888889],[-89.84472222222222,43.13388888888889],[-90.1286111111111,43.13444444444444],[-90.39750000000001,43.13472222222222],[-90.39750000000001,43.13472222222222],[-90.95194444444445,43.13305555555556],[-91.09305555555555,43.13194444444444],[-91.09305555555555,43.13194444444444],[-91.23138888888889,43.13111111111111],[-92.07416666666666,43.12138888888889],[-92.49472222222222,43.11361111111111],[-92.635,43.11083333333333],[-92.91805555555555,43.105000000000004],[-93.38944444444445,43.10583333333334],[-93.53555555555555,43.13111111111111],[-94.28361111111111,43.25944444444445],[-94.28361111111111,43.25944444444445],[-95.20527777777778,43.41027777777778],[-95.20527777777778,43.41027777777778],[-95.79861111111111,43.50333333333333],[-96.10944444444443,43.550555555555555],[-96.10944444444443,43.550555555555555],[-96.885,43.657777777777774],[-96.885,43.657777777777774],[-97.6613888888889,43.71666666666667],[-97.6613888888889,43.71666666666667],[-98.44,43.769999999999996],[-98.75555555555556,43.790277777777774],[-98.90861111111111,43.79972222222222],[-98.97083333333333,43.80361111111111],[-99.06083333333333,43.80888888888889],[-99.36805555555554,43.82666666666667],[-99.36805555555554,43.82666666666667],[-99.58361111111111,43.838055555555556],[-99.73916666666666,43.84666666666667],[-100.01777777777778,43.86055555555556],[-100.35749999999999,43.87916666666667],[-100.44972222222222,43.88333333333333],[-100.64416666666668,43.89138888888889],[-100.64416666666668,43.89138888888889],[-100.76,43.897777777777776],[-100.82,43.900555555555556],[-100.97583333333334,43.907222222222224],[-100.97583333333334,43.907222222222224],[-101.06916666666666,43.91111111111111],[-101.37888888888888,43.92361111111111],[-101.57249999999999,43.92944444444444],[-102.00722222222223,43.94638888888888],[-102.04527777777777,43.94777777777777],[-102.32083333333333,43.95666666666667],[-102.32083333333333,43.95666666666667],[-102.66305555555556,43.966944444444444],[-102.78722222222223,43.97027777777778],[-102.81722222222221,43.971111111111114],[-102.94111111111111,43.96361111111111],[-102.97777777777777,43.9575],[-102.97777777777777,43.9575],[-103.12666666666667,43.933055555555555],[-103.42805555555556,43.88194444444444],[-103.42805555555556,43.88194444444444],[-103.73388888888888,43.830000000000005],[-103.88388888888889,43.80333333333333],[-104.03611111111111,43.77722222222222],[-104.19222222222223,43.749722222222225],[-105.12916666666666,43.57916666666667],[-105.12916666666666,43.57916666666667],[-105.43305555555555,43.52194444444444],[-105.58305555555555,43.49333333333333],[-105.73472222222222,43.464444444444446],[-106.03388888888888,43.406388888888884],[-106.03388888888888,43.406388888888884],[-106.335,43.346944444444446],[-106.335,43.346944444444446],[-106.92916666666667,43.227222222222224],[-106.92916666666667,43.227222222222224],[-107.23694444444445,43.163888888888884],[-107.23694444444445,43.163888888888884],[-107.70166666666667,43.066111111111105],[-108.16583333333334,42.96638888888889],[-108.16583333333334,42.96638888888889],[-108.46138888888889,42.901944444444446],[-108.61749999999999,42.8675],[-108.76777777777778,42.83416666666667],[-108.76777777777778,42.83416666666667],[-109.41416666666667,42.687777777777775],[-109.72722222222222,42.615],[-109.88305555555554,42.57888888888889],[-110.19805555555556,42.50416666666667],[-110.19805555555556,42.50416666666667],[-110.35277777777777,42.467222222222226],[-110.35277777777777,42.467222222222226],[-110.5075,42.43],[-110.66361111111112,42.3925],[-111.27361111111111,42.24194444444444],[-111.27361111111111,42.24194444444444],[-111.58694444444444,42.163333333333334],[-111.74305555555556,42.12361111111111],[-111.74305555555556,42.12361111111111],[-111.90416666666667,42.0825],[-112.0625,42.04194444444444],[-112.53694444444444,41.91833333333333],[-112.88166666666666,41.82666666666667],[-113.03722222222223,41.785],[-113.03722222222223,41.785],[-113.34916666666666,41.700833333333335],[-113.66194444444444,41.61527777777778],[-113.66194444444444,41.61527777777778],[-113.82305555555556,41.57083333333334],[-113.9825,41.52638888888889],[-114.30305555555556,41.436388888888885],[-114.46194444444444,41.39138888888889],[-114.61722222222221,41.34722222222222],[-114.7761111111111,41.30166666666666],[-114.92361111111111,41.25888888888889],[-114.92361111111111,41.25888888888889],[-115.23805555555556,41.16722222222222],[-115.33194444444445,41.13944444444444],[-115.39444444444445,41.12138888888889],[-115.54888888888888,41.075833333333335],[-115.64361111111111,41.0475],[-115.70361111111112,41.02972222222222],[-115.79805555555555,41.00111111111111],[-115.9538888888889,40.955000000000005],[-116.01527777777778,40.936388888888885],[-116.1086111111111,40.90888888888889],[-116.16888888888889,40.88972222222222],[-116.26222222222222,40.86194444444445],[-116.32249999999999,40.84305555555556],[-116.47500000000001,40.79611111111111],[-116.47500000000001,40.79611111111111],[-117.0225,40.62638888888889],[-117.32,40.532777777777774],[-117.37722222222222,40.514722222222225],[-117.37722222222222,40.514722222222225],[-117.52583333333334,40.4675],[-117.6738888888889,40.419999999999995],[-117.76527777777778,40.39055555555556],[-117.82472222222222,40.37138888888889],[-117.82472222222222,40.37138888888889],[-117.94500000000001,40.33277777777778],[-118.41777777777779,40.17805555555555],[-118.51166666666667,40.14722222222222],[-118.69222222222223,40.090833333333336],[-118.71861111111112,40.08277777777778],[-118.84305555555555,40.04555555555555],[-118.87027777777777,40.03722222222222],[-118.87027777777777,40.03722222222222],[-118.99361111111111,40],[-119.14333333333335,39.95444444444445],[-119.59388888888888,39.815555555555555],[-119.74416666666667,39.76888888888889],[-119.89527777777778,39.72138888888889],[-120.04555555555555,39.674166666666665],[-120.34166666666667,39.58027777777778],[-120.49333333333334,39.53194444444444],[-120.64583333333334,39.48277777777778],[-120.79972222222221,39.433055555555555],[-120.79972222222221,39.433055555555555],[-120.95111111111112,39.38388888888889],[-121.10027777777778,39.32944444444445],[-121.10027777777778,39.32944444444445],[-121.23777777777778,39.25388888888889],[-121.5025,39.099722222222226],[-121.63805555555557,39.019999999999996],[-121.77055555555556,38.94194444444444],[-121.90305555555557,38.86361111111111],[-122.28333333333333,38.59111111111111],[-122.48333333333333,38.21666666666667],[-122.53333333333333,38.15],[-122.53666666666666,38.14333333333333],[-122.59472222222222,38.04],[-122.64861111111112,37.94333333333333],[-122.4863888888889,37.723055555555554],[-122.43333333333334,37.666666666666664],[-122.36833333333333,37.61055555555556],[-122.36833333333333,37.61055555555556],[-122.28777777777778,37.48388888888889],[-122.20916666666668,37.45444444444445],[-122.1763888888889,37.5375],[-122.18333333333334,37.55],[-122.23416666666667,37.56166666666666],[-122.23416666666667,37.56166666666666],[-122.33472222222221,37.60416666666667]],"type":"LineString"}
}
