{
  "id": 2031523943,
  "type": "Feature",
  "properties": {
    "geom:area": 0,
    "geom:bbox": "-122.380000,37.620000,-77.040000,40.230000",
    "geom:latitude": 39.63008480317498,
    "geom:longitude": -99.49381606148896,
    "src:alt_label": "swim-route",
    "src:geom": "swim",
    "swim:geom": "route",
    "wof:geomhash": "8ce60890fb01aa8d6a456a0cf46a9f59",
    "wof:id": 2031523943,
    "wof:repo": "sfomuseum-data-flights-2026-06"
  },
  "bbox": [
    -122.38,
    37.62,
    -77.04,
    40.23
  ],
  "geometry": {"coordinates":[[-122.38,37.62],[-122.28,37.68],[-122.27,37.69],[-122.27,37.69],[-122.21,37.72],[-122.21,37.72],[-122.2,37.72],[-122.18,37.73],[-122.18,37.74],[-122.16,37.75],[-122.12,37.76],[-122.11,37.77],[-122,37.83],[-121.94,37.85],[-121.77,37.92],[-121.75,37.93],[-121.61,37.98],[-121.48,38.04],[-121.41,38.06],[-121.38,38.07],[-121.26,38.12],[-121.23,38.13],[-121.16,38.16],[-121.04,38.21],[-120.92,38.22],[-120.82,38.24],[-120.72,38.25],[-120.67,38.26],[-120.62,38.26],[-120.2,38.32],[-119.22,38.45],[-118.23,38.57],[-117.88,38.61],[-117.3,38.68],[-117.29,38.68],[-116.05,38.89],[-115.74,38.94],[-114.68,39.1],[-113.32,39.29],[-113.25,39.3],[-112.2,39.47],[-111.74,39.54],[-111.14,39.64],[-110.08,39.79],[-109.88,39.82],[-109.8,39.83],[-109.65,39.85],[-109.55,39.86],[-109.01,39.93],[-108.95,39.94],[-107.01,40.05],[-105.05,40.14],[-104.56,40.15],[-104.52,40.15],[-103.18,40.19],[-101.24,40.2],[-100.59,40.2],[-100,40.22],[-99.06,40.23],[-95.62,40.23],[-95.2,40.22],[-93.9,40.18],[-92.59,40.14],[-91.45,40.03],[-90.65,39.95],[-90,39.88],[-89.83,39.88],[-89.58,39.87],[-89.33,39.87],[-88.15,39.84],[-87.12,39.8],[-86.75,39.89],[-86.17,39.95],[-85.31,39.88],[-83.65,39.75],[-83.6,39.73],[-83.14,39.68],[-81.45,39.5],[-81.27,39.48],[-81.18,39.47],[-81.02,39.46],[-80.68,39.58],[-80.55,39.56],[-80.28,39.51],[-80.14,39.65],[-80.07,39.63],[-80.07,39.63],[-79.78,39.55],[-79.68,39.61],[-79.55,39.68],[-79.13,39.5],[-79.1,39.51],[-79.09,39.51],[-79.02,39.48],[-78.79,39.37],[-78.72,39.33],[-78.72,39.33],[-78.59,39.27],[-78.41,39.19],[-78.37,39.16],[-78.28,39.21],[-78.26,39.2],[-78.21,39.13],[-78.16,39.11],[-78.15,39.11],[-78.11,39.1],[-78.05,39.09],[-77.99,39.07],[-77.94,39.06],[-77.86,39.04],[-77.84,39.03],[-77.75,39.01],[-77.73,39],[-77.65,38.98],[-77.62,38.97],[-77.45,38.91],[-77.41,38.89],[-77.31,38.85],[-77.31,38.85],[-77.17,38.79],[-77.11,38.76],[-77.11,38.76],[-77.11,38.67],[-77.11,38.65],[-77.11,38.63],[-77.09,38.69],[-77.06,38.77],[-77.04,38.85]],"type":"LineString"}
}
