{
  "id": 2031449557,
  "type": "Feature",
  "properties": {
    "geom:area": 0,
    "geom:bbox": "-123.310560,37.625500,-122.391360,38.484810",
    "geom:latitude": 38.013515480405374,
    "geom:longitude": -122.8843309956845,
    "src:alt_label": "swim-takeoff",
    "src:geom": "swim",
    "swim:elevations": [
      152,
      532,
      669,
      720,
      1190,
      1329,
      1853,
      2272,
      2590,
      2625,
      2972,
      3191,
      3320,
      3510,
      3622,
      3916,
      4201,
      4476,
      4723,
      4992,
      5305,
      5511,
      5812,
      6067,
      6521,
      6767
    ],
    "swim:geom": "takeoff",
    "swim:timestamps": [
      1780625124,
      1780625154,
      1780625182,
      1780625197,
      1780625244,
      1780625259,
      1780625304,
      1780625334,
      1780625367,
      1780625370,
      1780625403,
      1780625430,
      1780625460,
      1780625496,
      1780625520,
      1780625553,
      1780625583,
      1780625610,
      1780625646,
      1780625676,
      1780625709,
      1780625733,
      1780625763,
      1780625793,
      1780625823,
      1780625857
    ],
    "wof:geomhash": "ddd10f72227dec74eb748d46da36feda",
    "wof:id": 2031449557,
    "wof:repo": "sfomuseum-data-flights-2026-06"
  },
  "bbox": [
    -123.31056,
    37.6255,
    -122.39136,
    38.48481
  ],
  "geometry": {"coordinates":[[-122.39136,37.6255],[-122.41842,37.63704],[-122.44639,37.64934],[-122.46389,37.65713],[-122.524,37.68659],[-122.54296,37.69772],[-122.60112,37.73234],[-122.64041,37.75554],[-122.68378,37.78096],[-122.68779,37.78333],[-122.73226,37.80942],[-122.76603,37.83526],[-122.79719,37.87213],[-122.83709,37.92043],[-122.8654,37.95485],[-122.90606,38.00376],[-122.94356,38.04873],[-122.97767,38.08962],[-123.02414,38.14507],[-123.06382,38.1923],[-123.10785,38.24488],[-123.14016,38.28336],[-123.18092,38.33183],[-123.2219,38.38066],[-123.26348,38.42912],[-123.31056,38.48481]],"type":"LineString"}
}
