{
  "id": 2031505981,
  "type": "Feature",
  "properties": {
    "date:cessation_lower": "2026-06-10",
    "date:cessation_upper": "2026-06-10",
    "date:inception_lower": "2026-06-10",
    "date:inception_upper": "2026-06-10",
    "edtf:cessation": "2026-06-10T21:19:00Z",
    "edtf:inception": "2026-06-10T19:38:00Z",
    "flysfo:actual_timestamp": -1,
    "flysfo:airline": "UA",
    "flysfo:base_airline": "",
    "flysfo:base_flight_number": "9435",
    "flysfo:date": "2026-06-10",
    "flysfo:estimated_timestamp": 1781118780,
    "flysfo:event": "D",
    "flysfo:flight_number": "UA562",
    "flysfo:gate": "B5",
    "flysfo:journey": "SFO-BZN",
    "flysfo:scheduled_timestamp": 1781118000,
    "flysfo:timestamp": 1781118780,
    "geom:area": 0,
    "geom:bbox": "-122.370943,37.617990,-111.158267,45.775425",
    "geom:latitude": 41.6967075,
    "geom:longitude": -116.76460499999999,
    "iata:airline": "UA",
    "iata:base_airline": "",
    "icao:aircraft": "A320",
    "icao:airline": "UAL",
    "icao:base_airline": "ANZ",
    "lbl:latitude": 37.61799,
    "lbl:longitude": -122.370943,
    "sfomuseum:aircraft_id": 1159292085,
    "sfomuseum:airline_id": 1159285413,
    "sfomuseum:arrival_id": 102530815,
    "sfomuseum:base_flight_id": "20260610-D-ANZ-9435",
    "sfomuseum:departure_id": 102527513,
    "sfomuseum:flight_id": "20260610-D-UAL-562",
    "sfomuseum:flight_number": [
      "UAL562",
      "UA562"
    ],
    "sfomuseum:placetype": "flight",
    "src:geom": "flysfo",
    "src:geom_alt": [
      "swim-route",
      "swim-path",
      "swim-takeoff"
    ],
    "swim:tail_number": "N447UA",
    "wof:belongsto": [
      1947304067,
      102527513,
      1947304261,
      102191575,
      85633793,
      102087579,
      85922583,
      554784711,
      85688637,
      1947304299,
      1947304259,
      102085387
    ],
    "wof:concordances": {
      "swim:flight_ref": "148904637",
      "swim:gufi": "KO654504zi"
    },
    "wof:country": "US",
    "wof:created": 1781194677,
    "wof:geomhash": "8115bc7828d3bd6404c793fb172971b8",
    "wof:hierarchy": [
      {
        "building_id": 1947304067,
        "campus_id": 102527513,
        "concourse_id": 1947304261,
        "continent_id": 102191575,
        "country_id": 85633793,
        "county_id": 102087579,
        "custom_id": 2031505981,
        "flight_id": 2031505981,
        "locality_id": 85922583,
        "postalcode_id": 554784711,
        "region_id": 85688637,
        "venue_id": 1947304299,
        "wing_id": 1947304259
      },
      {
        "building_id": 1947304067,
        "campus_id": 102527513,
        "concourse_id": 1947304261,
        "continent_id": 102191575,
        "country_id": 85633793,
        "county_id": 102085387,
        "custom_id": 2031505981,
        "flight_id": 2031505981,
        "region_id": 85688637,
        "venue_id": 1947304299,
        "wing_id": 1947304259
      }
    ],
    "wof:id": 2031505981,
    "wof:involves": [
      1159283697,
      1159292085,
      102530815,
      102527513,
      1159285413,
      1947304299
    ],
    "wof:lastmodified": 1781194798,
    "wof:name": "UA562 (SFO-BZN)",
    "wof:parent_id": 1947304299,
    "wof:placetype": "custom",
    "wof:placetype_alt": [
      "flight"
    ],
    "wof:repo": "sfomuseum-data-flights-2026-06",
    "wof:superseded_by": [],
    "wof:supersedes": []
  },
  "bbox": [
    -122.370943,
    37.61799,
    -111.158267,
    45.775425
  ],
  "geometry": {"coordinates":[[-122.370943,37.61799],[-111.158267,45.775425]],"type":"MultiPoint"}
}
