{
  "id": 2031462379,
  "type": "Feature",
  "properties": {
    "geom:area": 0,
    "geom:bbox": "-122.526830,37.623580,-122.048700,38.513950",
    "geom:latitude": 38.02936139955571,
    "geom:longitude": -122.3034292401572,
    "src:alt_label": "swim-takeoff",
    "src:geom": "swim",
    "swim:elevations": [
      213,
      274,
      685,
      865,
      1238,
      1457,
      1744,
      2503,
      2735,
      3024,
      3229,
      3622,
      4088,
      4569,
      4700,
      4998,
      5293,
      5724,
      6157,
      6477,
      6568,
      6821,
      7105,
      7515,
      7638,
      7934
    ],
    "swim:geom": "takeoff",
    "swim:timestamps": [
      1780726299,
      1780726304,
      1780726348,
      1780726363,
      1780726402,
      1780726419,
      1780726441,
      1780726496,
      1780726516,
      1780726539,
      1780726564,
      1780726604,
      1780726640,
      1780726675,
      1780726685,
      1780726705,
      1780726729,
      1780726762,
      1780726798,
      1780726824,
      1780726832,
      1780726852,
      1780726879,
      1780726918,
      1780726932,
      1780726971
    ],
    "wof:geomhash": "fc8ffd2e6bea85c33e747a65f326e4a0",
    "wof:id": 2031462379,
    "wof:repo": "sfomuseum-data-flights-2026-06"
  },
  "bbox": [
    -122.52683,
    37.62358,
    -122.0487,
    38.51395
  ],
  "geometry": {"coordinates":[[-122.38589,37.62358],[-122.38914,37.62508],[-122.42502,37.64045],[-122.44014,37.64681],[-122.48297,37.66537],[-122.50377,37.67442],[-122.52247,37.69476],[-122.52683,37.7646],[-122.52172,37.79049],[-122.49672,37.81458],[-122.45281,37.83269],[-122.39788,37.88226],[-122.35599,37.93286],[-122.32219,37.98737],[-122.31369,38.00274],[-122.29476,38.03618],[-122.27154,38.07507],[-122.23805,38.13027],[-122.20025,38.19225],[-122.17262,38.23714],[-122.16395,38.25141],[-122.14221,38.28701],[-122.11453,38.33525],[-122.08571,38.41036],[-122.0763,38.43606],[-122.0487,38.51395]],"type":"LineString"}
}
