{
  "id": 2031546563,
  "type": "Feature",
  "properties": {
    "geom:area": 0,
    "geom:bbox": "-122.380000,20.680000,-105.270000,37.620000",
    "geom:latitude": 29.67659759085651,
    "geom:longitude": -113.48687665520185,
    "src:alt_label": "swim-route",
    "src:geom": "swim",
    "swim:geom": "route",
    "wof:geomhash": "7179e540cafb368e7bf9cea2cb8dc05b",
    "wof:id": 2031546563,
    "wof:repo": "sfomuseum-data-flights-2026-06"
  },
  "bbox": [
    -122.38,
    20.68,
    -105.27,
    37.62
  ],
  "geometry": {"coordinates":[[-105.27,20.68],[-105.33,20.77],[-105.36,20.83],[-105.38,20.85],[-105.41,20.89],[-105.51,21.03],[-105.6,21.17],[-105.75,21.38],[-105.8,21.45],[-105.92,21.61],[-106.04,21.77],[-106.09,21.84],[-106.16,21.94],[-106.19,21.97],[-106.35,22.18],[-106.39,22.24],[-106.4,22.25],[-106.45,22.32],[-106.66,22.6],[-107.09,23.16],[-108.75,25.28],[-108.77,25.3],[-109.07,25.68],[-109.45,26.05],[-110.96,27.45],[-113.61,29.8],[-113.81,30.15],[-114.33,31.07],[-114.78,31.86],[-115.06,32.34],[-115.65,32.65],[-115.68,32.67],[-116.59,33.14],[-116.84,33.35],[-117.53,33.92],[-117.72,34.08],[-118.06,34.38],[-118.58,34.81],[-119.44,35.52],[-119.48,35.56],[-120.34,35.68],[-120.34,35.68],[-120.54,35.76],[-120.64,35.8],[-121.14,35.98],[-121.23,36.02],[-121.31,36.05],[-121.36,36.07],[-121.38,36.09],[-121.48,36.22],[-121.52,36.27],[-121.67,36.46],[-121.7,36.5],[-121.7,36.5],[-121.76,36.57],[-121.82,36.65],[-121.84,36.67],[-121.89,36.74],[-121.9,36.76],[-121.94,36.91],[-121.95,36.95],[-121.97,36.99],[-122,37.07],[-122.08,37.27],[-122.08,37.28],[-122.1,37.33],[-122.12,37.37],[-122.17,37.43],[-122.22,37.47],[-122.24,37.49],[-122.31,37.56],[-122.36,37.6],[-122.37,37.61],[-122.38,37.62]],"type":"LineString"}
}
