{
  "id": 2031541883,
  "type": "Feature",
  "properties": {
    "geom:area": 0,
    "geom:bbox": "-122.388190,37.624110,-121.247740,38.124220",
    "geom:latitude": 37.8871896880178,
    "geom:longitude": -121.83376943648618,
    "src:alt_label": "swim-takeoff",
    "src:geom": "swim",
    "swim:elevations": [
      183,
      574,
      700,
      1070,
      1129,
      1214,
      1723,
      2123,
      2443,
      2814,
      3031,
      3360,
      3445,
      3717,
      3921,
      4177,
      4530,
      5114,
      5328,
      5614,
      6005,
      6274,
      6435
    ],
    "swim:geom": "takeoff",
    "swim:timestamps": [
      1781434955,
      1781435005,
      1781435036,
      1781435060,
      1781435064,
      1781435073,
      1781435122,
      1781435150,
      1781435176,
      1781435206,
      1781435227,
      1781435272,
      1781435287,
      1781435330,
      1781435350,
      1781435380,
      1781435420,
      1781435485,
      1781435507,
      1781435543,
      1781435602,
      1781435637,
      1781435656
    ],
    "wof:geomhash": "58a903ce9b63809c56e52b8c0854cf5e",
    "wof:id": 2031541883,
    "wof:repo": "sfomuseum-data-flights-2026-06"
  },
  "bbox": [
    -122.38819,
    37.62411,
    -121.24774,
    38.12422
  ],
  "geometry": {"coordinates":[[-122.38819,37.62411],[-122.38749,37.65623],[-122.34987,37.66912],[-122.31727,37.67914],[-122.31209,37.68094],[-122.30042,37.68516],[-122.23279,37.71101],[-122.1922,37.72904],[-122.15697,37.74749],[-122.1145,37.76938],[-122.08506,37.78478],[-122.01728,37.81957],[-121.99246,37.83118],[-121.91289,37.86267],[-121.87435,37.87788],[-121.81775,37.90066],[-121.73854,37.93173],[-121.60757,37.98351],[-121.5628,38.00114],[-121.48822,38.03044],[-121.36353,38.07917],[-121.28825,38.10843],[-121.24774,38.12422]],"type":"LineString"}
}
