{
  "id": 2031443767,
  "type": "Feature",
  "properties": {
    "geom:area": 0,
    "geom:bbox": "-179.850000,-33.930000,175.000000,37.670000",
    "geom:latitude": -4.578248446883499,
    "geom:longitude": -13.774567747397455,
    "src:alt_label": "swim-route",
    "src:geom": "swim",
    "swim:geom": "route",
    "wof:geomhash": "ceabcd6b7186092ac059014be84045de",
    "wof:id": 2031443767,
    "wof:repo": "sfomuseum-data-flights-2026-06"
  },
  "bbox": [
    -179.85,
    -33.93,
    175,
    37.67
  ],
  "geometry": {"coordinates":[[[-122.38,37.62],[-122.5,37.67],[-122.5,37.67],[-122.5,37.67],[-122.59,37.62],[-122.59,37.62],[-122.62,37.6],[-122.69,37.56],[-122.7,37.55],[-122.8,37.49],[-122.85,37.45],[-122.91,37.41],[-122.96,37.38],[-123.3,37.16],[-123.31,37.15],[-123.51,37.02],[-123.67,36.92],[-123.75,36.86],[-123.9,36.76],[-123.96,36.72],[-124.09,36.64],[-124.24,36.54],[-124.37,36.45],[-124.76,36.18],[-124.77,36.18],[-125.13,36.04],[-125.32,35.97],[-126.04,35.68],[-126.04,35.68],[-127.05,35.27],[-128.04,34.86],[-130,34],[-134.05,31.6],[-135,31],[-137.61,30.5],[-138.21,30.38],[-140,30],[-143.35,28.69],[-145,28],[-145.6,27.57],[-146.19,27.13],[-147.36,26.26],[-149,25],[-149.42,24.41],[-149.83,23.82],[-150.24,23.23],[-150.65,22.63],[-151.45,21.44],[-152.24,20.26],[-153.24,19.19],[-153.27,19.15],[-153.81,18.57],[-155.42,16.79],[-157,15],[-162,10],[-167,5],[-168.25,3.75],[-172,0],[-174.79,-1.79],[-179.85,-5]],[[175,-10],[170,-15],[163,-24],[160,-28],[154.93,-32.85],[154.23,-33.07],[153.76,-33.2],[153.48,-33.29],[153.38,-33.31],[153.32,-33.33],[153.08,-33.4],[152.74,-33.5],[152.44,-33.58],[152.08,-33.68],[151.89,-33.74],[151.64,-33.8],[151.59,-33.82],[151.45,-33.86],[151.36,-33.88],[151.26,-33.91],[151.17,-33.93]]],"type":"MultiLineString"}
}
