{
  "id": 2031687619,
  "type": "Feature",
  "properties": {
    "geom:area": 0,
    "geom:bbox": "-122.401850,37.628420,-121.263380,38.031690",
    "geom:latitude": 37.84735857867705,
    "geom:longitude": -121.84684050134175,
    "src:alt_label": "swim-takeoff",
    "src:geom": "swim",
    "swim:elevations": [
      244,
      527,
      862,
      1198,
      1346,
      1652,
      2053,
      2382,
      3053,
      3268,
      3580,
      3969,
      4124,
      4433,
      4786,
      5182,
      5389,
      5905,
      6280,
      6441,
      6696,
      6941,
      7260
    ],
    "swim:geom": "takeoff",
    "swim:timestamps": [
      1782845035,
      1782845063,
      1782845087,
      1782845127,
      1782845146,
      1782845169,
      1782845199,
      1782845224,
      1782845269,
      1782845295,
      1782845329,
      1782845365,
      1782845377,
      1782845404,
      1782845435,
      1782845473,
      1782845495,
      1782845543,
      1782845578,
      1782845596,
      1782845626,
      1782845657,
      1782845693
    ],
    "wof:geomhash": "0ddea0de87fe536a1e5a6d2fb13602e4",
    "wof:id": 2031687619,
    "wof:repo": "sfomuseum-data-flights-2026-06"
  },
  "bbox": [
    -122.40185,
    37.62842,
    -121.26338,
    38.03169
  ],
  "geometry": {"coordinates":[[-122.39667,37.62842],[-122.40185,37.64948],[-122.37924,37.66099],[-122.33417,37.67679],[-122.3099,37.68528],[-122.27604,37.69675],[-122.23165,37.7124],[-122.19537,37.72756],[-122.13169,37.76101],[-122.09387,37.78085],[-122.03778,37.80907],[-121.97131,37.83248],[-121.94605,37.83736],[-121.89069,37.8479],[-121.82678,37.85977],[-121.74438,37.87579],[-121.69919,37.89045],[-121.59897,37.92312],[-121.52253,37.9476],[-121.48311,37.96042],[-121.4158,37.98232],[-121.34585,38.00501],[-121.26338,38.03169]],"type":"LineString"}
}
