{
  "id": 2031660741,
  "type": "Feature",
  "properties": {
    "geom:area": 0,
    "geom:bbox": "-123.467410,37.634490,-122.412140,37.730380",
    "geom:latitude": 37.69863925150122,
    "geom:longitude": -122.93608877826087,
    "src:alt_label": "swim-takeoff",
    "src:geom": "swim",
    "swim:elevations": [
      437,
      521,
      612,
      917,
      1206,
      1291,
      1548,
      2053,
      2258,
      2404,
      2703,
      3112,
      3233,
      3425,
      3779,
      4030,
      4354,
      4563,
      4928,
      4990,
      5208,
      5497,
      5605,
      5718
    ],
    "swim:geom": "takeoff",
    "swim:timestamps": [
      1782606654,
      1782606660,
      1782606675,
      1782606705,
      1782606747,
      1782606757,
      1782606789,
      1782606831,
      1782606849,
      1782606861,
      1782606886,
      1782606925,
      1782606953,
      1782606983,
      1782607016,
      1782607040,
      1782607073,
      1782607097,
      1782607136,
      1782607142,
      1782607170,
      1782607215,
      1782607227,
      1782607243
    ],
    "wof:geomhash": "18ab0972f41384e5f16c0622a41c89ae",
    "wof:id": 2031660741,
    "wof:repo": "sfomuseum-data-flights-2026-06"
  },
  "bbox": [
    -123.46741,
    37.63449,
    -122.41214,
    37.73038
  ],
  "geometry": {"coordinates":[[-122.41214,37.63449],[-122.4179,37.63696],[-122.43288,37.64353],[-122.46437,37.6576],[-122.51264,37.67605],[-122.52574,37.67716],[-122.57434,37.67943],[-122.64291,37.68323],[-122.67277,37.68516],[-122.69274,37.68634],[-122.73487,37.68888],[-122.80228,37.69331],[-122.85268,37.69601],[-122.91235,37.69921],[-122.98072,37.70292],[-123.03042,37.70583],[-123.1002,37.71004],[-123.15108,37.71283],[-123.23469,37.71736],[-123.24761,37.71814],[-123.30615,37.72177],[-123.40535,37.72695],[-123.43233,37.72835],[-123.46741,37.73038]],"type":"LineString"}
}
