{
  "id": 2031555889,
  "type": "Feature",
  "properties": {
    "geom:area": 0,
    "geom:bbox": "-122.359870,37.414690,-121.256890,37.614620",
    "geom:latitude": 37.53519136145907,
    "geom:longitude": -121.81691262335453,
    "src:alt_label": "swim-approach",
    "src:geom": "swim",
    "swim:elevations": [
      4526,
      4212,
      4179,
      3996,
      3866,
      3706,
      3624,
      3395,
      3261,
      3059,
      3048,
      3033,
      2911,
      2750,
      2712,
      2543,
      2315,
      2186,
      2134,
      2134,
      1836,
      1805,
      1545,
      1488,
      1249,
      1191,
      1010,
      702,
      569,
      437,
      304,
      212,
      133,
      0
    ],
    "swim:geom": "approach",
    "swim:timestamps": [
      1781618616,
      1781618658,
      1781618676,
      1781618726,
      1781618756,
      1781618783,
      1781618799,
      1781618839,
      1781618863,
      1781618898,
      1781618922,
      1781618958,
      1781618982,
      1781619010,
      1781619043,
      1781619068,
      1781619109,
      1781619126,
      1781619153,
      1781619184,
      1781619230,
      1781619259,
      1781619299,
      1781619303,
      1781619355,
      1781619361,
      1781619392,
      1781619448,
      1781619474,
      1781619505,
      1781619536,
      1781619555,
      1781619578,
      1781619611
    ],
    "wof:geomhash": "e87bc3d7761fb7b591811e1c42fa37dd",
    "wof:id": 2031555889,
    "wof:repo": "sfomuseum-data-flights-2026-06"
  },
  "bbox": [
    -122.35987,
    37.41469,
    -121.25689,
    37.61462
  ],
  "geometry": {"coordinates":[[-121.25689,37.59348],[-121.34263,37.58352],[-121.37701,37.57982],[-121.46382,37.56969],[-121.51184,37.56403],[-121.55332,37.5592],[-121.57704,37.55639],[-121.63803,37.54963],[-121.67086,37.56119],[-121.71453,37.58441],[-121.74528,37.60017],[-121.79693,37.60189],[-121.81732,37.57945],[-121.81636,37.54725],[-121.81265,37.50872],[-121.80994,37.47976],[-121.81354,37.43269],[-121.83296,37.41917],[-121.87043,37.41469],[-121.91212,37.42569],[-121.96822,37.44932],[-122.00442,37.46477],[-122.05295,37.48521],[-122.05897,37.48779],[-122.12008,37.51365],[-122.12789,37.51698],[-122.1653,37.53268],[-122.22613,37.55849],[-122.25184,37.56903],[-122.27917,37.58079],[-122.30326,37.59084],[-122.31802,37.59693],[-122.33587,37.60456],[-122.35987,37.61462]],"type":"LineString"}
}
