{
  "id": 2031560203,
  "type": "Feature",
  "properties": {
    "geom:area": 0,
    "geom:bbox": "-122.528889,36.006389,-114.878611,37.666667",
    "geom:latitude": 36.94776856894164,
    "geom:longitude": -118.63565525971627,
    "src:alt_label": "swim-path",
    "src:geom": "swim",
    "swim:altitudes": [
      "007",
      "007",
      "032",
      "037",
      "043",
      "043",
      "043",
      "092",
      "092",
      "092",
      "196",
      "212",
      "212",
      "247",
      "247",
      "247",
      "270",
      "270",
      "270",
      "276",
      "276",
      "276",
      "310C",
      "310C",
      "310C",
      "310C",
      "310C",
      "310C",
      "310C",
      "310C",
      "310C",
      "310C",
      "310C",
      "310C",
      "310C",
      "310C",
      "310C",
      "310C",
      "310C",
      "310C",
      "310C",
      "310C",
      "310C",
      "310C",
      "310C",
      "310C",
      "310C",
      "310",
      "310",
      "310",
      "310",
      "295",
      "295",
      "295",
      "268",
      "268",
      "268",
      "223",
      "223",
      "223",
      "166",
      "166",
      "166",
      "120",
      "120",
      "120",
      "116",
      "097",
      "097",
      "097",
      "059",
      "052",
      "052",
      "032",
      "032",
      "023",
      "023"
    ],
    "swim:geom": "path",
    "swim:speeds": [
      176,
      176,
      186,
      214,
      258,
      258,
      258,
      298,
      298,
      298,
      365,
      363,
      363,
      373,
      373,
      373,
      397,
      397,
      397,
      398,
      398,
      398,
      433,
      433,
      433,
      425,
      425,
      425,
      424,
      424,
      424,
      423,
      423,
      423,
      421,
      421,
      421,
      406,
      406,
      406,
      406,
      406,
      407,
      407,
      408,
      408,
      408,
      416,
      416,
      415,
      415,
      415,
      415,
      415,
      420,
      420,
      420,
      392,
      392,
      392,
      348,
      348,
      348,
      365,
      365,
      365,
      364,
      302,
      302,
      302,
      239,
      196,
      196,
      170,
      170,
      170,
      170
    ],
    "swim:timestamps": [
      1781627762,
      1781627762,
      1781627822,
      1781627834,
      1781627882,
      1781627882,
      1781627882,
      1781628002,
      1781628002,
      1781628002,
      1781628302,
      1781628359,
      1781628359,
      1781628479,
      1781628479,
      1781628479,
      1781628720,
      1781628720,
      1781628720,
      1781628780,
      1781628780,
      1781628780,
      1781629020,
      1781629020,
      1781629020,
      1781629140,
      1781629140,
      1781629140,
      1781629260,
      1781629260,
      1781629260,
      1781629441,
      1781629441,
      1781629441,
      1781629561,
      1781629561,
      1781629561,
      1781629921,
      1781629921,
      1781629921,
      1781629981,
      1781629981,
      1781630165,
      1781630165,
      1781630222,
      1781630222,
      1781630222,
      1781630763,
      1781630763,
      1781630778,
      1781630778,
      1781630823,
      1781630823,
      1781630823,
      1781630898,
      1781630898,
      1781630898,
      1781631024,
      1781631024,
      1781631024,
      1781631303,
      1781631303,
      1781631303,
      1781631424,
      1781631424,
      1781631424,
      1781631484,
      1781631602,
      1781631602,
      1781631602,
      1781631783,
      1781631843,
      1781631843,
      1781631963,
      1781631963,
      1781632023,
      1781632023
    ],
    "wof:geomhash": "54c78089ba851a5bb324eaa67ef12b99",
    "wof:id": 2031560203,
    "wof:repo": "sfomuseum-data-flights-2026-06"
  },
  "bbox": [
    -122.52888888888889,
    36.006388888888885,
    -114.8786111111111,
    37.666666666666664
  ],
  "geometry": {"coordinates":[[-122.39833333333334,37.62833333333333],[-122.39833333333334,37.62833333333333],[-122.4563888888889,37.653055555555554],[-122.48333333333333,37.666666666666664],[-122.52888888888889,37.66166666666666],[-122.52888888888889,37.66166666666666],[-122.52888888888889,37.66166666666666],[-122.4863888888889,37.51361111111111],[-122.4863888888889,37.51361111111111],[-122.4863888888889,37.51361111111111],[-121.95444444444445,37.335],[-121.84555555555555,37.309999999999995],[-121.84555555555555,37.309999999999995],[-121.58833333333332,37.25972222222222],[-121.58833333333332,37.25972222222222],[-121.58833333333332,37.25972222222222],[-121.05416666666666,37.149166666666666],[-121.05416666666666,37.149166666666666],[-121.05416666666666,37.149166666666666],[-120.91722222222222,37.12166666666667],[-120.91722222222222,37.12166666666667],[-120.91722222222222,37.12166666666667],[-120.34083333333332,36.99777777777778],[-120.34083333333332,36.99777777777778],[-120.34083333333332,36.99777777777778],[-120.03416666666666,36.93138888888889],[-120.03416666666666,36.93138888888889],[-120.03416666666666,36.93138888888889],[-119.77277777777778,36.93805555555555],[-119.77277777777778,36.93805555555555],[-119.77277777777778,36.93805555555555],[-119.36361111111111,37.071111111111115],[-119.36361111111111,37.071111111111115],[-119.36361111111111,37.071111111111115],[-119.09083333333332,37.15888888888889],[-119.09083333333332,37.15888888888889],[-119.09083333333332,37.15888888888889],[-118.26333333333334,37.311388888888885],[-118.26333333333334,37.311388888888885],[-118.26333333333334,37.311388888888885],[-118.12305555555555,37.32166666666667],[-118.12305555555555,37.32166666666667],[-117.67027777777778,37.35388888888889],[-117.67027777777778,37.35388888888889],[-117.55638888888889,37.361666666666665],[-117.55638888888889,37.361666666666665],[-117.55638888888889,37.361666666666665],[-116.58472222222221,36.76111111111111],[-116.58472222222221,36.76111111111111],[-116.5675,36.74111111111111],[-116.5675,36.74111111111111],[-116.5025,36.66583333333333],[-116.5025,36.66583333333333],[-116.5025,36.66583333333333],[-116.37472222222222,36.56888888888889],[-116.37472222222222,36.56888888888889],[-116.37472222222222,36.56888888888889],[-116.15194444444445,36.409166666666664],[-116.15194444444445,36.409166666666664],[-116.15194444444445,36.409166666666664],[-115.71361111111112,36.12722222222222],[-115.71361111111112,36.12722222222222],[-115.71361111111112,36.12722222222222],[-115.48,36.055277777777775],[-115.48,36.055277777777775],[-115.48,36.055277777777775],[-115.36527777777778,36.019999999999996],[-115.14305555555556,36.006388888888885],[-115.14305555555556,36.006388888888885],[-115.14305555555556,36.006388888888885],[-114.8786111111111,36.03861111111111],[-114.92527777777778,36.07361111111111],[-114.92527777777778,36.07361111111111],[-115.05111111111111,36.072500000000005],[-115.05111111111111,36.072500000000005],[-115.1086111111111,36.073055555555555],[-115.1086111111111,36.073055555555555]],"type":"LineString"}
}
