{
  "id": 2031583465,
  "type": "Feature",
  "properties": {
    "geom:area": 0,
    "geom:bbox": "-122.759930,37.540500,-122.101120,38.515650",
    "geom:latitude": 37.88849578432082,
    "geom:longitude": -122.49543472728396,
    "src:alt_label": "swim-approach",
    "src:geom": "swim",
    "swim:elevations": [
      7578,
      7417,
      7097,
      6798,
      6350,
      6155,
      6114,
      5989,
      5753,
      5576,
      5237,
      4995,
      4815,
      4381,
      4148,
      4051,
      3657,
      3509,
      3380,
      3353,
      3353,
      3033,
      2914,
      2733,
      2608,
      2355,
      2188,
      2023,
      1832,
      1562,
      1343,
      1170,
      948,
      858,
      723,
      459,
      331,
      229,
      130,
      48
    ],
    "swim:geom": "approach",
    "swim:timestamps": [
      1781894435,
      1781894446,
      1781894475,
      1781894500,
      1781894539,
      1781894569,
      1781894581,
      1781894608,
      1781894634,
      1781894652,
      1781894692,
      1781894718,
      1781894739,
      1781894786,
      1781894812,
      1781894822,
      1781894866,
      1781894886,
      1781894923,
      1781894962,
      1781894971,
      1781895019,
      1781895044,
      1781895067,
      1781895084,
      1781895115,
      1781895137,
      1781895156,
      1781895196,
      1781895235,
      1781895266,
      1781895291,
      1781895321,
      1781895346,
      1781895362,
      1781895391,
      1781895418,
      1781895448,
      1781895473,
      1781895502
    ],
    "wof:geomhash": "11e304a56043fef3d54a115c191e2972",
    "wof:id": 2031583465,
    "wof:repo": "sfomuseum-data-flights-2026-06"
  },
  "bbox": [
    -122.75993,
    37.5405,
    -122.10112,
    38.51565
  ],
  "geometry": {"coordinates":[[-122.64516,38.51565],[-122.65433,38.49415],[-122.67683,38.44088],[-122.6964,38.39417],[-122.72622,38.32355],[-122.74837,38.27052],[-122.75594,38.25026],[-122.75993,38.2043],[-122.74966,38.16204],[-122.74096,38.13142],[-122.72196,38.06765],[-122.70947,38.02567],[-122.69987,37.99228],[-122.67803,37.9181],[-122.65261,37.88037],[-122.63965,37.86794],[-122.58178,37.81329],[-122.55645,37.78934],[-122.51118,37.74663],[-122.46021,37.70856],[-122.44639,37.7039],[-122.36786,37.67915],[-122.32971,37.66693],[-122.29601,37.65614],[-122.27221,37.64826],[-122.22768,37.63394],[-122.19718,37.62439],[-122.17011,37.61583],[-122.12279,37.5953],[-122.10112,37.56209],[-122.12864,37.54187],[-122.16136,37.5405],[-122.20161,37.54778],[-122.22922,37.55995],[-122.24547,37.56684],[-122.27294,37.57854],[-122.29535,37.58771],[-122.31834,37.59721],[-122.33634,37.60483],[-122.35782,37.61349]],"type":"LineString"}
}
