{
  "id": 2031430607,
  "type": "Feature",
  "properties": {
    "geom:area": 0,
    "geom:bbox": "-122.793140,37.377770,-122.103780,38.478640",
    "geom:latitude": 37.749331872564085,
    "geom:longitude": -122.46833043220796,
    "src:alt_label": "swim-approach",
    "src:geom": "swim",
    "swim:elevations": [
      7529,
      7159,
      6992,
      6516,
      6419,
      6047,
      5765,
      5668,
      5588,
      5140,
      5077,
      4732,
      4178,
      3944,
      3660,
      3566,
      3353,
      3353,
      3353,
      3353,
      3353,
      3346,
      3145,
      2885,
      2727,
      2617,
      2525,
      2438,
      2438,
      2394,
      2204,
      1966,
      1829,
      1829,
      1829,
      1829,
      1829,
      1585,
      1513,
      1292,
      1219,
      1219,
      1219,
      1219,
      1219,
      1161,
      1097,
      1006,
      821,
      761,
      607,
      559,
      518,
      393,
      306,
      211,
      55,
      183
    ],
    "swim:geom": "approach",
    "swim:timestamps": [
      1780429217,
      1780429254,
      1780429271,
      1780429317,
      1780429329,
      1780429368,
      1780429396,
      1780429407,
      1780429415,
      1780429465,
      1780429471,
      1780429506,
      1780429562,
      1780429586,
      1780429617,
      1780429630,
      1780429702,
      1780429724,
      1780429756,
      1780429768,
      1780429796,
      1780429806,
      1780429834,
      1780429881,
      1780429901,
      1780429913,
      1780429922,
      1780429966,
      1780429990,
      1780430010,
      1780430032,
      1780430066,
      1780430092,
      1780430116,
      1780430155,
      1780430186,
      1780430198,
      1780430247,
      1780430259,
      1780430285,
      1780430320,
      1780430342,
      1780430363,
      1780430379,
      1780430403,
      1780430419,
      1780430441,
      1780430465,
      1780430510,
      1780430528,
      1780430569,
      1780430582,
      1780430594,
      1780430631,
      1780430653,
      1780430675,
      1780430714,
      1780430732
    ],
    "wof:geomhash": "1313b3835c0aefa61df13eba2cec5dd9",
    "wof:id": 2031430607,
    "wof:repo": "sfomuseum-data-flights-2026-06"
  },
  "bbox": [
    -122.79314,
    37.37777,
    -122.10378,
    38.47864
  ],
  "geometry": {"coordinates":[[-122.79314,38.47864],[-122.78586,38.40595],[-122.78249,38.3724],[-122.7734,38.28312],[-122.77122,38.26138],[-122.75812,38.19248],[-122.74417,38.14391],[-122.7388,38.12536],[-122.73516,38.11299],[-122.71081,38.02902],[-122.70793,38.01902],[-122.69129,37.96164],[-122.64854,37.87636],[-122.61612,37.84566],[-122.57572,37.80733],[-122.55874,37.79143],[-122.47885,37.71594],[-122.45683,37.69531],[-122.42705,37.66721],[-122.41475,37.65561],[-122.38821,37.63079],[-122.37897,37.62208],[-122.35475,37.59563],[-122.32988,37.54704],[-122.319,37.52696],[-122.31163,37.51448],[-122.30956,37.50457],[-122.32179,37.45713],[-122.32939,37.43022],[-122.33812,37.40979],[-122.35835,37.39174],[-122.39903,37.37777],[-122.42375,37.3949],[-122.41942,37.41883],[-122.37031,37.42976],[-122.32757,37.42697],[-122.31086,37.4259],[-122.24262,37.42923],[-122.22698,37.43048],[-122.19053,37.43312],[-122.14248,37.43636],[-122.11965,37.44893],[-122.10825,37.46627],[-122.10378,37.47889],[-122.11419,37.49705],[-122.12401,37.50804],[-122.13983,37.51879],[-122.15898,37.52811],[-122.19481,37.54293],[-122.20883,37.54891],[-122.23957,37.56179],[-122.24838,37.56557],[-122.25775,37.56949],[-122.28584,37.58152],[-122.30327,37.58878],[-122.32046,37.59559],[-122.35025,37.60825],[-122.3646,37.61401]],"type":"LineString"}
}
