{
  "id": 2031496849,
  "type": "Feature",
  "properties": {
    "geom:area": 0,
    "geom:bbox": "-122.398300,37.625470,-122.115260,38.517000",
    "geom:latitude": 38.047518458294476,
    "geom:longitude": -122.21814315242707,
    "src:alt_label": "swim-takeoff",
    "src:geom": "swim",
    "swim:elevations": [
      122,
      213,
      480,
      1156,
      1256,
      1287,
      1691,
      2195,
      2255,
      2717,
      3267,
      3467,
      3755,
      4240,
      4589,
      4970,
      5174,
      5320,
      5667,
      5929,
      6168,
      6217,
      6372,
      6721,
      6759,
      7088
    ],
    "swim:geom": "takeoff",
    "swim:timestamps": [
      1781008497,
      1781008506,
      1781008532,
      1781008587,
      1781008603,
      1781008607,
      1781008641,
      1781008676,
      1781008681,
      1781008712,
      1781008765,
      1781008792,
      1781008811,
      1781008855,
      1781008886,
      1781008916,
      1781008935,
      1781008951,
      1781008991,
      1781009023,
      1781009057,
      1781009061,
      1781009085,
      1781009128,
      1781009134,
      1781009171
    ],
    "wof:geomhash": "85d7c17b2d02b370eaeee0c0af8dabbd",
    "wof:id": 2031496849,
    "wof:repo": "sfomuseum-data-flights-2026-06"
  },
  "bbox": [
    -122.3983,
    37.62547,
    -122.11526,
    38.517
  ],
  "geometry": {"coordinates":[[-122.38544,37.62547],[-122.39258,37.62856],[-122.3983,37.64705],[-122.34652,37.67112],[-122.32851,37.67947],[-122.32502,37.68282],[-122.31328,37.71894],[-122.30222,37.76092],[-122.30032,37.76668],[-122.28741,37.80513],[-122.26509,37.87264],[-122.2525,37.91223],[-122.24287,37.94102],[-122.2218,38.00726],[-122.2062,38.05402],[-122.19066,38.09971],[-122.18093,38.12851],[-122.17256,38.15348],[-122.15211,38.21609],[-122.1355,38.26678],[-122.11831,38.32235],[-122.11719,38.32849],[-122.11526,38.36936],[-122.12004,38.44177],[-122.1207,38.45181],[-122.12522,38.517]],"type":"LineString"}
}
