{
  "id": 2031533079,
  "type": "Feature",
  "properties": {
    "geom:area": 0,
    "geom:bbox": "-122.412000,37.634990,-122.101230,38.519750",
    "geom:latitude": 38.05579419946486,
    "geom:longitude": -122.2205525272234,
    "src:alt_label": "swim-takeoff",
    "src:geom": "swim",
    "swim:elevations": [
      348,
      518,
      535,
      852,
      1190,
      1421,
      1552,
      2058,
      2455,
      3041,
      3514,
      3742,
      3749,
      3867,
      4015,
      4405,
      4683,
      4813,
      4924,
      5022,
      5249,
      5337,
      5676,
      5769,
      6216,
      6438
    ],
    "swim:geom": "takeoff",
    "swim:timestamps": [
      1781341246,
      1781341263,
      1781341270,
      1781341295,
      1781341338,
      1781341377,
      1781341390,
      1781341427,
      1781341463,
      1781341510,
      1781341550,
      1781341587,
      1781341590,
      1781341616,
      1781341634,
      1781341674,
      1781341706,
      1781341720,
      1781341730,
      1781341740,
      1781341766,
      1781341778,
      1781341826,
      1781341837,
      1781341888,
      1781341911
    ],
    "wof:geomhash": "699b91bd8cdf63370aac56db5d74c3e3",
    "wof:id": 2031533079,
    "wof:repo": "sfomuseum-data-flights-2026-06"
  },
  "bbox": [
    -122.412,
    37.63499,
    -122.10123,
    38.51975
  ],
  "geometry": {"coordinates":[[-122.40845,37.63499],[-122.412,37.64905],[-122.40881,37.65494],[-122.38504,37.66489],[-122.34277,37.68245],[-122.32948,37.72366],[-122.32492,37.73929],[-122.30926,37.78351],[-122.29378,37.82737],[-122.27381,37.88485],[-122.25594,37.9343],[-122.23779,37.98424],[-122.23631,37.98849],[-122.2228,38.02712],[-122.21305,38.05481],[-122.19114,38.11647],[-122.17262,38.1681],[-122.16481,38.18986],[-122.15881,38.20672],[-122.15316,38.22264],[-122.13783,38.26548],[-122.13101,38.28474],[-122.10999,38.36758],[-122.10822,38.38661],[-122.10123,38.47847],[-122.10202,38.51975]],"type":"LineString"}
}
