{
  "id": 2031632797,
  "type": "Feature",
  "properties": {
    "geom:area": 0,
    "geom:bbox": "-122.543800,37.191710,-121.252620,37.668130",
    "geom:latitude": 37.381937076081705,
    "geom:longitude": -122.00104749647839,
    "src:alt_label": "swim-takeoff",
    "src:geom": "swim",
    "swim:elevations": [
      213,
      485,
      1051,
      1197,
      1472,
      1946,
      2374,
      2550,
      2968,
      3237,
      3741,
      4060,
      4453,
      4923,
      5224,
      5682,
      5978,
      6229,
      6420,
      6749,
      6927,
      6959,
      7310,
      7448,
      7879,
      8127,
      8400,
      8551,
      8676
    ],
    "swim:geom": "takeoff",
    "swim:timestamps": [
      1782303446,
      1782303460,
      1782303509,
      1782303530,
      1782303560,
      1782303596,
      1782303627,
      1782303638,
      1782303665,
      1782303690,
      1782303741,
      1782303767,
      1782303804,
      1782303850,
      1782303877,
      1782303921,
      1782303948,
      1782303972,
      1782303990,
      1782304026,
      1782304046,
      1782304050,
      1782304092,
      1782304110,
      1782304158,
      1782304189,
      1782304223,
      1782304247,
      1782304270
    ],
    "wof:geomhash": "4cfe33a3b60a242a92c439d6c6f5d3aa",
    "wof:id": 2031632797,
    "wof:repo": "sfomuseum-data-flights-2026-06"
  },
  "bbox": [
    -122.5438,
    37.19171,
    -121.25262,
    37.66813
  ],
  "geometry": {"coordinates":[[-122.38478,37.62528],[-122.39679,37.6305],[-122.44403,37.64866],[-122.46832,37.65863],[-122.50922,37.66813],[-122.5438,37.63653],[-122.53032,37.59725],[-122.52349,37.5839],[-122.50585,37.55045],[-122.48989,37.51914],[-122.42804,37.46263],[-122.38679,37.4391],[-122.32108,37.40824],[-122.2261,37.38948],[-122.16909,37.37811],[-122.07468,37.35913],[-122.01635,37.34749],[-121.96318,37.33681],[-121.92334,37.32884],[-121.84426,37.31294],[-121.79697,37.30335],[-121.78776,37.30146],[-121.68952,37.28154],[-121.64794,37.27307],[-121.53172,37.24873],[-121.45465,37.23297],[-121.37046,37.2162],[-121.31342,37.20365],[-121.25262,37.19171]],"type":"LineString"}
}
