{
  "id": 2031592133,
  "type": "Feature",
  "properties": {
    "geom:area": 0,
    "geom:bbox": "-122.336980,37.433430,-121.268950,37.605120",
    "geom:latitude": 37.53055578441491,
    "geom:longitude": -121.81116752929404,
    "src:alt_label": "swim-approach",
    "src:geom": "swim",
    "swim:elevations": [
      4588,
      4312,
      3939,
      3852,
      3499,
      3446,
      3276,
      3114,
      3034,
      2879,
      2745,
      2743,
      2619,
      2416,
      2294,
      2160,
      2133,
      2134,
      2067,
      1975,
      1804,
      1587,
      1488,
      1217,
      982,
      945,
      705,
      675,
      578,
      450,
      304,
      161,
      126
    ],
    "swim:geom": "approach",
    "swim:timestamps": [
      1781968313,
      1781968339,
      1781968375,
      1781968384,
      1781968432,
      1781968440,
      1781968476,
      1781968527,
      1781968550,
      1781968581,
      1781968617,
      1781968641,
      1781968665,
      1781968700,
      1781968720,
      1781968743,
      1781968790,
      1781968817,
      1781968855,
      1781968877,
      1781968909,
      1781968948,
      1781968958,
      1781968993,
      1781969034,
      1781969040,
      1781969092,
      1781969100,
      1781969120,
      1781969151,
      1781969181,
      1781969214,
      1781969226
    ],
    "wof:geomhash": "2bdcbe9340a4f6fac0f3bab13879a4b6",
    "wof:id": 2031592133,
    "wof:repo": "sfomuseum-data-flights-2026-06"
  },
  "bbox": [
    -122.33698,
    37.43343,
    -121.26895,
    37.60512
  ],
  "geometry": {"coordinates":[[-121.26895,37.59198],[-121.32097,37.58566],[-121.39333,37.57789],[-121.41143,37.57586],[-121.5059,37.56487],[-121.51938,37.56329],[-121.58219,37.55577],[-121.66043,37.54193],[-121.69285,37.54033],[-121.73034,37.55893],[-121.77651,37.57314],[-121.80341,37.55841],[-121.80962,37.53172],[-121.80302,37.49191],[-121.80159,37.46949],[-121.81448,37.44512],[-121.87399,37.43343],[-121.91258,37.43584],[-121.96253,37.4472],[-121.98986,37.45823],[-122.02911,37.4754],[-122.07608,37.49507],[-122.0876,37.49993],[-122.13167,37.51855],[-122.17635,37.53762],[-122.1825,37.54012],[-122.22822,37.55929],[-122.23483,37.5621],[-122.25094,37.56888],[-122.27649,37.57964],[-122.30127,37.59015],[-122.32846,37.60148],[-122.33698,37.60512]],"type":"LineString"}
}
