{
  "id": 2031446397,
  "type": "Feature",
  "properties": {
    "geom:area": 0,
    "geom:bbox": "-122.356850,37.452530,-121.318960,37.613350",
    "geom:latitude": 37.527385422769186,
    "geom:longitude": -121.84453986831468,
    "src:alt_label": "swim-approach",
    "src:geom": "swim",
    "swim:elevations": [
      4202,
      3621,
      3357,
      2691,
      2537,
      2126,
      1666,
      564,
      460,
      333,
      278,
      14
    ],
    "swim:geom": "approach",
    "swim:timestamps": [
      1780604959,
      1780605058,
      1780605115,
      1780605245,
      1780605273,
      1780605340,
      1780605465,
      1780605683,
      1780605708,
      1780605742,
      1780605755,
      1780605825
    ],
    "wof:geomhash": "283a72e8c4b276174fd5e23c53ab9e28",
    "wof:id": 2031446397,
    "wof:repo": "sfomuseum-data-flights-2026-06"
  },
  "bbox": [
    -122.35685,
    37.45253,
    -121.31896,
    37.61335
  ],
  "geometry": {"coordinates":[[-121.31896,37.5859],[-121.50217,37.56521],[-121.58871,37.55484],[-121.7584,37.49668],[-121.78518,37.47256],[-121.87422,37.45253],[-122.03261,37.47588],[-122.25391,37.57017],[-122.27351,37.57832],[-122.29834,37.58891],[-122.30777,37.59285],[-122.35685,37.61335]],"type":"LineString"}
}
