{
  "id": 2031505831,
  "type": "Feature",
  "properties": {
    "geom:area": 0,
    "geom:bbox": "-122.558333,32.680000,-116.916667,37.666667",
    "geom:latitude": 34.85109926313056,
    "geom:longitude": -119.94257820954995,
    "src:alt_label": "swim-path",
    "src:geom": "swim",
    "swim:altitudes": [
      "040",
      "040",
      "040",
      "059",
      "059",
      "110",
      "110",
      "110",
      "110",
      "110",
      "180",
      "180",
      "180",
      "180",
      "180",
      "285",
      "285",
      "285",
      "299",
      "299",
      "299",
      "299",
      "358",
      "358",
      "358",
      "358",
      "370C",
      "370C",
      "370C",
      "370C",
      "370C",
      "370C",
      "370C",
      "370C",
      "370C",
      "370C",
      "370C",
      "370C",
      "370C",
      "370C",
      "370C",
      "370C",
      "370C",
      "370C",
      "370C",
      "370C",
      "370C",
      "370C",
      "370C",
      "370C",
      "370C",
      "370C",
      "370C",
      "370C",
      "370C",
      "370C",
      "370C",
      "370C",
      "370C",
      "370C",
      "370C",
      "370C",
      "370C",
      "370C",
      "370C",
      "370C",
      "370C",
      "370C",
      "370C",
      "370C",
      "370C",
      "370C",
      "370C",
      "370C",
      "370C",
      "370C",
      "370C",
      "326",
      "326",
      "326",
      "296",
      "296",
      "296",
      "189",
      "189",
      "189",
      "179",
      "179",
      "171",
      "171",
      "171",
      "171",
      "133",
      "133",
      "133",
      "133",
      "133",
      "097",
      "097",
      "097",
      "097",
      "091",
      "091",
      "091",
      "084",
      "078",
      "078",
      "055",
      "039",
      "039",
      "039",
      "039",
      "038",
      "038",
      "026",
      "026",
      "026",
      "026",
      "015",
      "015",
      "005",
      "005",
      "005",
      "005",
      "001",
      "001"
    ],
    "swim:geom": "path",
    "swim:speeds": [
      217,
      217,
      217,
      291,
      291,
      338,
      338,
      338,
      338,
      338,
      387,
      387,
      387,
      387,
      387,
      467,
      467,
      467,
      473,
      473,
      473,
      473,
      468,
      468,
      468,
      468,
      468,
      468,
      468,
      467,
      467,
      466,
      464,
      464,
      464,
      463,
      462,
      462,
      462,
      463,
      463,
      463,
      463,
      463,
      463,
      463,
      454,
      454,
      454,
      451,
      451,
      451,
      451,
      450,
      450,
      450,
      450,
      444,
      444,
      443,
      443,
      443,
      443,
      443,
      443,
      443,
      443,
      443,
      443,
      443,
      443,
      443,
      443,
      443,
      443,
      443,
      443,
      444,
      444,
      444,
      444,
      444,
      444,
      412,
      412,
      412,
      405,
      405,
      388,
      388,
      388,
      388,
      361,
      361,
      361,
      361,
      361,
      278,
      278,
      278,
      278,
      272,
      272,
      272,
      273,
      267,
      267,
      219,
      222,
      222,
      222,
      222,
      204,
      204,
      194,
      194,
      194,
      194,
      156,
      156,
      144,
      144,
      144,
      144,
      146,
      146
    ],
    "swim:timestamps": [
      1781129463,
      1781129463,
      1781129463,
      1781129523,
      1781129523,
      1781129658,
      1781129658,
      1781129658,
      1781129658,
      1781129658,
      1781129835,
      1781129835,
      1781129835,
      1781129835,
      1781129835,
      1781130196,
      1781130196,
      1781130196,
      1781130256,
      1781130256,
      1781130256,
      1781130256,
      1781130499,
      1781130499,
      1781130499,
      1781130499,
      1781130619,
      1781130619,
      1781130619,
      1781130677,
      1781130677,
      1781130737,
      1781130797,
      1781130797,
      1781130797,
      1781130857,
      1781130917,
      1781130917,
      1781130917,
      1781130977,
      1781130977,
      1781130977,
      1781131097,
      1781131097,
      1781131097,
      1781131097,
      1781131157,
      1781131157,
      1781131157,
      1781131278,
      1781131278,
      1781131278,
      1781131278,
      1781131400,
      1781131400,
      1781131400,
      1781131400,
      1781131518,
      1781131518,
      1781131578,
      1781131578,
      1781131578,
      1781131578,
      1781131758,
      1781131758,
      1781131758,
      1781131818,
      1781131818,
      1781131818,
      1781131878,
      1781131878,
      1781131878,
      1781131999,
      1781131999,
      1781131999,
      1781131999,
      1781131999,
      1781132239,
      1781132239,
      1781132239,
      1781132359,
      1781132359,
      1781132359,
      1781132600,
      1781132600,
      1781132600,
      1781132622,
      1781132622,
      1781132660,
      1781132660,
      1781132660,
      1781132660,
      1781132780,
      1781132780,
      1781132780,
      1781132780,
      1781132780,
      1781132960,
      1781132960,
      1781132960,
      1781132960,
      1781132987,
      1781132987,
      1781132987,
      1781133020,
      1781133047,
      1781133047,
      1781133282,
      1781133343,
      1781133343,
      1781133343,
      1781133343,
      1781133381,
      1781133381,
      1781133463,
      1781133463,
      1781133463,
      1781133463,
      1781133523,
      1781133523,
      1781133588,
      1781133588,
      1781133588,
      1781133588,
      1781133621,
      1781133621
    ],
    "wof:geomhash": "702d1df81da8c9c0b0a3059a02dc7158",
    "wof:id": 2031505831,
    "wof:repo": "sfomuseum-data-flights-2026-06"
  },
  "bbox": [
    -122.55833333333334,
    32.68,
    -116.91666666666667,
    37.666666666666664
  ],
  "geometry": {"coordinates":[[-122.48333333333333,37.666666666666664],[-122.48333333333333,37.666666666666664],[-122.48333333333333,37.666666666666664],[-122.53333333333333,37.6],[-122.53333333333333,37.6],[-122.54083333333332,37.42444444444444],[-122.54083333333332,37.42444444444444],[-122.54083333333332,37.42444444444444],[-122.54083333333332,37.42444444444444],[-122.54083333333332,37.42444444444444],[-122.55833333333334,37.10611111111111],[-122.55833333333334,37.10611111111111],[-122.55833333333334,37.10611111111111],[-122.55833333333334,37.10611111111111],[-122.55833333333334,37.10611111111111],[-122.07472222222222,36.527499999999996],[-122.07472222222222,36.527499999999996],[-122.07472222222222,36.527499999999996],[-121.97194444444445,36.425555555555555],[-121.97194444444445,36.425555555555555],[-121.97194444444445,36.425555555555555],[-121.97194444444445,36.425555555555555],[-121.5625,36.01694444444444],[-121.5625,36.01694444444444],[-121.5625,36.01694444444444],[-121.5625,36.01694444444444],[-121.36083333333333,35.81361111111111],[-121.36083333333333,35.81361111111111],[-121.36083333333333,35.81361111111111],[-121.26444444444445,35.715833333333336],[-121.26444444444445,35.715833333333336],[-121.16583333333334,35.61555555555556],[-121.06138888888889,35.51583333333333],[-121.06138888888889,35.51583333333333],[-121.06138888888889,35.51583333333333],[-120.93472222222222,35.43861111111111],[-120.80583333333333,35.36388888888889],[-120.80583333333333,35.36388888888889],[-120.80583333333333,35.36388888888889],[-120.67666666666668,35.28861111111111],[-120.67666666666668,35.28861111111111],[-120.67666666666668,35.28861111111111],[-120.45361111111112,35.11611111111111],[-120.45361111111112,35.11611111111111],[-120.45361111111112,35.11611111111111],[-120.45361111111112,35.11611111111111],[-120.41388888888889,34.992222222222225],[-120.41388888888889,34.992222222222225],[-120.41388888888889,34.992222222222225],[-120.33638888888889,34.7475],[-120.33638888888889,34.7475],[-120.33638888888889,34.7475],[-120.33638888888889,34.7475],[-120.26611111111112,34.51888888888889],[-120.26611111111112,34.51888888888889],[-120.26611111111112,34.51888888888889],[-120.26611111111112,34.51888888888889],[-120.01416666666667,34.39722222222222],[-120.01416666666667,34.39722222222222],[-119.87444444444444,34.35666666666667],[-119.87444444444444,34.35666666666667],[-119.87444444444444,34.35666666666667],[-119.87444444444444,34.35666666666667],[-119.45444444444445,34.23555555555556],[-119.45444444444445,34.23555555555556],[-119.45444444444445,34.23555555555556],[-119.3125,34.19416666666666],[-119.3125,34.19416666666666],[-119.3125,34.19416666666666],[-119.17361111111111,34.15361111111111],[-119.17361111111111,34.15361111111111],[-119.17361111111111,34.15361111111111],[-118.89277777777778,34.07083333333334],[-118.89277777777778,34.07083333333334],[-118.89277777777778,34.07083333333334],[-118.89277777777778,34.07083333333334],[-118.89277777777778,34.07083333333334],[-118.35222222222221,33.87138888888889],[-118.35222222222221,33.87138888888889],[-118.35222222222221,33.87138888888889],[-118.12833333333333,33.69972222222222],[-118.12833333333333,33.69972222222222],[-118.12833333333333,33.69972222222222],[-117.71666666666667,33.35722222222223],[-117.71666666666667,33.35722222222223],[-117.71666666666667,33.35722222222223],[-117.68333333333334,33.31666666666667],[-117.68333333333334,33.31666666666667],[-117.63027777777778,33.27611111111111],[-117.63027777777778,33.27611111111111],[-117.63027777777778,33.27611111111111],[-117.63027777777778,33.27611111111111],[-117.47027777777778,33.12111111111111],[-117.47027777777778,33.12111111111111],[-117.47027777777778,33.12111111111111],[-117.47027777777778,33.12111111111111],[-117.47027777777778,33.12111111111111],[-117.28694444444444,32.90222222222222],[-117.28694444444444,32.90222222222222],[-117.28694444444444,32.90222222222222],[-117.28694444444444,32.90222222222222],[-117.26666666666667,32.86666666666667],[-117.26666666666667,32.86666666666667],[-117.26666666666667,32.86666666666667],[-117.23611111111111,32.84055555555556],[-117.21666666666667,32.81666666666667],[-117.21666666666667,32.81666666666667],[-116.91666666666667,32.75],[-116.93333333333334,32.7],[-116.93333333333334,32.7],[-116.93333333333334,32.7],[-116.93333333333334,32.7],[-116.96527777777779,32.68],[-116.96527777777779,32.68],[-117.05,32.7],[-117.05,32.7],[-117.05,32.7],[-117.05,32.7],[-117.1,32.71666666666667],[-117.1,32.71666666666667],[-117.15,32.733333333333334],[-117.15,32.733333333333334],[-117.15,32.733333333333334],[-117.15,32.733333333333334],[-117.18,32.731388888888894],[-117.18,32.731388888888894]],"type":"LineString"}
}
