{
  "id": 2031587545,
  "type": "Feature",
  "properties": {
    "geom:area": 0,
    "geom:bbox": "-122.394000,37.624070,-121.441610,38.511650",
    "geom:latitude": 38.08676889980944,
    "geom:longitude": -121.9712209341103,
    "src:alt_label": "swim-takeoff",
    "src:geom": "swim",
    "swim:elevations": [
      222,
      387,
      881,
      1044,
      1209,
      1302,
      1509,
      2095,
      2509,
      2767,
      3163,
      3393,
      3554,
      3616,
      3830,
      4185,
      4304,
      4689,
      4787,
      5236,
      5571,
      5722,
      5865,
      6144,
      6446,
      6697,
      6951,
      7033,
      7223,
      7423,
      7543,
      7825
    ],
    "swim:geom": "takeoff",
    "swim:timestamps": [
      1781893915,
      1781893928,
      1781893973,
      1781893993,
      1781894020,
      1781894046,
      1781894063,
      1781894095,
      1781894123,
      1781894139,
      1781894168,
      1781894210,
      1781894227,
      1781894233,
      1781894251,
      1781894283,
      1781894294,
      1781894333,
      1781894342,
      1781894391,
      1781894422,
      1781894435,
      1781894451,
      1781894479,
      1781894510,
      1781894539,
      1781894574,
      1781894586,
      1781894608,
      1781894638,
      1781894652,
      1781894679
    ],
    "wof:geomhash": "e3271e8b07ffde7d418fca2799dbe737",
    "wof:id": 2031587545,
    "wof:repo": "sfomuseum-data-flights-2026-06"
  },
  "bbox": [
    -122.394,
    37.62407,
    -121.44161,
    38.51165
  ],
  "geometry": {"coordinates":[[-122.38602,37.62407],[-122.394,37.63139],[-122.37327,37.65687],[-122.35545,37.6618],[-122.32628,37.67188],[-122.29443,37.68495],[-122.26896,37.69557],[-122.22281,37.71453],[-122.19598,37.74386],[-122.19417,37.76617],[-122.19857,37.80565],[-122.20637,37.87195],[-122.21002,37.9006],[-122.21131,37.91084],[-122.21438,37.94085],[-122.18904,37.99357],[-122.17168,38.00658],[-122.10516,38.05356],[-122.08789,38.06582],[-122.00107,38.1277],[-121.94378,38.16834],[-121.92067,38.18473],[-121.89075,38.20586],[-121.83965,38.24195],[-121.77943,38.2844],[-121.72434,38.32318],[-121.65745,38.37012],[-121.63299,38.38732],[-121.58975,38.41755],[-121.52838,38.45848],[-121.49883,38.47646],[-121.44161,38.51165]],"type":"LineString"}
}
