{
  "id": 2031646951,
  "type": "Feature",
  "properties": {
    "geom:area": 0,
    "geom:bbox": "-122.358470,36.741870,-121.891270,37.614110",
    "geom:latitude": 37.22555873538162,
    "geom:longitude": -122.10226264478896,
    "src:alt_label": "swim-approach",
    "src:geom": "swim",
    "swim:elevations": [
      1524,
      1524,
      1492,
      1398,
      1218,
      1219,
      1219,
      1191,
      1099,
      1055,
      853,
      735,
      729,
      588,
      516,
      428,
      354,
      151,
      0,
      5785,
      5593,
      5329,
      5107,
      4936,
      4412,
      4084,
      3999,
      3612,
      3455,
      3342,
      3242,
      3138,
      3045,
      2872,
      2619,
      2325,
      2024,
      1873,
      1829,
      1760,
      1368,
      1245,
      1219,
      1219,
      1188
    ],
    "swim:geom": "approach",
    "swim:timestamps": [
      1782457213,
      1782457251,
      1782457277,
      1782457303,
      1782457347,
      1782457366,
      1782457384,
      1782457402,
      1782457438,
      1782457452,
      1782457495,
      1782457528,
      1782457531,
      1782457561,
      1782457577,
      1782457597,
      1782457620,
      1782457666,
      1782457701,
      1782542896,
      1782542917,
      1782542945,
      1782542965,
      1782542979,
      1782543027,
      1782543054,
      1782543063,
      1782543103,
      1782543124,
      1782543145,
      1782543168,
      1782543195,
      1782543222,
      1782543250,
      1782543280,
      1782543316,
      1782543353,
      1782543375,
      1782543399,
      1782543424,
      1782543476,
      1782543498,
      1782543527,
      1782543555,
      1782543584
    ],
    "wof:geomhash": "6e755689bf2c27931362da1d3e7c946b",
    "wof:id": 2031646951,
    "wof:repo": "sfomuseum-data-flights-2026-06"
  },
  "bbox": [
    -122.35847,
    36.74187,
    -121.89127,
    37.61411
  ],
  "geometry": {"coordinates":[[-122.09361,37.40087],[-122.07223,37.42985],[-122.05983,37.45014],[-122.06317,37.4725],[-122.08642,37.49846],[-122.10098,37.5054],[-122.11484,37.51188],[-122.12777,37.51754],[-122.15625,37.52907],[-122.16709,37.53351],[-122.19836,37.54696],[-122.22214,37.55678],[-122.2244,37.55771],[-122.24798,37.56738],[-122.26113,37.57305],[-122.27723,37.57987],[-122.29468,37.58717],[-122.3309,37.60254],[-122.35847,37.61411],[-121.89127,36.74187],[-121.90331,36.77415],[-121.91523,36.81664],[-121.92373,36.84748],[-121.9298,36.86938],[-121.94979,36.94125],[-121.96429,36.98101],[-121.96932,36.99407],[-121.99178,37.05134],[-122.00324,37.08053],[-122.01469,37.10917],[-122.02566,37.1371],[-122.03815,37.16957],[-122.04967,37.19983],[-122.07006,37.22424],[-122.09692,37.24644],[-122.12925,37.27265],[-122.16215,37.29897],[-122.1817,37.31432],[-122.19937,37.33297],[-122.19457,37.35751],[-122.13807,37.39005],[-122.12485,37.41069],[-122.10814,37.43745],[-122.09111,37.4641],[-122.09339,37.49158]],"type":"LineString"}
}
