{
  "id": 2031646525,
  "type": "Feature",
  "properties": {
    "geom:area": 0,
    "geom:bbox": "-123.056370,37.377860,-122.074890,38.472400",
    "geom:latitude": 37.818202234703655,
    "geom:longitude": -122.5085325300598,
    "src:alt_label": "swim-approach",
    "src:geom": "swim",
    "swim:elevations": [
      7019,
      6797,
      6474,
      6350,
      6102,
      5845,
      5772,
      5365,
      5065,
      4910,
      4736,
      4486,
      4052,
      3768,
      3543,
      3442,
      3359,
      3329,
      3354,
      3353,
      3333,
      2800,
      2386,
      2006,
      1960,
      1829,
      1829,
      1829,
      1829,
      1829,
      1801,
      1583,
      1453,
      1224,
      1219,
      1219,
      1219,
      1158,
      954,
      944,
      941,
      749,
      640,
      440,
      397,
      198,
      95,
      183
    ],
    "swim:geom": "approach",
    "swim:timestamps": [
      1782482605,
      1782482630,
      1782482663,
      1782482676,
      1782482705,
      1782482741,
      1782482765,
      1782482810,
      1782482846,
      1782482865,
      1782482885,
      1782482916,
      1782482966,
      1782482990,
      1782483014,
      1782483041,
      1782483070,
      1782483112,
      1782483136,
      1782483162,
      1782483186,
      1782483231,
      1782483264,
      1782483298,
      1782483304,
      1782483344,
      1782483369,
      1782483403,
      1782483423,
      1782483441,
      1782483452,
      1782483494,
      1782483513,
      1782483568,
      1782483586,
      1782483614,
      1782483630,
      1782483669,
      1782483709,
      1782483730,
      1782483761,
      1782483801,
      1782483822,
      1782483865,
      1782483873,
      1782483924,
      1782483952,
      1782483978
    ],
    "wof:geomhash": "2439f9997b12660938fc1790c1bdd59d",
    "wof:id": 2031646525,
    "wof:repo": "sfomuseum-data-flights-2026-06"
  },
  "bbox": [
    -123.05637,
    37.37786,
    -122.07489,
    38.4724
  ],
  "geometry": {"coordinates":[[-123.05637,38.4724],[-123.00793,38.43221],[-122.94376,38.37678],[-122.92018,38.35639],[-122.86774,38.31103],[-122.80442,38.25652],[-122.77092,38.21585],[-122.74204,38.13557],[-122.72282,38.06988],[-122.71338,38.03816],[-122.70287,38.00214],[-122.68776,37.9501],[-122.64446,37.87223],[-122.61023,37.84026],[-122.57858,37.8102],[-122.54184,37.77562],[-122.50711,37.74277],[-122.45626,37.69479],[-122.42914,37.66934],[-122.40253,37.64414],[-122.37866,37.62156],[-122.34436,37.57515],[-122.32382,37.53965],[-122.30276,37.50378],[-122.29928,37.49777],[-122.27446,37.45555],[-122.26128,37.43312],[-122.24258,37.40252],[-122.22283,37.39015],[-122.20202,37.38506],[-122.1881,37.38223],[-122.13776,37.37786],[-122.12078,37.38985],[-122.08632,37.43148],[-122.08086,37.44586],[-122.07489,37.47081],[-122.07784,37.48393],[-122.10531,37.50747],[-122.14038,37.52226],[-122.15887,37.53007],[-122.18569,37.54136],[-122.22172,37.55652],[-122.24004,37.56431],[-122.27775,37.58013],[-122.28405,37.5828],[-122.32234,37.59893],[-122.34231,37.60731],[-122.36013,37.61493]],"type":"LineString"}
}
