{
  "id": 2031664647,
  "type": "Feature",
  "properties": {
    "date:cessation_lower": "2026-06-28",
    "date:cessation_upper": "2026-06-28",
    "date:inception_lower": "1970-01-01",
    "date:inception_upper": "1970-01-01",
    "edtf:cessation": "2026-06-28T00:07:34-07:00",
    "edtf:inception": "1970-01-01T00:00:00Z",
    "flysfo:actual_timestamp": -1,
    "flysfo:airline": "UA",
    "flysfo:date": "2026-06-28",
    "flysfo:estimated_timestamp": 1782656400,
    "flysfo:event": "A",
    "flysfo:flight_number": "UA1205",
    "flysfo:gate": "D9",
    "flysfo:journey": "SBP-SFO",
    "flysfo:scheduled_timestamp": 1782656640,
    "flysfo:timestamp": 1782656640,
    "geom:area": 0,
    "geom:bbox": "-122.370943,35.236920,-120.643230,37.617990",
    "geom:latitude": 36.427454999999995,
    "geom:longitude": -121.5070865,
    "iata:airline": "UA",
    "icao:aircraft": "A319",
    "icao:airline": "UAL",
    "lbl:latitude": 37.61756,
    "lbl:longitude": -122.381052,
    "sfomuseum:aircraft_id": 1159289407,
    "sfomuseum:airline_id": 1159285413,
    "sfomuseum:arrival_id": 102527513,
    "sfomuseum:departure_id": 102527351,
    "sfomuseum:flight_id": "20260628-A-UAL-1205",
    "sfomuseum:flight_number": [
      "UAL1205",
      "UA1205"
    ],
    "sfomuseum:placetype": "flight",
    "src:geom": "flysfo",
    "src:geom_alt": [
      "swim-approach"
    ],
    "swim:tail_number": "N822UA",
    "wof:belongsto": [
      1947304067,
      102527513,
      1947304595,
      102191575,
      85633793,
      102087579,
      85922583,
      554784711,
      85688637,
      1947304609,
      1947304591,
      102085387
    ],
    "wof:country": "US",
    "wof:created": 1782749326,
    "wof:geomhash": "2af895d7dc7816e28cbc6da81f2a802b",
    "wof:hierarchy": [
      {
        "building_id": 1947304067,
        "campus_id": 102527513,
        "concourse_id": 1947304595,
        "continent_id": 102191575,
        "country_id": 85633793,
        "county_id": 102087579,
        "custom_id": 2031664647,
        "flight_id": 2031664647,
        "locality_id": 85922583,
        "postalcode_id": 554784711,
        "region_id": 85688637,
        "venue_id": 1947304609,
        "wing_id": 1947304591
      },
      {
        "building_id": 1947304067,
        "campus_id": 102527513,
        "concourse_id": 1947304595,
        "continent_id": 102191575,
        "country_id": 85633793,
        "county_id": 102085387,
        "custom_id": 2031664647,
        "flight_id": 2031664647,
        "region_id": 85688637,
        "venue_id": 1947304609,
        "wing_id": 1947304591
      }
    ],
    "wof:id": 2031664647,
    "wof:involves": [
      102527513,
      102527351,
      1159285413,
      1947304609,
      1159289407
    ],
    "wof:lastmodified": 1782750012,
    "wof:name": "UA1205 (SBP-SFO)",
    "wof:parent_id": 1947304609,
    "wof:placetype": "custom",
    "wof:placetype_alt": [
      "flight"
    ],
    "wof:repo": "sfomuseum-data-flights-2026-06",
    "wof:superseded_by": [],
    "wof:supersedes": []
  },
  "bbox": [
    -122.370943,
    35.23692,
    -120.64323,
    37.61799
  ],
  "geometry": {"coordinates":[[-120.64323,35.23692],[-122.370943,37.61799]],"type":"MultiPoint"}
}
