{
  "id": 2031502785,
  "type": "Feature",
  "properties": {
    "geom:area": 0,
    "geom:bbox": "-122.415210,37.626780,-121.242780,38.125780",
    "geom:latitude": 37.88337645400225,
    "geom:longitude": -121.84471139567904,
    "src:alt_label": "swim-takeoff",
    "src:geom": "swim",
    "swim:elevations": [
      91,
      443,
      682,
      968,
      1470,
      1768,
      2027,
      2373,
      2848,
      3171,
      3471,
      3518,
      3858,
      3997,
      4349,
      4607,
      4948,
      5196,
      5476,
      5574,
      5786,
      5975,
      6049
    ],
    "swim:geom": "takeoff",
    "swim:timestamps": [
      1781078942,
      1781078982,
      1781079017,
      1781079044,
      1781079085,
      1781079111,
      1781079131,
      1781079164,
      1781079208,
      1781079243,
      1781079297,
      1781079304,
      1781079352,
      1781079368,
      1781079411,
      1781079447,
      1781079491,
      1781079530,
      1781079568,
      1781079585,
      1781079620,
      1781079656,
      1781079668
    ],
    "wof:geomhash": "7249cc5d557f756a3f222cde56461557",
    "wof:id": 2031502785,
    "wof:repo": "sfomuseum-data-flights-2026-06"
  },
  "bbox": [
    -122.41521,
    37.62678,
    -121.24278,
    38.12578
  ],
  "geometry": {"coordinates":[[-122.39353,37.62678],[-122.41521,37.65282],[-122.3772,37.66807],[-122.33883,37.67832],[-122.28184,37.69718],[-122.24397,37.70902],[-122.21387,37.71878],[-122.17,37.74083],[-122.10774,37.77302],[-122.05965,37.79759],[-121.97378,37.83843],[-121.96141,37.84333],[-121.87531,37.87745],[-121.84541,37.88939],[-121.76506,37.92111],[-121.69493,37.94882],[-121.60894,37.98268],[-121.53115,38.01315],[-121.45341,38.04371],[-121.41855,38.05725],[-121.34659,38.08532],[-121.26902,38.11561],[-121.24278,38.12578]],"type":"LineString"}
}
