{
  "id": 2031678535,
  "type": "Feature",
  "properties": {
    "geom:area": 0,
    "geom:bbox": "-122.408950,37.625220,-122.114160,38.519760",
    "geom:latitude": 38.01770560876231,
    "geom:longitude": -122.19414594867469,
    "src:alt_label": "swim-takeoff",
    "src:geom": "swim",
    "swim:elevations": [
      152,
      412,
      775,
      1027,
      1250,
      1374,
      2049,
      2733,
      2938,
      3316,
      3562,
      3788,
      4175,
      4255,
      4788,
      5501,
      5776,
      6170,
      6320,
      6709,
      6941,
      7313,
      7438,
      7823,
      8032,
      8312
    ],
    "swim:geom": "takeoff",
    "swim:timestamps": [
      1782736316,
      1782736346,
      1782736372,
      1782736392,
      1782736426,
      1782736443,
      1782736485,
      1782736525,
      1782736537,
      1782736567,
      1782736593,
      1782736617,
      1782736645,
      1782736650,
      1782736682,
      1782736737,
      1782736759,
      1782736794,
      1782736806,
      1782736842,
      1782736868,
      1782736914,
      1782736930,
      1782736973,
      1782737000,
      1782737038
    ],
    "wof:geomhash": "cdb2909d962b64d1edaab0ecf0b237df",
    "wof:id": 2031678535,
    "wof:repo": "sfomuseum-data-flights-2026-06"
  },
  "bbox": [
    -122.40895,
    37.62522,
    -122.11416,
    38.51976
  ],
  "geometry": {"coordinates":[[-122.38503,37.62522],[-122.40895,37.63993],[-122.40285,37.65937],[-122.38324,37.66295],[-122.34519,37.67256],[-122.3239,37.68059],[-122.26298,37.70199],[-122.21435,37.73094],[-122.20986,37.74533],[-122.20399,37.78264],[-122.19757,37.81852],[-122.19287,37.85214],[-122.18669,37.89546],[-122.1854,37.90295],[-122.17717,37.94973],[-122.16354,38.03271],[-122.15778,38.06603],[-122.14879,38.11816],[-122.14566,38.137],[-122.13663,38.19222],[-122.12984,38.23334],[-122.1176,38.3069],[-122.11416,38.33444],[-122.11823,38.40765],[-122.1212,38.45287],[-122.12582,38.51976]],"type":"LineString"}
}
