{
  "id": 2031681749,
  "type": "Feature",
  "properties": {
    "geom:area": 0,
    "geom:bbox": "-122.348520,37.444440,-121.253070,37.609890",
    "geom:latitude": 37.52580604910922,
    "geom:longitude": -121.80729753654654,
    "src:alt_label": "swim-approach",
    "src:geom": "swim",
    "swim:elevations": [
      4835,
      4404,
      4260,
      3965,
      3532,
      3355,
      3353,
      3353,
      3179,
      3007,
      2981,
      2602,
      2446,
      2438,
      2438,
      2172,
      1969,
      1907,
      1828,
      1818,
      1575,
      1334,
      1224,
      1007,
      914,
      758,
      536,
      447,
      261,
      185,
      74
    ],
    "swim:geom": "approach",
    "swim:timestamps": [
      1782811637,
      1782811678,
      1782811691,
      1782811719,
      1782811765,
      1782811791,
      1782811825,
      1782811835,
      1782811882,
      1782811916,
      1782811920,
      1782811978,
      1782812003,
      1782812039,
      1782812058,
      1782812098,
      1782812122,
      1782812134,
      1782812157,
      1782812161,
      1782812196,
      1782812243,
      1782812264,
      1782812306,
      1782812324,
      1782812350,
      1782812397,
      1782812416,
      1782812457,
      1782812480,
      1782812508
    ],
    "wof:geomhash": "17c66cf9e4d830a1ee4c3301699ce46c",
    "wof:id": 2031681749,
    "wof:repo": "sfomuseum-data-flights-2026-06"
  },
  "bbox": [
    -122.34852,
    37.44444,
    -121.25307,
    37.60989
  ],
  "geometry": {"coordinates":[[-121.25307,37.59398],[-121.33562,37.58422],[-121.36238,37.58133],[-121.41794,37.57517],[-121.50533,37.565],[-121.54907,37.5596],[-121.60086,37.55371],[-121.61463,37.55205],[-121.67752,37.53212],[-121.71038,37.5012],[-121.71416,37.49764],[-121.76925,37.44848],[-121.80284,37.44444],[-121.8511,37.44703],[-121.87827,37.4482],[-121.93177,37.45052],[-121.96408,37.45179],[-121.98042,37.45472],[-122.00846,37.46567],[-122.01334,37.46757],[-122.05522,37.48573],[-122.10779,37.50838],[-122.13012,37.51784],[-122.17347,37.5362],[-122.19159,37.54382],[-122.21829,37.55506],[-122.26376,37.57421],[-122.2802,37.58113],[-122.31193,37.59456],[-122.32848,37.60152],[-122.34852,37.60989]],"type":"LineString"}
}
