{
  "id": 2031623897,
  "type": "Feature",
  "properties": {
    "geom:area": 0,
    "geom:bbox": "-122.410460,37.625440,-121.251900,38.421600",
    "geom:latitude": 38.08155548579452,
    "geom:longitude": -121.93596541141785,
    "src:alt_label": "swim-takeoff",
    "src:geom": "swim",
    "swim:elevations": [
      122,
      421,
      464,
      761,
      1249,
      1381,
      1430,
      2135,
      2284,
      2541,
      2831,
      3173,
      3191,
      3470,
      3583,
      3955,
      4085,
      4579,
      4668,
      5025,
      5352,
      5534,
      5656,
      5835,
      6177,
      6295,
      6570,
      6810,
      6966,
      7253,
      7468,
      7613
    ],
    "swim:geom": "takeoff",
    "swim:timestamps": [
      1782257817,
      1782257847,
      1782257853,
      1782257880,
      1782257938,
      1782257962,
      1782257970,
      1782258028,
      1782258040,
      1782258063,
      1782258090,
      1782258126,
      1782258129,
      1782258177,
      1782258192,
      1782258231,
      1782258244,
      1782258295,
      1782258304,
      1782258345,
      1782258388,
      1782258413,
      1782258427,
      1782258452,
      1782258492,
      1782258507,
      1782258538,
      1782258567,
      1782258587,
      1782258626,
      1782258656,
      1782258676
    ],
    "wof:geomhash": "b3a538899c8492e4ee09ddccea981c8e",
    "wof:id": 2031623897,
    "wof:repo": "sfomuseum-data-flights-2026-06"
  },
  "bbox": [
    -122.41046,
    37.62544,
    -121.2519,
    38.4216
  ],
  "geometry": {"coordinates":[[-122.39103,37.62544],[-122.41046,37.64377],[-122.40955,37.64915],[-122.39076,37.66859],[-122.34621,37.71464],[-122.33807,37.74207],[-122.34001,37.75165],[-122.37543,37.82272],[-122.38177,37.83816],[-122.38553,37.86856],[-122.38415,37.90487],[-122.35494,37.94913],[-122.35071,37.95198],[-122.26778,37.98728],[-122.23947,37.99865],[-122.16541,38.02855],[-122.14016,38.03864],[-122.0414,38.07817],[-122.02327,38.08539],[-121.94304,38.11745],[-121.85583,38.15218],[-121.80368,38.17292],[-121.77565,38.18403],[-121.72184,38.20533],[-121.639,38.23807],[-121.60686,38.25076],[-121.53855,38.27768],[-121.47632,38.30212],[-121.43184,38.31957],[-121.35065,38.36057],[-121.29127,38.39727],[-121.2519,38.4216]],"type":"LineString"}
}
