{
  "id": 2031419593,
  "type": "Feature",
  "properties": {
    "geom:area": 0,
    "geom:bbox": "-123.049722,37.316667,-74.272500,47.056667",
    "geom:latitude": 43.74194887728112,
    "geom:longitude": -99.99178912379489,
    "src:alt_label": "swim-path",
    "src:geom": "swim",
    "swim:altitudes": [
      "085",
      "085",
      "112",
      "112",
      "112",
      "126",
      "126",
      "165",
      "165",
      "201",
      "201",
      "217",
      "217",
      "217",
      "231",
      "231",
      "231",
      "246",
      "257",
      "257",
      "273",
      "273",
      "283",
      "283",
      "320C",
      "320C",
      "320C",
      "320C",
      "320C",
      "320C",
      "320C",
      "320C",
      "320C",
      "320C",
      "320C",
      "320C",
      "320C",
      "320C",
      "320C",
      "320C",
      "320C",
      "320C",
      "320C",
      "320C",
      "320C",
      "320C",
      "320C",
      "320C",
      "320C",
      "320C",
      "320C",
      "320C",
      "320C",
      "320C",
      "320C",
      "320C",
      "320C",
      "320C",
      "320C",
      "320C",
      "320C",
      "320C",
      "320C",
      "320C",
      "320C",
      "320C",
      "320C",
      "320C",
      "320C",
      "320C",
      "320C",
      "320C",
      "320C",
      "320C",
      "320C",
      "320C",
      "320C",
      "320C",
      "320C",
      "320C",
      "320C",
      "320C",
      "320C",
      "320C",
      "320C",
      "320C",
      "320C",
      "320C",
      "320C",
      "320C",
      "320C",
      "320C",
      "320C",
      "320C",
      "320C",
      "320C",
      "320C",
      "320C",
      "320C",
      "320C",
      "320C",
      "320C",
      "320C",
      "320C",
      "320C",
      "320C",
      "320C",
      "320C",
      "320C",
      "320C",
      "320C",
      "320C",
      "320C",
      "320C",
      "320C",
      "320C",
      "320C",
      "320C",
      "320C",
      "320C",
      "320C",
      "320C",
      "320C",
      "320C",
      "320C",
      "320C",
      "320C",
      "320C",
      "320C",
      "320C",
      "320C",
      "320C",
      "320C",
      "320C",
      "320C",
      "320C",
      "320C",
      "320C",
      "320C",
      "320C",
      "320C",
      "320C",
      "320C",
      "320C",
      "320C",
      "320C",
      "320C",
      "320C",
      "320C",
      "320C",
      "320C",
      "320C",
      "320C",
      "320C",
      "320C",
      "320C",
      "320C",
      "320C",
      "320C",
      "320C",
      "320C",
      "320C",
      "320C",
      "320C",
      "320C",
      "320C",
      "320C",
      "320C",
      "320C",
      "320C",
      "320C",
      "320C",
      "320C",
      "320C",
      "320C",
      "320C",
      "320C",
      "320",
      "320",
      "328",
      "338C",
      "338C",
      "338C",
      "340C",
      "340C",
      "340C",
      "340C",
      "340C",
      "340C",
      "340C",
      "340C",
      "340C",
      "340C",
      "340C",
      "340C",
      "340C",
      "340C",
      "340C",
      "340C",
      "340C",
      "340C",
      "340C",
      "340C",
      "340C",
      "340C",
      "340C",
      "340C",
      "340C",
      "340C",
      "340C",
      "340C",
      "340C",
      "340C",
      "340C",
      "340C",
      "340C",
      "340C",
      "340C",
      "340C",
      "340C",
      "340C",
      "340C",
      "340C",
      "340C",
      "340C",
      "340C",
      "340C",
      "340C",
      "340C",
      "340C",
      "340C",
      "340C",
      "340C",
      "340C",
      "340C",
      "340C",
      "340C",
      "340C",
      "340C",
      "340C",
      "340C",
      "340C",
      "340C",
      "340C",
      "340C",
      "340C",
      "340C",
      "340C",
      "340C",
      "340C",
      "340C",
      "340C",
      "340C",
      "340C",
      "340C",
      "340C",
      "340C",
      "340C",
      "340C",
      "340C",
      "340C",
      "340C",
      "340C",
      "340C",
      "340C",
      "340C",
      "340C",
      "340C",
      "340C",
      "340C",
      "340C",
      "340C",
      "340C",
      "340C",
      "340C",
      "340C",
      "340C",
      "340C",
      "340C",
      "340C",
      "340C",
      "340C",
      "340C",
      "340C",
      "340C",
      "340C",
      "340C",
      "340C",
      "340C",
      "340C",
      "340C",
      "340C",
      "340C",
      "340C",
      "340C",
      "340C",
      "340C",
      "340C",
      "340C",
      "340C",
      "340C",
      "340C",
      "340C",
      "340C",
      "340C",
      "340C",
      "340C",
      "340C",
      "340C",
      "339",
      "335",
      "330",
      "330",
      "325",
      "311",
      "290",
      "280",
      "280",
      "259",
      "242",
      "242",
      "201",
      "182",
      "182",
      "175",
      "124",
      "124",
      "110",
      "101",
      "091",
      "089",
      "089",
      "069",
      "060",
      "060",
      "045",
      "029",
      "029",
      "017",
      "010",
      "010"
    ],
    "swim:geom": "path",
    "swim:speeds": [
      267,
      267,
      304,
      304,
      304,
      347,
      347,
      375,
      375,
      388,
      388,
      391,
      391,
      391,
      393,
      393,
      393,
      397,
      403,
      403,
      410,
      410,
      406,
      406,
      386,
      383,
      383,
      381,
      381,
      380,
      380,
      380,
      380,
      380,
      380,
      380,
      380,
      380,
      380,
      381,
      383,
      385,
      385,
      384,
      386,
      386,
      386,
      388,
      388,
      388,
      390,
      390,
      397,
      397,
      401,
      401,
      401,
      401,
      403,
      403,
      403,
      424,
      424,
      424,
      424,
      424,
      424,
      424,
      424,
      424,
      424,
      427,
      427,
      426,
      426,
      425,
      425,
      424,
      424,
      421,
      421,
      421,
      421,
      421,
      421,
      422,
      424,
      424,
      427,
      427,
      427,
      429,
      429,
      431,
      431,
      435,
      435,
      435,
      437,
      437,
      437,
      435,
      435,
      435,
      428,
      428,
      428,
      428,
      427,
      426,
      426,
      426,
      428,
      428,
      430,
      430,
      430,
      433,
      432,
      431,
      431,
      432,
      436,
      436,
      436,
      436,
      437,
      437,
      440,
      440,
      442,
      442,
      440,
      453,
      453,
      453,
      420,
      420,
      420,
      422,
      422,
      421,
      418,
      418,
      416,
      414,
      399,
      396,
      396,
      390,
      390,
      390,
      386,
      386,
      386,
      404,
      404,
      404,
      403,
      394,
      394,
      391,
      393,
      391,
      397,
      396,
      396,
      396,
      396,
      396,
      396,
      397,
      398,
      398,
      394,
      393,
      393,
      393,
      393,
      399,
      398,
      398,
      398,
      400,
      403,
      403,
      403,
      403,
      403,
      405,
      407,
      406,
      406,
      408,
      408,
      409,
      409,
      412,
      412,
      412,
      407,
      407,
      402,
      402,
      405,
      405,
      406,
      406,
      406,
      406,
      406,
      410,
      410,
      414,
      414,
      414,
      413,
      409,
      409,
      409,
      409,
      409,
      407,
      405,
      405,
      405,
      407,
      409,
      409,
      409,
      412,
      412,
      411,
      411,
      414,
      414,
      414,
      416,
      417,
      419,
      419,
      419,
      421,
      421,
      421,
      421,
      418,
      418,
      418,
      414,
      414,
      414,
      415,
      418,
      418,
      420,
      420,
      420,
      421,
      428,
      427,
      427,
      427,
      424,
      424,
      421,
      420,
      416,
      416,
      408,
      406,
      398,
      405,
      405,
      403,
      403,
      400,
      399,
      399,
      402,
      400,
      402,
      402,
      405,
      404,
      402,
      400,
      403,
      406,
      407,
      413,
      418,
      421,
      423,
      423,
      423,
      426,
      426,
      431,
      431,
      411,
      411,
      394,
      393,
      393,
      387,
      387,
      384,
      384,
      391,
      407,
      424,
      424,
      429,
      425,
      407,
      398,
      398,
      380,
      393,
      393,
      385,
      373,
      373,
      365,
      309,
      309,
      250,
      246,
      240,
      243,
      243,
      230,
      234,
      234,
      209,
      190,
      190,
      158,
      151,
      151
    ],
    "swim:timestamps": [
      1780352148,
      1780352148,
      1780352268,
      1780352268,
      1780352268,
      1780352328,
      1780352328,
      1780352448,
      1780352448,
      1780352568,
      1780352568,
      1780352628,
      1780352628,
      1780352628,
      1780352688,
      1780352688,
      1780352688,
      1780352748,
      1780352808,
      1780352808,
      1780352896,
      1780352896,
      1780352929,
      1780352929,
      1780353109,
      1780353136,
      1780353136,
      1780353169,
      1780353169,
      1780353229,
      1780353229,
      1780353289,
      1780353289,
      1780353316,
      1780353316,
      1780353316,
      1780353469,
      1780353469,
      1780353469,
      1780353557,
      1780353590,
      1780353650,
      1780353650,
      1780353677,
      1780353710,
      1780353710,
      1780353710,
      1780353857,
      1780353857,
      1780353857,
      1780353917,
      1780353917,
      1780354098,
      1780354098,
      1780354218,
      1780354218,
      1780354218,
      1780354218,
      1780354398,
      1780354398,
      1780354398,
      1780355557,
      1780355557,
      1780355857,
      1780355857,
      1780355857,
      1780355857,
      1780355977,
      1780355977,
      1780355977,
      1780355977,
      1780356157,
      1780356157,
      1780356218,
      1780356218,
      1780356278,
      1780356278,
      1780356338,
      1780356338,
      1780356458,
      1780356458,
      1780356458,
      1780356518,
      1780356518,
      1780356518,
      1780356578,
      1780356698,
      1780356698,
      1780356878,
      1780356878,
      1780356878,
      1780356939,
      1780356939,
      1780356999,
      1780356999,
      1780357119,
      1780357119,
      1780357119,
      1780357239,
      1780357239,
      1780357239,
      1780357419,
      1780357419,
      1780357419,
      1780357539,
      1780357539,
      1780357539,
      1780357539,
      1780357599,
      1780357660,
      1780357660,
      1780357660,
      1780357780,
      1780357780,
      1780357840,
      1780357840,
      1780357840,
      1780358381,
      1780358441,
      1780358501,
      1780358501,
      1780358561,
      1780358741,
      1780358861,
      1780358861,
      1780358921,
      1780358981,
      1780358981,
      1780359222,
      1780359222,
      1780359402,
      1780359462,
      1780359642,
      1780360243,
      1780360243,
      1780360243,
      1780360676,
      1780360676,
      1780360676,
      1780360796,
      1780360796,
      1780360856,
      1780361397,
      1780361397,
      1780361457,
      1780361517,
      1780361697,
      1780361834,
      1780361834,
      1780361894,
      1780361954,
      1780361954,
      1780362254,
      1780362254,
      1780362254,
      1780362495,
      1780362495,
      1780362495,
      1780362598,
      1780362735,
      1780362735,
      1780362795,
      1780362839,
      1780362855,
      1780362915,
      1780363019,
      1780363035,
      1780363035,
      1780363079,
      1780363079,
      1780363095,
      1780363139,
      1780363215,
      1780363215,
      1780363259,
      1780363319,
      1780363319,
      1780363396,
      1780363396,
      1780363456,
      1780363516,
      1780363516,
      1780363516,
      1780363576,
      1780363636,
      1780363636,
      1780363680,
      1780363680,
      1780363680,
      1780363696,
      1780363756,
      1780363800,
      1780363800,
      1780363876,
      1780363876,
      1780363980,
      1780363980,
      1780364177,
      1780364177,
      1780364177,
      1780364417,
      1780364417,
      1780364537,
      1780364537,
      1780364657,
      1780364657,
      1780364717,
      1780364778,
      1780364778,
      1780364838,
      1780364838,
      1780364958,
      1780364958,
      1780365078,
      1780365078,
      1780365078,
      1780365138,
      1780365258,
      1780365258,
      1780365318,
      1780365318,
      1780365318,
      1780365498,
      1780365619,
      1780365619,
      1780365619,
      1780365679,
      1780365799,
      1780365799,
      1780365799,
      1780365919,
      1780365979,
      1780366039,
      1780366039,
      1780366159,
      1780366159,
      1780366159,
      1780366280,
      1780366340,
      1780366400,
      1780366400,
      1780366400,
      1780366520,
      1780366520,
      1780366580,
      1780366580,
      1780366760,
      1780366760,
      1780366760,
      1780366940,
      1780366940,
      1780366940,
      1780367000,
      1780367121,
      1780367121,
      1780367241,
      1780367241,
      1780367241,
      1780367361,
      1780367541,
      1780367601,
      1780367601,
      1780367601,
      1780367842,
      1780367842,
      1780367962,
      1780368082,
      1780368202,
      1780368202,
      1780368322,
      1780368382,
      1780368528,
      1780368683,
      1780368683,
      1780368768,
      1780368768,
      1780368863,
      1780369008,
      1780369129,
      1780369223,
      1780369249,
      1780369369,
      1780369369,
      1780369549,
      1780369584,
      1780369704,
      1780369764,
      1780369944,
      1780370029,
      1780370065,
      1780370210,
      1780370305,
      1780370365,
      1780370450,
      1780370510,
      1780370665,
      1780370846,
      1780370846,
      1780370990,
      1780370990,
      1780371171,
      1780371171,
      1780371351,
      1780371471,
      1780371471,
      1780371651,
      1780371651,
      1780371951,
      1780371951,
      1780372252,
      1780372312,
      1780372372,
      1780372372,
      1780372432,
      1780372552,
      1780372672,
      1780372732,
      1780372732,
      1780372852,
      1780372972,
      1780372972,
      1780373213,
      1780373273,
      1780373273,
      1780373288,
      1780373505,
      1780373505,
      1780373625,
      1780373745,
      1780373805,
      1780373813,
      1780373813,
      1780373925,
      1780373985,
      1780373985,
      1780374113,
      1780374234,
      1780374234,
      1780374354,
      1780374414,
      1780374414
    ],
    "wof:geomhash": "358b3bfae959032b89f472f9849b5f16",
    "wof:id": 2031419593,
    "wof:repo": "sfomuseum-data-flights-2026-06"
  },
  "bbox": [
    -123.04972222222221,
    37.31666666666667,
    -74.2725,
    47.056666666666665
  ],
  "geometry": {"coordinates":[[-74.2725,40.83361111111111],[-74.2725,40.83361111111111],[-74.34527777777777,40.974722222222226],[-74.34527777777777,40.974722222222226],[-74.34527777777777,40.974722222222226],[-74.38277777777778,41.06444444444444],[-74.38277777777778,41.06444444444444],[-74.45972222222223,41.25972222222222],[-74.45972222222223,41.25972222222222],[-74.5436111111111,41.465],[-74.5436111111111,41.465],[-74.65166666666667,41.53361111111111],[-74.65166666666667,41.53361111111111],[-74.65166666666667,41.53361111111111],[-74.76916666666666,41.58444444444444],[-74.76916666666666,41.58444444444444],[-74.76916666666666,41.58444444444444],[-74.90611111111112,41.643055555555556],[-75.03583333333333,41.69833333333333],[-75.03583333333333,41.69833333333333],[-75.20361111111112,41.76916666666666],[-75.20361111111112,41.76916666666666],[-75.29833333333333,41.80916666666666],[-75.29833333333333,41.80916666666666],[-75.6825,41.97],[-75.72,41.98555555555556],[-75.72,41.98555555555556],[-75.80444444444444,42.02055555555555],[-75.80444444444444,42.02055555555555],[-75.91666666666667,42.066944444444445],[-75.91666666666667,42.066944444444445],[-76.03999999999999,42.11805555555556],[-76.03999999999999,42.11805555555556],[-76.09055555555555,42.13861111111111],[-76.09055555555555,42.13861111111111],[-76.09055555555555,42.13861111111111],[-76.42722222222223,42.25083333333333],[-76.42722222222223,42.25083333333333],[-76.42722222222223,42.25083333333333],[-76.61416666666666,42.309999999999995],[-76.69,42.33388888888889],[-76.825,42.376666666666665],[-76.825,42.376666666666665],[-76.87972222222221,42.39416666666666],[-76.9588888888889,42.41861111111111],[-76.9588888888889,42.41861111111111],[-76.9588888888889,42.41861111111111],[-77.28527777777778,42.51972222222222],[-77.28527777777778,42.51972222222222],[-77.28527777777778,42.51972222222222],[-77.42083333333333,42.561388888888885],[-77.42083333333333,42.561388888888885],[-77.81527777777778,42.73888888888889],[-77.81527777777778,42.73888888888889],[-78.08138888888888,42.84277777777778],[-78.08138888888888,42.84277777777778],[-78.08138888888888,42.84277777777778],[-78.08138888888888,42.84277777777778],[-78.50583333333333,42.969166666666666],[-78.50583333333333,42.969166666666666],[-78.50583333333333,42.969166666666666],[-81.35916666666667,43.766666666666666],[-81.35916666666667,43.766666666666666],[-82.12555555555555,43.96472222222223],[-82.12555555555555,43.96472222222223],[-82.12555555555555,43.96472222222223],[-82.12555555555555,43.96472222222223],[-82.43361111111112,44.04222222222222],[-82.43361111111112,44.04222222222222],[-82.43361111111112,44.04222222222222],[-82.43361111111112,44.04222222222222],[-82.9263888888889,44.174166666666665],[-82.9263888888889,44.174166666666665],[-83.08138888888888,44.212500000000006],[-83.08138888888888,44.212500000000006],[-83.2375,44.25083333333333],[-83.2375,44.25083333333333],[-83.39166666666668,44.288333333333334],[-83.39166666666668,44.288333333333334],[-83.69916666666667,44.362500000000004],[-83.69916666666667,44.362500000000004],[-83.69916666666667,44.362500000000004],[-83.85472222222222,44.39944444444444],[-83.85472222222222,44.39944444444444],[-83.85472222222222,44.39944444444444],[-84.01,44.43611111111111],[-84.32138888888889,44.50944444444445],[-84.32138888888889,44.50944444444445],[-84.7975,44.61888888888889],[-84.7975,44.61888888888889],[-84.7975,44.61888888888889],[-84.95694444444445,44.655277777777776],[-84.95694444444445,44.655277777777776],[-85.11722222222221,44.69138888888889],[-85.11722222222221,44.69138888888889],[-85.44250000000001,44.763888888888886],[-85.44250000000001,44.763888888888886],[-85.44250000000001,44.763888888888886],[-85.74333333333334,44.830000000000005],[-85.74333333333334,44.830000000000005],[-85.74333333333334,44.830000000000005],[-86.22972222222222,44.93472222222222],[-86.22972222222222,44.93472222222222],[-86.22972222222222,44.93472222222222],[-86.58,45.00861111111111],[-86.58,45.00861111111111],[-86.58,45.00861111111111],[-86.58,45.00861111111111],[-86.74027777777778,45.04194444444444],[-86.87833333333333,45.07055555555556],[-86.87833333333333,45.07055555555556],[-86.87833333333333,45.07055555555556],[-87.20277777777778,45.136944444444445],[-87.20277777777778,45.136944444444445],[-87.36444444444444,45.16972222222222],[-87.36444444444444,45.16972222222222],[-87.36444444444444,45.16972222222222],[-88.8425,45.45611111111111],[-89.00722222222223,45.486666666666665],[-89.17305555555556,45.51722222222222],[-89.17305555555556,45.51722222222222],[-89.33944444444444,45.5475],[-89.84666666666666,45.638333333333335],[-90.18305555555555,45.69694444444444],[-90.18305555555555,45.69694444444444],[-90.3536111111111,45.72638888888889],[-90.5213888888889,45.755],[-90.5213888888889,45.755],[-91.2038888888889,45.868611111111115],[-91.2038888888889,45.868611111111115],[-91.7238888888889,45.952222222222225],[-91.89611111111111,45.97916666666667],[-92.40916666666668,46.058055555555555],[-94.18166666666667,46.311388888888885],[-94.18166666666667,46.311388888888885],[-94.18166666666667,46.311388888888885],[-95.38444444444445,46.46666666666667],[-95.38444444444445,46.46666666666667],[-95.38444444444445,46.46666666666667],[-95.7538888888889,46.51166666666666],[-95.7538888888889,46.51166666666666],[-95.92027777777778,46.531666666666666],[-97.4325,46.70027777777778],[-97.4325,46.70027777777778],[-97.59722222222221,46.7175],[-97.76138888888889,46.73416666666667],[-98.24444444444444,46.78194444444444],[-98.5911111111111,46.81583333333333],[-98.5911111111111,46.81583333333333],[-98.75611111111111,46.83027777777778],[-98.91333333333334,46.844722222222224],[-98.91333333333334,46.844722222222224],[-99.69222222222223,46.91305555555555],[-99.69222222222223,46.91305555555555],[-99.69222222222223,46.91305555555555],[-100.33361111111111,46.96666666666667],[-100.33361111111111,46.96666666666667],[-100.33361111111111,46.96666666666667],[-100.61472222222221,46.986666666666665],[-100.97333333333333,47.015],[-100.97333333333333,47.015],[-101.12944444444443,47.02611111111111],[-101.25694444444444,47.034166666666664],[-101.28861111111111,47.03861111111111],[-101.45027777777779,47.05444444444444],[-101.7388888888889,47.056666666666665],[-101.77277777777778,47.05333333333333],[-101.77277777777778,47.05333333333333],[-101.89694444444446,47.04194444444444],[-101.89694444444446,47.04194444444444],[-101.93416666666667,47.03861111111111],[-102.06,47.02722222222222],[-102.25194444444445,47.00361111111111],[-102.25194444444445,47.00361111111111],[-102.36055555555555,46.96138888888889],[-102.4961111111111,46.906388888888884],[-102.4961111111111,46.906388888888884],[-102.66361111111112,46.83722222222222],[-102.66361111111112,46.83722222222222],[-102.8025,46.779444444444444],[-102.94,46.72277777777778],[-102.94,46.72277777777778],[-102.94,46.72277777777778],[-103.0775,46.66305555555555],[-103.20611111111111,46.5925],[-103.20611111111111,46.5925],[-103.27888888888889,46.54805555555556],[-103.27888888888889,46.54805555555556],[-103.27888888888889,46.54805555555556],[-103.33083333333333,46.51638888888889],[-103.45472222222223,46.440555555555555],[-103.52388888888889,46.39861111111111],[-103.52388888888889,46.39861111111111],[-103.69861111111112,46.29138888888889],[-103.69861111111112,46.29138888888889],[-103.89305555555556,46.169444444444444],[-103.89305555555556,46.169444444444444],[-104.31277777777777,45.90972222222222],[-104.31277777777777,45.90972222222222],[-104.31277777777777,45.90972222222222],[-104.86305555555555,45.70111111111111],[-104.86305555555555,45.70111111111111],[-105.15472222222223,45.61666666666667],[-105.15472222222223,45.61666666666667],[-105.45111111111112,45.530277777777776],[-105.45111111111112,45.530277777777776],[-105.59861111111111,45.48694444444445],[-105.74777777777778,45.44277777777778],[-105.74777777777778,45.44277777777778],[-105.89500000000001,45.39861111111111],[-105.89500000000001,45.39861111111111],[-106.19416666666667,45.30916666666666],[-106.19416666666667,45.30916666666666],[-106.49305555555556,45.218611111111116],[-106.49305555555556,45.218611111111116],[-106.49305555555556,45.218611111111116],[-106.64277777777778,45.17194444444444],[-106.93472222222222,45.081944444444446],[-106.93472222222222,45.081944444444446],[-107.08083333333333,45.03611111111111],[-107.08083333333333,45.03611111111111],[-107.08083333333333,45.03611111111111],[-107.52111111111111,44.8975],[-107.81222222222222,44.803888888888885],[-107.81222222222222,44.803888888888885],[-107.81222222222222,44.803888888888885],[-107.96666666666667,44.754444444444445],[-108.26027777777777,44.65888888888889],[-108.26027777777777,44.65888888888889],[-108.26027777777777,44.65888888888889],[-108.55111111111111,44.56305555555555],[-108.69555555555556,44.51444444444444],[-108.83916666666666,44.466944444444444],[-108.83916666666666,44.466944444444444],[-109.13222222222221,44.368611111111115],[-109.13222222222221,44.368611111111115],[-109.13222222222221,44.368611111111115],[-109.42416666666666,44.26916666666666],[-109.5611111111111,44.221944444444446],[-109.70805555555556,44.17111111111111],[-109.70805555555556,44.17111111111111],[-109.70805555555556,44.17111111111111],[-110.00166666666667,44.06944444444445],[-110.00166666666667,44.06944444444445],[-110.14888888888889,44.01777777777777],[-110.14888888888889,44.01777777777777],[-110.58222222222221,43.86416666666667],[-110.58222222222221,43.86416666666667],[-110.58222222222221,43.86416666666667],[-111.01055555555556,43.71],[-111.01055555555556,43.71],[-111.01055555555556,43.71],[-111.15222222222222,43.65833333333333],[-111.43833333333333,43.55333333333333],[-111.43833333333333,43.55333333333333],[-111.71305555555556,43.431666666666665],[-111.71305555555556,43.431666666666665],[-111.71305555555556,43.431666666666665],[-111.96583333333334,43.28583333333333],[-112.35222222222221,43.06861111111112],[-112.49777777777778,43.01555555555556],[-112.49777777777778,43.01555555555556],[-112.49777777777778,43.01555555555556],[-113.07555555555555,42.80083333333333],[-113.07555555555555,42.80083333333333],[-113.35749999999999,42.69444444444444],[-113.64916666666667,42.58305555555556],[-113.92611111111111,42.47638888888889],[-113.92611111111111,42.47638888888889],[-114.19611111111111,42.37111111111111],[-114.3286111111111,42.31944444444445],[-114.63777777777779,42.19694444444444],[-114.98444444444445,42.05916666666666],[-114.98444444444445,42.05916666666666],[-115.17,41.98527777777778],[-115.17,41.98527777777778],[-115.3775,41.9],[-115.68861111111111,41.77305555555555],[-115.94888888888889,41.665277777777774],[-116.15527777777778,41.57944444444445],[-116.21138888888889,41.5575],[-116.47111111111111,41.4475],[-116.47111111111111,41.4475],[-116.86055555555555,41.28138888888889],[-116.93666666666667,41.248333333333335],[-117.21722222222222,41.1275],[-117.34277777777777,41.07277777777778],[-117.72277777777778,40.906666666666666],[-117.90416666666667,40.82666666666667],[-117.98083333333334,40.7925],[-118.29555555555555,40.65222222222222],[-118.50472222222223,40.55777777777777],[-118.63666666666667,40.49805555555556],[-118.82305555555556,40.41305555555555],[-118.95583333333333,40.3525],[-119.2936111111111,40.196666666666665],[-119.6875,40.01277777777778],[-119.6875,40.01277777777778],[-120.00805555555556,39.861666666666665],[-120.00805555555556,39.861666666666665],[-120.39472222222223,39.676944444444445],[-120.39472222222223,39.676944444444445],[-120.7863888888889,39.57527777777778],[-121.06333333333333,39.62027777777778],[-121.06333333333333,39.62027777777778],[-121.48277777777778,39.689166666666665],[-121.48277777777778,39.689166666666665],[-122.16166666666668,39.799166666666665],[-122.16166666666668,39.799166666666665],[-122.84861111111111,39.88527777777778],[-122.97944444444444,39.84111111111111],[-123.04972222222221,39.740833333333335],[-123.04972222222221,39.740833333333335],[-123.02944444444444,39.62166666666667],[-122.9863888888889,39.39472222222222],[-122.94388888888889,39.171388888888885],[-122.92333333333333,39.061388888888885],[-122.92333333333333,39.061388888888885],[-122.88277777777778,38.846111111111114],[-122.84527777777777,38.64388888888889],[-122.84527777777777,38.64388888888889],[-122.76472222222222,38.21388888888889],[-122.735,38.111666666666665],[-122.735,38.111666666666665],[-122.71666666666667,38.083333333333336],[-122.55,37.78333333333333],[-122.55,37.78333333333333],[-122.41666666666667,37.666666666666664],[-122.33333333333333,37.55],[-122.3,37.483333333333334],[-122.28833333333333,37.47694444444445],[-122.28833333333333,37.47694444444445],[-122.31666666666666,37.36666666666667],[-122.26666666666667,37.31666666666667],[-122.26666666666667,37.31666666666667],[-122.14944444444446,37.408055555555556],[-122.15944444444445,37.511944444444445],[-122.15944444444445,37.511944444444445],[-122.25166666666667,37.566944444444445],[-122.29722222222222,37.586111111111116],[-122.29722222222222,37.586111111111116]],"type":"LineString"}
}
