{
  "id": 2031547215,
  "type": "Feature",
  "properties": {
    "geom:area": 0,
    "geom:bbox": "-122.352880,37.492650,-121.250440,37.611720",
    "geom:latitude": 37.54256742322621,
    "geom:longitude": -121.80856130279263,
    "src:alt_label": "swim-approach",
    "src:geom": "swim",
    "swim:elevations": [
      4475,
      4296,
      4236,
      4178,
      3934,
      3691,
      3554,
      3351,
      3078,
      2810,
      2602,
      2359,
      2215,
      2077,
      1949,
      1734,
      1683,
      1305,
      1219,
      1187,
      1039,
      946,
      793,
      650,
      479,
      348,
      273,
      121,
      83,
      55
    ],
    "swim:geom": "approach",
    "swim:timestamps": [
      1781535425,
      1781535452,
      1781535490,
      1781535526,
      1781535561,
      1781535595,
      1781535614,
      1781535642,
      1781535680,
      1781535714,
      1781535738,
      1781535769,
      1781535798,
      1781535825,
      1781535850,
      1781535895,
      1781535903,
      1781535948,
      1781535986,
      1781536009,
      1781536046,
      1781536061,
      1781536092,
      1781536117,
      1781536160,
      1781536192,
      1781536212,
      1781536254,
      1781536261,
      1781536271
    ],
    "wof:geomhash": "7cb087e4ed148db2246fa78ccf2a3d85",
    "wof:id": 2031547215,
    "wof:repo": "sfomuseum-data-flights-2026-06"
  },
  "bbox": [
    -122.35288,
    37.49265,
    -121.25044,
    37.61172
  ],
  "geometry": {"coordinates":[[-121.25044,37.59434],[-121.31091,37.58679],[-121.38753,37.57844],[-121.4514,37.57114],[-121.50868,37.56431],[-121.56433,37.55788],[-121.59488,37.55437],[-121.63732,37.54782],[-121.69565,37.53394],[-121.74494,37.52211],[-121.78086,37.51343],[-121.82723,37.50236],[-121.87038,37.49268],[-121.91014,37.49265],[-121.94637,37.49478],[-122.0095,37.49863],[-122.02026,37.4993],[-122.07552,37.50248],[-122.11622,37.51195],[-122.13879,37.52178],[-122.17384,37.53557],[-122.18632,37.54098],[-122.21319,37.55291],[-122.23463,37.56199],[-122.27,37.57745],[-122.29558,37.58748],[-122.31045,37.59387],[-122.34093,37.60669],[-122.34618,37.60896],[-122.35288,37.61172]],"type":"LineString"}
}
