{
  "id": 2031609923,
  "type": "Feature",
  "properties": {
    "geom:area": 0,
    "geom:bbox": "-122.353690,37.490890,-121.272210,37.612040",
    "geom:latitude": 37.543854308188635,
    "geom:longitude": -121.81874306945481,
    "src:alt_label": "swim-approach",
    "src:geom": "swim",
    "swim:elevations": [
      4549,
      4327,
      4261,
      4219,
      4127,
      3974,
      3563,
      3503,
      3296,
      3032,
      2902,
      2821,
      2719,
      2497,
      2420,
      2312,
      2157,
      2127,
      2062,
      1933,
      1832,
      1665,
      1550,
      1366,
      1159,
      1087,
      1067,
      961,
      692,
      603,
      434,
      267,
      215,
      88,
      44
    ],
    "swim:geom": "approach",
    "swim:timestamps": [
      1782167652,
      1782167679,
      1782167697,
      1782167703,
      1782167721,
      1782167739,
      1782167787,
      1782167796,
      1782167826,
      1782167873,
      1782167891,
      1782167902,
      1782167920,
      1782167968,
      1782167994,
      1782168011,
      1782168044,
      1782168052,
      1782168062,
      1782168086,
      1782168104,
      1782168142,
      1782168162,
      1782168198,
      1782168239,
      1782168254,
      1782168257,
      1782168275,
      1782168324,
      1782168345,
      1782168374,
      1782168412,
      1782168427,
      1782168456,
      1782168470
    ],
    "wof:geomhash": "4dc236b6c777dbe54ab6aaa5ec2a0fb9",
    "wof:id": 2031609923,
    "wof:repo": "sfomuseum-data-flights-2026-06"
  },
  "bbox": [
    -122.35369,
    37.49089,
    -121.27221,
    37.61204
  ],
  "geometry": {"coordinates":[[-121.27221,37.59136],[-121.32363,37.58577],[-121.35606,37.58242],[-121.36655,37.58124],[-121.39733,37.57757],[-121.42727,37.57387],[-121.50596,37.56468],[-121.52061,37.56289],[-121.56911,37.5573],[-121.63746,37.54777],[-121.66297,37.54137],[-121.67817,37.53775],[-121.70322,37.53186],[-121.76685,37.51684],[-121.80152,37.50865],[-121.82457,37.50313],[-121.86893,37.49206],[-121.87999,37.49105],[-121.89411,37.49089],[-121.92737,37.49513],[-121.95194,37.49913],[-122.00309,37.50795],[-122.03025,37.51259],[-122.07787,37.52042],[-122.13038,37.52914],[-122.14947,37.53209],[-122.15322,37.5327],[-122.17546,37.53697],[-122.22832,37.55941],[-122.24888,37.56797],[-122.27798,37.5803],[-122.31023,37.59381],[-122.3219,37.59872],[-122.3428,37.60749],[-122.35369,37.61204]],"type":"LineString"}
}
