{
  "id": 2031587877,
  "type": "Feature",
  "properties": {
    "geom:area": 0,
    "geom:bbox": "-122.400230,37.631580,-121.249530,38.503760",
    "geom:latitude": 38.072080901059884,
    "geom:longitude": -121.83750615358262,
    "src:alt_label": "swim-takeoff",
    "src:geom": "swim",
    "swim:elevations": [
      387,
      690,
      1189,
      1281,
      1638,
      1888,
      2729,
      3142,
      3322,
      3485,
      3772,
      4150,
      4353,
      4652,
      4941,
      5244,
      5471,
      5783,
      6130,
      6179,
      6521,
      6701,
      7044,
      7182,
      7342,
      7512,
      7579
    ],
    "swim:geom": "takeoff",
    "swim:timestamps": [
      1781872098,
      1781872127,
      1781872186,
      1781872204,
      1781872243,
      1781872260,
      1781872310,
      1781872347,
      1781872373,
      1781872407,
      1781872434,
      1781872466,
      1781872490,
      1781872518,
      1781872544,
      1781872575,
      1781872606,
      1781872637,
      1781872678,
      1781872683,
      1781872720,
      1781872742,
      1781872787,
      1781872807,
      1781872831,
      1781872854,
      1781872864
    ],
    "wof:geomhash": "2acc8264b617a610c8a6a9b45fcca4cd",
    "wof:id": 2031587877,
    "wof:repo": "sfomuseum-data-flights-2026-06"
  },
  "bbox": [
    -122.40023,
    37.63158,
    -121.24953,
    38.50376
  ],
  "geometry": {"coordinates":[[-122.40023,37.63158],[-122.39722,37.65247],[-122.33984,37.67148],[-122.31928,37.67905],[-122.26345,37.6996],[-122.23811,37.70879],[-122.17907,37.7563],[-122.14081,37.79959],[-122.11153,37.83148],[-122.06913,37.87851],[-122.03351,37.9177],[-121.99162,37.96411],[-121.95906,38.00025],[-121.91983,38.0431],[-121.8808,38.08145],[-121.82475,38.12027],[-121.76677,38.15918],[-121.70706,38.19921],[-121.62741,38.25255],[-121.61884,38.25823],[-121.5459,38.30696],[-121.50096,38.33693],[-121.40958,38.39772],[-121.36915,38.42455],[-121.31923,38.45753],[-121.27055,38.48976],[-121.24953,38.50376]],"type":"LineString"}
}
