{
  "id": 2031475597,
  "type": "Feature",
  "properties": {
    "geom:area": 0,
    "geom:bbox": "-122.383333,32.902778,-97.050000,38.397222",
    "geom:latitude": 36.68583801180681,
    "geom:longitude": -109.43764576626502,
    "src:alt_label": "swim-path",
    "src:geom": "swim",
    "swim:altitudes": [
      "006",
      "006",
      "006",
      "023",
      "047",
      "089",
      "089",
      "089",
      "115",
      "115",
      "122",
      "122",
      "122",
      "122",
      "165",
      "178",
      "178",
      "178",
      "178",
      "202",
      "202",
      "212",
      "212",
      "241",
      "241",
      "249",
      "249",
      "249",
      "249",
      "249",
      "265",
      "265",
      "269",
      "269",
      "269",
      "277",
      "277",
      "286",
      "286",
      "295",
      "295",
      "296",
      "303",
      "303",
      "314",
      "314",
      "314",
      "323",
      "330C",
      "330C",
      "330C",
      "330C",
      "330C",
      "330C",
      "330C",
      "330C",
      "330C",
      "330C",
      "330C",
      "330C",
      "330C",
      "330C",
      "330C",
      "330C",
      "330C",
      "330C",
      "330C",
      "330C",
      "330C",
      "330C",
      "330C",
      "330C",
      "330C",
      "330C",
      "330C",
      "330C",
      "330C",
      "330C",
      "330C",
      "330C",
      "330C",
      "330C",
      "330C",
      "330C",
      "331C",
      "331C",
      "331C",
      "330C",
      "330C",
      "330C",
      "330C",
      "330C",
      "330C",
      "330C",
      "330C",
      "330C",
      "330C",
      "330C",
      "330C",
      "330C",
      "330C",
      "330C",
      "330C",
      "330C",
      "330C",
      "330C",
      "330C",
      "330C",
      "330C",
      "330C",
      "330C",
      "330C",
      "330C",
      "330C",
      "330C",
      "330C",
      "330C",
      "330C",
      "330C",
      "330C",
      "331C",
      "330",
      "330",
      "330",
      "339",
      "339",
      "339",
      "339",
      "350C",
      "350C",
      "350C",
      "350C",
      "350C",
      "350C",
      "350C",
      "350C",
      "351C",
      "351C",
      "351C",
      "351C",
      "350C",
      "350C",
      "350C",
      "350C",
      "350C",
      "350C",
      "350C",
      "350C",
      "350C",
      "351C",
      "350C",
      "350C",
      "350C",
      "350C",
      "350C",
      "350C",
      "350C",
      "350C",
      "350C",
      "350C",
      "350C",
      "350C",
      "350C",
      "350C",
      "350C",
      "351C",
      "350C",
      "350C",
      "350C",
      "350C",
      "350C",
      "350C",
      "350C",
      "350C",
      "350C",
      "350C",
      "350C",
      "350C",
      "350C",
      "350C",
      "350C",
      "350C",
      "350C",
      "351C",
      "351C",
      "351C",
      "350C",
      "350C",
      "350C",
      "350C",
      "350C",
      "350C",
      "350C",
      "350C",
      "350C",
      "350C",
      "350C",
      "350C",
      "350C",
      "350C",
      "350C",
      "350C",
      "350C",
      "350C",
      "350C",
      "351C",
      "351C",
      "349",
      "349",
      "340",
      "340",
      "340",
      "320",
      "320",
      "320",
      "320",
      "291",
      "291",
      "282",
      "282",
      "272",
      "272",
      "272",
      "272",
      "167",
      "167",
      "167",
      "114",
      "114",
      "114",
      "106",
      "106",
      "106",
      "088",
      "088",
      "050",
      "050",
      "050",
      "050",
      "050",
      "050",
      "030",
      "030",
      "030",
      "029",
      "029",
      "029",
      "030",
      "030",
      "030",
      "024",
      "010",
      "010",
      "006",
      "006"
    ],
    "swim:geom": "path",
    "swim:speeds": [
      156,
      156,
      156,
      248,
      266,
      291,
      291,
      291,
      357,
      357,
      398,
      398,
      398,
      398,
      427,
      434,
      434,
      434,
      434,
      455,
      455,
      466,
      466,
      486,
      486,
      492,
      492,
      492,
      492,
      492,
      503,
      503,
      505,
      505,
      505,
      505,
      505,
      502,
      502,
      501,
      501,
      502,
      500,
      500,
      497,
      497,
      497,
      490,
      488,
      485,
      485,
      485,
      484,
      484,
      485,
      485,
      485,
      485,
      485,
      486,
      486,
      485,
      485,
      485,
      485,
      485,
      485,
      486,
      486,
      486,
      486,
      486,
      486,
      486,
      486,
      485,
      485,
      485,
      485,
      481,
      481,
      481,
      481,
      481,
      479,
      479,
      479,
      479,
      479,
      479,
      479,
      478,
      478,
      478,
      481,
      482,
      482,
      482,
      482,
      482,
      482,
      482,
      482,
      481,
      482,
      482,
      482,
      486,
      486,
      485,
      485,
      482,
      482,
      480,
      480,
      480,
      486,
      486,
      486,
      486,
      489,
      488,
      488,
      488,
      486,
      486,
      486,
      486,
      483,
      483,
      483,
      483,
      479,
      479,
      479,
      479,
      481,
      481,
      481,
      481,
      473,
      473,
      472,
      471,
      471,
      470,
      470,
      470,
      472,
      473,
      473,
      473,
      473,
      472,
      472,
      470,
      472,
      472,
      480,
      481,
      481,
      481,
      481,
      481,
      481,
      482,
      474,
      464,
      464,
      464,
      462,
      462,
      462,
      462,
      483,
      483,
      486,
      486,
      486,
      486,
      486,
      487,
      487,
      489,
      489,
      489,
      486,
      486,
      485,
      485,
      485,
      485,
      485,
      485,
      486,
      486,
      486,
      486,
      483,
      483,
      483,
      483,
      482,
      482,
      482,
      483,
      483,
      484,
      484,
      484,
      484,
      484,
      483,
      483,
      483,
      483,
      459,
      459,
      455,
      455,
      448,
      448,
      448,
      448,
      393,
      393,
      393,
      362,
      362,
      362,
      323,
      323,
      323,
      308,
      308,
      278,
      278,
      278,
      234,
      234,
      234,
      181,
      183,
      183,
      179,
      179,
      179,
      158,
      158,
      158,
      157,
      136,
      136,
      128,
      128
    ],
    "swim:timestamps": [
      1780874160,
      1780874160,
      1780874160,
      1780874247,
      1780874307,
      1780874427,
      1780874427,
      1780874427,
      1780874548,
      1780874548,
      1780874608,
      1780874608,
      1780874608,
      1780874608,
      1780874788,
      1780874848,
      1780874848,
      1780874848,
      1780874848,
      1780874968,
      1780874968,
      1780875028,
      1780875028,
      1780875208,
      1780875208,
      1780875268,
      1780875268,
      1780875268,
      1780875268,
      1780875268,
      1780875389,
      1780875389,
      1780875408,
      1780875408,
      1780875408,
      1780875468,
      1780875468,
      1780875509,
      1780875509,
      1780875569,
      1780875569,
      1780875588,
      1780875629,
      1780875629,
      1780875708,
      1780875708,
      1780875708,
      1780875768,
      1780875828,
      1780875869,
      1780875869,
      1780875869,
      1780875888,
      1780875888,
      1780875989,
      1780875989,
      1780875989,
      1780875989,
      1780875989,
      1780876049,
      1780876068,
      1780876109,
      1780876109,
      1780876170,
      1780876170,
      1780876170,
      1780876170,
      1780876230,
      1780876290,
      1780876290,
      1780876369,
      1780876410,
      1780876410,
      1780876410,
      1780876410,
      1780876489,
      1780876489,
      1780876489,
      1780876489,
      1780876729,
      1780876729,
      1780876729,
      1780876729,
      1780876729,
      1780877090,
      1780877090,
      1780877090,
      1780877270,
      1780877270,
      1780877270,
      1780877270,
      1780877390,
      1780877390,
      1780877390,
      1780877691,
      1780877820,
      1780877820,
      1780877820,
      1780877820,
      1780877991,
      1780877991,
      1780878051,
      1780878051,
      1780878111,
      1780878121,
      1780878121,
      1780878121,
      1780878291,
      1780878291,
      1780878361,
      1780878361,
      1780878421,
      1780878421,
      1780878532,
      1780878532,
      1780878592,
      1780878722,
      1780878722,
      1780878722,
      1780878722,
      1780878772,
      1780878952,
      1780878952,
      1780878952,
      1780879022,
      1780879022,
      1780879022,
      1780879022,
      1780879202,
      1780879202,
      1780879202,
      1780879202,
      1780879322,
      1780879322,
      1780879322,
      1780879322,
      1780879453,
      1780879453,
      1780879453,
      1780879453,
      1780879633,
      1780879633,
      1780879693,
      1780879753,
      1780879753,
      1780879803,
      1780879803,
      1780879813,
      1780879934,
      1780879994,
      1780880043,
      1780880043,
      1780880054,
      1780880104,
      1780880104,
      1780880174,
      1780880294,
      1780880294,
      1780880354,
      1780880464,
      1780880464,
      1780880524,
      1780880524,
      1780880535,
      1780880595,
      1780880655,
      1780880835,
      1780880895,
      1780880895,
      1780880895,
      1780881015,
      1780881015,
      1780881015,
      1780881015,
      1780881376,
      1780881376,
      1780881496,
      1780881496,
      1780881496,
      1780881496,
      1780881616,
      1780881676,
      1780881676,
      1780881736,
      1780881736,
      1780881736,
      1780881918,
      1780881918,
      1780882098,
      1780882098,
      1780882098,
      1780882157,
      1780882157,
      1780882157,
      1780882337,
      1780882337,
      1780882337,
      1780882337,
      1780882518,
      1780882518,
      1780882518,
      1780882518,
      1780882638,
      1780882638,
      1780882638,
      1780882698,
      1780882698,
      1780882818,
      1780882818,
      1780882878,
      1780882878,
      1780882878,
      1780882999,
      1780882999,
      1780882999,
      1780882999,
      1780883180,
      1780883180,
      1780883240,
      1780883240,
      1780883300,
      1780883300,
      1780883300,
      1780883300,
      1780883638,
      1780883638,
      1780883638,
      1780883841,
      1780883841,
      1780883841,
      1780883901,
      1780883901,
      1780883901,
      1780883968,
      1780883968,
      1780884148,
      1780884148,
      1780884148,
      1780884203,
      1780884203,
      1780884203,
      1780884317,
      1780884381,
      1780884381,
      1780884441,
      1780884441,
      1780884441,
      1780884502,
      1780884502,
      1780884502,
      1780884562,
      1780884677,
      1780884677,
      1780884742,
      1780884742
    ],
    "wof:geomhash": "33b383872d2b53d4bb2a47b8819536d6",
    "wof:id": 2031475597,
    "wof:repo": "sfomuseum-data-flights-2026-06"
  },
  "bbox": [
    -122.38333333333334,
    32.90277777777778,
    -97.05,
    38.39722222222222
  ],
  "geometry": {"coordinates":[[-122.38333333333334,37.61666666666667],[-122.38333333333334,37.61666666666667],[-122.38333333333334,37.61666666666667],[-122.34416666666667,37.67305555555555],[-122.25833333333334,37.702222222222225],[-122.08944444444444,37.782777777777774],[-122.08944444444444,37.782777777777774],[-122.08944444444444,37.782777777777774],[-121.88055555555555,37.849722222222226],[-121.88055555555555,37.849722222222226],[-121.74833333333333,37.87416666666667],[-121.74833333333333,37.87416666666667],[-121.74833333333333,37.87416666666667],[-121.74833333333333,37.87416666666667],[-121.335,37.94944444444444],[-121.18611111111112,37.97638888888889],[-121.18611111111112,37.97638888888889],[-121.18611111111112,37.97638888888889],[-121.18611111111112,37.97638888888889],[-120.87638888888888,38.02638888888889],[-120.87638888888888,38.02638888888889],[-120.71638888888889,38.05083333333333],[-120.71638888888889,38.05083333333333],[-120.21777777777778,38.12583333333333],[-120.21777777777778,38.12583333333333],[-120.0461111111111,38.151111111111106],[-120.0461111111111,38.151111111111106],[-120.0461111111111,38.151111111111106],[-120.0461111111111,38.151111111111106],[-120.0461111111111,38.151111111111106],[-119.69666666666667,38.20166666666667],[-119.69666666666667,38.20166666666667],[-119.63916666666667,38.20861111111111],[-119.63916666666667,38.20861111111111],[-119.63916666666667,38.20861111111111],[-119.465,38.23416666666667],[-119.465,38.23416666666667],[-119.32694444444444,38.25388888888889],[-119.32694444444444,38.25388888888889],[-119.15527777777778,38.27777777777778],[-119.15527777777778,38.27777777777778],[-119.11888888888888,38.28194444444444],[-118.98055555555555,38.28972222222222],[-118.98055555555555,38.28972222222222],[-118.7725,38.29805555555556],[-118.7725,38.29805555555556],[-118.7725,38.29805555555556],[-118.60166666666666,38.305],[-118.4,38.31361111111111],[-118.29527777777777,38.3175],[-118.29527777777777,38.3175],[-118.29527777777777,38.3175],[-118.23666666666666,38.32],[-118.23666666666666,38.32],[-117.96000000000001,38.32972222222222],[-117.96000000000001,38.32972222222222],[-117.96000000000001,38.32972222222222],[-117.96000000000001,38.32972222222222],[-117.96000000000001,38.32972222222222],[-117.78583333333333,38.33583333333333],[-117.71944444444445,38.338055555555556],[-117.61555555555555,38.34138888888889],[-117.61555555555555,38.34138888888889],[-117.44305555555556,38.34666666666667],[-117.44305555555556,38.34666666666667],[-117.44305555555556,38.34666666666667],[-117.44305555555556,38.34666666666667],[-117.26888888888888,38.35194444444445],[-117.1,38.35666666666667],[-117.1,38.35666666666667],[-116.88555555555556,38.36222222222222],[-116.74444444444444,38.365833333333335],[-116.74444444444444,38.365833333333335],[-116.74444444444444,38.365833333333335],[-116.74444444444444,38.365833333333335],[-116.53972222222222,38.37083333333334],[-116.53972222222222,38.37083333333334],[-116.53972222222222,38.37083333333334],[-116.53972222222222,38.37083333333334],[-115.85805555555555,38.384166666666665],[-115.85805555555555,38.384166666666665],[-115.85805555555555,38.384166666666665],[-115.85805555555555,38.384166666666665],[-115.85805555555555,38.384166666666665],[-114.82027777777778,38.39722222222222],[-114.82027777777778,38.39722222222222],[-114.82027777777778,38.39722222222222],[-114.31166666666667,38.390277777777776],[-114.31166666666667,38.390277777777776],[-114.31166666666667,38.390277777777776],[-114.31166666666667,38.390277777777776],[-113.9863888888889,38.318333333333335],[-113.9863888888889,38.318333333333335],[-113.9863888888889,38.318333333333335],[-113.17361111111111,38.1225],[-112.85111111111111,38.043055555555554],[-112.85111111111111,38.043055555555554],[-112.85111111111111,38.043055555555554],[-112.85111111111111,38.043055555555554],[-112.39277777777778,37.92833333333333],[-112.39277777777778,37.92833333333333],[-112.22972222222222,37.886944444444445],[-112.22972222222222,37.886944444444445],[-112.07055555555556,37.846111111111114],[-112.03833333333333,37.838055555555556],[-112.03833333333333,37.838055555555556],[-112.03833333333333,37.838055555555556],[-111.5775,37.731944444444444],[-111.5775,37.731944444444444],[-111.38138888888888,37.68666666666666],[-111.38138888888888,37.68666666666666],[-111.22111111111111,37.64944444444444],[-111.22111111111111,37.64944444444444],[-110.93083333333334,37.581388888888895],[-110.93083333333334,37.581388888888895],[-110.77111111111111,37.54333333333333],[-110.40916666666668,37.45666666666667],[-110.40916666666668,37.45666666666667],[-110.40916666666668,37.45666666666667],[-110.40916666666668,37.45666666666667],[-110.28194444444445,37.42583333333333],[-109.79305555555555,37.30611111111111],[-109.79305555555555,37.30611111111111],[-109.79305555555555,37.30611111111111],[-109.59277777777777,37.256388888888885],[-109.59277777777777,37.256388888888885],[-109.59277777777777,37.256388888888885],[-109.59277777777777,37.256388888888885],[-109.11194444444443,37.135],[-109.11194444444443,37.135],[-109.11194444444443,37.135],[-109.11194444444443,37.135],[-108.79555555555555,37.053888888888885],[-108.79555555555555,37.053888888888885],[-108.79555555555555,37.053888888888885],[-108.79555555555555,37.053888888888885],[-108.44416666666667,36.96277777777778],[-108.44416666666667,36.96277777777778],[-108.44416666666667,36.96277777777778],[-108.44416666666667,36.96277777777778],[-107.9775,36.84],[-107.9775,36.84],[-107.82138888888889,36.79833333333333],[-107.6675,36.75694444444444],[-107.6675,36.75694444444444],[-107.5425,36.723333333333336],[-107.5425,36.723333333333336],[-107.51166666666667,36.715],[-107.23472222222222,36.63972222222222],[-107.04888888888888,36.58833333333334],[-106.92277777777778,36.55361111111111],[-106.92277777777778,36.55361111111111],[-106.92277777777778,36.55361111111111],[-106.76944444444445,36.51111111111111],[-106.76944444444445,36.51111111111111],[-106.61666666666666,36.468333333333334],[-106.29083333333332,36.376666666666665],[-106.29083333333332,36.376666666666665],[-106.13222222222221,36.331388888888895],[-105.83555555555554,36.25388888888889],[-105.83555555555554,36.25388888888889],[-105.67305555555556,36.216944444444444],[-105.67305555555556,36.216944444444444],[-105.66055555555556,36.21388888888889],[-105.50694444444444,36.178888888888885],[-105.34833333333333,36.1425],[-104.87888888888888,36.032777777777774],[-104.72833333333334,35.99194444444444],[-104.72833333333334,35.99194444444444],[-104.72833333333334,35.99194444444444],[-104.46472222222222,35.85527777777778],[-104.46472222222222,35.85527777777778],[-104.46472222222222,35.85527777777778],[-104.46472222222222,35.85527777777778],[-103.56361111111111,35.54111111111111],[-103.56361111111111,35.54111111111111],[-103.25166666666667,35.45194444444445],[-103.25166666666667,35.45194444444445],[-103.25166666666667,35.45194444444445],[-103.25166666666667,35.45194444444445],[-102.93972222222223,35.36194444444445],[-102.78277777777778,35.31638888888889],[-102.78277777777778,35.31638888888889],[-102.62222222222222,35.269444444444446],[-102.62222222222222,35.269444444444446],[-102.62222222222222,35.269444444444446],[-102.1538888888889,35.130833333333335],[-102.1538888888889,35.130833333333335],[-101.69805555555556,34.99388888888889],[-101.69805555555556,34.99388888888889],[-101.69805555555556,34.99388888888889],[-101.54416666666667,34.94694444444444],[-101.54416666666667,34.94694444444444],[-101.54416666666667,34.94694444444444],[-101.08694444444444,34.80694444444444],[-101.08694444444444,34.80694444444444],[-101.08694444444444,34.80694444444444],[-101.08694444444444,34.80694444444444],[-100.63,34.66444444444444],[-100.63,34.66444444444444],[-100.63,34.66444444444444],[-100.63,34.66444444444444],[-100.32805555555555,34.56916666666667],[-100.32805555555555,34.56916666666667],[-100.32805555555555,34.56916666666667],[-100.17472222222223,34.52027777777778],[-100.17472222222223,34.52027777777778],[-99.86,34.41916666666666],[-99.86,34.41916666666666],[-99.715,34.35638888888889],[-99.715,34.35638888888889],[-99.715,34.35638888888889],[-99.42750000000001,34.224722222222226],[-99.42750000000001,34.224722222222226],[-99.42750000000001,34.224722222222226],[-99.42750000000001,34.224722222222226],[-99.01277777777777,34.03333333333333],[-99.01277777777777,34.03333333333333],[-98.88,33.97166666666667],[-98.88,33.97166666666667],[-98.75055555555555,33.91111111111111],[-98.75055555555555,33.91111111111111],[-98.75055555555555,33.91111111111111],[-98.75055555555555,33.91111111111111],[-98.06666666666666,33.583333333333336],[-98.06666666666666,33.583333333333336],[-98.06666666666666,33.583333333333336],[-97.70027777777779,33.41222222222222],[-97.70027777777779,33.41222222222222],[-97.70027777777779,33.41222222222222],[-97.60777777777777,33.36333333333334],[-97.60777777777777,33.36333333333334],[-97.60777777777777,33.36333333333334],[-97.51666666666667,33.3],[-97.51666666666667,33.3],[-97.23333333333333,33.266666666666666],[-97.23333333333333,33.266666666666666],[-97.23333333333333,33.266666666666666],[-97.15,33.266666666666666],[-97.15,33.266666666666666],[-97.15,33.266666666666666],[-97.08333333333333,33.2],[-97.05444444444444,33.15],[-97.05444444444444,33.15],[-97.05361111111111,33.10111111111111],[-97.05361111111111,33.10111111111111],[-97.05361111111111,33.10111111111111],[-97.05388888888889,33.056666666666665],[-97.05388888888889,33.056666666666665],[-97.05388888888889,33.056666666666665],[-97.05416666666666,33.013333333333335],[-97.05,32.93333333333333],[-97.05,32.93333333333333],[-97.05472222222222,32.90277777777778],[-97.05472222222222,32.90277777777778]],"type":"LineString"}
}
