{
  "id": 2031655943,
  "type": "Feature",
  "properties": {
    "geom:area": 0,
    "geom:bbox": "-122.754400,37.279680,-122.086100,38.511080",
    "geom:latitude": 37.71803728573923,
    "geom:longitude": -122.44531742975786,
    "src:alt_label": "swim-approach",
    "src:geom": "swim",
    "swim:elevations": [
      8036,
      7829,
      7613,
      7162,
      7130,
      7018,
      6909,
      6871,
      6739,
      6523,
      6384,
      5865,
      5596,
      5165,
      5143,
      5025,
      4754,
      4450,
      4209,
      3987,
      3795,
      3740,
      3573,
      3387,
      3356,
      3352,
      3353,
      3353,
      3292,
      3177,
      3085,
      2835,
      2743,
      2743,
      2743,
      2743,
      2743,
      2609,
      2489,
      2438,
      2438,
      2280,
      2212,
      2160,
      2134,
      2134,
      1892,
      1877,
      1829,
      1829,
      1829,
      1829,
      1829,
      1829,
      1654,
      1644,
      1524,
      1459,
      1219,
      1213,
      1219,
      1196,
      1130,
      1031,
      943,
      916,
      765,
      667,
      546,
      498,
      462,
      321,
      215,
      72,
      236
    ],
    "swim:geom": "approach",
    "swim:timestamps": [
      1782598617,
      1782598635,
      1782598654,
      1782598702,
      1782598708,
      1782598720,
      1782598738,
      1782598743,
      1782598766,
      1782598793,
      1782598808,
      1782598854,
      1782598875,
      1782598917,
      1782598921,
      1782598937,
      1782598978,
      1782599008,
      1782599038,
      1782599068,
      1782599095,
      1782599101,
      1782599121,
      1782599156,
      1782599187,
      1782599196,
      1782599236,
      1782599275,
      1782599286,
      1782599303,
      1782599319,
      1782599360,
      1782599393,
      1782599408,
      1782599453,
      1782599471,
      1782599478,
      1782599518,
      1782599539,
      1782599554,
      1782599598,
      1782599630,
      1782599645,
      1782599654,
      1782599691,
      1782599713,
      1782599757,
      1782599763,
      1782599818,
      1782599833,
      1782599854,
      1782599892,
      1782599919,
      1782599967,
      1782599998,
      1782600001,
      1782600022,
      1782600031,
      1782600086,
      1782600110,
      1782600134,
      1782600168,
      1782600183,
      1782600202,
      1782600225,
      1782600246,
      1782600296,
      1782600320,
      1782600352,
      1782600360,
      1782600371,
      1782600412,
      1782600437,
      1782600473,
      1782600494
    ],
    "wof:geomhash": "62d90b771a0ac5bf6521c34ea4220f8e",
    "wof:id": 2031655943,
    "wof:repo": "sfomuseum-data-flights-2026-06"
  },
  "bbox": [
    -122.7544,
    37.27968,
    -122.0861,
    38.51108
  ],
  "geometry": {"coordinates":[[-122.47403,38.51108],[-122.5012,38.48442],[-122.52999,38.45614],[-122.60034,38.38737],[-122.60905,38.37895],[-122.62603,38.36242],[-122.65127,38.33786],[-122.65793,38.33135],[-122.68711,38.30294],[-122.72092,38.27022],[-122.73979,38.25161],[-122.7544,38.17876],[-122.74441,38.14418],[-122.72301,38.07038],[-122.72085,38.0629],[-122.71308,38.03649],[-122.69351,37.97074],[-122.68023,37.92415],[-122.6543,37.88182],[-122.61358,37.84297],[-122.57887,37.81002],[-122.57075,37.80248],[-122.54437,37.7776],[-122.49972,37.73576],[-122.46358,37.70188],[-122.45383,37.69272],[-122.41303,37.654],[-122.37235,37.61561],[-122.36092,37.60361],[-122.34699,37.58468],[-122.33678,37.56612],[-122.31406,37.5188],[-122.29182,37.4828],[-122.28241,37.4671],[-122.27671,37.41352],[-122.27651,37.39182],[-122.27644,37.38282],[-122.30141,37.34389],[-122.32567,37.33177],[-122.34278,37.3233],[-122.39403,37.2985],[-122.43211,37.28085],[-122.45134,37.27968],[-122.46193,37.28305],[-122.50033,37.30214],[-122.52267,37.31443],[-122.51922,37.3557],[-122.51548,37.36126],[-122.46147,37.39945],[-122.44399,37.40809],[-122.41832,37.41815],[-122.36543,37.41447],[-122.3266,37.41089],[-122.25761,37.40479],[-122.2132,37.4007],[-122.20893,37.40031],[-122.17918,37.39787],[-122.16663,37.39687],[-122.11005,37.42342],[-122.09696,37.44375],[-122.0861,37.46255],[-122.09975,37.48818],[-122.10863,37.49837],[-122.12106,37.50963],[-122.14085,37.52002],[-122.15933,37.52818],[-122.20386,37.54684],[-122.22548,37.55587],[-122.25215,37.56718],[-122.25874,37.56993],[-122.26764,37.57359],[-122.29928,37.58699],[-122.31829,37.59502],[-122.34761,37.60733],[-122.36308,37.61465]],"type":"LineString"}
}
