{
  "id": 2031524551,
  "type": "Feature",
  "properties": {
    "geom:area": 0,
    "geom:bbox": "-175.000000,-27.420000,180.000000,37.670000",
    "geom:latitude": -5.3525059987031725,
    "geom:longitude": -11.259444261252183,
    "src:alt_label": "swim-route",
    "src:geom": "swim",
    "swim:geom": "route",
    "wof:geomhash": "9ae9d4c3ad4379cc903e132611b520ca",
    "wof:id": 2031524551,
    "wof:repo": "sfomuseum-data-flights-2026-06"
  },
  "bbox": [
    -175,
    -27.42,
    180,
    37.67
  ],
  "geometry": {"coordinates":[[[-122.38,37.62],[-122.5,37.67],[-122.51,37.67],[-122.61,37.65],[-122.61,37.65],[-122.66,37.64],[-122.73,37.62],[-122.75,37.61],[-122.86,37.58],[-122.86,37.58],[-122.97,37.55],[-123.06,37.53],[-123.46,37.42],[-123.47,37.42],[-123.71,37.36],[-123.91,37.3],[-124.01,37.28],[-124.19,37.23],[-124.2,37.22],[-124.28,37.2],[-124.36,37.18],[-124.52,37.14],[-125,37],[-126.92,36.46],[-126.93,36.46],[-126.93,36.46],[-131,35.68],[-134,35],[-140,33],[-145,31],[-146.69,30.35],[-150,29],[-151.68,27.75],[-155.37,24.82],[-155.39,24.81],[-155.42,24.79],[-155.46,24.76],[-156.32,24.04],[-157,23.52],[-158.55,22.42],[-159.05,21.98],[-159.28,21.87],[-159.58,21.51],[-160,21.3],[-160.4,20.99],[-160.6,20.83],[-162.35,19.44],[-162.36,19.43],[-162.38,19.41],[-162.41,19.39],[-163.45,18.14],[-163.97,17.52],[-166,15],[-166.44,14.29],[-169,10],[-169.33,9.2],[-169.98,7.59],[-170.62,5.99],[-172.22,1.97],[-173,0],[-175,-5]],[[180,-14],[170,-21],[163,-23.47],[160.38,-24.6],[155.73,-26.43],[155.18,-26.64],[155.02,-26.7],[154.96,-26.73],[154.69,-26.83],[154.46,-26.91],[154.24,-26.99],[153.92,-27.11],[153.74,-27.18],[153.52,-27.26],[153.47,-27.28],[153.34,-27.32],[153.26,-27.35],[153.17,-27.39],[153.08,-27.42]]],"type":"MultiLineString"}
}
