{
  "id": 2031421211,
  "type": "Feature",
  "properties": {
    "geom:area": 0,
    "geom:bbox": "-175.680000,1.360000,180.000000,42.070000",
    "geom:latitude": 38.40963210402075,
    "geom:longitude": 10.049646125063731,
    "src:alt_label": "swim-route",
    "src:geom": "swim",
    "swim:geom": "route",
    "wof:geomhash": "5ab498579e02f93e257ab9a5eec59325",
    "wof:id": 2031421211,
    "wof:repo": "sfomuseum-data-flights-2026-06"
  },
  "bbox": [
    -175.68,
    1.36,
    180,
    42.07
  ],
  "geometry": {"coordinates":[[[103.99,1.36],[104.08,1.43],[104.16,1.48],[104.24,1.54],[104.32,1.61],[104.46,1.71],[104.72,1.91],[104.89,2.04],[105.09,2.19],[105.21,2.28],[105.22,2.28],[105.27,2.32],[105.38,2.4],[105.62,2.58],[105.94,2.83],[106.19,3.01],[106.93,3.56],[111.55,7.28],[112.87,8.46],[121.02,15.48],[122.02,16.05],[123.25,16.73],[124.43,17.37],[126.63,20.06],[127.41,21],[127.47,21.05],[135.94,27.22],[140.35,30],[141.97,30.75],[143.61,31.48],[146.13,32.53],[150,34],[151.94,34.66],[160,37],[162.47,37.85],[165,38.64],[170,40],[176.22,40.73],[180,41]],[[-175.68,41.55],[-170,42],[-167.87,42.07],[-160,42],[-157.44,41.58],[-154.92,41.11],[-152.44,40.58],[-150,40],[-148.75,40.05],[-147.28,40.08],[-146.25,40.1],[-140.9,40.03],[-140,40],[-130,38],[-128.34,37.74],[-127,37.51],[-126.99,37.51],[-125.18,37.41],[-124.77,37.39],[-124.71,37.39],[-124.3,37.36],[-124.22,37.36],[-123.9,37.33],[-123.85,37.33],[-123.62,37.31],[-123.57,37.31],[-123.36,37.3],[-122.96,37.27],[-122.86,37.26],[-122.84,37.26],[-122.84,37.26],[-122.76,37.28],[-122.71,37.29],[-122.63,37.31],[-122.5,37.34],[-122.44,37.36],[-122.29,37.39],[-122.28,37.39],[-122.31,37.46],[-122.34,37.54],[-122.37,37.6],[-122.37,37.61],[-122.38,37.62]]],"type":"MultiLineString"}
}
