{
  "id": 2031423419,
  "type": "Feature",
  "properties": {
    "geom:area": 0,
    "geom:bbox": "-177.050000,37.633333,-122.400000,53.100000",
    "geom:latitude": 47.39412126155936,
    "geom:longitude": -149.1568107967488,
    "src:alt_label": "swim-path",
    "src:geom": "swim",
    "swim:altitudes": [
      "010",
      "010",
      "010",
      "010",
      "010",
      "026",
      "034",
      "088",
      "108",
      "108",
      "118",
      "118",
      "118",
      "118",
      "182",
      "182",
      "182",
      "182",
      "182",
      "291",
      "291",
      "340C",
      "340C",
      "340C",
      "340C",
      "340C",
      "340C",
      "340C",
      "340C",
      "340C",
      "340C",
      "340C",
      "340C",
      "340C",
      "340C",
      "340C",
      "340C",
      "340C",
      "340C",
      "340C",
      "340",
      "340",
      "340",
      "340C",
      "340C",
      "340C",
      "340C",
      "340C",
      "340C",
      "340C",
      "340",
      "340",
      "340",
      "340",
      "340",
      "340",
      "340",
      "340",
      "340",
      "340",
      "340",
      "340",
      "340",
      "340",
      "360",
      "360",
      "360",
      "360",
      "360",
      "360",
      "360",
      "360",
      "360",
      "360",
      "360",
      "360",
      "360",
      "360",
      "360",
      "360",
      "360",
      "360",
      "360",
      "360",
      "360",
      "360",
      "360",
      "360",
      "360",
      "360",
      "360",
      "360",
      "360",
      "360",
      "360",
      "360",
      "360",
      "360",
      "360",
      "360",
      "360",
      "360",
      "360",
      "360",
      "360",
      "360",
      "360",
      "360",
      "360",
      "360",
      "360",
      "360"
    ],
    "swim:geom": "path",
    "swim:speeds": [
      185,
      185,
      185,
      185,
      185,
      186,
      190,
      283,
      307,
      307,
      365,
      365,
      365,
      365,
      403,
      403,
      403,
      403,
      403,
      473,
      473,
      464,
      464,
      464,
      464,
      465,
      465,
      466,
      466,
      466,
      465,
      465,
      465,
      464,
      464,
      464,
      464,
      464,
      464,
      464,
      470,
      470,
      470,
      466,
      466,
      466,
      466,
      466,
      466,
      466,
      500,
      500,
      500,
      500,
      500,
      500,
      500,
      500,
      500,
      500,
      500,
      500,
      500,
      500,
      490,
      490,
      490,
      490,
      490,
      480,
      480,
      480,
      480,
      480,
      480,
      480,
      480,
      480,
      480,
      480,
      480,
      480,
      480,
      480,
      480,
      480,
      480,
      480,
      480,
      480,
      480,
      480,
      480,
      480,
      470,
      470,
      470,
      470,
      470,
      470,
      470,
      470,
      470,
      470,
      470,
      470,
      470,
      470,
      470,
      470,
      470,
      470
    ],
    "swim:timestamps": [
      1780304246,
      1780304246,
      1780304246,
      1780304246,
      1780304246,
      1780304288,
      1780304306,
      1780304468,
      1780304528,
      1780304528,
      1780304588,
      1780304588,
      1780304588,
      1780304588,
      1780304768,
      1780304768,
      1780304768,
      1780304768,
      1780304768,
      1780305128,
      1780305128,
      1780305308,
      1780305308,
      1780305308,
      1780305308,
      1780305548,
      1780305668,
      1780305728,
      1780305728,
      1780305728,
      1780305848,
      1780305848,
      1780305848,
      1780305968,
      1780305968,
      1780305968,
      1780306088,
      1780306088,
      1780306088,
      1780306088,
      1780306329,
      1780306329,
      1780306329,
      1780306388,
      1780306508,
      1780306508,
      1780306508,
      1780306508,
      1780306508,
      1780306508,
      1780317895,
      1780317895,
      1780317955,
      1780317955,
      1780317955,
      1780318076,
      1780318076,
      1780318136,
      1780318136,
      1780318136,
      1780318136,
      1780318136,
      1780318208,
      1780318208,
      1780320946,
      1780320946,
      1780320946,
      1780320946,
      1780320946,
      1780321138,
      1780321138,
      1780321138,
      1780321138,
      1780321138,
      1780321138,
      1780321388,
      1780321388,
      1780321388,
      1780321388,
      1780321388,
      1780321388,
      1780321510,
      1780321510,
      1780321510,
      1780321691,
      1780321691,
      1780321691,
      1780321691,
      1780321691,
      1780321751,
      1780321751,
      1780321872,
      1780321872,
      1780321872,
      1780321933,
      1780321933,
      1780321933,
      1780321933,
      1780322114,
      1780322114,
      1780322114,
      1780322114,
      1780322175,
      1780322175,
      1780322175,
      1780322296,
      1780322296,
      1780322296,
      1780322296,
      1780322356,
      1780322356,
      1780322356
    ],
    "wof:geomhash": "376427cda7df0b95e37d606071438b3e",
    "wof:id": 2031423419,
    "wof:repo": "sfomuseum-data-flights-2026-06"
  },
  "bbox": [
    -177.05,
    37.63333333333333,
    -122.4,
    53.1
  ],
  "geometry": {"coordinates":[[-122.4,37.63333333333333],[-122.4,37.63333333333333],[-122.4,37.63333333333333],[-122.4,37.63333333333333],[-122.4,37.63333333333333],[-122.44194444444445,37.6475],[-122.46666666666667,37.65],[-122.66444444444446,37.76972222222222],[-122.74972222222222,37.82027777777778],[-122.74972222222222,37.82027777777778],[-122.82083333333333,37.900277777777774],[-122.82083333333333,37.900277777777774],[-122.82083333333333,37.900277777777774],[-122.82083333333333,37.900277777777774],[-123.03472222222221,38.1575],[-123.03472222222221,38.1575],[-123.03472222222221,38.1575],[-123.03472222222221,38.1575],[-123.03472222222221,38.1575],[-123.55555555555556,38.77305555555555],[-123.55555555555556,38.77305555555555],[-123.88694444444445,39.052499999999995],[-123.88694444444445,39.052499999999995],[-123.88694444444445,39.052499999999995],[-123.88694444444445,39.052499999999995],[-124.48527777777778,39.276666666666664],[-124.78611111111111,39.38777777777778],[-124.94277777777778,39.445277777777775],[-124.94277777777778,39.445277777777775],[-124.94277777777778,39.445277777777775],[-125.24583333333334,39.55555555555555],[-125.24583333333334,39.55555555555555],[-125.24583333333334,39.55555555555555],[-125.54916666666666,39.664722222222224],[-125.54916666666666,39.664722222222224],[-125.54916666666666,39.664722222222224],[-125.85388888888889,39.77333333333333],[-125.85388888888889,39.77333333333333],[-125.85388888888889,39.77333333333333],[-125.85388888888889,39.77333333333333],[-126.46666666666667,39.983333333333334],[-126.46666666666667,39.983333333333334],[-126.46666666666667,39.983333333333334],[-126.60444444444444,40.062777777777775],[-126.8711111111111,40.22222222222222],[-126.8711111111111,40.22222222222222],[-126.8711111111111,40.22222222222222],[-126.8711111111111,40.22222222222222],[-126.8711111111111,40.22222222222222],[-126.8711111111111,40.22222222222222],[-160.6,52.083333333333336],[-160.6,52.083333333333336],[-160.81666666666666,52.11666666666667],[-160.81666666666666,52.11666666666667],[-160.81666666666666,52.11666666666667],[-161.26666666666668,52.166666666666664],[-161.26666666666668,52.166666666666664],[-161.48333333333332,52.2],[-161.48333333333332,52.2],[-161.48333333333332,52.2],[-161.48333333333332,52.2],[-161.48333333333332,52.2],[-161.75,52.233333333333334],[-161.75,52.233333333333334],[-171.88333333333333,53.05],[-171.88333333333333,53.05],[-171.88333333333333,53.05],[-171.88333333333333,53.05],[-171.88333333333333,53.05],[-172.6,53.06666666666667],[-172.6,53.06666666666667],[-172.6,53.06666666666667],[-172.6,53.06666666666667],[-172.6,53.06666666666667],[-172.6,53.06666666666667],[-173.51666666666668,53.083333333333336],[-173.51666666666668,53.083333333333336],[-173.51666666666668,53.083333333333336],[-173.51666666666668,53.083333333333336],[-173.51666666666668,53.083333333333336],[-173.51666666666668,53.083333333333336],[-173.96666666666667,53.1],[-173.96666666666667,53.1],[-173.96666666666667,53.1],[-174.63333333333333,53.1],[-174.63333333333333,53.1],[-174.63333333333333,53.1],[-174.63333333333333,53.1],[-174.63333333333333,53.1],[-174.86666666666667,53.1],[-174.86666666666667,53.1],[-175.3,53.1],[-175.3,53.1],[-175.3,53.1],[-175.53333333333333,53.1],[-175.53333333333333,53.1],[-175.53333333333333,53.1],[-175.53333333333333,53.1],[-176.18333333333334,53.083333333333336],[-176.18333333333334,53.083333333333336],[-176.18333333333334,53.083333333333336],[-176.18333333333334,53.083333333333336],[-176.4,53.083333333333336],[-176.4,53.083333333333336],[-176.4,53.083333333333336],[-176.83333333333334,53.083333333333336],[-176.83333333333334,53.083333333333336],[-176.83333333333334,53.083333333333336],[-176.83333333333334,53.083333333333336],[-177.05,53.083333333333336],[-177.05,53.083333333333336],[-177.05,53.083333333333336]],"type":"LineString"}
}
