{
  "id": 2031487049,
  "type": "Feature",
  "properties": {
    "geom:area": 0,
    "geom:bbox": "-122.403611,37.654167,-73.450000,45.125556",
    "geom:latitude": 42.75736761223312,
    "geom:longitude": -97.83676688558899,
    "src:alt_label": "swim-path",
    "src:geom": "swim",
    "swim:altitudes": [
      "020",
      "152",
      "224",
      "287",
      "324",
      "330C",
      "330C",
      "330C",
      "330C",
      "330C",
      "330C",
      "330C",
      "330C",
      "330C",
      "330C",
      "331C",
      "331C",
      "330C",
      "331C",
      "330C",
      "330C",
      "330C",
      "330C",
      "330C",
      "329C",
      "330C",
      "330C",
      "330C",
      "330C",
      "330C",
      "330C",
      "330C",
      "330C",
      "330C",
      "330C",
      "331C",
      "330C",
      "330C",
      "330C",
      "330C",
      "330",
      "345",
      "350C",
      "350C",
      "350C",
      "350C",
      "350C",
      "350C",
      "350C",
      "351C",
      "350C",
      "350C",
      "350C",
      "350C",
      "350C",
      "350C",
      "351C",
      "351C",
      "350C",
      "351C",
      "350C",
      "350C",
      "350C",
      "350C",
      "350C",
      "350C",
      "350C",
      "350C",
      "350C",
      "350C",
      "350C",
      "350C",
      "350C",
      "350C",
      "350C",
      "350C",
      "350C",
      "350C",
      "350C",
      "342",
      "333",
      "330C",
      "330C",
      "331C",
      "330C",
      "330C",
      "330C",
      "330C",
      "330C",
      "330C",
      "330C",
      "330C",
      "331C",
      "330C",
      "330C",
      "331C",
      "330C",
      "330C",
      "330C",
      "323",
      "314",
      "310C",
      "310C",
      "310C",
      "310C",
      "310C",
      "311C",
      "310C",
      "310C",
      "310C",
      "310C",
      "309C",
      "309C",
      "310C",
      "310C",
      "310C",
      "310C",
      "310C",
      "310C",
      "310C",
      "310C",
      "310C",
      "310C",
      "311C",
      "311C",
      "311C",
      "310C",
      "310C",
      "310C",
      "310C",
      "310C",
      "310C",
      "310C",
      "310C",
      "310C",
      "310C",
      "310C",
      "310C",
      "350C",
      "353",
      "353",
      "353",
      "358",
      "358",
      "364",
      "370C",
      "370C",
      "370C",
      "370C",
      "370C",
      "370C",
      "370C",
      "370C",
      "370C",
      "370C",
      "370C",
      "370C",
      "370C",
      "370C",
      "370C",
      "370C",
      "370C",
      "370C",
      "370C",
      "370C",
      "370C",
      "370C",
      "370C",
      "370C",
      "370C",
      "370C",
      "370C",
      "370C",
      "370C",
      "370C",
      "370C",
      "369",
      "214",
      "214",
      "209",
      "204",
      "190",
      "190C",
      "179",
      "168",
      "116",
      "096",
      "081",
      "079",
      "040",
      "039",
      "030",
      "029",
      "020",
      "020",
      "020",
      "020",
      "020",
      "013",
      "006"
    ],
    "swim:geom": "path",
    "swim:speeds": [
      194,
      400,
      442,
      493,
      491,
      492,
      493,
      495,
      499,
      499,
      501,
      504,
      504,
      511,
      515,
      515,
      515,
      516,
      516,
      523,
      522,
      518,
      517,
      507,
      503,
      503,
      503,
      503,
      495,
      493,
      493,
      483,
      483,
      483,
      485,
      488,
      488,
      491,
      491,
      491,
      490,
      497,
      498,
      498,
      499,
      499,
      500,
      500,
      502,
      502,
      488,
      487,
      487,
      487,
      489,
      491,
      493,
      493,
      493,
      485,
      487,
      476,
      476,
      474,
      474,
      474,
      474,
      475,
      475,
      483,
      483,
      484,
      487,
      484,
      484,
      481,
      481,
      477,
      478,
      476,
      477,
      475,
      475,
      471,
      469,
      467,
      465,
      463,
      461,
      459,
      459,
      459,
      471,
      466,
      466,
      474,
      477,
      478,
      478,
      485,
      485,
      485,
      485,
      489,
      489,
      492,
      495,
      483,
      483,
      483,
      483,
      483,
      483,
      482,
      482,
      474,
      474,
      472,
      472,
      475,
      474,
      474,
      476,
      480,
      480,
      481,
      480,
      474,
      474,
      472,
      471,
      471,
      472,
      475,
      475,
      475,
      475,
      475,
      480,
      474,
      474,
      474,
      481,
      480,
      489,
      488,
      487,
      486,
      486,
      486,
      486,
      486,
      489,
      489,
      490,
      490,
      490,
      490,
      482,
      481,
      482,
      482,
      483,
      476,
      477,
      477,
      479,
      479,
      480,
      480,
      481,
      483,
      485,
      485,
      485,
      485,
      481,
      453,
      453,
      450,
      449,
      371,
      371,
      357,
      346,
      324,
      313,
      298,
      300,
      277,
      272,
      273,
      238,
      207,
      146,
      146,
      146,
      145,
      138,
      136
    ],
    "swim:timestamps": [
      1780984840,
      1780985261,
      1780985561,
      1780985981,
      1780986221,
      1780986281,
      1780986461,
      1780986581,
      1780986642,
      1780986642,
      1780986702,
      1780986713,
      1780986713,
      1780986773,
      1780986822,
      1780986833,
      1780986882,
      1780986893,
      1780986953,
      1780987073,
      1780987122,
      1780987182,
      1780987193,
      1780987302,
      1780987362,
      1780987373,
      1780987422,
      1780987422,
      1780987613,
      1780987673,
      1780987673,
      1780987794,
      1780987974,
      1780987974,
      1780988034,
      1780988094,
      1780988154,
      1780988214,
      1780988334,
      1780988334,
      1780988514,
      1780988694,
      1780988754,
      1780988754,
      1780988874,
      1780988874,
      1780989175,
      1780989235,
      1780989475,
      1780989535,
      1780989595,
      1780989655,
      1780989775,
      1780989775,
      1780989835,
      1780989895,
      1780989955,
      1780989955,
      1780990015,
      1780990316,
      1780990377,
      1780990676,
      1780990676,
      1780990858,
      1780990858,
      1780990916,
      1780990978,
      1780991038,
      1780991096,
      1780991338,
      1780991338,
      1780991398,
      1780991457,
      1780991518,
      1780991578,
      1780991938,
      1780992058,
      1780992127,
      1780992187,
      1780992307,
      1780992367,
      1780992418,
      1780992427,
      1780992538,
      1780992607,
      1780992659,
      1780992719,
      1780992779,
      1780992839,
      1780992908,
      1780992908,
      1780993028,
      1780993268,
      1780993328,
      1780993328,
      1780993448,
      1780993568,
      1780993628,
      1780993628,
      1780993808,
      1780993868,
      1780993928,
      1780993988,
      1780994228,
      1780994228,
      1780994288,
      1780994408,
      1780994769,
      1780994769,
      1780994829,
      1780994949,
      1780995009,
      1780995009,
      1780995129,
      1780995189,
      1780995429,
      1780995429,
      1780995609,
      1780995729,
      1780995849,
      1780995909,
      1780995969,
      1780996029,
      1780996089,
      1780996089,
      1780996149,
      1780996330,
      1780996570,
      1780996570,
      1780996630,
      1780996750,
      1780996810,
      1780996870,
      1780996990,
      1780997050,
      1780997050,
      1780997110,
      1780997110,
      1780997590,
      1780997710,
      1780997722,
      1780997722,
      1780997770,
      1780997782,
      1780997842,
      1780998083,
      1780998191,
      1780998251,
      1780998261,
      1780998261,
      1780998311,
      1780998321,
      1780998491,
      1780998501,
      1780998551,
      1780998562,
      1780998622,
      1780998622,
      1780999273,
      1780999454,
      1780999511,
      1780999574,
      1780999754,
      1780999994,
      1781000232,
      1781000232,
      1781000412,
      1781000472,
      1781000532,
      1781000532,
      1781000592,
      1781000652,
      1781000712,
      1781000773,
      1781000773,
      1781000833,
      1781001253,
      1781001676,
      1781001676,
      1781001736,
      1781001797,
      1781001966,
      1781001977,
      1781002026,
      1781002086,
      1781002277,
      1781002337,
      1781002387,
      1781002397,
      1781002578,
      1781002687,
      1781002758,
      1781002818,
      1781002878,
      1781002927,
      1781002998,
      1781002998,
      1781003047,
      1781003119,
      1781003179
    ],
    "wof:geomhash": "d180d45b669393d15b6d56a0c9fc755c",
    "wof:id": 2031487049,
    "wof:repo": "sfomuseum-data-flights-2026-06"
  },
  "bbox": [
    -122.40361111111112,
    37.65416666666667,
    -73.45,
    45.12555555555556
  ],
  "geometry": {"coordinates":[[-122.40361111111112,37.65416666666667],[-122.07722222222222,38.12777777777778],[-121.47833333333334,38.48861111111111],[-120.55138888888888,39.047777777777775],[-119.97805555555556,39.38527777777778],[-119.83749999999999,39.4675],[-119.40805555555556,39.71527777777778],[-119.11833333333333,39.880833333333335],[-118.96583333333334,39.95888888888889],[-118.96583333333334,39.95888888888889],[-118.80944444444444,40.029444444444444],[-118.77722222222222,40.043055555555554],[-118.77722222222222,40.043055555555554],[-118.61583333333333,40.11194444444445],[-118.51222222222222,40.155833333333334],[-118.45194444444445,40.18111111111111],[-118.34944444444444,40.224444444444444],[-118.28666666666666,40.25083333333333],[-118.12194444444444,40.31888888888889],[-117.76777777777778,40.42861111111111],[-117.62472222222222,40.471944444444446],[-117.45083333333334,40.52472222222222],[-117.41666666666667,40.535],[-117.13722222222223,40.61888888888889],[-116.96583333333334,40.669999999999995],[-116.93361111111112,40.67972222222222],[-116.79222222222222,40.72138888888889],[-116.79222222222222,40.72138888888889],[-116.24472222222222,40.88111111111111],[-116.07805555555555,40.928888888888885],[-116.07805555555555,40.928888888888885],[-115.74472222222222,41.02361111111111],[-115.24583333333334,41.163333333333334],[-115.24583333333334,41.163333333333334],[-115.07888888888888,41.20944444444445],[-114.90694444444445,41.25666666666667],[-114.72888888888889,41.305277777777775],[-114.55555555555556,41.352222222222224],[-114.21555555555555,41.44305555555555],[-114.21555555555555,41.44305555555555],[-113.7025,41.58388888888889],[-113.18444444444445,41.72694444444445],[-113.01083333333334,41.77444444444444],[-113.01083333333334,41.77444444444444],[-112.65777777777778,41.86944444444445],[-112.65777777777778,41.86944444444445],[-111.7775,42.10111111111111],[-111.59833333333333,42.14722222222222],[-110.905,42.32222222222222],[-110.72416666666666,42.36694444444444],[-110.55027777777778,42.40972222222222],[-110.375,42.4525],[-110.0261111111111,42.53666666666666],[-110.0261111111111,42.53666666666666],[-109.85111111111111,42.57833333333333],[-109.67194444444445,42.62083333333334],[-109.49555555555555,42.661944444444444],[-109.49555555555555,42.661944444444444],[-109.31555555555555,42.70416666666667],[-108.44250000000001,42.902499999999996],[-108.26444444444445,42.94222222222222],[-107.3786111111111,43.114444444444445],[-107.3786111111111,43.114444444444445],[-106.85722222222222,43.2075],[-106.85722222222222,43.2075],[-106.71083333333334,43.24],[-106.50222222222222,43.285],[-106.33027777777778,43.32194444444445],[-106.18916666666667,43.35194444444445],[-105.44500000000001,43.5075],[-105.44500000000001,43.5075],[-105.26555555555555,43.54416666666666],[-105.11944444444444,43.57416666666667],[-104.94444444444444,43.60888888888889],[-104.76388888888889,43.64472222222222],[-103.69305555555556,43.85111111111111],[-103.335,43.9175],[-103.12972222222221,43.955000000000005],[-102.94194444444445,43.98861111111111],[-102.58527777777778,44.04388888888889],[-102.40666666666667,44.07138888888889],[-102.22805555555556,44.09916666666667],[-102.22944444444444,44.09916666666667],[-101.87555555555555,44.152499999999996],[-101.69833333333334,44.178888888888885],[-101.5225,44.20472222222222],[-101.3475,44.230000000000004],[-101.17472222222223,44.255],[-100.99861111111112,44.28],[-100.82777777777777,44.30416666666667],[-100.82777777777777,44.30416666666667],[-100.47833333333334,44.352222222222224],[-99.77277777777778,44.45277777777778],[-99.56,44.48388888888889],[-99.56,44.48388888888889],[-99.20527777777778,44.53472222222222],[-98.84277777777777,44.58555555555556],[-98.66000000000001,44.61083333333333],[-98.66000000000001,44.61083333333333],[-98.1061111111111,44.684999999999995],[-97.92083333333333,44.70916666666667],[-97.73527777777778,44.73305555555556],[-97.5475,44.75666666666667],[-96.79638888888888,44.848888888888894],[-96.79638888888888,44.848888888888894],[-96.60472222222222,44.87166666666667],[-96.21777777777778,44.916666666666664],[-95.08666666666666,45.03194444444444],[-95.08666666666666,45.03194444444444],[-94.89722222222223,45.04888888888889],[-94.52805555555555,45.08111111111111],[-94.34055555555555,45.09527777777778],[-94.34055555555555,45.09527777777778],[-93.95916666666668,45.11555555555556],[-93.77111111111111,45.12555555555556],[-93.0586111111111,45.11694444444444],[-93.0586111111111,45.11694444444444],[-92.50666666666666,45.064166666666665],[-92.13861111111112,45.02722222222222],[-91.76972222222223,44.98916666666667],[-91.58694444444444,44.969722222222224],[-91.40333333333334,44.95027777777778],[-91.21638888888889,44.92972222222222],[-91.03138888888888,44.909166666666664],[-91.03138888888888,44.909166666666664],[-90.81388888888888,44.88472222222222],[-90.26194444444444,44.82055555555556],[-89.52444444444444,44.730555555555554],[-89.52444444444444,44.730555555555554],[-89.345,44.70777777777778],[-88.98277777777778,44.66111111111111],[-88.80055555555555,44.63722222222222],[-88.62055555555555,44.613055555555555],[-88.29194444444444,44.56861111111112],[-88.11416666666666,44.53611111111111],[-88.11416666666666,44.53611111111111],[-87.9375,44.49277777777778],[-87.9375,44.49277777777778],[-86.52111111111111,44.13666666666666],[-86.16527777777779,44.04361111111111],[-86.1675,44.044444444444444],[-86.1675,44.044444444444444],[-85.99055555555556,43.9975],[-85.99333333333334,43.99805555555556],[-85.81416666666667,43.956944444444446],[-85.09138888888889,43.790277777777774],[-84.76916666666666,43.71388888888889],[-84.59305555555555,43.67166666666667],[-84.55805555555555,43.66305555555555],[-84.55805555555555,43.66305555555555],[-84.41472222222222,43.62833333333333],[-84.3825,43.620555555555555],[-83.88416666666667,43.49805555555556],[-83.83055555555555,43.485],[-83.70666666666666,43.45388888888889],[-83.65444444444445,43.440555555555555],[-83.4786111111111,43.39611111111111],[-83.4786111111111,43.39611111111111],[-81.59305555555555,42.899166666666666],[-81.08361111111111,42.757222222222225],[-80.92416666666666,42.714444444444446],[-80.75555555555556,42.66722222222222],[-80.23333333333333,42.51694444444444],[-79.58388888888888,42.32694444444445],[-78.90472222222223,42.13472222222222],[-78.90472222222223,42.13472222222222],[-78.39583333333334,42.00555555555555],[-78.22444444444444,41.961666666666666],[-78.08138888888888,41.92472222222222],[-78.08138888888888,41.92472222222222],[-77.885,41.87361111111111],[-77.74861111111112,41.83777777777778],[-77.57666666666667,41.79222222222222],[-77.40472222222223,41.74666666666667],[-77.40472222222223,41.74666666666667],[-77.23305555555555,41.700833333333335],[-76.05277777777778,41.376111111111115],[-74.87833333333333,40.999722222222225],[-74.87833333333333,40.999722222222225],[-74.71916666666667,40.97888888888889],[-74.55611111111111,40.95944444444445],[-74.11666666666666,40.9],[-74.1061111111111,40.890277777777776],[-74.06666666666666,40.81666666666667],[-74.03333333333333,40.71666666666667],[-73.90861111111111,40.44972222222222],[-73.83583333333333,40.38333333333333],[-73.75,40.35],[-73.73666666666666,40.34444444444445],[-73.51888888888888,40.45166666666667],[-73.45,40.583333333333336],[-73.47500000000001,40.660555555555554],[-73.48833333333333,40.72833333333333],[-73.54833333333333,40.76972222222222],[-73.6,40.78333333333333],[-73.64666666666668,40.761944444444445],[-73.64666666666668,40.761944444444445],[-73.68333333333334,40.733333333333334],[-73.71111111111111,40.70138888888889],[-73.73583333333333,40.669444444444444]],"type":"LineString"}
}
