{
  "id": 2031434431,
  "type": "Feature",
  "properties": {
    "geom:area": 0,
    "geom:bbox": "-122.400000,32.342222,-97.054722,38.383611",
    "geom:latitude": 35.893611896615845,
    "geom:longitude": -108.97607394492499,
    "src:alt_label": "swim-path",
    "src:geom": "swim",
    "swim:altitudes": [
      "008",
      "008",
      "008",
      "008",
      "008",
      "037",
      "037",
      "037",
      "058",
      "058",
      "125",
      "125",
      "125",
      "125",
      "125",
      "205",
      "205",
      "205",
      "205",
      "236",
      "236",
      "236",
      "236",
      "236",
      "263",
      "263",
      "263",
      "263",
      "275",
      "275",
      "286",
      "286",
      "286",
      "286",
      "286",
      "290",
      "290",
      "296",
      "296",
      "306",
      "306",
      "310C",
      "310C",
      "310C",
      "310C",
      "310C",
      "310C",
      "310C",
      "310C",
      "310C",
      "310C",
      "310",
      "310",
      "310",
      "310",
      "310",
      "310",
      "312",
      "312",
      "312",
      "312",
      "324",
      "324",
      "324",
      "330",
      "330",
      "330",
      "333",
      "333",
      "333",
      "337",
      "337",
      "356",
      "356",
      "362",
      "362",
      "362",
      "362",
      "367",
      "367",
      "369C",
      "369C",
      "369C",
      "369C",
      "370C",
      "370C",
      "370C",
      "370C",
      "370C",
      "370C",
      "370C",
      "370C",
      "370C",
      "370C",
      "370C",
      "370C",
      "370C",
      "370C",
      "370C",
      "370C",
      "370C",
      "370C",
      "370C",
      "370C",
      "370C",
      "370C",
      "370C",
      "370C",
      "370C",
      "370C",
      "370C",
      "370C",
      "370C",
      "370C",
      "370C",
      "370C",
      "370C",
      "370C",
      "370C",
      "370C",
      "370C",
      "370C",
      "370C",
      "370C",
      "370C",
      "370C",
      "370C",
      "370C",
      "370C",
      "370C",
      "370C",
      "370C",
      "370C",
      "370C",
      "370C",
      "370C",
      "370C",
      "370C",
      "370C",
      "370C",
      "370C",
      "370C",
      "370C",
      "370C",
      "370C",
      "370C",
      "370C",
      "370C",
      "370C",
      "370C",
      "370C",
      "370C",
      "370C",
      "370C",
      "370C",
      "370C",
      "370C",
      "371C",
      "371C",
      "370C",
      "370C",
      "370C",
      "370C",
      "370C",
      "370C",
      "370C",
      "370C",
      "370C",
      "370C",
      "370C",
      "370C",
      "370C",
      "370C",
      "370C",
      "370C",
      "370C",
      "370C",
      "370C",
      "370C",
      "370C",
      "370C",
      "370C",
      "370C",
      "370C",
      "370C",
      "370C",
      "370C",
      "370C",
      "370C",
      "370C",
      "370C",
      "370C",
      "370C",
      "370C",
      "370C",
      "370C",
      "370C",
      "370C",
      "370C",
      "370C",
      "370C",
      "370C",
      "370C",
      "370C",
      "370C",
      "370C",
      "370C",
      "370C",
      "370C",
      "370C",
      "370C",
      "370C",
      "370C",
      "370C",
      "370C",
      "370C",
      "370C",
      "370C",
      "370C",
      "370C",
      "370C",
      "370C",
      "370C",
      "370C",
      "370C",
      "370C",
      "370C",
      "370C",
      "370C",
      "370C",
      "370C",
      "370C",
      "370C",
      "370C",
      "370C",
      "370C",
      "370C",
      "370C",
      "370C",
      "370C",
      "370C",
      "370C",
      "370C",
      "370C",
      "370C",
      "370C",
      "371C",
      "370C",
      "370C",
      "370C",
      "370C",
      "370C",
      "370C",
      "370C",
      "370C",
      "370C",
      "370C",
      "370C",
      "370C",
      "370C",
      "370C",
      "370C",
      "370C",
      "370C",
      "370C",
      "370C",
      "370C",
      "370C",
      "370C",
      "370C",
      "370C",
      "370C",
      "370C",
      "370C",
      "370C",
      "370C",
      "370C",
      "370C",
      "370C",
      "370C",
      "370C",
      "370C",
      "370C",
      "370C",
      "370C",
      "370C",
      "370C",
      "370C",
      "370C",
      "370C",
      "370C",
      "370C",
      "370C",
      "370C",
      "370C",
      "370C",
      "370C",
      "370C",
      "370C",
      "370C",
      "370C",
      "370C",
      "370C",
      "370C",
      "368",
      "368",
      "368",
      "350C",
      "350C",
      "350C",
      "350C",
      "350C",
      "350C",
      "350C",
      "351C",
      "351C",
      "350C",
      "350C",
      "350C",
      "350C",
      "350C",
      "350C",
      "350C",
      "350C",
      "350C",
      "350C",
      "350C",
      "350C",
      "350C",
      "350C",
      "350C",
      "350C",
      "350C",
      "350C",
      "350C",
      "350C",
      "350C",
      "350C",
      "350C",
      "350C",
      "351C",
      "351C",
      "350C",
      "350C",
      "350C",
      "350C",
      "350C",
      "350C",
      "350C",
      "350C",
      "350C",
      "350C",
      "350C",
      "350C",
      "350C",
      "350C",
      "350C",
      "350C",
      "350C",
      "350C",
      "350C",
      "350C",
      "350C",
      "350C",
      "350C",
      "350C",
      "350C",
      "350C",
      "350C",
      "350",
      "350",
      "344",
      "344",
      "335",
      "335",
      "335",
      "335",
      "315",
      "315",
      "315",
      "306",
      "306",
      "296",
      "296",
      "296",
      "296",
      "287",
      "250",
      "250",
      "227",
      "227",
      "227",
      "227",
      "215",
      "204",
      "204",
      "204",
      "204",
      "204",
      "161",
      "161",
      "125",
      "125",
      "125",
      "125",
      "125",
      "125",
      "107",
      "107",
      "107",
      "086",
      "086",
      "086",
      "086",
      "061",
      "061",
      "061",
      "061",
      "030",
      "030",
      "030",
      "030",
      "030",
      "030",
      "006",
      "006",
      "006",
      "006",
      "006",
      "006"
    ],
    "swim:geom": "path",
    "swim:speeds": [
      164,
      164,
      164,
      164,
      164,
      212,
      212,
      212,
      272,
      272,
      333,
      333,
      333,
      333,
      333,
      376,
      376,
      376,
      376,
      398,
      398,
      398,
      398,
      398,
      413,
      413,
      413,
      413,
      420,
      420,
      429,
      429,
      429,
      429,
      429,
      425,
      425,
      436,
      436,
      442,
      442,
      440,
      440,
      440,
      444,
      444,
      444,
      444,
      445,
      445,
      445,
      445,
      445,
      445,
      445,
      445,
      445,
      446,
      446,
      446,
      446,
      446,
      446,
      446,
      447,
      447,
      447,
      457,
      457,
      457,
      464,
      464,
      457,
      457,
      451,
      451,
      451,
      451,
      457,
      457,
      458,
      458,
      458,
      458,
      464,
      464,
      469,
      470,
      470,
      470,
      470,
      470,
      474,
      474,
      474,
      474,
      477,
      477,
      477,
      479,
      479,
      479,
      479,
      480,
      481,
      481,
      481,
      482,
      482,
      482,
      482,
      482,
      482,
      482,
      482,
      482,
      482,
      482,
      486,
      486,
      486,
      486,
      487,
      487,
      487,
      487,
      487,
      487,
      487,
      487,
      487,
      487,
      487,
      487,
      487,
      487,
      487,
      487,
      487,
      487,
      487,
      488,
      488,
      488,
      488,
      488,
      488,
      488,
      482,
      482,
      482,
      486,
      488,
      488,
      488,
      488,
      492,
      492,
      492,
      493,
      493,
      492,
      492,
      492,
      492,
      489,
      489,
      489,
      489,
      489,
      487,
      487,
      487,
      474,
      474,
      474,
      474,
      474,
      474,
      474,
      474,
      474,
      473,
      473,
      472,
      472,
      472,
      472,
      472,
      472,
      471,
      471,
      471,
      470,
      470,
      470,
      470,
      468,
      468,
      468,
      468,
      468,
      468,
      469,
      469,
      469,
      469,
      469,
      469,
      469,
      469,
      469,
      469,
      469,
      469,
      468,
      468,
      467,
      467,
      467,
      467,
      467,
      467,
      467,
      464,
      464,
      464,
      464,
      460,
      459,
      459,
      459,
      459,
      459,
      457,
      457,
      457,
      457,
      457,
      457,
      457,
      457,
      457,
      461,
      461,
      461,
      462,
      464,
      464,
      464,
      464,
      464,
      464,
      464,
      464,
      464,
      464,
      475,
      475,
      475,
      475,
      475,
      475,
      475,
      475,
      475,
      468,
      468,
      468,
      468,
      467,
      467,
      467,
      467,
      467,
      468,
      468,
      468,
      468,
      469,
      469,
      469,
      469,
      469,
      459,
      459,
      459,
      459,
      459,
      459,
      459,
      444,
      444,
      444,
      444,
      442,
      442,
      442,
      450,
      450,
      450,
      450,
      450,
      450,
      448,
      448,
      448,
      448,
      448,
      448,
      459,
      459,
      459,
      459,
      459,
      459,
      461,
      461,
      461,
      461,
      460,
      460,
      459,
      459,
      459,
      459,
      463,
      463,
      465,
      465,
      465,
      465,
      466,
      466,
      466,
      464,
      464,
      464,
      464,
      464,
      458,
      458,
      454,
      454,
      454,
      454,
      452,
      452,
      452,
      451,
      451,
      451,
      451,
      451,
      451,
      451,
      451,
      478,
      478,
      478,
      478,
      453,
      453,
      454,
      454,
      456,
      456,
      456,
      456,
      458,
      458,
      456,
      456,
      457,
      457,
      457,
      457,
      475,
      475,
      475,
      468,
      468,
      470,
      470,
      470,
      470,
      470,
      466,
      466,
      455,
      455,
      455,
      455,
      432,
      427,
      427,
      427,
      427,
      427,
      360,
      360,
      298,
      298,
      298,
      298,
      298,
      298,
      245,
      245,
      245,
      239,
      239,
      239,
      239,
      243,
      243,
      243,
      243,
      195,
      195,
      195,
      195,
      195,
      195,
      137,
      137,
      137,
      137,
      137,
      137
    ],
    "swim:timestamps": [
      1780416246,
      1780416246,
      1780416246,
      1780416246,
      1780416246,
      1780416356,
      1780416356,
      1780416356,
      1780416416,
      1780416416,
      1780416596,
      1780416596,
      1780416596,
      1780416596,
      1780416596,
      1780416837,
      1780416837,
      1780416837,
      1780416837,
      1780416957,
      1780416957,
      1780416957,
      1780416957,
      1780416957,
      1780417077,
      1780417077,
      1780417077,
      1780417077,
      1780417137,
      1780417137,
      1780417197,
      1780417197,
      1780417197,
      1780417197,
      1780417197,
      1780417227,
      1780417227,
      1780417257,
      1780417257,
      1780417317,
      1780417317,
      1780417407,
      1780417407,
      1780417407,
      1780417437,
      1780417437,
      1780417437,
      1780417437,
      1780417497,
      1780417497,
      1780417497,
      1780417588,
      1780417588,
      1780417588,
      1780417588,
      1780417648,
      1780417648,
      1780417678,
      1780417678,
      1780417678,
      1780417678,
      1780417738,
      1780417738,
      1780417738,
      1780417858,
      1780417858,
      1780417858,
      1780417948,
      1780417948,
      1780417948,
      1780417978,
      1780417978,
      1780418068,
      1780418068,
      1780418128,
      1780418128,
      1780418128,
      1780418158,
      1780418218,
      1780418218,
      1780418249,
      1780418249,
      1780418249,
      1780418249,
      1780418309,
      1780418309,
      1780418339,
      1780418369,
      1780418369,
      1780418369,
      1780418369,
      1780418369,
      1780418489,
      1780418489,
      1780418489,
      1780418489,
      1780418549,
      1780418549,
      1780418549,
      1780418639,
      1780418639,
      1780418639,
      1780418639,
      1780418699,
      1780418729,
      1780418759,
      1780418759,
      1780418819,
      1780418819,
      1780418849,
      1780418849,
      1780418849,
      1780418849,
      1780418849,
      1780418909,
      1780418909,
      1780418909,
      1780418909,
      1780419210,
      1780419210,
      1780419210,
      1780419210,
      1780419270,
      1780419270,
      1780419270,
      1780419330,
      1780419330,
      1780419330,
      1780419330,
      1780419330,
      1780419691,
      1780419691,
      1780419691,
      1780419691,
      1780419691,
      1780419691,
      1780419751,
      1780419751,
      1780419751,
      1780419751,
      1780419751,
      1780419811,
      1780419811,
      1780419931,
      1780419931,
      1780419931,
      1780419931,
      1780419931,
      1780420111,
      1780420111,
      1780420111,
      1780420171,
      1780420178,
      1780420178,
      1780420178,
      1780420178,
      1780420291,
      1780420298,
      1780420298,
      1780420351,
      1780420358,
      1780420418,
      1780420418,
      1780420418,
      1780420418,
      1780420532,
      1780420532,
      1780420532,
      1780420538,
      1780420538,
      1780420598,
      1780420598,
      1780420598,
      1780420779,
      1780420779,
      1780420779,
      1780420779,
      1780420899,
      1780420899,
      1780420899,
      1780420899,
      1780420899,
      1780421019,
      1780421019,
      1780421072,
      1780421072,
      1780421072,
      1780421072,
      1780421079,
      1780421079,
      1780421132,
      1780421132,
      1780421139,
      1780421199,
      1780421199,
      1780421199,
      1780421199,
      1780421379,
      1780421379,
      1780421379,
      1780421379,
      1780421379,
      1780421379,
      1780421499,
      1780421499,
      1780421499,
      1780421560,
      1780421560,
      1780421560,
      1780421620,
      1780421620,
      1780421680,
      1780421680,
      1780421680,
      1780421680,
      1780421740,
      1780421740,
      1780421800,
      1780421800,
      1780421800,
      1780421860,
      1780421860,
      1780421860,
      1780421860,
      1780421920,
      1780421920,
      1780421920,
      1780421920,
      1780421980,
      1780422040,
      1780422040,
      1780422040,
      1780422094,
      1780422094,
      1780422220,
      1780422220,
      1780422220,
      1780422334,
      1780422334,
      1780422334,
      1780422334,
      1780422334,
      1780422334,
      1780422695,
      1780422695,
      1780422695,
      1780422755,
      1780422815,
      1780422815,
      1780422815,
      1780422875,
      1780422875,
      1780422875,
      1780422935,
      1780422935,
      1780422935,
      1780422935,
      1780423056,
      1780423056,
      1780423056,
      1780423056,
      1780423176,
      1780423176,
      1780423176,
      1780423176,
      1780423176,
      1780423296,
      1780423296,
      1780423296,
      1780423296,
      1780423422,
      1780423422,
      1780423422,
      1780423422,
      1780423422,
      1780423536,
      1780423536,
      1780423536,
      1780423536,
      1780423602,
      1780423602,
      1780423602,
      1780423602,
      1780423602,
      1780424143,
      1780424143,
      1780424143,
      1780424143,
      1780424197,
      1780424197,
      1780424197,
      1780424378,
      1780424378,
      1780424378,
      1780424378,
      1780424443,
      1780424443,
      1780424443,
      1780424563,
      1780424563,
      1780424563,
      1780424623,
      1780424623,
      1780424623,
      1780424683,
      1780424683,
      1780424683,
      1780424743,
      1780424743,
      1780424743,
      1780424803,
      1780424803,
      1780424803,
      1780424803,
      1780424924,
      1780424924,
      1780424984,
      1780424984,
      1780424984,
      1780424984,
      1780425044,
      1780425044,
      1780425104,
      1780425104,
      1780425104,
      1780425104,
      1780425224,
      1780425224,
      1780425284,
      1780425284,
      1780425284,
      1780425284,
      1780425344,
      1780425344,
      1780425344,
      1780425524,
      1780425524,
      1780425524,
      1780425524,
      1780425524,
      1780425645,
      1780425645,
      1780425705,
      1780425705,
      1780425705,
      1780425705,
      1780425765,
      1780425765,
      1780425765,
      1780425825,
      1780425825,
      1780425825,
      1780425885,
      1780425885,
      1780425885,
      1780425885,
      1780425885,
      1780426245,
      1780426245,
      1780426245,
      1780426245,
      1780426306,
      1780426306,
      1780426366,
      1780426366,
      1780426426,
      1780426426,
      1780426426,
      1780426426,
      1780426546,
      1780426546,
      1780426606,
      1780426606,
      1780426666,
      1780426666,
      1780426666,
      1780426666,
      1780426786,
      1780426786,
      1780426786,
      1780426846,
      1780426846,
      1780426906,
      1780426906,
      1780426906,
      1780426906,
      1780426966,
      1780427087,
      1780427087,
      1780427147,
      1780427147,
      1780427147,
      1780427147,
      1780427175,
      1780427207,
      1780427207,
      1780427207,
      1780427207,
      1780427207,
      1780427327,
      1780427327,
      1780427507,
      1780427507,
      1780427507,
      1780427507,
      1780427507,
      1780427507,
      1780427748,
      1780427748,
      1780427748,
      1780427808,
      1780427808,
      1780427808,
      1780427808,
      1780427868,
      1780427868,
      1780427868,
      1780427868,
      1780428108,
      1780428108,
      1780428108,
      1780428108,
      1780428108,
      1780428108,
      1780428348,
      1780428348,
      1780428348,
      1780428348,
      1780428348,
      1780428348
    ],
    "wof:geomhash": "8732aeaa05ebc47516c177b5a126f51e",
    "wof:id": 2031434431,
    "wof:repo": "sfomuseum-data-flights-2026-06"
  },
  "bbox": [
    -122.4,
    32.342222222222226,
    -97.05472222222222,
    38.38361111111111
  ],
  "geometry": {"coordinates":[[-122.4,37.63333333333333],[-122.4,37.63333333333333],[-122.4,37.63333333333333],[-122.4,37.63333333333333],[-122.4,37.63333333333333],[-122.32833333333333,37.67611111111111],[-122.32833333333333,37.67611111111111],[-122.32833333333333,37.67611111111111],[-122.24555555555555,37.70666666666667],[-122.24555555555555,37.70666666666667],[-121.9738888888889,37.831944444444446],[-121.9738888888889,37.831944444444446],[-121.9738888888889,37.831944444444446],[-121.9738888888889,37.831944444444446],[-121.9738888888889,37.831944444444446],[-121.4725,37.92444444444444],[-121.4725,37.92444444444444],[-121.4725,37.92444444444444],[-121.4725,37.92444444444444],[-121.20444444444445,37.973055555555554],[-121.20444444444445,37.973055555555554],[-121.20444444444445,37.973055555555554],[-121.20444444444445,37.973055555555554],[-121.20444444444445,37.973055555555554],[-120.92361111111111,38.01888888888889],[-120.92361111111111,38.01888888888889],[-120.92361111111111,38.01888888888889],[-120.92361111111111,38.01888888888889],[-120.77805555555555,38.04138888888889],[-120.77805555555555,38.04138888888889],[-120.63027777777778,38.06388888888888],[-120.63027777777778,38.06388888888888],[-120.63027777777778,38.06388888888888],[-120.63027777777778,38.06388888888888],[-120.63027777777778,38.06388888888888],[-120.56694444444445,38.07138888888889],[-120.56694444444445,38.07138888888889],[-120.47777777777777,38.08694444444445],[-120.47777777777777,38.08694444444445],[-120.3261111111111,38.109722222222224],[-120.3261111111111,38.109722222222224],[-120.10833333333333,38.14111111111111],[-120.10833333333333,38.14111111111111],[-120.10833333333333,38.14111111111111],[-120.01833333333333,38.155],[-120.01833333333333,38.155],[-120.01833333333333,38.155],[-120.01833333333333,38.155],[-119.86277777777777,38.17777777777778],[-119.86277777777777,38.17777777777778],[-119.86277777777777,38.17777777777778],[-119.64527777777778,38.20722222222223],[-119.64527777777778,38.20722222222223],[-119.64527777777778,38.20722222222223],[-119.64527777777778,38.20722222222223],[-119.49111111111111,38.230000000000004],[-119.49111111111111,38.230000000000004],[-119.39750000000001,38.24388888888889],[-119.39750000000001,38.24388888888889],[-119.39750000000001,38.24388888888889],[-119.39750000000001,38.24388888888889],[-119.24305555555556,38.26555555555556],[-119.24305555555556,38.26555555555556],[-119.24305555555556,38.26555555555556],[-118.9363888888889,38.30777777777777],[-118.9363888888889,38.30777777777777],[-118.9363888888889,38.30777777777777],[-118.71333333333334,38.336111111111116],[-118.71333333333334,38.336111111111116],[-118.71333333333334,38.336111111111116],[-118.61333333333333,38.338055555555556],[-118.61333333333333,38.338055555555556],[-118.3561111111111,38.34527777777778],[-118.3561111111111,38.34527777777778],[-118.21583333333334,38.34861111111111],[-118.21583333333334,38.34861111111111],[-118.21583333333334,38.34861111111111],[-118.13305555555554,38.350833333333334],[-117.95583333333333,38.35472222222222],[-117.95583333333333,38.35472222222222],[-117.89305555555556,38.35611111111111],[-117.89305555555556,38.35611111111111],[-117.89305555555556,38.35611111111111],[-117.89305555555556,38.35611111111111],[-117.72666666666667,38.359722222222224],[-117.72666666666667,38.359722222222224],[-117.62305555555555,38.361666666666665],[-117.56027777777777,38.36277777777778],[-117.56027777777777,38.36277777777778],[-117.56027777777777,38.36277777777778],[-117.56027777777777,38.36277777777778],[-117.56027777777777,38.36277777777778],[-117.21722222222222,38.36888888888889],[-117.21722222222222,38.36888888888889],[-117.21722222222222,38.36888888888889],[-117.21722222222222,38.36888888888889],[-117.04388888888889,38.37138888888889],[-117.04388888888889,38.37138888888889],[-117.04388888888889,38.37138888888889],[-116.80166666666666,38.374722222222225],[-116.80166666666666,38.374722222222225],[-116.80166666666666,38.374722222222225],[-116.80166666666666,38.374722222222225],[-116.63083333333333,38.376666666666665],[-116.53111111111112,38.37777777777778],[-116.4588888888889,38.37861111111111],[-116.4588888888889,38.37861111111111],[-116.28833333333333,38.38],[-116.28833333333333,38.38],[-116.18805555555556,38.380833333333335],[-116.18805555555556,38.380833333333335],[-116.18805555555556,38.380833333333335],[-116.18805555555556,38.380833333333335],[-116.18805555555556,38.380833333333335],[-116.0175,38.38166666666667],[-116.0175,38.38166666666667],[-116.0175,38.38166666666667],[-116.0175,38.38166666666667],[-115.15055555555556,38.38361111111111],[-115.15055555555556,38.38361111111111],[-115.15055555555556,38.38361111111111],[-115.15055555555556,38.38361111111111],[-114.97777777777777,38.38305555555556],[-114.97777777777777,38.38305555555556],[-114.97777777777777,38.38305555555556],[-114.80833333333334,38.3825],[-114.80833333333334,38.3825],[-114.80833333333334,38.3825],[-114.80833333333334,38.3825],[-114.80833333333334,38.3825],[-113.77416666666666,38.37305555555555],[-113.77416666666666,38.37305555555555],[-113.77416666666666,38.37305555555555],[-113.77416666666666,38.37305555555555],[-113.77416666666666,38.37305555555555],[-113.77416666666666,38.37305555555555],[-113.6,38.370555555555555],[-113.6,38.370555555555555],[-113.6,38.370555555555555],[-113.6,38.370555555555555],[-113.6,38.370555555555555],[-113.42833333333334,38.367777777777775],[-113.42833333333334,38.367777777777775],[-113.08083333333333,38.35888888888889],[-113.08083333333333,38.35888888888889],[-113.08083333333333,38.35888888888889],[-113.08083333333333,38.35888888888889],[-113.08083333333333,38.35888888888889],[-112.595,38.23361111111111],[-112.595,38.23361111111111],[-112.595,38.23361111111111],[-112.46611111111112,38.19416666666666],[-112.42583333333334,38.18194444444444],[-112.42583333333334,38.18194444444444],[-112.42583333333334,38.18194444444444],[-112.42583333333334,38.18194444444444],[-112.14027777777778,38.09388888888889],[-112.10222222222221,38.081944444444446],[-112.10222222222221,38.081944444444446],[-111.9775,38.04333333333333],[-111.94194444444445,38.032222222222224],[-111.78111111111112,37.98166666666667],[-111.78111111111112,37.98166666666667],[-111.78111111111112,37.98166666666667],[-111.78111111111112,37.98166666666667],[-111.49638888888889,37.89194444444444],[-111.49638888888889,37.89194444444444],[-111.49638888888889,37.89194444444444],[-111.46194444444444,37.880833333333335],[-111.46194444444444,37.880833333333335],[-111.30555555555556,37.83111111111111],[-111.30555555555556,37.83111111111111],[-111.30555555555556,37.83111111111111],[-110.87666666666667,37.62861111111111],[-110.87666666666667,37.62861111111111],[-110.87666666666667,37.62861111111111],[-110.87666666666667,37.62861111111111],[-110.59805555555555,37.486666666666665],[-110.59805555555555,37.486666666666665],[-110.59805555555555,37.486666666666665],[-110.59805555555555,37.486666666666665],[-110.59805555555555,37.486666666666665],[-110.33555555555554,37.325833333333335],[-110.33555555555554,37.325833333333335],[-110.23305555555555,37.26277777777778],[-110.23305555555555,37.26277777777778],[-110.23305555555555,37.26277777777778],[-110.23305555555555,37.26277777777778],[-110.20555555555556,37.24583333333334],[-110.20555555555556,37.24583333333334],[-110.10333333333332,37.1825],[-110.10333333333332,37.1825],[-110.075,37.165],[-109.94472222222223,37.08388888888889],[-109.94472222222223,37.08388888888889],[-109.94472222222223,37.08388888888889],[-109.94472222222223,37.08388888888889],[-109.56222222222222,36.84444444444445],[-109.56222222222222,36.84444444444445],[-109.56222222222222,36.84444444444445],[-109.56222222222222,36.84444444444445],[-109.56222222222222,36.84444444444445],[-109.56222222222222,36.84444444444445],[-109.30638888888889,36.68277777777777],[-109.30638888888889,36.68277777777777],[-109.30638888888889,36.68277777777777],[-109.18,36.6025],[-109.18,36.6025],[-109.18,36.6025],[-109.05222222222221,36.520833333333336],[-109.05222222222221,36.520833333333336],[-108.92444444444445,36.439166666666665],[-108.92444444444445,36.439166666666665],[-108.92444444444445,36.439166666666665],[-108.92444444444445,36.439166666666665],[-108.79861111111111,36.35805555555556],[-108.79861111111111,36.35805555555556],[-108.66972222222223,36.275],[-108.66972222222223,36.275],[-108.66972222222223,36.275],[-108.54416666666667,36.19361111111111],[-108.54416666666667,36.19361111111111],[-108.54416666666667,36.19361111111111],[-108.54416666666667,36.19361111111111],[-108.41777777777779,36.11138888888889],[-108.41777777777779,36.11138888888889],[-108.41777777777779,36.11138888888889],[-108.41777777777779,36.11138888888889],[-108.29416666666667,36.030833333333334],[-108.19777777777779,35.9675],[-108.19777777777779,35.9675],[-108.19777777777779,35.9675],[-108.07416666666666,35.88638888888889],[-108.07416666666666,35.88638888888889],[-107.8325,35.72694444444445],[-107.8325,35.72694444444445],[-107.8325,35.72694444444445],[-107.59083333333332,35.566111111111105],[-107.59083333333332,35.566111111111105],[-107.59083333333332,35.566111111111105],[-107.59083333333332,35.566111111111105],[-107.59083333333332,35.566111111111105],[-107.59083333333332,35.566111111111105],[-106.8561111111111,35.07083333333334],[-106.8561111111111,35.07083333333334],[-106.8561111111111,35.07083333333334],[-106.72916666666667,34.9925],[-106.60888888888888,34.92194444444444],[-106.60888888888888,34.92194444444444],[-106.60888888888888,34.92194444444444],[-106.47777777777777,34.844722222222224],[-106.47777777777777,34.844722222222224],[-106.47777777777777,34.844722222222224],[-106.34944444444444,34.76861111111111],[-106.34944444444444,34.76861111111111],[-106.34944444444444,34.76861111111111],[-106.34944444444444,34.76861111111111],[-106.05722222222222,34.65888888888889],[-106.05722222222222,34.65888888888889],[-106.05722222222222,34.65888888888889],[-106.05722222222222,34.65888888888889],[-105.75916666666667,34.59305555555556],[-105.75916666666667,34.59305555555556],[-105.75916666666667,34.59305555555556],[-105.75916666666667,34.59305555555556],[-105.75916666666667,34.59305555555556],[-105.46527777777779,34.50055555555556],[-105.46527777777779,34.50055555555556],[-105.46527777777779,34.50055555555556],[-105.46527777777779,34.50055555555556],[-105.17833333333334,34.35583333333334],[-105.17833333333334,34.35583333333334],[-105.17833333333334,34.35583333333334],[-105.17833333333334,34.35583333333334],[-105.17833333333334,34.35583333333334],[-104.93222222222222,34.23083333333334],[-104.93222222222222,34.23083333333334],[-104.93222222222222,34.23083333333334],[-104.93222222222222,34.23083333333334],[-104.7761111111111,34.15083333333333],[-104.7761111111111,34.15083333333333],[-104.7761111111111,34.15083333333333],[-104.7761111111111,34.15083333333333],[-104.7761111111111,34.15083333333333],[-103.58916666666666,33.532777777777774],[-103.58916666666666,33.532777777777774],[-103.58916666666666,33.532777777777774],[-103.58916666666666,33.532777777777774],[-103.48583333333333,33.47777777777778],[-103.48583333333333,33.47777777777778],[-103.48583333333333,33.47777777777778],[-103.11166666666666,33.27833333333333],[-103.11166666666666,33.27833333333333],[-103.11166666666666,33.27833333333333],[-103.11166666666666,33.27833333333333],[-102.965,33.19944444444444],[-102.965,33.19944444444444],[-102.965,33.19944444444444],[-102.71555555555555,33.06444444444444],[-102.71555555555555,33.06444444444444],[-102.71555555555555,33.06444444444444],[-102.59083333333332,32.99666666666667],[-102.59083333333332,32.99666666666667],[-102.59083333333332,32.99666666666667],[-102.46694444444445,32.92916666666667],[-102.46694444444445,32.92916666666667],[-102.46694444444445,32.92916666666667],[-102.34166666666667,32.86083333333333],[-102.34166666666667,32.86083333333333],[-102.34166666666667,32.86083333333333],[-102.21222222222222,32.78972222222222],[-102.21222222222222,32.78972222222222],[-102.21222222222222,32.78972222222222],[-102.21222222222222,32.78972222222222],[-101.98222222222222,32.66277777777778],[-101.98222222222222,32.66277777777778],[-101.85277777777777,32.59138888888889],[-101.85277777777777,32.59138888888889],[-101.85277777777777,32.59138888888889],[-101.85277777777777,32.59138888888889],[-101.72694444444444,32.521388888888886],[-101.72694444444444,32.521388888888886],[-101.60166666666666,32.45166666666667],[-101.60166666666666,32.45166666666667],[-101.60166666666666,32.45166666666667],[-101.60166666666666,32.45166666666667],[-101.31527777777778,32.37555555555556],[-101.31527777777778,32.37555555555556],[-101.15333333333334,32.36527777777778],[-101.15333333333334,32.36527777777778],[-101.15333333333334,32.36527777777778],[-101.15333333333334,32.36527777777778],[-101.0025,32.35583333333334],[-101.0025,32.35583333333334],[-101.0025,32.35583333333334],[-100.54722222222222,32.342222222222226],[-100.54722222222222,32.342222222222226],[-100.54722222222222,32.342222222222226],[-100.54722222222222,32.342222222222226],[-100.54722222222222,32.342222222222226],[-100.38861111111112,32.54111111111111],[-100.38861111111112,32.54111111111111],[-100.38388888888889,32.66861111111111],[-100.38388888888889,32.66861111111111],[-100.38388888888889,32.66861111111111],[-100.38388888888889,32.66861111111111],[-100.37944444444443,32.79527777777778],[-100.37944444444443,32.79527777777778],[-100.37944444444443,32.79527777777778],[-100.37472222222222,32.92111111111111],[-100.37472222222222,32.92111111111111],[-100.37472222222222,32.92111111111111],[-100.37027777777777,33.04694444444444],[-100.37027777777777,33.04694444444444],[-100.37027777777777,33.04694444444444],[-100.37027777777777,33.04694444444444],[-100.37027777777777,33.04694444444444],[-100.23555555555555,33.79388888888889],[-100.23555555555555,33.79388888888889],[-100.23555555555555,33.79388888888889],[-100.23555555555555,33.79388888888889],[-100.09055555555555,33.83416666666667],[-100.09055555555555,33.83416666666667],[-99.94305555555556,33.86805555555556],[-99.94305555555556,33.86805555555556],[-99.79527777777777,33.90138888888889],[-99.79527777777777,33.90138888888889],[-99.79527777777777,33.90138888888889],[-99.79527777777777,33.90138888888889],[-99.49666666666667,33.86972222222222],[-99.49666666666667,33.86972222222222],[-99.35111111111111,33.83277777777778],[-99.35111111111111,33.83277777777778],[-99.2038888888889,33.79527777777778],[-99.2038888888889,33.79527777777778],[-99.2038888888889,33.79527777777778],[-99.2038888888889,33.79527777777778],[-98.90194444444445,33.7175],[-98.90194444444445,33.7175],[-98.90194444444445,33.7175],[-98.755,33.67194444444444],[-98.755,33.67194444444444],[-98.61277777777777,33.6275],[-98.61277777777777,33.6275],[-98.61277777777777,33.6275],[-98.61277777777777,33.6275],[-98.46611111111112,33.581388888888895],[-98.17611111111111,33.48972222222222],[-98.17611111111111,33.48972222222222],[-98.03333333333333,33.44444444444444],[-98.03333333333333,33.44444444444444],[-98.03333333333333,33.44444444444444],[-98.03333333333333,33.44444444444444],[-97.95,33.416666666666664],[-97.89972222222222,33.401666666666664],[-97.89972222222222,33.401666666666664],[-97.89972222222222,33.401666666666664],[-97.89972222222222,33.401666666666664],[-97.89972222222222,33.401666666666664],[-97.6613888888889,33.32527777777778],[-97.6613888888889,33.32527777777778],[-97.39444444444445,33.17305555555555],[-97.39444444444445,33.17305555555555],[-97.39444444444445,33.17305555555555],[-97.39444444444445,33.17305555555555],[-97.39444444444445,33.17305555555555],[-97.39444444444445,33.17305555555555],[-97.16944444444445,32.95611111111111],[-97.16944444444445,32.95611111111111],[-97.16944444444445,32.95611111111111],[-97.16583333333334,32.88972222222222],[-97.16583333333334,32.88972222222222],[-97.16583333333334,32.88972222222222],[-97.16583333333334,32.88972222222222],[-97.16194444444444,32.82138888888889],[-97.16194444444444,32.82138888888889],[-97.16194444444444,32.82138888888889],[-97.16194444444444,32.82138888888889],[-97.05611111111111,32.71138888888889],[-97.05611111111111,32.71138888888889],[-97.05611111111111,32.71138888888889],[-97.05611111111111,32.71138888888889],[-97.05611111111111,32.71138888888889],[-97.05611111111111,32.71138888888889],[-97.05472222222222,32.89083333333333],[-97.05472222222222,32.89083333333333],[-97.05472222222222,32.89083333333333],[-97.05472222222222,32.89083333333333],[-97.05472222222222,32.89083333333333],[-97.05472222222222,32.89083333333333]],"type":"LineString"}
}
