{
  "id": 2031430467,
  "type": "Feature",
  "properties": {
    "geom:area": 0,
    "geom:bbox": "-122.335220,37.425740,-121.278300,37.639590",
    "geom:latitude": 37.54455133717141,
    "geom:longitude": -121.82475644951873,
    "src:alt_label": "swim-approach",
    "src:geom": "swim",
    "swim:elevations": [
      4271,
      4177,
      3965,
      3480,
      3435,
      3322,
      3338,
      3353,
      3353,
      3353,
      3325,
      3137,
      3063,
      3023,
      2955,
      2894,
      2743,
      2743,
      2652,
      2442,
      2439,
      2438,
      2345,
      2178,
      2135,
      2134,
      2115,
      1988,
      1858,
      1792,
      1484,
      1355,
      1243,
      1187,
      1005,
      914,
      754,
      734,
      617,
      527,
      452,
      304,
      168,
      133
    ],
    "swim:geom": "approach",
    "swim:timestamps": [
      1780431145,
      1780431156,
      1780431180,
      1780431235,
      1780431241,
      1780431275,
      1780431292,
      1780431321,
      1780431337,
      1780431377,
      1780431388,
      1780431412,
      1780431426,
      1780431444,
      1780431454,
      1780431465,
      1780431501,
      1780431524,
      1780431577,
      1780431617,
      1780431627,
      1780431651,
      1780431687,
      1780431715,
      1780431733,
      1780431752,
      1780431808,
      1780431832,
      1780431850,
      1780431881,
      1780431931,
      1780431952,
      1780431973,
      1780431999,
      1780432041,
      1780432062,
      1780432098,
      1780432104,
      1780432132,
      1780432157,
      1780432176,
      1780432215,
      1780432250,
      1780432260
    ],
    "wof:geomhash": "311104efcded3a71149550ae31561088",
    "wof:id": 2031430467,
    "wof:repo": "sfomuseum-data-flights-2026-06"
  },
  "bbox": [
    -122.33522,
    37.42574,
    -121.2783,
    37.63959
  ],
  "geometry": {"coordinates":[[-121.2783,37.5906],[-121.30186,37.58774],[-121.34856,37.58279],[-121.45952,37.57022],[-121.47144,37.56882],[-121.5389,37.56097],[-121.57108,37.55715],[-121.62104,37.55389],[-121.64744,37.56074],[-121.70288,37.58069],[-121.71808,37.58618],[-121.75002,37.59772],[-121.76903,37.60456],[-121.79319,37.61336],[-121.80664,37.61822],[-121.82173,37.62374],[-121.8695,37.63959],[-121.90041,37.63447],[-121.90315,37.58156],[-121.86038,37.5486],[-121.85063,37.54101],[-121.82567,37.5215],[-121.80812,37.48578],[-121.81713,37.45591],[-121.82664,37.43729],[-121.84842,37.42574],[-121.92354,37.42952],[-121.9523,37.44159],[-121.97418,37.45133],[-122.0096,37.46684],[-122.0643,37.49005],[-122.08603,37.49922],[-122.10687,37.50806],[-122.13251,37.51888],[-122.17004,37.53469],[-122.18773,37.54221],[-122.21649,37.55435],[-122.22132,37.55639],[-122.24321,37.56563],[-122.26301,37.57395],[-122.2763,37.57954],[-122.30317,37.59087],[-122.32811,37.6013],[-122.33522,37.60432]],"type":"LineString"}
}
