{
  "id": 2031425147,
  "type": "Feature",
  "properties": {
    "geom:area": 0,
    "geom:bbox": "-122.396020,37.627280,-121.427370,38.518650",
    "geom:latitude": 38.059259486596595,
    "geom:longitude": -121.91172256957167,
    "src:alt_label": "swim-takeoff",
    "src:geom": "swim",
    "swim:elevations": [
      183,
      541,
      614,
      842,
      888,
      1107,
      1313,
      1542,
      2197,
      2468,
      2658,
      3139,
      3322,
      3485,
      3602,
      3784,
      4022,
      4209,
      4452,
      4720,
      4958,
      5258,
      5415,
      5685,
      5788,
      6047,
      6220,
      6301
    ],
    "swim:geom": "takeoff",
    "swim:timestamps": [
      1780349984,
      1780350022,
      1780350050,
      1780350073,
      1780350076,
      1780350088,
      1780350103,
      1780350122,
      1780350175,
      1780350200,
      1780350216,
      1780350254,
      1780350286,
      1780350316,
      1780350341,
      1780350383,
      1780350422,
      1780350444,
      1780350470,
      1780350503,
      1780350529,
      1780350566,
      1780350585,
      1780350618,
      1780350636,
      1780350677,
      1780350706,
      1780350721
    ],
    "wof:geomhash": "989f566146b9686b5b65811b1960df11",
    "wof:id": 2031425147,
    "wof:repo": "sfomuseum-data-flights-2026-06"
  },
  "bbox": [
    -122.39602,
    37.62728,
    -121.42737,
    38.51865
  ],
  "geometry": {"coordinates":[[-122.39,37.62728],[-122.39602,37.65471],[-122.36294,37.66917],[-122.33022,37.67911],[-122.32571,37.68044],[-122.3068,37.68609],[-122.28466,37.69289],[-122.25689,37.70218],[-122.19201,37.74329],[-122.16801,37.77139],[-122.15199,37.78876],[-122.11239,37.83126],[-122.07863,37.86804],[-122.04541,37.90445],[-122.01495,37.93781],[-121.9606,37.99734],[-121.90585,38.05718],[-121.87512,38.09076],[-121.83708,38.13243],[-121.78967,38.18431],[-121.752,38.22556],[-121.69716,38.28514],[-121.66967,38.31507],[-121.61933,38.36985],[-121.59163,38.39983],[-121.52153,38.46196],[-121.45919,38.49902],[-121.42737,38.51865]],"type":"LineString"}
}
