{
  "id": 2031472435,
  "type": "Feature",
  "properties": {
    "geom:area": 0,
    "geom:bbox": "-122.330833,37.500000,-73.800000,40.650556",
    "geom:latitude": 39.71115782129736,
    "geom:longitude": -97.99498724000627,
    "src:alt_label": "swim-path",
    "src:geom": "swim",
    "swim:altitudes": [
      "003",
      "003",
      "003",
      "003",
      "003",
      "016",
      "030",
      "030",
      "030",
      "055",
      "055",
      "105",
      "105",
      "105",
      "105",
      "112",
      "112",
      "112",
      "112",
      "112",
      "112",
      "176",
      "176",
      "176",
      "176",
      "176",
      "176",
      "176",
      "256",
      "256",
      "256",
      "256",
      "256",
      "256",
      "288",
      "288",
      "288",
      "288",
      "288",
      "300C",
      "300C",
      "300C",
      "300C",
      "300C",
      "300C",
      "300C",
      "300C",
      "300C",
      "300C",
      "300C",
      "300C",
      "300C",
      "300C",
      "300C",
      "300C",
      "300C",
      "300C",
      "300C",
      "300C",
      "300C",
      "300C",
      "300C",
      "300C",
      "300C",
      "300C",
      "300C",
      "300C",
      "300C",
      "300C",
      "300C",
      "300C",
      "300C",
      "300C",
      "300C",
      "300C",
      "300C",
      "300C",
      "300C",
      "300C",
      "300C",
      "300C",
      "300C",
      "300C",
      "300C",
      "300C",
      "300C",
      "300C",
      "300C",
      "300C",
      "300C",
      "300C",
      "300C",
      "300C",
      "300C",
      "300C",
      "300C",
      "300C",
      "300C",
      "300C",
      "300C",
      "300C",
      "300C",
      "300C",
      "300C",
      "300C",
      "300C",
      "300C",
      "300C",
      "300C",
      "300C",
      "300C",
      "300C",
      "300C",
      "300C",
      "300C",
      "300C",
      "300C",
      "300C",
      "300C",
      "300C",
      "300C",
      "300C",
      "300C",
      "300C",
      "300C",
      "300C",
      "300C",
      "300C",
      "300C",
      "300C",
      "300C",
      "300C",
      "300C",
      "300C",
      "300C",
      "300C",
      "300C",
      "300C",
      "300C",
      "300C",
      "300C",
      "300C",
      "300C",
      "300C",
      "300C",
      "300C",
      "300C",
      "300C",
      "300C",
      "300C",
      "300C",
      "300C",
      "300C",
      "300C",
      "300C",
      "300C",
      "300C",
      "300C",
      "300C",
      "300C",
      "300C",
      "300C",
      "300C",
      "300C",
      "300C",
      "300C",
      "300C",
      "300C",
      "300C",
      "300C",
      "300C",
      "300C",
      "300C",
      "300C",
      "300C",
      "300C",
      "300C",
      "300C",
      "300C",
      "300C",
      "300C",
      "300C",
      "300C",
      "300C",
      "300C",
      "300C",
      "300C",
      "300C",
      "300C",
      "300C",
      "300C",
      "300C",
      "300C",
      "300C",
      "300C",
      "300C",
      "300C",
      "300C",
      "300C",
      "300C",
      "300C",
      "300C",
      "300C",
      "300C",
      "300C",
      "300C",
      "300C",
      "300C",
      "300C",
      "300C",
      "300C",
      "300C",
      "300C",
      "300C",
      "300C",
      "300C",
      "300C",
      "300C",
      "300C",
      "300C",
      "300C",
      "300C",
      "300C",
      "300C",
      "300C",
      "300C",
      "300C",
      "300C",
      "300C",
      "300C",
      "300C",
      "300C",
      "300C",
      "300C",
      "300C",
      "300C",
      "300C",
      "300C",
      "300C",
      "300C",
      "300C",
      "300C",
      "300C",
      "300C",
      "300C",
      "300C",
      "300C",
      "300C",
      "300C",
      "300C",
      "300C",
      "300C",
      "300C",
      "300C",
      "300C",
      "300C",
      "300C",
      "300C",
      "300C",
      "300C",
      "300C",
      "300C",
      "300C",
      "300C",
      "300C",
      "300C",
      "300C",
      "300C",
      "300C",
      "300C",
      "300C",
      "300C",
      "300C",
      "300C",
      "300C",
      "300C",
      "300C",
      "300C",
      "300C",
      "300C",
      "300C",
      "300C",
      "300C",
      "300C",
      "300C",
      "300C",
      "300C",
      "300C",
      "300C",
      "300C",
      "300C",
      "300C",
      "300C",
      "300C",
      "300C",
      "300C",
      "300C",
      "300C",
      "300C",
      "300C",
      "300C",
      "300C",
      "300C",
      "300C",
      "300C",
      "300C",
      "300C",
      "300C",
      "300C",
      "300C",
      "300C",
      "300C",
      "300C",
      "300C",
      "300C",
      "300C",
      "300C",
      "300C",
      "300C",
      "300C",
      "300C",
      "300C",
      "300C",
      "300C",
      "300C",
      "300C",
      "300C",
      "300C",
      "300C",
      "300C",
      "300C",
      "300C",
      "300C",
      "300C",
      "300C",
      "300C",
      "300C",
      "300C",
      "300C",
      "300C",
      "300C",
      "300C",
      "300C",
      "300C",
      "300C",
      "300C",
      "300C",
      "300C",
      "300C",
      "300C",
      "300C",
      "300C",
      "300C",
      "300C",
      "300C",
      "300C",
      "300C",
      "300C",
      "300C",
      "300C",
      "300C",
      "300C",
      "300C",
      "300C",
      "300C",
      "300C",
      "300C",
      "300C",
      "300C",
      "300C",
      "300C",
      "300C",
      "300C",
      "300C",
      "300C",
      "300C",
      "300C",
      "300C",
      "300C",
      "300C",
      "300C",
      "300C",
      "300C",
      "300C",
      "300C",
      "300C",
      "300C",
      "300C",
      "300C",
      "300C",
      "300C",
      "300C",
      "300C",
      "300C",
      "300C",
      "300C",
      "300C",
      "300C",
      "300C",
      "300C",
      "300C",
      "300C",
      "300C",
      "300C",
      "300C",
      "300C",
      "300C",
      "300C",
      "300C",
      "300C",
      "300C",
      "300C",
      "300C",
      "300C",
      "300C",
      "300C",
      "300C",
      "300C",
      "300C",
      "300C",
      "300C",
      "300C",
      "300C",
      "300C",
      "300C",
      "300C",
      "300C",
      "300C",
      "300C",
      "300C",
      "300C",
      "300C",
      "300",
      "300",
      "300",
      "300",
      "300",
      "300",
      "300",
      "301",
      "308",
      "310",
      "310",
      "310",
      "310",
      "322",
      "322",
      "322",
      "322",
      "329",
      "329",
      "329",
      "329",
      "329",
      "329",
      "337",
      "337",
      "337",
      "340C",
      "340C",
      "340C",
      "340C",
      "340C",
      "340C",
      "340C",
      "340C",
      "340C",
      "340C",
      "340C",
      "340C",
      "340C",
      "340C",
      "340C",
      "340C",
      "340C",
      "340C",
      "340C",
      "340C",
      "340C",
      "340C",
      "340C",
      "340C",
      "340C",
      "340C",
      "340C",
      "340C",
      "340C",
      "340C",
      "340C",
      "340C",
      "340C",
      "340C",
      "340C",
      "340C",
      "340C",
      "340C",
      "340C",
      "340C",
      "340C",
      "340C",
      "340C",
      "340C",
      "340C",
      "340C",
      "340C",
      "340C",
      "340C",
      "340C",
      "340C",
      "340C",
      "340C",
      "340C",
      "340C",
      "340C",
      "340C",
      "340C",
      "340C",
      "340C",
      "340C",
      "340C",
      "340C",
      "340C",
      "340C",
      "340C",
      "340C",
      "340C",
      "340C",
      "340C",
      "340C",
      "340C",
      "340C",
      "340C",
      "340C",
      "340C",
      "340C",
      "340C",
      "340C",
      "340C",
      "340C",
      "340C",
      "340C",
      "340C",
      "340C",
      "340C",
      "340C",
      "340C",
      "340C",
      "340C",
      "340C",
      "340C",
      "340C",
      "340C",
      "340C",
      "340C",
      "340C",
      "340C",
      "340C",
      "340C",
      "340C",
      "340C",
      "340C",
      "340C",
      "340C",
      "340C",
      "340C",
      "340C",
      "340C",
      "340C",
      "340C",
      "340C",
      "340C",
      "340C",
      "340C",
      "340C",
      "340C",
      "340C",
      "340C",
      "340C",
      "340C",
      "340C",
      "340C",
      "340C",
      "340C",
      "340C",
      "340C",
      "340C",
      "340C",
      "340C",
      "340C",
      "340C",
      "340C",
      "340C",
      "340C",
      "340C",
      "340C",
      "340C",
      "340C",
      "340C",
      "340C",
      "340C",
      "340C",
      "340C",
      "340C",
      "340C",
      "340C",
      "340C",
      "340C",
      "340C",
      "340C",
      "340C",
      "340C",
      "340C",
      "340C",
      "340C",
      "340C",
      "340C",
      "340C",
      "340C",
      "340C",
      "340C",
      "340C",
      "340C",
      "340C",
      "340C",
      "340C",
      "340C",
      "340C",
      "340C",
      "340C",
      "340C",
      "340C",
      "340C",
      "340C",
      "340C",
      "340C",
      "340C",
      "340C",
      "340C",
      "340C",
      "340C",
      "340C",
      "340C",
      "340C",
      "340C",
      "340C",
      "340C",
      "340C",
      "340C",
      "340C",
      "340C",
      "340C",
      "340C",
      "340C",
      "340C",
      "340C",
      "340C",
      "340C",
      "340C",
      "340C",
      "340C",
      "340C",
      "340C",
      "340C",
      "340C",
      "340C",
      "340C",
      "340C",
      "340C",
      "340C",
      "340C",
      "340C",
      "340C",
      "340C",
      "340C",
      "340C",
      "340C",
      "340C",
      "340C",
      "340C",
      "340C",
      "340C",
      "340C",
      "340C",
      "340C",
      "340C",
      "340C",
      "340C",
      "340C",
      "340C",
      "340C",
      "340C",
      "340C",
      "340C",
      "340C",
      "340C",
      "340C",
      "340C",
      "340C",
      "340C",
      "340C",
      "340C",
      "340C",
      "340C",
      "340C",
      "340C",
      "340C",
      "340C",
      "340C",
      "340C",
      "340C",
      "340C",
      "340C",
      "340C",
      "340C",
      "340C",
      "340C",
      "340C",
      "340C",
      "340C",
      "340C",
      "340C",
      "340C",
      "340C",
      "340C",
      "340C",
      "340C",
      "340C",
      "340C",
      "340C",
      "340C",
      "340C",
      "340C",
      "340C",
      "340C",
      "340C",
      "340C",
      "340C",
      "340C",
      "340C",
      "340C",
      "340C",
      "340C",
      "340C",
      "340C",
      "340C",
      "340C",
      "340C",
      "340C",
      "340C",
      "340C",
      "340C",
      "340C",
      "340C",
      "340C",
      "340C",
      "340C",
      "340C",
      "340C",
      "340C",
      "340C",
      "340C",
      "340C",
      "340C",
      "340C",
      "340C",
      "340C",
      "340C",
      "340C",
      "340C",
      "340C",
      "340C",
      "340C",
      "340C",
      "340C",
      "340C",
      "340C",
      "340C",
      "340C",
      "340C",
      "340C",
      "340C",
      "340C",
      "340C",
      "340C",
      "340C",
      "340C",
      "340C",
      "340C",
      "340C",
      "340C",
      "340C",
      "340C",
      "340C",
      "340C",
      "340C",
      "340C",
      "340C",
      "340C",
      "340C",
      "340C",
      "340C",
      "340C",
      "340C",
      "340C",
      "340C",
      "340C",
      "340C",
      "340C",
      "340C",
      "340C",
      "340C",
      "340C",
      "340C",
      "340C",
      "340C",
      "340C",
      "340C",
      "340C",
      "340C",
      "340C",
      "340C",
      "340C",
      "340C",
      "340C",
      "340C",
      "340C",
      "340C",
      "340C",
      "340C",
      "340C",
      "340C",
      "340C",
      "340C",
      "340C",
      "340C",
      "340C",
      "340C",
      "340C",
      "340C",
      "340C",
      "340C",
      "340C",
      "340C",
      "340C",
      "340C",
      "340C",
      "340C",
      "340C",
      "340C",
      "340C",
      "340C",
      "340C",
      "340C",
      "340C",
      "340C",
      "340C",
      "340C",
      "340C",
      "340C",
      "340C",
      "340C",
      "340C",
      "340C",
      "340C",
      "340C",
      "340C",
      "340C",
      "340C",
      "340C",
      "338",
      "338",
      "338",
      "338",
      "338",
      "318",
      "318",
      "318",
      "318",
      "318",
      "287",
      "287",
      "287",
      "278",
      "278",
      "278",
      "278",
      "278",
      "252",
      "252",
      "252",
      "232",
      "229",
      "229",
      "196",
      "196",
      "193",
      "172",
      "172",
      "154",
      "135",
      "135",
      "135",
      "118",
      "118",
      "096",
      "096",
      "083",
      "083",
      "074",
      "074",
      "076",
      "040",
      "040",
      "040",
      "040",
      "041",
      "006",
      "006",
      "006",
      "006",
      "006"
    ],
    "swim:geom": "path",
    "swim:speeds": [
      180,
      180,
      180,
      180,
      180,
      185,
      236,
      236,
      236,
      291,
      291,
      313,
      313,
      313,
      313,
      344,
      344,
      344,
      344,
      344,
      344,
      364,
      364,
      364,
      364,
      364,
      364,
      364,
      379,
      379,
      379,
      379,
      379,
      379,
      398,
      398,
      398,
      398,
      398,
      397,
      397,
      397,
      397,
      397,
      395,
      395,
      396,
      396,
      396,
      396,
      396,
      396,
      392,
      392,
      392,
      392,
      392,
      392,
      392,
      394,
      394,
      394,
      394,
      394,
      394,
      397,
      397,
      397,
      397,
      397,
      397,
      400,
      400,
      400,
      400,
      400,
      400,
      403,
      403,
      403,
      403,
      402,
      402,
      402,
      399,
      399,
      399,
      399,
      398,
      398,
      398,
      397,
      397,
      397,
      397,
      397,
      397,
      397,
      396,
      396,
      396,
      396,
      398,
      398,
      398,
      398,
      398,
      398,
      404,
      404,
      404,
      408,
      408,
      409,
      409,
      411,
      411,
      411,
      411,
      414,
      414,
      414,
      419,
      419,
      419,
      421,
      421,
      421,
      421,
      423,
      423,
      425,
      425,
      425,
      425,
      425,
      426,
      426,
      426,
      426,
      426,
      426,
      426,
      426,
      426,
      426,
      426,
      426,
      426,
      426,
      426,
      427,
      427,
      427,
      427,
      427,
      427,
      428,
      430,
      430,
      430,
      430,
      431,
      431,
      431,
      431,
      431,
      432,
      432,
      432,
      432,
      432,
      432,
      431,
      431,
      430,
      430,
      430,
      430,
      430,
      430,
      430,
      430,
      430,
      430,
      430,
      428,
      428,
      428,
      428,
      428,
      428,
      428,
      428,
      428,
      429,
      430,
      430,
      430,
      431,
      431,
      431,
      432,
      432,
      432,
      432,
      432,
      432,
      432,
      432,
      433,
      433,
      433,
      433,
      433,
      433,
      433,
      433,
      433,
      432,
      432,
      432,
      432,
      432,
      431,
      431,
      431,
      431,
      431,
      431,
      431,
      431,
      430,
      430,
      429,
      429,
      429,
      429,
      429,
      429,
      429,
      429,
      429,
      429,
      429,
      429,
      431,
      429,
      429,
      429,
      429,
      429,
      429,
      434,
      434,
      434,
      434,
      434,
      434,
      434,
      434,
      435,
      435,
      435,
      435,
      435,
      435,
      435,
      435,
      435,
      437,
      438,
      438,
      438,
      438,
      441,
      441,
      441,
      441,
      442,
      442,
      442,
      442,
      442,
      442,
      442,
      442,
      441,
      441,
      441,
      441,
      441,
      441,
      439,
      439,
      438,
      438,
      438,
      438,
      438,
      438,
      438,
      438,
      437,
      437,
      436,
      436,
      436,
      437,
      437,
      437,
      437,
      437,
      437,
      438,
      438,
      438,
      439,
      439,
      439,
      439,
      441,
      441,
      441,
      441,
      441,
      441,
      440,
      440,
      440,
      440,
      440,
      439,
      439,
      439,
      440,
      440,
      440,
      440,
      442,
      442,
      442,
      444,
      444,
      444,
      447,
      447,
      447,
      447,
      448,
      448,
      448,
      448,
      448,
      449,
      449,
      449,
      449,
      449,
      448,
      448,
      447,
      447,
      447,
      447,
      447,
      446,
      446,
      446,
      446,
      446,
      445,
      446,
      446,
      444,
      444,
      444,
      444,
      443,
      443,
      443,
      443,
      445,
      445,
      445,
      445,
      445,
      448,
      448,
      448,
      448,
      448,
      448,
      448,
      448,
      446,
      446,
      446,
      446,
      446,
      444,
      444,
      444,
      444,
      444,
      443,
      443,
      443,
      443,
      443,
      443,
      441,
      441,
      439,
      439,
      439,
      439,
      439,
      439,
      437,
      437,
      437,
      437,
      435,
      435,
      435,
      435,
      435,
      435,
      435,
      435,
      435,
      436,
      436,
      436,
      436,
      434,
      434,
      434,
      434,
      434,
      434,
      434,
      434,
      434,
      432,
      432,
      432,
      432,
      431,
      431,
      431,
      431,
      431,
      431,
      437,
      437,
      437,
      439,
      439,
      439,
      439,
      439,
      440,
      440,
      440,
      440,
      442,
      442,
      442,
      442,
      442,
      442,
      438,
      438,
      438,
      438,
      438,
      436,
      433,
      433,
      433,
      433,
      433,
      433,
      448,
      448,
      448,
      448,
      438,
      438,
      438,
      438,
      438,
      438,
      437,
      437,
      436,
      436,
      436,
      436,
      436,
      436,
      439,
      439,
      439,
      439,
      440,
      441,
      441,
      441,
      441,
      442,
      442,
      442,
      442,
      442,
      444,
      444,
      444,
      445,
      445,
      445,
      445,
      449,
      449,
      449,
      449,
      450,
      450,
      450,
      450,
      452,
      452,
      452,
      452,
      453,
      454,
      455,
      455,
      455,
      455,
      455,
      455,
      455,
      455,
      457,
      457,
      457,
      457,
      449,
      449,
      449,
      449,
      449,
      449,
      449,
      449,
      448,
      448,
      448,
      448,
      446,
      446,
      446,
      446,
      440,
      440,
      440,
      444,
      444,
      444,
      444,
      437,
      443,
      443,
      443,
      441,
      441,
      435,
      434,
      434,
      434,
      434,
      435,
      435,
      435,
      435,
      435,
      435,
      431,
      431,
      431,
      431,
      434,
      434,
      431,
      431,
      432,
      435,
      435,
      435,
      435,
      435,
      432,
      432,
      432,
      427,
      427,
      427,
      427,
      431,
      431,
      431,
      425,
      425,
      425,
      425,
      424,
      424,
      424,
      420,
      420,
      424,
      424,
      421,
      421,
      422,
      422,
      422,
      421,
      421,
      422,
      422,
      422,
      421,
      421,
      421,
      417,
      417,
      417,
      417,
      417,
      416,
      415,
      415,
      415,
      413,
      413,
      413,
      416,
      416,
      413,
      411,
      411,
      411,
      411,
      411,
      411,
      411,
      411,
      410,
      410,
      410,
      410,
      410,
      416,
      416,
      416,
      417,
      417,
      415,
      415,
      414,
      414,
      414,
      414,
      414,
      416,
      416,
      416,
      418,
      418,
      418,
      418,
      418,
      412,
      411,
      411,
      411,
      410,
      410,
      410,
      410,
      413,
      413,
      413,
      413,
      408,
      405,
      405,
      403,
      402,
      402,
      401,
      401,
      401,
      401,
      401,
      401,
      401,
      401,
      401,
      401,
      402,
      402,
      405,
      405,
      405,
      405,
      405,
      411,
      411,
      411,
      411,
      412,
      405,
      405,
      405,
      404,
      404,
      404,
      404,
      404,
      404,
      404,
      404,
      402,
      402,
      402,
      402,
      402,
      402,
      402,
      398,
      398,
      398,
      398,
      398,
      398,
      399,
      399,
      399,
      399,
      400,
      400,
      400,
      400,
      400,
      400,
      400,
      400,
      402,
      402,
      402,
      405,
      405,
      405,
      405,
      405,
      405,
      399,
      399,
      399,
      399,
      399,
      400,
      400,
      400,
      400,
      407,
      407,
      407,
      407,
      406,
      406,
      406,
      406,
      410,
      412,
      412,
      412,
      412,
      412,
      412,
      415,
      415,
      415,
      415,
      415,
      415,
      425,
      425,
      425,
      425,
      425,
      428,
      428,
      429,
      429,
      430,
      430,
      431,
      431,
      431,
      431,
      431,
      431,
      432,
      432,
      432,
      432,
      432,
      432,
      432,
      432,
      432,
      431,
      431,
      431,
      431,
      431,
      431,
      431,
      430,
      430,
      430,
      430,
      429,
      429,
      429,
      429,
      429,
      429,
      429,
      430,
      430,
      430,
      430,
      431,
      431,
      431,
      431,
      431,
      431,
      431,
      431,
      431,
      431,
      430,
      430,
      427,
      427,
      427,
      427,
      426,
      426,
      426,
      426,
      426,
      426,
      426,
      426,
      426,
      427,
      427,
      427,
      427,
      427,
      429,
      429,
      429,
      426,
      426,
      426,
      426,
      426,
      412,
      412,
      412,
      395,
      397,
      397,
      371,
      371,
      374,
      368,
      368,
      358,
      347,
      347,
      347,
      338,
      338,
      285,
      285,
      279,
      279,
      258,
      258,
      264,
      225,
      225,
      225,
      225,
      229,
      138,
      138,
      138,
      138,
      138
    ],
    "swim:timestamps": [
      1780847858,
      1780847858,
      1780847858,
      1780847858,
      1780847858,
      1780847891,
      1780847936,
      1780847936,
      1780847936,
      1780848011,
      1780848011,
      1780848131,
      1780848131,
      1780848131,
      1780848131,
      1780848252,
      1780848252,
      1780848252,
      1780848252,
      1780848252,
      1780848252,
      1780848432,
      1780848432,
      1780848432,
      1780848432,
      1780848432,
      1780848432,
      1780848432,
      1780848732,
      1780848732,
      1780848732,
      1780848732,
      1780848732,
      1780848732,
      1780848913,
      1780848913,
      1780848913,
      1780848913,
      1780848913,
      1780848990,
      1780848990,
      1780849050,
      1780849050,
      1780849050,
      1780849093,
      1780849093,
      1780849110,
      1780849110,
      1780849110,
      1780849110,
      1780849110,
      1780849110,
      1780849230,
      1780849230,
      1780849230,
      1780849290,
      1780849290,
      1780849290,
      1780849290,
      1780849333,
      1780849333,
      1780849333,
      1780849350,
      1780849350,
      1780849350,
      1780849453,
      1780849453,
      1780849453,
      1780849453,
      1780849453,
      1780849453,
      1780849573,
      1780849573,
      1780849590,
      1780849590,
      1780849590,
      1780849590,
      1780849634,
      1780849634,
      1780849634,
      1780849634,
      1780849651,
      1780849651,
      1780849651,
      1780849814,
      1780849814,
      1780849814,
      1780849814,
      1780849891,
      1780849891,
      1780849891,
      1780849934,
      1780849934,
      1780849934,
      1780849934,
      1780849951,
      1780849951,
      1780849951,
      1780849994,
      1780849994,
      1780849994,
      1780849994,
      1780850114,
      1780850114,
      1780850114,
      1780850114,
      1780850114,
      1780850114,
      1780850252,
      1780850252,
      1780850252,
      1780850269,
      1780850269,
      1780850329,
      1780850329,
      1780850372,
      1780850372,
      1780850372,
      1780850372,
      1780850432,
      1780850432,
      1780850432,
      1780850509,
      1780850509,
      1780850509,
      1780850569,
      1780850569,
      1780850569,
      1780850569,
      1780850629,
      1780850629,
      1780850732,
      1780850732,
      1780850732,
      1780850732,
      1780850732,
      1780850913,
      1780850913,
      1780850913,
      1780850913,
      1780850973,
      1780850973,
      1780850973,
      1780851093,
      1780851093,
      1780851093,
      1780851093,
      1780851093,
      1780851110,
      1780851110,
      1780851110,
      1780851153,
      1780851153,
      1780851153,
      1780851153,
      1780851170,
      1780851170,
      1780851213,
      1780851290,
      1780851290,
      1780851290,
      1780851290,
      1780851333,
      1780851333,
      1780851333,
      1780851333,
      1780851333,
      1780851393,
      1780851410,
      1780851410,
      1780851410,
      1780851410,
      1780851410,
      1780851514,
      1780851514,
      1780851531,
      1780851531,
      1780851531,
      1780851531,
      1780851531,
      1780851531,
      1780851574,
      1780851574,
      1780851574,
      1780851574,
      1780851574,
      1780851651,
      1780851651,
      1780851711,
      1780851711,
      1780851754,
      1780851754,
      1780851754,
      1780851754,
      1780851754,
      1780851814,
      1780851831,
      1780851831,
      1780851831,
      1780851891,
      1780851891,
      1780851891,
      1780851994,
      1780851994,
      1780851994,
      1780852011,
      1780852011,
      1780852011,
      1780852011,
      1780852011,
      1780852154,
      1780852154,
      1780852154,
      1780852214,
      1780852214,
      1780852214,
      1780852214,
      1780852274,
      1780852274,
      1780852312,
      1780852312,
      1780852312,
      1780852312,
      1780852312,
      1780852432,
      1780852432,
      1780852432,
      1780852454,
      1780852454,
      1780852454,
      1780852454,
      1780852454,
      1780852575,
      1780852575,
      1780852635,
      1780852635,
      1780852635,
      1780852635,
      1780852635,
      1780852732,
      1780852732,
      1780852732,
      1780852732,
      1780852755,
      1780852755,
      1780852755,
      1780852853,
      1780852869,
      1780852869,
      1780852869,
      1780852869,
      1780852869,
      1780852869,
      1780853033,
      1780853033,
      1780853033,
      1780853056,
      1780853056,
      1780853056,
      1780853056,
      1780853056,
      1780853153,
      1780853153,
      1780853153,
      1780853169,
      1780853169,
      1780853169,
      1780853169,
      1780853229,
      1780853229,
      1780853273,
      1780853293,
      1780853333,
      1780853333,
      1780853333,
      1780853350,
      1780853350,
      1780853350,
      1780853350,
      1780853410,
      1780853410,
      1780853410,
      1780853410,
      1780853410,
      1780853470,
      1780853470,
      1780853470,
      1780853530,
      1780853530,
      1780853530,
      1780853530,
      1780853530,
      1780853530,
      1780853593,
      1780853593,
      1780853634,
      1780853634,
      1780853634,
      1780853694,
      1780853694,
      1780853694,
      1780853694,
      1780853694,
      1780853754,
      1780853754,
      1780853782,
      1780853782,
      1780853782,
      1780853814,
      1780853814,
      1780853814,
      1780853874,
      1780853874,
      1780853874,
      1780853902,
      1780853902,
      1780853902,
      1780853963,
      1780853963,
      1780853963,
      1780853963,
      1780854023,
      1780854023,
      1780854074,
      1780854074,
      1780854074,
      1780854074,
      1780854194,
      1780854194,
      1780854194,
      1780854194,
      1780854194,
      1780854263,
      1780854263,
      1780854263,
      1780854383,
      1780854383,
      1780854383,
      1780854383,
      1780854443,
      1780854443,
      1780854443,
      1780854503,
      1780854503,
      1780854503,
      1780854624,
      1780854624,
      1780854624,
      1780854624,
      1780854684,
      1780854684,
      1780854684,
      1780854684,
      1780854684,
      1780854856,
      1780854856,
      1780854856,
      1780854856,
      1780854856,
      1780854924,
      1780854924,
      1780854984,
      1780854984,
      1780854984,
      1780854984,
      1780854984,
      1780855104,
      1780855104,
      1780855104,
      1780855104,
      1780855104,
      1780855164,
      1780855172,
      1780855172,
      1780855224,
      1780855224,
      1780855224,
      1780855224,
      1780855285,
      1780855285,
      1780855285,
      1780855285,
      1780855412,
      1780855412,
      1780855412,
      1780855484,
      1780855484,
      1780855604,
      1780855604,
      1780855604,
      1780855705,
      1780855705,
      1780855724,
      1780855724,
      1780855724,
      1780855765,
      1780855765,
      1780855765,
      1780855785,
      1780855785,
      1780855825,
      1780855825,
      1780855845,
      1780855845,
      1780855845,
      1780855905,
      1780855905,
      1780855905,
      1780855905,
      1780855965,
      1780855965,
      1780856006,
      1780856006,
      1780856066,
      1780856066,
      1780856066,
      1780856066,
      1780856085,
      1780856085,
      1780856205,
      1780856205,
      1780856205,
      1780856205,
      1780856306,
      1780856306,
      1780856306,
      1780856306,
      1780856306,
      1780856306,
      1780856325,
      1780856366,
      1780856366,
      1780856426,
      1780856426,
      1780856445,
      1780856445,
      1780856486,
      1780856486,
      1780856486,
      1780856506,
      1780856547,
      1780856566,
      1780856566,
      1780856566,
      1780856566,
      1780856607,
      1780856607,
      1780856607,
      1780856607,
      1780856667,
      1780856667,
      1780856667,
      1780856667,
      1780856667,
      1780856667,
      1780856746,
      1780856746,
      1780856746,
      1780856787,
      1780856787,
      1780856787,
      1780856787,
      1780856806,
      1780856847,
      1780856847,
      1780856847,
      1780856847,
      1780856986,
      1780856986,
      1780857046,
      1780857046,
      1780857046,
      1780857046,
      1780857166,
      1780857166,
      1780857166,
      1780857166,
      1780857166,
      1780857226,
      1780857287,
      1780857287,
      1780857287,
      1780857287,
      1780857287,
      1780857287,
      1780857392,
      1780857392,
      1780857392,
      1780857392,
      1780857512,
      1780857512,
      1780857512,
      1780857512,
      1780857512,
      1780857512,
      1780857692,
      1780857692,
      1780857707,
      1780857707,
      1780857707,
      1780857707,
      1780857707,
      1780857707,
      1780857873,
      1780857873,
      1780857873,
      1780857873,
      1780857911,
      1780857933,
      1780857933,
      1780857933,
      1780857933,
      1780857972,
      1780857972,
      1780857972,
      1780857972,
      1780857972,
      1780858032,
      1780858032,
      1780858032,
      1780858092,
      1780858092,
      1780858092,
      1780858092,
      1780858173,
      1780858173,
      1780858173,
      1780858173,
      1780858233,
      1780858233,
      1780858272,
      1780858272,
      1780858332,
      1780858332,
      1780858332,
      1780858332,
      1780858353,
      1780858413,
      1780858474,
      1780858474,
      1780858474,
      1780858474,
      1780858512,
      1780858512,
      1780858512,
      1780858512,
      1780858572,
      1780858572,
      1780858572,
      1780858572,
      1780858714,
      1780858714,
      1780858714,
      1780858714,
      1780858714,
      1780858714,
      1780858846,
      1780858846,
      1780858906,
      1780858906,
      1780858906,
      1780858906,
      1780858966,
      1780858966,
      1780858966,
      1780858966,
      1780859086,
      1780859086,
      1780859086,
      1780859126,
      1780859126,
      1780859126,
      1780859126,
      1780859147,
      1780859186,
      1780859186,
      1780859186,
      1780859246,
      1780859246,
      1780859267,
      1780859327,
      1780859327,
      1780859327,
      1780859327,
      1780859426,
      1780859426,
      1780859426,
      1780859426,
      1780859426,
      1780859426,
      1780859567,
      1780859567,
      1780859567,
      1780859567,
      1780859606,
      1780859606,
      1780859627,
      1780859627,
      1780859687,
      1780859727,
      1780859727,
      1780859727,
      1780859727,
      1780859727,
      1780859747,
      1780859907,
      1780859907,
      1780859928,
      1780859928,
      1780859928,
      1780859928,
      1780859967,
      1780859967,
      1780859967,
      1780860108,
      1780860108,
      1780860108,
      1780860108,
      1780860168,
      1780860168,
      1780860168,
      1780860207,
      1780860207,
      1780860228,
      1780860228,
      1780860267,
      1780860267,
      1780860288,
      1780860288,
      1780860288,
      1780860327,
      1780860327,
      1780860408,
      1780860408,
      1780860408,
      1780860448,
      1780860448,
      1780860508,
      1780860528,
      1780860528,
      1780860528,
      1780860528,
      1780860528,
      1780860568,
      1780860589,
      1780860589,
      1780860589,
      1780860649,
      1780860649,
      1780860649,
      1780860688,
      1780860688,
      1780860748,
      1780860769,
      1780860769,
      1780860769,
      1780860769,
      1780860889,
      1780860889,
      1780860889,
      1780860889,
      1780860928,
      1780860928,
      1780860928,
      1780860928,
      1780860928,
      1780860988,
      1780861048,
      1780861048,
      1780861069,
      1780861069,
      1780861129,
      1780861129,
      1780861169,
      1780861249,
      1780861249,
      1780861249,
      1780861249,
      1780861310,
      1780861310,
      1780861310,
      1780861349,
      1780861349,
      1780861349,
      1780861349,
      1780861349,
      1780861430,
      1780861469,
      1780861469,
      1780861469,
      1780861490,
      1780861490,
      1780861490,
      1780861490,
      1780861709,
      1780861709,
      1780861709,
      1780861709,
      1780861790,
      1780861829,
      1780861829,
      1780861889,
      1780861910,
      1780861910,
      1780861950,
      1780861970,
      1780861970,
      1780861970,
      1780862010,
      1780862010,
      1780862030,
      1780862070,
      1780862070,
      1780862070,
      1780862091,
      1780862091,
      1780862211,
      1780862211,
      1780862211,
      1780862211,
      1780862211,
      1780862271,
      1780862271,
      1780862271,
      1780862271,
      1780862331,
      1780862391,
      1780862391,
      1780862391,
      1780862451,
      1780862451,
      1780862451,
      1780862490,
      1780862490,
      1780862490,
      1780862490,
      1780862490,
      1780862610,
      1780862671,
      1780862671,
      1780862671,
      1780862671,
      1780862671,
      1780862671,
      1780863031,
      1780863031,
      1780863031,
      1780863031,
      1780863031,
      1780863031,
      1780863211,
      1780863211,
      1780863211,
      1780863211,
      1780863331,
      1780863331,
      1780863331,
      1780863391,
      1780863391,
      1780863391,
      1780863391,
      1780863391,
      1780863452,
      1780863452,
      1780863452,
      1780863572,
      1780863692,
      1780863692,
      1780863692,
      1780863692,
      1780863692,
      1780863872,
      1780863872,
      1780863872,
      1780863872,
      1780863872,
      1780863932,
      1780863932,
      1780863932,
      1780863932,
      1780864112,
      1780864112,
      1780864112,
      1780864112,
      1780864233,
      1780864233,
      1780864233,
      1780864233,
      1780864353,
      1780864413,
      1780864413,
      1780864413,
      1780864413,
      1780864413,
      1780864413,
      1780864593,
      1780864593,
      1780864593,
      1780864593,
      1780864593,
      1780864593,
      1780864773,
      1780864773,
      1780864773,
      1780864773,
      1780864773,
      1780864893,
      1780864893,
      1780864935,
      1780864935,
      1780864954,
      1780864954,
      1780865014,
      1780865014,
      1780865055,
      1780865055,
      1780865055,
      1780865055,
      1780865134,
      1780865134,
      1780865134,
      1780865194,
      1780865194,
      1780865194,
      1780865235,
      1780865235,
      1780865235,
      1780865314,
      1780865314,
      1780865314,
      1780865355,
      1780865355,
      1780865355,
      1780865355,
      1780865415,
      1780865415,
      1780865415,
      1780865415,
      1780865494,
      1780865535,
      1780865535,
      1780865535,
      1780865535,
      1780865554,
      1780865554,
      1780865596,
      1780865596,
      1780865596,
      1780865596,
      1780865675,
      1780865675,
      1780865735,
      1780865735,
      1780865795,
      1780865795,
      1780865795,
      1780865836,
      1780865836,
      1780865836,
      1780865867,
      1780865867,
      1780865956,
      1780865956,
      1780865956,
      1780865956,
      1780866016,
      1780866016,
      1780866016,
      1780866016,
      1780866196,
      1780866196,
      1780866196,
      1780866196,
      1780866196,
      1780866317,
      1780866317,
      1780866317,
      1780866317,
      1780866317,
      1780866509,
      1780866509,
      1780866509,
      1780866569,
      1780866569,
      1780866569,
      1780866569,
      1780866569,
      1780866744,
      1780866744,
      1780866744,
      1780866799,
      1780866809,
      1780866809,
      1780866919,
      1780866919,
      1780866929,
      1780866989,
      1780866989,
      1780867050,
      1780867110,
      1780867110,
      1780867110,
      1780867170,
      1780867170,
      1780867290,
      1780867290,
      1780867350,
      1780867350,
      1780867400,
      1780867400,
      1780867410,
      1780867580,
      1780867580,
      1780867580,
      1780867580,
      1780867590,
      1780867831,
      1780867831,
      1780867831,
      1780867831,
      1780867831
    ],
    "wof:geomhash": "e00d648a1c437d7e5558aa8bfb7452fb",
    "wof:id": 2031472435,
    "wof:repo": "sfomuseum-data-flights-2026-06"
  },
  "bbox": [
    -122.33083333333333,
    37.5,
    -73.8,
    40.650555555555556
  ],
  "geometry": {"coordinates":[[-73.8,40.65],[-73.8,40.65],[-73.8,40.65],[-73.8,40.65],[-73.8,40.65],[-73.83583333333333,40.650555555555556],[-73.88333333333334,40.61666666666667],[-73.88333333333334,40.61666666666667],[-73.88333333333334,40.61666666666667],[-73.92944444444444,40.53361111111111],[-73.92944444444444,40.53361111111111],[-73.88166666666666,40.36888888888889],[-73.88166666666666,40.36888888888889],[-73.88166666666666,40.36888888888889],[-73.88166666666666,40.36888888888889],[-74.00861111111111,40.25666666666667],[-74.00861111111111,40.25666666666667],[-74.00861111111111,40.25666666666667],[-74.00861111111111,40.25666666666667],[-74.00861111111111,40.25666666666667],[-74.00861111111111,40.25666666666667],[-74.39666666666668,40.21333333333334],[-74.39666666666668,40.21333333333334],[-74.39666666666668,40.21333333333334],[-74.39666666666668,40.21333333333334],[-74.39666666666668,40.21333333333334],[-74.39666666666668,40.21333333333334],[-74.39666666666668,40.21333333333334],[-75.05333333333333,40.157777777777774],[-75.05333333333333,40.157777777777774],[-75.05333333333333,40.157777777777774],[-75.05333333333333,40.157777777777774],[-75.05333333333333,40.157777777777774],[-75.05333333333333,40.157777777777774],[-75.50527777777778,40.11972222222222],[-75.50527777777778,40.11972222222222],[-75.50527777777778,40.11972222222222],[-75.50527777777778,40.11972222222222],[-75.50527777777778,40.11972222222222],[-75.67277777777778,40.119166666666665],[-75.67277777777778,40.119166666666665],[-75.81555555555555,40.11944444444445],[-75.81555555555555,40.11944444444445],[-75.81555555555555,40.11944444444445],[-75.93194444444445,40.12027777777778],[-75.93194444444445,40.12027777777778],[-75.95833333333334,40.12],[-75.95833333333334,40.12],[-75.95833333333334,40.12],[-75.95833333333334,40.12],[-75.95833333333334,40.12],[-75.95833333333334,40.12],[-76.23972222222223,40.119166666666665],[-76.23972222222223,40.119166666666665],[-76.23972222222223,40.119166666666665],[-76.38277777777778,40.119166666666665],[-76.38277777777778,40.119166666666665],[-76.38277777777778,40.119166666666665],[-76.38277777777778,40.119166666666665],[-76.49638888888889,40.11888888888889],[-76.49638888888889,40.11888888888889],[-76.49638888888889,40.11888888888889],[-76.52583333333334,40.11888888888889],[-76.52583333333334,40.11888888888889],[-76.52583333333334,40.11888888888889],[-76.7825,40.117222222222225],[-76.7825,40.117222222222225],[-76.7825,40.117222222222225],[-76.7825,40.117222222222225],[-76.7825,40.117222222222225],[-76.7825,40.117222222222225],[-77.07444444444444,40.11472222222223],[-77.07444444444444,40.11472222222223],[-77.10444444444444,40.114444444444445],[-77.10444444444444,40.114444444444445],[-77.10444444444444,40.114444444444445],[-77.10444444444444,40.114444444444445],[-77.22083333333333,40.113055555555555],[-77.22083333333333,40.113055555555555],[-77.22083333333333,40.113055555555555],[-77.22083333333333,40.113055555555555],[-77.24916666666667,40.11277777777778],[-77.24916666666667,40.11277777777778],[-77.24916666666667,40.11277777777778],[-77.64361111111111,40.11388888888889],[-77.64361111111111,40.11388888888889],[-77.64361111111111,40.11388888888889],[-77.64361111111111,40.11388888888889],[-77.82805555555555,40.119166666666665],[-77.82805555555555,40.119166666666665],[-77.82805555555555,40.119166666666665],[-77.93222222222222,40.121944444444445],[-77.93222222222222,40.121944444444445],[-77.93222222222222,40.121944444444445],[-77.93222222222222,40.121944444444445],[-77.99166666666667,40.12361111111111],[-77.99166666666667,40.12361111111111],[-77.99166666666667,40.12361111111111],[-78.07444444444444,40.12555555555556],[-78.07444444444444,40.12555555555556],[-78.07444444444444,40.12555555555556],[-78.07444444444444,40.12555555555556],[-78.36416666666666,40.132777777777775],[-78.36416666666666,40.132777777777775],[-78.36416666666666,40.132777777777775],[-78.36416666666666,40.132777777777775],[-78.36416666666666,40.132777777777775],[-78.36416666666666,40.132777777777775],[-78.72055555555556,40.140277777777776],[-78.72055555555556,40.140277777777776],[-78.72055555555556,40.140277777777776],[-78.74472222222222,40.14083333333333],[-78.74472222222222,40.14083333333333],[-78.89527777777778,40.14388888888889],[-78.89527777777778,40.14388888888889],[-79.0213888888889,40.14611111111111],[-79.0213888888889,40.14611111111111],[-79.0213888888889,40.14611111111111],[-79.0213888888889,40.14611111111111],[-79.1725,40.14861111111111],[-79.1725,40.14861111111111],[-79.1725,40.14861111111111],[-79.34944444444444,40.15138888888889],[-79.34944444444444,40.15138888888889],[-79.34944444444444,40.15138888888889],[-79.50527777777778,40.15333333333333],[-79.50527777777778,40.15333333333333],[-79.50527777777778,40.15333333333333],[-79.50527777777778,40.15333333333333],[-79.6588888888889,40.155277777777776],[-79.6588888888889,40.155277777777776],[-79.94277777777778,40.15833333333333],[-79.94277777777778,40.15833333333333],[-79.94277777777778,40.15833333333333],[-79.94277777777778,40.15833333333333],[-79.94277777777778,40.15833333333333],[-80.38083333333333,40.16166666666666],[-80.38083333333333,40.16166666666666],[-80.38083333333333,40.16166666666666],[-80.38083333333333,40.16166666666666],[-80.53722222222223,40.1625],[-80.53722222222223,40.1625],[-80.53722222222223,40.1625],[-80.84583333333333,40.163333333333334],[-80.84583333333333,40.163333333333334],[-80.84583333333333,40.163333333333334],[-80.84583333333333,40.163333333333334],[-80.84583333333333,40.163333333333334],[-80.90777777777778,40.163333333333334],[-80.90777777777778,40.163333333333334],[-80.90777777777778,40.163333333333334],[-81.00305555555556,40.163333333333334],[-81.00305555555556,40.163333333333334],[-81.00305555555556,40.163333333333334],[-81.00305555555556,40.163333333333334],[-81.06305555555555,40.16361111111111],[-81.06305555555555,40.16361111111111],[-81.15861111111111,40.163333333333334],[-81.37888888888888,40.16305555555555],[-81.37888888888888,40.16305555555555],[-81.37888888888888,40.16305555555555],[-81.37888888888888,40.16305555555555],[-81.47194444444445,40.16277777777778],[-81.47194444444445,40.16277777777778],[-81.47194444444445,40.16277777777778],[-81.47194444444445,40.16277777777778],[-81.47194444444445,40.16277777777778],[-81.62833333333333,40.16222222222222],[-81.69333333333334,40.16166666666666],[-81.69333333333334,40.16166666666666],[-81.69333333333334,40.16166666666666],[-81.69333333333334,40.16166666666666],[-81.69333333333334,40.16166666666666],[-81.9525,40.16],[-81.9525,40.16],[-82.00833333333334,40.159444444444446],[-82.00833333333334,40.159444444444446],[-82.00833333333334,40.159444444444446],[-82.00833333333334,40.159444444444446],[-82.00833333333334,40.159444444444446],[-82.00833333333334,40.159444444444446],[-82.10666666666665,40.15861111111111],[-82.10666666666665,40.15861111111111],[-82.10666666666665,40.15861111111111],[-82.10666666666665,40.15861111111111],[-82.10666666666665,40.15861111111111],[-82.31777777777778,40.156388888888884],[-82.31777777777778,40.156388888888884],[-82.47055555555556,40.154444444444444],[-82.47055555555556,40.154444444444444],[-82.57111111111111,40.15333333333333],[-82.57111111111111,40.15333333333333],[-82.57111111111111,40.15333333333333],[-82.57111111111111,40.15333333333333],[-82.57111111111111,40.15333333333333],[-82.72666666666667,40.151111111111106],[-82.78222222222222,40.150277777777774],[-82.78222222222222,40.150277777777774],[-82.78222222222222,40.150277777777774],[-82.93722222222223,40.147777777777776],[-82.93722222222223,40.147777777777776],[-82.93722222222223,40.147777777777776],[-83.19444444444444,40.14333333333333],[-83.19444444444444,40.14333333333333],[-83.19444444444444,40.14333333333333],[-83.24861111111112,40.14222222222222],[-83.24861111111112,40.14222222222222],[-83.24861111111112,40.14222222222222],[-83.24861111111112,40.14222222222222],[-83.24861111111112,40.14222222222222],[-83.6211111111111,40.13444444444444],[-83.6211111111111,40.13444444444444],[-83.6211111111111,40.13444444444444],[-83.77666666666667,40.130833333333335],[-83.77666666666667,40.130833333333335],[-83.77666666666667,40.130833333333335],[-83.77666666666667,40.130833333333335],[-83.93083333333334,40.12722222222222],[-83.93083333333334,40.12722222222222],[-84.03333333333333,40.124722222222225],[-84.03333333333333,40.124722222222225],[-84.03333333333333,40.124722222222225],[-84.03333333333333,40.124722222222225],[-84.03333333333333,40.124722222222225],[-84.34416666666667,40.11611111111111],[-84.34416666666667,40.11611111111111],[-84.34416666666667,40.11611111111111],[-84.39750000000001,40.114444444444445],[-84.39750000000001,40.114444444444445],[-84.39750000000001,40.114444444444445],[-84.39750000000001,40.114444444444445],[-84.39750000000001,40.114444444444445],[-84.70305555555557,40.10527777777778],[-84.70305555555557,40.10527777777778],[-84.86055555555555,40.1],[-84.86055555555555,40.1],[-84.86055555555555,40.1],[-84.86055555555555,40.1],[-84.86055555555555,40.1],[-85.10805555555555,40.09583333333334],[-85.10805555555555,40.09583333333334],[-85.10805555555555,40.09583333333334],[-85.10805555555555,40.09583333333334],[-85.16833333333334,40.100833333333334],[-85.16833333333334,40.100833333333334],[-85.16833333333334,40.100833333333334],[-85.4375,40.121944444444445],[-85.46611111111112,40.12166666666667],[-85.46611111111112,40.12166666666667],[-85.46611111111112,40.12166666666667],[-85.46611111111112,40.12166666666667],[-85.46611111111112,40.12166666666667],[-85.46611111111112,40.12166666666667],[-85.9038888888889,40.156388888888884],[-85.9038888888889,40.156388888888884],[-85.9038888888889,40.156388888888884],[-85.94944444444445,40.15972222222222],[-85.94944444444445,40.15972222222222],[-85.94944444444445,40.15972222222222],[-85.94944444444445,40.15972222222222],[-85.94944444444445,40.15972222222222],[-86.2225,40.17916666666667],[-86.2225,40.17916666666667],[-86.2225,40.17916666666667],[-86.25583333333333,40.17944444444444],[-86.25583333333333,40.17944444444444],[-86.25583333333333,40.17944444444444],[-86.25583333333333,40.17944444444444],[-86.41388888888889,40.191111111111105],[-86.41388888888889,40.191111111111105],[-86.53583333333333,40.20027777777778],[-86.545,40.200833333333335],[-86.6975,40.211111111111116],[-86.6975,40.211111111111116],[-86.6975,40.211111111111116],[-86.73277777777778,40.212500000000006],[-86.73277777777778,40.212500000000006],[-86.73277777777778,40.212500000000006],[-86.73277777777778,40.212500000000006],[-86.89444444444445,40.22361111111111],[-86.89444444444445,40.22361111111111],[-86.89444444444445,40.22361111111111],[-86.89444444444445,40.22361111111111],[-86.89444444444445,40.22361111111111],[-87.05361111111111,40.23361111111111],[-87.05361111111111,40.23361111111111],[-87.05361111111111,40.23361111111111],[-87.21138888888889,40.243611111111115],[-87.21138888888889,40.243611111111115],[-87.21138888888889,40.243611111111115],[-87.21138888888889,40.243611111111115],[-87.21138888888889,40.243611111111115],[-87.21138888888889,40.243611111111115],[-87.33833333333332,40.25111111111111],[-87.33833333333332,40.25111111111111],[-87.47416666666666,40.259166666666665],[-87.47416666666666,40.259166666666665],[-87.47416666666666,40.259166666666665],[-87.62944444444443,40.268055555555556],[-87.62944444444443,40.268055555555556],[-87.62944444444443,40.268055555555556],[-87.62944444444443,40.268055555555556],[-87.62944444444443,40.268055555555556],[-87.78861111111111,40.276944444444446],[-87.78861111111111,40.276944444444446],[-87.87138888888889,40.281666666666666],[-87.87138888888889,40.281666666666666],[-87.87138888888889,40.281666666666666],[-87.94805555555556,40.28583333333333],[-87.94805555555556,40.28583333333333],[-87.94805555555556,40.28583333333333],[-88.10749999999999,40.294444444444444],[-88.10749999999999,40.294444444444444],[-88.10749999999999,40.294444444444444],[-88.18944444444445,40.29861111111111],[-88.18944444444445,40.29861111111111],[-88.18944444444445,40.29861111111111],[-88.34916666666666,40.30694444444444],[-88.34916666666666,40.30694444444444],[-88.34916666666666,40.30694444444444],[-88.34916666666666,40.30694444444444],[-88.50916666666667,40.315],[-88.50916666666667,40.315],[-88.66833333333334,40.32277777777778],[-88.66833333333334,40.32277777777778],[-88.66833333333334,40.32277777777778],[-88.66833333333334,40.32277777777778],[-88.9575,40.33638888888889],[-88.9575,40.33638888888889],[-88.9575,40.33638888888889],[-88.9575,40.33638888888889],[-88.9575,40.33638888888889],[-89.14805555555556,40.344722222222224],[-89.14805555555556,40.344722222222224],[-89.14805555555556,40.344722222222224],[-89.46833333333333,40.358333333333334],[-89.46833333333333,40.358333333333334],[-89.46833333333333,40.358333333333334],[-89.46833333333333,40.358333333333334],[-89.63111111111111,40.365],[-89.63111111111111,40.365],[-89.63111111111111,40.365],[-89.795,40.37138888888889],[-89.795,40.37138888888889],[-89.795,40.37138888888889],[-90.12472222222222,40.38361111111111],[-90.12472222222222,40.38361111111111],[-90.12472222222222,40.38361111111111],[-90.12472222222222,40.38361111111111],[-90.28972222222222,40.38916666666667],[-90.28972222222222,40.38916666666667],[-90.28972222222222,40.38916666666667],[-90.28972222222222,40.38916666666667],[-90.28972222222222,40.38916666666667],[-90.71583333333334,40.40277777777778],[-90.71583333333334,40.40277777777778],[-90.71583333333334,40.40277777777778],[-90.71583333333334,40.40277777777778],[-90.71583333333334,40.40277777777778],[-90.94444444444444,40.409444444444446],[-90.94444444444444,40.409444444444446],[-91.10638888888889,40.413888888888884],[-91.10638888888889,40.413888888888884],[-91.10638888888889,40.413888888888884],[-91.10638888888889,40.413888888888884],[-91.10638888888889,40.413888888888884],[-91.42277777777778,40.42222222222222],[-91.42277777777778,40.42222222222222],[-91.42277777777778,40.42222222222222],[-91.42277777777778,40.42222222222222],[-91.42277777777778,40.42222222222222],[-91.58583333333333,40.42583333333333],[-91.61555555555555,40.42611111111111],[-91.61555555555555,40.42611111111111],[-91.74555555555555,40.42944444444444],[-91.74555555555555,40.42944444444444],[-91.74555555555555,40.42944444444444],[-91.74555555555555,40.42944444444444],[-91.90583333333333,40.43277777777777],[-91.90583333333333,40.43277777777777],[-91.90583333333333,40.43277777777777],[-91.90583333333333,40.43277777777777],[-92.25916666666667,40.43944444444444],[-92.25916666666667,40.43944444444444],[-92.25916666666667,40.43944444444444],[-92.42333333333333,40.44194444444444],[-92.42333333333333,40.44194444444444],[-92.77305555555556,40.446666666666665],[-92.77305555555556,40.446666666666665],[-92.77305555555556,40.446666666666665],[-93.06472222222222,40.45],[-93.06472222222222,40.45],[-93.09666666666666,40.45027777777778],[-93.09666666666666,40.45027777777778],[-93.09666666666666,40.45027777777778],[-93.22555555555556,40.45166666666667],[-93.22555555555556,40.45166666666667],[-93.22555555555556,40.45166666666667],[-93.2575,40.45027777777778],[-93.2575,40.45027777777778],[-93.385,40.439722222222215],[-93.385,40.439722222222215],[-93.41611111111112,40.43694444444444],[-93.41611111111112,40.43694444444444],[-93.41611111111112,40.43694444444444],[-93.575,40.419444444444444],[-93.575,40.419444444444444],[-93.575,40.419444444444444],[-93.575,40.419444444444444],[-93.73305555555555,40.39805555555556],[-93.73305555555555,40.39805555555556],[-93.85749999999999,40.38],[-93.85749999999999,40.38],[-94.01333333333334,40.35777777777778],[-94.01333333333334,40.35777777777778],[-94.01333333333334,40.35777777777778],[-94.01333333333334,40.35777777777778],[-94.01333333333334,40.35777777777778],[-94.01333333333334,40.35777777777778],[-94.35499999999999,40.30222222222222],[-94.35499999999999,40.30222222222222],[-94.35499999999999,40.30222222222222],[-94.35499999999999,40.30222222222222],[-94.63527777777779,40.271388888888886],[-94.63527777777779,40.271388888888886],[-94.63527777777779,40.271388888888886],[-94.63527777777779,40.271388888888886],[-94.63527777777779,40.271388888888886],[-94.63527777777779,40.271388888888886],[-94.66694444444445,40.27194444444444],[-94.79277777777777,40.27222222222222],[-94.79277777777777,40.27222222222222],[-94.95027777777779,40.2725],[-94.95027777777779,40.2725],[-94.98472222222222,40.2725],[-94.98472222222222,40.2725],[-95.10638888888889,40.2725],[-95.10638888888889,40.2725],[-95.10638888888889,40.2725],[-95.14,40.2725],[-95.26555555555555,40.27222222222222],[-95.29694444444445,40.27222222222222],[-95.29694444444445,40.27222222222222],[-95.29694444444445,40.27222222222222],[-95.29694444444445,40.27222222222222],[-95.42111111111112,40.27222222222222],[-95.42111111111112,40.27222222222222],[-95.42111111111112,40.27222222222222],[-95.42111111111112,40.27222222222222],[-95.57666666666667,40.27111111111111],[-95.57666666666667,40.27111111111111],[-95.57666666666667,40.27111111111111],[-95.57666666666667,40.27111111111111],[-95.57666666666667,40.27111111111111],[-95.57666666666667,40.27111111111111],[-95.77277777777778,40.27027777777778],[-95.77277777777778,40.27027777777778],[-95.77277777777778,40.27027777777778],[-95.89583333333334,40.269444444444446],[-95.89583333333334,40.269444444444446],[-95.89583333333334,40.269444444444446],[-95.89583333333334,40.269444444444446],[-95.93277777777779,40.26916666666666],[-96.05388888888889,40.268055555555556],[-96.05388888888889,40.268055555555556],[-96.05388888888889,40.268055555555556],[-96.05388888888889,40.268055555555556],[-96.4175,40.264722222222225],[-96.4175,40.264722222222225],[-96.5775,40.26277777777778],[-96.5775,40.26277777777778],[-96.5775,40.26277777777778],[-96.5775,40.26277777777778],[-96.8963888888889,40.25805555555556],[-96.8963888888889,40.25805555555556],[-96.8963888888889,40.25805555555556],[-96.8963888888889,40.25805555555556],[-96.8963888888889,40.25805555555556],[-97.05277777777778,40.25555555555555],[-97.21027777777778,40.25277777777778],[-97.21027777777778,40.25277777777778],[-97.21027777777778,40.25277777777778],[-97.21027777777778,40.25277777777778],[-97.21027777777778,40.25277777777778],[-97.21027777777778,40.25277777777778],[-97.48694444444445,40.248333333333335],[-97.48694444444445,40.248333333333335],[-97.48694444444445,40.248333333333335],[-97.48694444444445,40.248333333333335],[-97.80555555555556,40.24027777777778],[-97.80555555555556,40.24027777777778],[-97.80555555555556,40.24027777777778],[-97.80555555555556,40.24027777777778],[-97.80555555555556,40.24027777777778],[-97.80555555555556,40.24027777777778],[-98.28333333333333,40.22805555555556],[-98.28333333333333,40.22805555555556],[-98.31583333333333,40.22694444444445],[-98.31583333333333,40.22694444444445],[-98.31583333333333,40.22694444444445],[-98.31583333333333,40.22694444444445],[-98.31583333333333,40.22694444444445],[-98.31583333333333,40.22694444444445],[-98.76361111111112,40.21388888888889],[-98.76361111111112,40.21388888888889],[-98.76361111111112,40.21388888888889],[-98.76361111111112,40.21388888888889],[-98.85777777777777,40.22694444444445],[-98.91722222222222,40.24027777777778],[-98.91722222222222,40.24027777777778],[-98.91722222222222,40.24027777777778],[-98.91722222222222,40.24027777777778],[-99.01444444444445,40.26277777777778],[-99.01444444444445,40.26277777777778],[-99.01444444444445,40.26277777777778],[-99.01444444444445,40.26277777777778],[-99.01444444444445,40.26277777777778],[-99.16833333333334,40.29805555555556],[-99.16833333333334,40.29805555555556],[-99.16833333333334,40.29805555555556],[-99.32416666666666,40.33444444444444],[-99.32416666666666,40.33444444444444],[-99.32416666666666,40.33444444444444],[-99.32416666666666,40.33444444444444],[-99.54388888888889,40.38722222222222],[-99.54388888888889,40.38722222222222],[-99.54388888888889,40.38722222222222],[-99.54388888888889,40.38722222222222],[-99.7025,40.42638888888889],[-99.7025,40.42638888888889],[-99.79666666666667,40.44972222222222],[-99.79666666666667,40.44972222222222],[-99.95555555555556,40.48916666666667],[-99.95555555555556,40.48916666666667],[-99.95555555555556,40.48916666666667],[-99.95555555555556,40.48916666666667],[-100.00277777777778,40.50055555555556],[-100.16305555555556,40.538888888888884],[-100.32138888888889,40.57611111111112],[-100.32138888888889,40.57611111111112],[-100.32138888888889,40.57611111111112],[-100.32138888888889,40.57611111111112],[-100.43083333333334,40.599722222222226],[-100.43083333333334,40.599722222222226],[-100.43083333333334,40.599722222222226],[-100.43083333333334,40.599722222222226],[-100.59694444444445,40.58861111111111],[-100.59694444444445,40.58861111111111],[-100.59694444444445,40.58861111111111],[-100.59694444444445,40.58861111111111],[-100.97916666666667,40.559444444444445],[-100.97916666666667,40.559444444444445],[-100.97916666666667,40.559444444444445],[-100.97916666666667,40.559444444444445],[-100.97916666666667,40.559444444444445],[-100.97916666666667,40.559444444444445],[-101.34027777777777,40.53138888888889],[-101.34027777777777,40.53138888888889],[-101.50166666666667,40.51861111111111],[-101.50166666666667,40.51861111111111],[-101.50166666666667,40.51861111111111],[-101.50166666666667,40.51861111111111],[-101.6613888888889,40.50555555555555],[-101.6613888888889,40.50555555555555],[-101.6613888888889,40.50555555555555],[-101.6613888888889,40.50555555555555],[-101.97944444444444,40.47916666666667],[-101.97944444444444,40.47916666666667],[-101.97944444444444,40.47916666666667],[-102.0761111111111,40.468611111111116],[-102.0761111111111,40.468611111111116],[-102.0761111111111,40.468611111111116],[-102.0761111111111,40.468611111111116],[-102.13694444444445,40.45916666666667],[-102.22416666666666,40.42972222222222],[-102.22416666666666,40.42972222222222],[-102.22416666666666,40.42972222222222],[-102.37222222222222,40.38333333333333],[-102.37222222222222,40.38333333333333],[-102.42888888888889,40.36694444444444],[-102.57249999999999,40.32055555555556],[-102.57249999999999,40.32055555555556],[-102.57249999999999,40.32055555555556],[-102.57249999999999,40.32055555555556],[-102.80527777777777,40.245],[-102.80527777777777,40.245],[-102.80527777777777,40.245],[-102.80527777777777,40.245],[-102.80527777777777,40.245],[-102.80527777777777,40.245],[-103.15333333333334,40.135555555555555],[-103.15333333333334,40.135555555555555],[-103.15333333333334,40.135555555555555],[-103.15333333333334,40.135555555555555],[-103.23805555555556,40.10805555555556],[-103.23805555555556,40.10805555555556],[-103.29722222222222,40.08972222222222],[-103.29722222222222,40.08972222222222],[-103.44722222222222,40.0625],[-103.5425,40.05027777777777],[-103.5425,40.05027777777777],[-103.5425,40.05027777777777],[-103.5425,40.05027777777777],[-103.5425,40.05027777777777],[-103.60388888888889,40.04555555555555],[-104.00333333333333,40.01166666666666],[-104.00333333333333,40.01166666666666],[-104.0611111111111,40.00833333333333],[-104.0611111111111,40.00833333333333],[-104.0611111111111,40.00833333333333],[-104.0611111111111,40.00833333333333],[-104.15722222222223,39.999722222222225],[-104.15722222222223,39.999722222222225],[-104.15722222222223,39.999722222222225],[-104.51666666666667,39.96888888888889],[-104.51666666666667,39.96888888888889],[-104.51666666666667,39.96888888888889],[-104.51666666666667,39.96888888888889],[-104.66555555555556,39.95583333333334],[-104.66555555555556,39.95583333333334],[-104.66555555555556,39.95583333333334],[-104.75944444444444,39.946666666666665],[-104.75944444444444,39.946666666666665],[-104.81611111111111,39.94222222222222],[-104.81611111111111,39.94222222222222],[-104.91222222222223,39.93333333333333],[-104.91222222222223,39.93333333333333],[-104.96666666666667,39.92833333333333],[-104.96666666666667,39.92833333333333],[-104.96666666666667,39.92833333333333],[-105.06666666666666,39.91888888888889],[-105.06666666666666,39.91888888888889],[-105.2675,39.900555555555556],[-105.2675,39.900555555555556],[-105.2675,39.900555555555556],[-105.36972222222222,39.89],[-105.36972222222222,39.89],[-105.51916666666666,39.876111111111115],[-105.56611111111111,39.87166666666667],[-105.56611111111111,39.87166666666667],[-105.56611111111111,39.87166666666667],[-105.56611111111111,39.87166666666667],[-105.56611111111111,39.87166666666667],[-105.66611111111112,39.86222222222222],[-105.71305555555556,39.85722222222223],[-105.71305555555556,39.85722222222223],[-105.71305555555556,39.85722222222223],[-105.8611111111111,39.8425],[-105.8611111111111,39.8425],[-105.8611111111111,39.8425],[-105.96138888888889,39.831388888888895],[-105.96138888888889,39.831388888888895],[-106.10694444444444,39.816944444444445],[-106.15416666666667,39.81305555555555],[-106.15416666666667,39.81305555555555],[-106.15416666666667,39.81305555555555],[-106.15416666666667,39.81305555555555],[-106.44583333333334,39.782777777777774],[-106.44583333333334,39.782777777777774],[-106.44583333333334,39.782777777777774],[-106.44583333333334,39.782777777777774],[-106.54638888888888,39.77222222222222],[-106.54638888888888,39.77222222222222],[-106.54638888888888,39.77222222222222],[-106.54638888888888,39.77222222222222],[-106.54638888888888,39.77222222222222],[-106.69722222222222,39.755],[-106.84694444444445,39.73888888888889],[-106.84694444444445,39.73888888888889],[-106.90777777777778,39.733333333333334],[-106.90777777777778,39.733333333333334],[-107.05194444444444,39.716944444444444],[-107.05194444444444,39.716944444444444],[-107.14027777777778,39.70638888888889],[-107.3475,39.68416666666666],[-107.3475,39.68416666666666],[-107.3475,39.68416666666666],[-107.3475,39.68416666666666],[-107.49583333333334,39.66722222222222],[-107.49583333333334,39.66722222222222],[-107.49583333333334,39.66722222222222],[-107.58555555555554,39.65611111111111],[-107.58555555555554,39.65611111111111],[-107.58555555555554,39.65611111111111],[-107.58555555555554,39.65611111111111],[-107.58555555555554,39.65611111111111],[-107.78111111111112,39.63388888888889],[-107.8875,39.62166666666667],[-107.8875,39.62166666666667],[-107.8875,39.62166666666667],[-107.92833333333334,39.61694444444444],[-107.92833333333334,39.61694444444444],[-107.92833333333334,39.61694444444444],[-107.92833333333334,39.61694444444444],[-108.46416666666667,39.551944444444445],[-108.46416666666667,39.551944444444445],[-108.46416666666667,39.551944444444445],[-108.46416666666667,39.551944444444445],[-108.66833333333334,39.526666666666664],[-108.75722222222223,39.51555555555556],[-108.75722222222223,39.51555555555556],[-108.90138888888889,39.496944444444445],[-108.95777777777778,39.48972222222222],[-108.95777777777778,39.48972222222222],[-109.04444444444444,39.47888888888889],[-109.09944444444444,39.471944444444446],[-109.09944444444444,39.471944444444446],[-109.09944444444444,39.471944444444446],[-109.185,39.46083333333333],[-109.185,39.46083333333333],[-109.2425,39.45305555555556],[-109.32833333333333,39.44166666666666],[-109.32833333333333,39.44166666666666],[-109.32833333333333,39.44166666666666],[-109.38527777777779,39.43444444444444],[-109.38527777777779,39.43444444444444],[-109.67194444444445,39.396388888888886],[-109.67194444444445,39.396388888888886],[-109.67194444444445,39.396388888888886],[-109.67194444444445,39.396388888888886],[-109.67194444444445,39.396388888888886],[-109.81777777777778,39.37638888888889],[-109.81777777777778,39.37638888888889],[-109.81777777777778,39.37638888888889],[-109.81777777777778,39.37638888888889],[-109.96305555555556,39.356944444444444],[-110.1061111111111,39.33722222222222],[-110.1061111111111,39.33722222222222],[-110.1061111111111,39.33722222222222],[-110.24777777777778,39.3175],[-110.24777777777778,39.3175],[-110.24777777777778,39.3175],[-110.33333333333333,39.305277777777775],[-110.33333333333333,39.305277777777775],[-110.33333333333333,39.305277777777775],[-110.33333333333333,39.305277777777775],[-110.33333333333333,39.305277777777775],[-110.61555555555555,39.265277777777776],[-110.75944444444444,39.24472222222222],[-110.75944444444444,39.24472222222222],[-110.75944444444444,39.24472222222222],[-110.75944444444444,39.24472222222222],[-110.75944444444444,39.24472222222222],[-110.75944444444444,39.24472222222222],[-111.60666666666665,39.119166666666665],[-111.60666666666665,39.119166666666665],[-111.60666666666665,39.119166666666665],[-111.60666666666665,39.119166666666665],[-111.60666666666665,39.119166666666665],[-111.60666666666665,39.119166666666665],[-112.02666666666667,39.05416666666667],[-112.02666666666667,39.05416666666667],[-112.02666666666667,39.05416666666667],[-112.02666666666667,39.05416666666667],[-112.30555555555556,39.010555555555555],[-112.30555555555556,39.010555555555555],[-112.30555555555556,39.010555555555555],[-112.44416666666667,38.98861111111111],[-112.44416666666667,38.98861111111111],[-112.44416666666667,38.98861111111111],[-112.44416666666667,38.98861111111111],[-112.44416666666667,38.98861111111111],[-112.58555555555554,38.96555555555556],[-112.58555555555554,38.96555555555556],[-112.58555555555554,38.96555555555556],[-112.86916666666666,38.91972222222222],[-113.14944444444446,38.873333333333335],[-113.14944444444446,38.873333333333335],[-113.14944444444446,38.873333333333335],[-113.14944444444446,38.873333333333335],[-113.14944444444446,38.873333333333335],[-113.56666666666666,38.80305555555555],[-113.56666666666666,38.80305555555555],[-113.56666666666666,38.80305555555555],[-113.56666666666666,38.80305555555555],[-113.56666666666666,38.80305555555555],[-113.70555555555556,38.779444444444444],[-113.70555555555556,38.779444444444444],[-113.70555555555556,38.779444444444444],[-113.70555555555556,38.779444444444444],[-114.12583333333333,38.70638888888889],[-114.12583333333333,38.70638888888889],[-114.12583333333333,38.70638888888889],[-114.12583333333333,38.70638888888889],[-114.40694444444445,38.656666666666666],[-114.40694444444445,38.656666666666666],[-114.40694444444445,38.656666666666666],[-114.40694444444445,38.656666666666666],[-114.69,38.60583333333334],[-114.8325,38.58027777777778],[-114.8325,38.58027777777778],[-114.8325,38.58027777777778],[-114.8325,38.58027777777778],[-114.8325,38.58027777777778],[-114.8325,38.58027777777778],[-115.26194444444444,38.50083333333333],[-115.26194444444444,38.50083333333333],[-115.26194444444444,38.50083333333333],[-115.26194444444444,38.50083333333333],[-115.26194444444444,38.50083333333333],[-115.26194444444444,38.50083333333333],[-115.70361111111112,38.4175],[-115.70361111111112,38.4175],[-115.70361111111112,38.4175],[-115.70361111111112,38.4175],[-115.70361111111112,38.4175],[-116,38.36055555555556],[-116,38.36055555555556],[-116.08944444444444,38.343333333333334],[-116.08944444444444,38.343333333333334],[-116.14666666666668,38.33222222222223],[-116.14666666666668,38.33222222222223],[-116.29444444444444,38.30333333333333],[-116.29444444444444,38.30333333333333],[-116.38555555555556,38.285555555555554],[-116.38555555555556,38.285555555555554],[-116.38555555555556,38.285555555555554],[-116.38555555555556,38.285555555555554],[-116.5925,38.24444444444445],[-116.5925,38.24444444444445],[-116.5925,38.24444444444445],[-116.74083333333333,38.21472222222223],[-116.74083333333333,38.21472222222223],[-116.74083333333333,38.21472222222223],[-116.83,38.196666666666665],[-116.83,38.196666666666665],[-116.83,38.196666666666665],[-117.03527777777778,38.156388888888884],[-117.03527777777778,38.156388888888884],[-117.03527777777778,38.156388888888884],[-117.14472222222223,38.14361111111111],[-117.14472222222223,38.14361111111111],[-117.14472222222223,38.14361111111111],[-117.14472222222223,38.14361111111111],[-117.29444444444444,38.12555555555556],[-117.29444444444444,38.12555555555556],[-117.29444444444444,38.12555555555556],[-117.29444444444444,38.12555555555556],[-117.49888888888889,38.1],[-117.59138888888889,38.08833333333334],[-117.59138888888889,38.08833333333334],[-117.59138888888889,38.08833333333334],[-117.59138888888889,38.08833333333334],[-117.64861111111112,38.08111111111111],[-117.64861111111112,38.08111111111111],[-117.74,38.06944444444445],[-117.74,38.06944444444445],[-117.74,38.06944444444445],[-117.74,38.06944444444445],[-117.94916666666667,38.04277777777778],[-117.94916666666667,38.04277777777778],[-118.09833333333333,38.02361111111111],[-118.09833333333333,38.02361111111111],[-118.24805555555555,38.00388888888889],[-118.24805555555555,38.00388888888889],[-118.24805555555555,38.00388888888889],[-118.34055555555555,37.99166666666667],[-118.34055555555555,37.99166666666667],[-118.34055555555555,37.99166666666667],[-118.39805555555556,37.98388888888889],[-118.39805555555556,37.98388888888889],[-118.63555555555556,37.9525],[-118.63555555555556,37.9525],[-118.63555555555556,37.9525],[-118.63555555555556,37.9525],[-118.78388888888888,37.93194444444444],[-118.78388888888888,37.93194444444444],[-118.78388888888888,37.93194444444444],[-118.78388888888888,37.93194444444444],[-119.23166666666667,37.87],[-119.23166666666667,37.87],[-119.23166666666667,37.87],[-119.23166666666667,37.87],[-119.23166666666667,37.87],[-119.52777777777777,37.82833333333333],[-119.52777777777777,37.82833333333333],[-119.52777777777777,37.82833333333333],[-119.52777777777777,37.82833333333333],[-119.52777777777777,37.82833333333333],[-120.00333333333333,37.759166666666665],[-120.00333333333333,37.759166666666665],[-120.00333333333333,37.759166666666665],[-120.14888888888889,37.737500000000004],[-120.14888888888889,37.737500000000004],[-120.14888888888889,37.737500000000004],[-120.14888888888889,37.737500000000004],[-120.14888888888889,37.737500000000004],[-120.56666666666666,37.68333333333333],[-120.56666666666666,37.68333333333333],[-120.56666666666666,37.68333333333333],[-120.7,37.666666666666664],[-120.7213888888889,37.66222222222222],[-120.7213888888889,37.66222222222222],[-120.95,37.63333333333333],[-120.95,37.63333333333333],[-120.98055555555555,37.630833333333335],[-121.10694444444444,37.61361111111111],[-121.10694444444444,37.61361111111111],[-121.22111111111111,37.598333333333336],[-121.34083333333332,37.58361111111111],[-121.34083333333332,37.58361111111111],[-121.34083333333332,37.58361111111111],[-121.45666666666666,37.57055555555556],[-121.45666666666666,37.57055555555556],[-121.67222222222223,37.53944444444444],[-121.67222222222223,37.53944444444444],[-121.76305555555555,37.51777777777777],[-121.76305555555555,37.51777777777777],[-121.85,37.5],[-121.85,37.5],[-121.83305555555555,37.50111111111111],[-122.08333333333333,37.5],[-122.08333333333333,37.5],[-122.08333333333333,37.5],[-122.08333333333333,37.5],[-122.0961111111111,37.50888888888889],[-122.33083333333333,37.60027777777778],[-122.33083333333333,37.60027777777778],[-122.33083333333333,37.60027777777778],[-122.33083333333333,37.60027777777778],[-122.33083333333333,37.60027777777778]],"type":"LineString"}
}
