{
  "id": 2031528647,
  "type": "Feature",
  "properties": {
    "geom:area": 0,
    "geom:bbox": "-122.357360,37.492440,-121.245070,38.516950",
    "geom:latitude": 37.77403468482742,
    "geom:longitude": -121.5604050849957,
    "src:alt_label": "swim-approach",
    "src:geom": "swim",
    "swim:elevations": [
      3003,
      3271,
      3419,
      3518,
      3557,
      3725,
      4249,
      4475,
      4538,
      3801,
      3619,
      3561,
      3353,
      3353,
      3353,
      3353,
      3353,
      3333,
      3115,
      3044,
      2869,
      2459,
      2299,
      2155,
      2037,
      1980,
      1870,
      1587,
      1547,
      1391,
      1112,
      1020,
      850,
      708,
      483,
      470,
      356,
      210,
      173,
      119,
      0
    ],
    "swim:geom": "approach",
    "swim:timestamps": [
      1781417757,
      1781417772,
      1781417787,
      1781417805,
      1781417815,
      1781417831,
      1781417870,
      1781417888,
      1781417936,
      1781418568,
      1781418593,
      1781418600,
      1781418654,
      1781418668,
      1781418696,
      1781418714,
      1781418720,
      1781418756,
      1781418778,
      1781418787,
      1781418812,
      1781418861,
      1781418882,
      1781418909,
      1781418942,
      1781418952,
      1781418971,
      1781419015,
      1781419022,
      1781419053,
      1781419102,
      1781419115,
      1781419150,
      1781419176,
      1781419225,
      1781419228,
      1781419255,
      1781419286,
      1781419301,
      1781419310,
      1781419337
    ],
    "wof:geomhash": "9093161f961a7ad6ffc503be1290d991",
    "wof:id": 2031528647,
    "wof:repo": "sfomuseum-data-flights-2026-06"
  },
  "bbox": [
    -122.35736,
    37.49244,
    -121.24507,
    38.51695
  ],
  "geometry": {"coordinates":[[-121.37938,38.51695],[-121.36629,38.50006],[-121.35526,38.48191],[-121.34294,38.45747],[-121.33556,38.4422],[-121.32439,38.41875],[-121.29567,38.35702],[-121.28208,38.32806],[-121.24507,38.24902],[-121.26915,37.53873],[-121.31333,37.54026],[-121.32624,37.54073],[-121.42201,37.54408],[-121.446,37.54484],[-121.49363,37.54653],[-121.52494,37.54753],[-121.53541,37.5479],[-121.59897,37.54997],[-121.63701,37.5475],[-121.65213,37.54431],[-121.69213,37.53464],[-121.77357,37.51527],[-121.80789,37.50701],[-121.85191,37.49648],[-121.90569,37.49244],[-121.92128,37.49349],[-121.95248,37.49529],[-122.02513,37.4994],[-122.03679,37.50007],[-122.08574,37.50309],[-122.14931,37.52604],[-122.16289,37.53182],[-122.19963,37.5473],[-122.22439,37.55777],[-122.27028,37.57702],[-122.27277,37.57807],[-122.29465,37.58727],[-122.31882,37.5975],[-122.33061,37.60246],[-122.33733,37.60532],[-122.35736,37.61377]],"type":"LineString"}
}
