{
  "id": 2031497677,
  "type": "Feature",
  "properties": {
    "geom:area": 0,
    "geom:bbox": "-122.283333,32.778056,-97.050000,37.687778",
    "geom:latitude": 35.47637241863471,
    "geom:longitude": -109.64274748348444,
    "src:alt_label": "swim-path",
    "src:geom": "swim",
    "swim:altitudes": [
      "011",
      "030",
      "086",
      "086",
      "086",
      "110",
      "137",
      "137",
      "166",
      "192",
      "192",
      "217",
      "217",
      "229",
      "229",
      "240",
      "249",
      "249",
      "249",
      "277",
      "277",
      "277",
      "296",
      "296",
      "296",
      "320C",
      "320C",
      "320C",
      "320C",
      "320C",
      "320C",
      "320C",
      "320C",
      "320C",
      "320C",
      "320C",
      "320C",
      "320C",
      "320C",
      "320C",
      "320C",
      "320C",
      "321C",
      "321C",
      "320C",
      "320C",
      "320C",
      "320C",
      "320C",
      "320C",
      "320C",
      "320C",
      "320C",
      "320C",
      "320C",
      "320C",
      "320C",
      "320C",
      "320C",
      "320C",
      "320C",
      "320C",
      "320C",
      "320C",
      "320C",
      "320C",
      "320C",
      "320C",
      "320C",
      "320C",
      "320C",
      "320C",
      "320C",
      "320C",
      "320C",
      "320C",
      "320C",
      "320C",
      "320C",
      "320C",
      "320C",
      "320C",
      "320C",
      "320C",
      "320C",
      "320C",
      "320C",
      "320C",
      "320C",
      "320C",
      "320C",
      "320C",
      "320C",
      "320C",
      "320C",
      "320C",
      "320C",
      "320C",
      "320C",
      "320C",
      "320C",
      "320C",
      "320C",
      "320C",
      "320C",
      "320C",
      "320C",
      "320C",
      "320C",
      "320C",
      "320C",
      "320C",
      "320C",
      "321C",
      "320C",
      "320C",
      "320C",
      "320C",
      "320C",
      "320C",
      "320C",
      "320C",
      "320C",
      "320C",
      "320C",
      "320C",
      "320C",
      "320C",
      "320C",
      "320C",
      "320C",
      "320C",
      "320C",
      "320C",
      "320C",
      "320C",
      "320C",
      "320C",
      "320C",
      "320",
      "320",
      "320",
      "338C",
      "338C",
      "338C",
      "340C",
      "340C",
      "340C",
      "340C",
      "340C",
      "340C",
      "340C",
      "340C",
      "340C",
      "340C",
      "340C",
      "340C",
      "340C",
      "340C",
      "340C",
      "340C",
      "340C",
      "340",
      "340",
      "294",
      "263",
      "263",
      "239",
      "221",
      "158",
      "120",
      "081",
      "077",
      "070",
      "055",
      "042",
      "032",
      "025",
      "025",
      "013"
    ],
    "swim:geom": "path",
    "swim:speeds": [
      168,
      198,
      278,
      278,
      278,
      328,
      374,
      374,
      383,
      402,
      402,
      409,
      409,
      411,
      411,
      414,
      418,
      418,
      418,
      439,
      439,
      439,
      443,
      443,
      443,
      409,
      409,
      407,
      407,
      405,
      405,
      408,
      408,
      408,
      410,
      410,
      410,
      410,
      409,
      407,
      407,
      407,
      418,
      418,
      412,
      412,
      412,
      409,
      409,
      409,
      414,
      414,
      414,
      414,
      414,
      415,
      415,
      423,
      423,
      424,
      424,
      424,
      423,
      423,
      421,
      421,
      421,
      418,
      418,
      418,
      418,
      418,
      420,
      420,
      421,
      421,
      421,
      421,
      421,
      423,
      423,
      421,
      420,
      419,
      419,
      419,
      421,
      421,
      422,
      422,
      420,
      420,
      422,
      422,
      422,
      422,
      422,
      421,
      420,
      420,
      420,
      421,
      421,
      421,
      421,
      421,
      421,
      421,
      421,
      422,
      422,
      425,
      425,
      425,
      423,
      420,
      421,
      421,
      426,
      426,
      426,
      426,
      428,
      428,
      427,
      427,
      425,
      425,
      423,
      423,
      421,
      421,
      421,
      420,
      419,
      420,
      420,
      422,
      422,
      419,
      419,
      419,
      422,
      422,
      422,
      418,
      417,
      417,
      417,
      416,
      415,
      423,
      423,
      423,
      425,
      425,
      425,
      426,
      426,
      426,
      426,
      426,
      426,
      426,
      429,
      416,
      416,
      406,
      386,
      364,
      344,
      248,
      244,
      246,
      204,
      191,
      183,
      182,
      182,
      153
    ],
    "swim:timestamps": [
      1781141455,
      1781141530,
      1781141711,
      1781141711,
      1781141711,
      1781141831,
      1781141951,
      1781141951,
      1781142071,
      1781142191,
      1781142191,
      1781142312,
      1781142312,
      1781142372,
      1781142372,
      1781142432,
      1781142492,
      1781142492,
      1781142492,
      1781142732,
      1781142732,
      1781142732,
      1781142852,
      1781142852,
      1781142852,
      1781143033,
      1781143033,
      1781143148,
      1781143148,
      1781143208,
      1781143208,
      1781143453,
      1781143453,
      1781143453,
      1781143573,
      1781143573,
      1781143573,
      1781143633,
      1781143693,
      1781143814,
      1781143814,
      1781143814,
      1781143994,
      1781143994,
      1781144054,
      1781144054,
      1781144054,
      1781144234,
      1781144234,
      1781144234,
      1781144475,
      1781144475,
      1781144475,
      1781144535,
      1781144587,
      1781144655,
      1781144655,
      1781144895,
      1781144895,
      1781144955,
      1781144955,
      1781145015,
      1781145075,
      1781145075,
      1781145188,
      1781145188,
      1781145188,
      1781145308,
      1781145308,
      1781145429,
      1781145429,
      1781145429,
      1781145609,
      1781145609,
      1781145669,
      1781145669,
      1781145789,
      1781145789,
      1781145789,
      1781146029,
      1781146029,
      1781146090,
      1781146150,
      1781146330,
      1781146330,
      1781146390,
      1781146450,
      1781146450,
      1781146570,
      1781146570,
      1781146691,
      1781146691,
      1781146931,
      1781146931,
      1781146931,
      1781146991,
      1781146991,
      1781147051,
      1781147111,
      1781147111,
      1781147111,
      1781147261,
      1781147261,
      1781147412,
      1781147412,
      1781147442,
      1781147562,
      1781147562,
      1781147562,
      1781147682,
      1781147682,
      1781147802,
      1781147832,
      1781147862,
      1781147952,
      1781148073,
      1781148103,
      1781148133,
      1781148283,
      1781148313,
      1781148313,
      1781148313,
      1781148403,
      1781148403,
      1781148554,
      1781148554,
      1781148643,
      1781148643,
      1781148704,
      1781148704,
      1781148944,
      1781148944,
      1781148944,
      1781149004,
      1781149064,
      1781149184,
      1781149184,
      1781149304,
      1781149304,
      1781149545,
      1781149545,
      1781149545,
      1781149845,
      1781149845,
      1781149845,
      1781149965,
      1781150326,
      1781150326,
      1781150326,
      1781150446,
      1781150563,
      1781150743,
      1781150743,
      1781150743,
      1781150867,
      1781150867,
      1781150923,
      1781151163,
      1781151163,
      1781151344,
      1781151344,
      1781151344,
      1781151704,
      1781151704,
      1781151884,
      1781151965,
      1781151965,
      1781152025,
      1781152085,
      1781152265,
      1781152385,
      1781152605,
      1781152625,
      1781152665,
      1781152785,
      1781152845,
      1781152905,
      1781152965,
      1781152965,
      1781153045
    ],
    "wof:geomhash": "dd8bf707e0a2d320eacb4fd07ea301f4",
    "wof:id": 2031497677,
    "wof:repo": "sfomuseum-data-flights-2026-06"
  },
  "bbox": [
    -122.28333333333333,
    32.778055555555554,
    -97.05,
    37.687777777777775
  ],
  "geometry": {"coordinates":[[-97.05,32.88333333333333],[-97.0611111111111,32.830000000000005],[-97.26722222222222,32.778055555555554],[-97.26722222222222,32.778055555555554],[-97.26722222222222,32.778055555555554],[-97.45944444444444,32.824444444444445],[-97.68777777777778,32.87861111111111],[-97.68777777777778,32.87861111111111],[-97.92333333333333,32.95166666666667],[-98.16833333333334,33.031666666666666],[-98.16833333333334,33.031666666666666],[-98.42222222222223,33.114444444444445],[-98.42222222222223,33.114444444444445],[-98.55583333333333,33.157777777777774],[-98.55583333333333,33.157777777777774],[-98.68611111111112,33.19972222222222],[-98.81527777777778,33.24111111111111],[-98.81527777777778,33.24111111111111],[-98.81527777777778,33.24111111111111],[-99.35638888888889,33.41277777777778],[-99.35638888888889,33.41277777777778],[-99.35638888888889,33.41277777777778],[-99.63527777777779,33.49611111111111],[-99.63527777777779,33.49611111111111],[-99.63527777777779,33.49611111111111],[-100.02027777777778,33.6025],[-100.02027777777778,33.6025],[-100.2461111111111,33.66361111111111],[-100.2461111111111,33.66361111111111],[-100.37694444444443,33.69499999999999],[-100.37694444444443,33.69499999999999],[-100.92666666666668,33.825],[-100.92666666666668,33.825],[-100.92666666666668,33.825],[-101.18805555555556,33.88583333333333],[-101.18805555555556,33.88583333333333],[-101.18805555555556,33.88583333333333],[-101.32027777777778,33.91611111111111],[-101.45138888888889,33.94638888888888],[-101.72583333333334,34.009166666666665],[-101.72583333333334,34.009166666666665],[-101.72583333333334,34.009166666666665],[-102.11944444444444,34.097500000000004],[-102.11944444444444,34.097500000000004],[-102.25222222222222,34.12722222222222],[-102.25222222222222,34.12722222222222],[-102.25222222222222,34.12722222222222],[-102.64833333333334,34.214444444444446],[-102.64833333333334,34.214444444444446],[-102.64833333333334,34.214444444444446],[-103.18111111111112,34.35166666666667],[-103.18111111111112,34.35166666666667],[-103.18111111111112,34.35166666666667],[-103.31166666666667,34.3875],[-103.41916666666667,34.41694444444444],[-103.5786111111111,34.46027777777778],[-103.5786111111111,34.46027777777778],[-104.11944444444444,34.605555555555554],[-104.11944444444444,34.605555555555554],[-104.25694444444444,34.64194444444444],[-104.25694444444444,34.64194444444444],[-104.39222222222223,34.67777777777778],[-104.52888888888889,34.71361111111111],[-104.52888888888889,34.71361111111111],[-104.7761111111111,34.778055555555554],[-104.7761111111111,34.778055555555554],[-104.7761111111111,34.778055555555554],[-105.04527777777777,34.847500000000004],[-105.04527777777777,34.847500000000004],[-105.31722222222221,34.91694444444444],[-105.31722222222221,34.91694444444444],[-105.31722222222221,34.91694444444444],[-105.73388888888888,35.02194444444444],[-105.73388888888888,35.02194444444444],[-105.87138888888889,35.05611111111111],[-105.87138888888889,35.05611111111111],[-106.14750000000001,35.10027777777778],[-106.14750000000001,35.10027777777778],[-106.14750000000001,35.10027777777778],[-106.72333333333333,35.17472222222222],[-106.72333333333333,35.17472222222222],[-106.86277777777777,35.19222222222222],[-107.005,35.21],[-107.40166666666667,35.25861111111111],[-107.40166666666667,35.25861111111111],[-107.54416666666667,35.27583333333333],[-107.68777777777778,35.29277777777778],[-107.68777777777778,35.29277777777778],[-107.9713888888889,35.32611111111112],[-107.9713888888889,35.32611111111112],[-108.25333333333333,35.35861111111111],[-108.25333333333333,35.35861111111111],[-108.82388888888889,35.42222222222222],[-108.82388888888889,35.42222222222222],[-108.82388888888889,35.42222222222222],[-108.96722222222222,35.437777777777775],[-108.96722222222222,35.437777777777775],[-109.11,35.45305555555556],[-109.25166666666667,35.46805555555556],[-109.25166666666667,35.46805555555556],[-109.25166666666667,35.46805555555556],[-109.6036111111111,35.50888888888889],[-109.6036111111111,35.50888888888889],[-109.96444444444445,35.54111111111111],[-109.96444444444445,35.54111111111111],[-110.02916666666667,35.54805555555556],[-110.31388888888888,35.574444444444445],[-110.31388888888888,35.574444444444445],[-110.31388888888888,35.574444444444445],[-110.59444444444443,35.60166666666667],[-110.59444444444443,35.60166666666667],[-110.91583333333334,35.63138888888889],[-110.96694444444445,35.63611111111111],[-111.05749999999999,35.64416666666666],[-111.25361111111111,35.66166666666666],[-111.5425,35.68666666666666],[-111.62888888888888,35.693888888888885],[-111.68583333333333,35.698611111111106],[-112.06222222222222,35.730000000000004],[-112.11861111111111,35.73555555555556],[-112.11861111111111,35.73555555555556],[-112.11861111111111,35.73555555555556],[-112.34944444444444,35.77444444444444],[-112.34944444444444,35.77444444444444],[-112.68861111111111,35.831388888888895],[-112.68861111111111,35.831388888888895],[-112.91666666666667,35.869166666666665],[-112.91666666666667,35.869166666666665],[-113.05777777777777,35.89222222222222],[-113.05777777777777,35.89222222222222],[-113.62416666666665,35.98305555555556],[-113.62416666666665,35.98305555555556],[-113.62416666666665,35.98305555555556],[-113.76472222222222,36.00527777777778],[-113.90416666666667,36.026944444444446],[-114.1875,36.07055555555556],[-114.1875,36.07055555555556],[-114.47055555555556,36.118611111111115],[-114.47055555555556,36.118611111111115],[-115.03277777777778,36.217222222222226],[-115.03277777777778,36.217222222222226],[-115.03277777777778,36.217222222222226],[-115.72222222222223,36.35277777777778],[-115.72222222222223,36.35277777777778],[-115.72222222222223,36.35277777777778],[-115.98333333333333,36.46805555555556],[-116.74,36.805277777777775],[-116.74,36.805277777777775],[-116.74,36.805277777777775],[-116.94055555555556,36.972500000000004],[-117.13555555555556,37.144999999999996],[-117.54555555555555,37.25611111111111],[-117.54555555555555,37.25611111111111],[-117.54555555555555,37.25611111111111],[-117.83833333333332,37.305],[-117.83833333333332,37.305],[-117.98333333333333,37.32888888888889],[-118.54083333333332,37.41888888888889],[-118.54083333333332,37.41888888888889],[-118.99888888888889,37.49027777777778],[-118.99888888888889,37.49027777777778],[-118.99888888888889,37.49027777777778],[-119.88388888888889,37.62388888888889],[-119.88388888888889,37.62388888888889],[-120.32444444444444,37.687777777777775],[-120.51666666666667,37.68333333333333],[-120.51666666666667,37.68333333333333],[-120.66666666666667,37.666666666666664],[-120.8,37.65],[-121.18333333333334,37.6],[-121.43333333333334,37.56666666666667],[-121.7875,37.51166666666666],[-121.81666666666666,37.5],[-121.86888888888888,37.492222222222225],[-122.02722222222222,37.49944444444444],[-122.09444444444443,37.50361111111111],[-122.15111111111112,37.52638888888889],[-122.20694444444445,37.55027777777777],[-122.20694444444445,37.55027777777777],[-122.28333333333333,37.583333333333336]],"type":"LineString"}
}
