{
  "id": 2031647313,
  "type": "Feature",
  "properties": {
    "geom:area": 0,
    "geom:bbox": "-123.500080,36.907440,-122.088220,37.613760",
    "geom:latitude": 37.25430029731242,
    "geom:longitude": -122.80532701671078,
    "src:alt_label": "swim-approach",
    "src:geom": "swim",
    "swim:elevations": [
      53,
      5608,
      5270,
      4907,
      4876,
      4327,
      4234,
      3739,
      3392,
      3380,
      3264,
      3202,
      3140,
      3048,
      3048,
      3048,
      3048,
      3049,
      3002,
      2743,
      2671,
      2623,
      2561,
      2562,
      2530,
      2516,
      2435,
      2402,
      2131,
      2031,
      1869,
      1816,
      1768,
      1547,
      1523,
      1409,
      1340,
      1186,
      965,
      792,
      606
    ],
    "swim:geom": "approach",
    "swim:timestamps": [
      1782457207,
      1782542538,
      1782542572,
      1782542607,
      1782542611,
      1782542662,
      1782542671,
      1782542716,
      1782542757,
      1782542761,
      1782542786,
      1782542813,
      1782542837,
      1782542875,
      1782542890,
      1782542911,
      1782542940,
      1782542965,
      1782542982,
      1782543021,
      1782543051,
      1782543076,
      1782543115,
      1782543124,
      1782543145,
      1782543159,
      1782543207,
      1782543219,
      1782543262,
      1782543277,
      1782543313,
      1782543325,
      1782543337,
      1782543378,
      1782543416,
      1782543444,
      1782543454,
      1782543495,
      1782543531,
      1782543561,
      1782543597
    ],
    "wof:geomhash": "af0fb806d32c0f20e1561fe71e78e809",
    "wof:id": 2031647313,
    "wof:repo": "sfomuseum-data-flights-2026-06"
  },
  "bbox": [
    -123.50008,
    36.90744,
    -122.08822,
    37.61376
  ],
  "geometry": {"coordinates":[[-122.35815,37.61376],[-123.50008,36.90744],[-123.43024,36.9453],[-123.35761,36.98632],[-123.35104,36.99047],[-123.2478,37.0467],[-123.22988,37.05664],[-123.13878,37.10658],[-123.05883,37.15053],[-123.05158,37.15454],[-123.00508,37.18002],[-122.95677,37.20633],[-122.91438,37.22961],[-122.84233,37.2624],[-122.81091,37.26976],[-122.7669,37.28012],[-122.70719,37.29416],[-122.65802,37.30555],[-122.6264,37.31293],[-122.55817,37.32877],[-122.50673,37.34074],[-122.4659,37.34969],[-122.40428,37.33897],[-122.3904,37.33444],[-122.35846,37.32367],[-122.33862,37.31698],[-122.26523,37.30763],[-122.24694,37.30856],[-122.19161,37.32828],[-122.17546,37.33965],[-122.13814,37.36697],[-122.12768,37.37692],[-122.11764,37.38717],[-122.08822,37.42489],[-122.08953,37.46137],[-122.10323,37.48635],[-122.10823,37.49526],[-122.14148,37.52337],[-122.18016,37.539],[-122.2118,37.55233],[-122.2455,37.56659]],"type":"LineString"}
}
