{
  "id": 2031619615,
  "type": "Feature",
  "properties": {
    "geom:area": 0,
    "geom:bbox": "-122.348770,36.722000,-121.893140,37.607580",
    "geom:latitude": 37.209374294349224,
    "geom:longitude": -122.0682648417271,
    "src:alt_label": "swim-approach",
    "src:geom": "swim",
    "swim:elevations": [
      4600,
      4390,
      4279,
      4103,
      3924,
      3869,
      3657,
      3364,
      3221,
      3036,
      2926,
      2633,
      2370,
      2143,
      1873,
      1587,
      1411,
      1220,
      1147,
      1033,
      929,
      864,
      792,
      699,
      632,
      569,
      460,
      337,
      205,
      130,
      63
    ],
    "swim:geom": "approach",
    "swim:timestamps": [
      1782245851,
      1782245908,
      1782245929,
      1782245963,
      1782245997,
      1782246007,
      1782246038,
      1782246087,
      1782246109,
      1782246139,
      1782246156,
      1782246202,
      1782246236,
      1782246261,
      1782246288,
      1782246323,
      1782246349,
      1782246389,
      1782246417,
      1782246444,
      1782246466,
      1782246501,
      1782246528,
      1782246556,
      1782246578,
      1782246593,
      1782246617,
      1782246653,
      1782246685,
      1782246708,
      1782246725
    ],
    "wof:geomhash": "04b3341f9760bd7ba3c80458d0a1ba7d",
    "wof:id": 2031619615,
    "wof:repo": "sfomuseum-data-flights-2026-06"
  },
  "bbox": [
    -122.34877,
    36.722,
    -121.89314,
    37.60758
  ],
  "geometry": {"coordinates":[[-121.89314,36.722],[-121.91451,36.81501],[-121.92367,36.84824],[-121.93921,36.90254],[-121.95445,36.95547],[-121.96096,36.97184],[-121.97903,37.01869],[-122.0064,37.08855],[-122.01807,37.11829],[-122.03335,37.15749],[-122.04208,37.17971],[-122.06289,37.23257],[-122.07733,37.26999],[-122.08841,37.29801],[-122.10002,37.32742],[-122.11523,37.366],[-122.12521,37.39261],[-122.13854,37.43318],[-122.14701,37.45849],[-122.15522,37.48111],[-122.16148,37.49882],[-122.17133,37.52732],[-122.19239,37.54161],[-122.21787,37.55282],[-122.23637,37.5605],[-122.24854,37.56562],[-122.26772,37.57369],[-122.29712,37.58599],[-122.32074,37.59593],[-122.33725,37.60286],[-122.34877,37.60758]],"type":"LineString"}
}
