{
  "id": 2031489129,
  "type": "Feature",
  "properties": {
    "geom:area": 0,
    "geom:bbox": "-122.356870,37.492430,-121.250810,37.613450",
    "geom:latitude": 37.54282415298654,
    "geom:longitude": -121.81081700503223,
    "src:alt_label": "swim-approach",
    "src:geom": "swim",
    "swim:elevations": [
      4712,
      4454,
      4025,
      3758,
      3549,
      3315,
      3244,
      3169,
      2992,
      2931,
      2710,
      2515,
      2279,
      2184,
      2057,
      1925,
      1860,
      1781,
      1474,
      1407,
      1216,
      1132,
      1017,
      944,
      837,
      610,
      594,
      480,
      427,
      321,
      270,
      221,
      61,
      0
    ],
    "swim:geom": "approach",
    "swim:timestamps": [
      1781042614,
      1781042644,
      1781042690,
      1781042719,
      1781042741,
      1781042777,
      1781042794,
      1781042813,
      1781042848,
      1781042861,
      1781042903,
      1781042930,
      1781042967,
      1781042984,
      1781043008,
      1781043031,
      1781043045,
      1781043069,
      1781043114,
      1781043123,
      1781043159,
      1781043193,
      1781043217,
      1781043230,
      1781043248,
      1781043297,
      1781043301,
      1781043326,
      1781043335,
      1781043375,
      1781043384,
      1781043397,
      1781043441,
      1781043453
    ],
    "wof:geomhash": "bb1cdd6dcf4d0212472390648507f9ad",
    "wof:id": 2031489129,
    "wof:repo": "sfomuseum-data-flights-2026-06"
  },
  "bbox": [
    -122.35687,
    37.49243,
    -121.25081,
    37.61345
  ],
  "geometry": {"coordinates":[[-121.25081,37.59437],[-121.307,37.58727],[-121.39552,37.57751],[-121.45096,37.57113],[-121.49088,37.56656],[-121.55766,37.55859],[-121.58701,37.55522],[-121.61949,37.55127],[-121.67393,37.53874],[-121.69374,37.53403],[-121.75418,37.51971],[-121.79112,37.511],[-121.8428,37.49881],[-121.86561,37.4934],[-121.89864,37.49243],[-121.93065,37.49417],[-121.94957,37.49528],[-121.98157,37.49703],[-122.04127,37.50038],[-122.05335,37.50112],[-122.10055,37.50655],[-122.14064,37.52229],[-122.16707,37.53346],[-122.18161,37.53961],[-122.19977,37.5473],[-122.24494,37.56639],[-122.24894,37.56803],[-122.26983,37.57683],[-122.27636,37.57961],[-122.30347,37.59095],[-122.30968,37.59356],[-122.31851,37.59733],[-122.34932,37.61025],[-122.35687,37.61345]],"type":"LineString"}
}
