{
  "id": 2031560177,
  "type": "Feature",
  "properties": {
    "geom:area": 0,
    "geom:bbox": "-122.527778,37.311667,-122.259722,37.664444",
    "geom:latitude": 37.472635285536896,
    "geom:longitude": -122.42086035021676,
    "src:alt_label": "swim-path",
    "src:geom": "swim",
    "swim:altitudes": [
      "040",
      "056",
      "101",
      "120",
      "120"
    ],
    "swim:geom": "path",
    "swim:speeds": [
      234,
      271,
      289,
      367,
      367
    ],
    "swim:timestamps": [
      1781655028,
      1781655088,
      1781655208,
      1781655328,
      1781655328
    ],
    "wof:geomhash": "188aa80115c5d914e1b39c3583b7c20b",
    "wof:id": 2031560177,
    "wof:repo": "sfomuseum-data-flights-2026-06"
  },
  "bbox": [
    -122.52777777777777,
    37.31166666666666,
    -122.25972222222222,
    37.66444444444444
  ],
  "geometry": {"coordinates":[[-122.52277777777778,37.66444444444444],[-122.52777777777777,37.59916666666667],[-122.42222222222223,37.446666666666665],[-122.25972222222222,37.31166666666666],[-122.25972222222222,37.31166666666666]],"type":"LineString"}
}
