{
  "id": 2031655829,
  "type": "Feature",
  "properties": {
    "geom:area": 0,
    "geom:bbox": "-122.347770,37.491920,-121.251840,37.609580",
    "geom:latitude": 37.542120788209765,
    "geom:longitude": -121.80667003060327,
    "src:alt_label": "swim-approach",
    "src:geom": "swim",
    "swim:elevations": [
      4685,
      4429,
      4152,
      4021,
      3762,
      3280,
      3208,
      3169,
      3108,
      2976,
      2684,
      2498,
      2471,
      2409,
      2349,
      2211,
      2072,
      1882,
      1829,
      1829,
      1610,
      1380,
      1322,
      1180,
      1156,
      864,
      775,
      604,
      459,
      423,
      304,
      183,
      58
    ],
    "swim:geom": "approach",
    "swim:timestamps": [
      1782603322,
      1782603351,
      1782603381,
      1782603395,
      1782603422,
      1782603476,
      1782603485,
      1782603503,
      1782603527,
      1782603548,
      1782603589,
      1782603628,
      1782603645,
      1782603654,
      1782603663,
      1782603688,
      1782603710,
      1782603748,
      1782603778,
      1782603783,
      1782603822,
      1782603851,
      1782603869,
      1782603894,
      1782603900,
      1782603958,
      1782603976,
      1782604011,
      1782604043,
      1782604050,
      1782604083,
      1782604110,
      1782604143
    ],
    "wof:geomhash": "cdbd4709d6de2bed4deb52c4195a01b1",
    "wof:id": 2031655829,
    "wof:repo": "sfomuseum-data-flights-2026-06"
  },
  "bbox": [
    -122.34777,
    37.49192,
    -121.25184,
    37.60958
  ],
  "geometry": {"coordinates":[[-121.25184,37.59425],[-121.3051,37.58743],[-121.35871,37.58166],[-121.38435,37.5788],[-121.43221,37.57342],[-121.5296,37.56207],[-121.5462,37.56006],[-121.57855,37.55619],[-121.61926,37.55092],[-121.65281,37.54409],[-121.71835,37.52853],[-121.77744,37.5143],[-121.80111,37.5086],[-121.81355,37.5056],[-121.82598,37.50261],[-121.86066,37.4944],[-121.89259,37.49192],[-121.94728,37.49475],[-121.99017,37.49742],[-121.99879,37.49789],[-122.05416,37.5013],[-122.09017,37.50364],[-122.11073,37.50932],[-122.13653,37.52052],[-122.14232,37.523],[-122.19649,37.5459],[-122.21325,37.55299],[-122.24517,37.56649],[-122.27267,37.57817],[-122.27797,37.58034],[-122.30319,37.59069],[-122.32389,37.59959],[-122.34777,37.60958]],"type":"LineString"}
}
