{
  "id": 2031487873,
  "type": "Feature",
  "properties": {
    "geom:area": 0,
    "geom:bbox": "-122.398050,37.630150,-122.237930,38.502780",
    "geom:latitude": 38.058096274727426,
    "geom:longitude": -122.32008882774991,
    "src:alt_label": "swim-takeoff",
    "src:geom": "swim",
    "swim:elevations": [
      398,
      573,
      748,
      992,
      1087,
      1313,
      1517,
      2002,
      2335,
      2642,
      2855,
      2990,
      3196,
      3331,
      3456,
      3886,
      4365,
      4783,
      4963,
      4988,
      5216,
      5406,
      5763,
      5882,
      6223,
      6302,
      6435,
      6515,
      6981,
      7086,
      7285,
      7545,
      7640
    ],
    "swim:geom": "takeoff",
    "swim:timestamps": [
      1780957854,
      1780957868,
      1780957887,
      1780957912,
      1780957924,
      1780957964,
      1780957989,
      1780958019,
      1780958039,
      1780958056,
      1780958068,
      1780958077,
      1780958092,
      1780958112,
      1780958130,
      1780958161,
      1780958198,
      1780958235,
      1780958248,
      1780958251,
      1780958270,
      1780958292,
      1780958325,
      1780958334,
      1780958364,
      1780958370,
      1780958379,
      1780958385,
      1780958426,
      1780958432,
      1780958448,
      1780958483,
      1780958492
    ],
    "wof:geomhash": "d5dc7351567d903bb1546478834ae0c3",
    "wof:id": 2031487873,
    "wof:repo": "sfomuseum-data-flights-2026-06"
  },
  "bbox": [
    -122.39805,
    37.63015,
    -122.23793,
    38.50278
  ],
  "geometry": {"coordinates":[[-122.3954,37.63015],[-122.39805,37.63938],[-122.39095,37.65224],[-122.37794,37.66872],[-122.37134,37.67715],[-122.34703,37.70968],[-122.33672,37.73861],[-122.35075,37.77305],[-122.36237,37.79591],[-122.37281,37.81728],[-122.37977,37.83168],[-122.38419,37.84282],[-122.38584,37.86295],[-122.38514,37.8904],[-122.38432,37.91814],[-122.37332,37.96801],[-122.35183,38.02639],[-122.32956,38.08722],[-122.32155,38.1088],[-122.31971,38.11369],[-122.30825,38.14477],[-122.29512,38.18036],[-122.27477,38.2355],[-122.26919,38.25059],[-122.25053,38.30092],[-122.24677,38.31084],[-122.24133,38.32563],[-122.23793,38.33543],[-122.23957,38.40239],[-122.24098,38.41164],[-122.24448,38.43533],[-122.25285,38.48889],[-122.25501,38.50278]],"type":"LineString"}
}
