{
  "id": 2031465823,
  "type": "Feature",
  "properties": {
    "geom:area": 0,
    "geom:bbox": "-122.909670,37.372670,-122.108070,38.515110",
    "geom:latitude": 37.971088272450785,
    "geom:longitude": -122.58445413361783,
    "src:alt_label": "swim-approach",
    "src:geom": "swim",
    "swim:elevations": [
      7010,
      7010,
      7010,
      7010,
      6840,
      6699,
      6539,
      6370,
      6332,
      6233,
      6176,
      6033,
      5858,
      5692,
      5648,
      5606,
      5461,
      5377,
      5293,
      5015,
      4688,
      4548,
      4273,
      4267,
      4267,
      4267,
      4267,
      4267,
      4267,
      4267,
      4267,
      4267,
      4267,
      4267,
      4267,
      4267,
      4267,
      4267,
      4267,
      4267,
      4267,
      4239,
      4138,
      4002,
      3775,
      3625,
      3579,
      3471,
      3353,
      3353,
      3353,
      3353,
      3235,
      3103,
      2802,
      2539,
      2373,
      2197,
      2135,
      2152,
      2141,
      2163,
      2164,
      2025,
      1733,
      1343,
      1184,
      1120,
      1105,
      1097,
      1097,
      1033,
      790,
      792,
      692,
      577,
      460,
      355,
      239,
      140,
      91,
      62,
      0
    ],
    "swim:geom": "approach",
    "swim:timestamps": [
      1780781547,
      1780781556,
      1780781575,
      1780781599,
      1780781635,
      1780781653,
      1780781674,
      1780781722,
      1780781733,
      1780781755,
      1780781766,
      1780781796,
      1780781833,
      1780781867,
      1780781876,
      1780781886,
      1780781913,
      1780781932,
      1780781948,
      1780781982,
      1780782023,
      1780782040,
      1780782078,
      1780782083,
      1780782101,
      1780782116,
      1780782146,
      1780782163,
      1780782207,
      1780782237,
      1780782263,
      1780782275,
      1780782287,
      1780782316,
      1780782348,
      1780782380,
      1780782395,
      1780782424,
      1780782445,
      1780782452,
      1780782485,
      1780782533,
      1780782550,
      1780782576,
      1780782611,
      1780782635,
      1780782644,
      1780782662,
      1780782717,
      1780782722,
      1780782775,
      1780782796,
      1780782835,
      1780782854,
      1780782887,
      1780782918,
      1780782937,
      1780782957,
      1780782987,
      1780782991,
      1780782995,
      1780783013,
      1780783037,
      1780783064,
      1780783091,
      1780783132,
      1780783154,
      1780783167,
      1780783171,
      1780783197,
      1780783222,
      1780783233,
      1780783274,
      1780783313,
      1780783339,
      1780783366,
      1780783394,
      1780783428,
      1780783468,
      1780783494,
      1780783511,
      1780783520,
      1780783534
    ],
    "wof:geomhash": "c4bc1ac252470e202494f8828b316d2d",
    "wof:id": 2031465823,
    "wof:repo": "sfomuseum-data-flights-2026-06"
  },
  "bbox": [
    -122.90967,
    37.37267,
    -122.10807,
    38.51511
  ],
  "geometry": {"coordinates":[[-122.85262,38.51511],[-122.84856,38.50149],[-122.84094,38.47534],[-122.83136,38.4423],[-122.8171,38.3935],[-122.81002,38.36937],[-122.80136,38.34032],[-122.78219,38.2746],[-122.7782,38.261],[-122.76964,38.23135],[-122.7684,38.21632],[-122.79269,38.18401],[-122.84651,38.18418],[-122.8704,38.21987],[-122.87318,38.23266],[-122.87603,38.24548],[-122.88507,38.2831],[-122.89197,38.31136],[-122.89774,38.33473],[-122.90967,38.38261],[-122.89082,38.43835],[-122.86378,38.45139],[-122.79187,38.45842],[-122.78138,38.45916],[-122.74701,38.45995],[-122.72065,38.45135],[-122.69094,38.41327],[-122.68917,38.38857],[-122.68632,38.32467],[-122.68453,38.2817],[-122.68343,38.24385],[-122.6832,38.22642],[-122.68803,38.20962],[-122.7047,38.17001],[-122.72368,38.12501],[-122.74255,38.08115],[-122.75051,38.06062],[-122.73827,38.0204],[-122.72187,37.99229],[-122.71731,37.98379],[-122.69422,37.93892],[-122.65328,37.88055],[-122.63544,37.86388],[-122.60969,37.83945],[-122.57386,37.80569],[-122.54962,37.78281],[-122.54061,37.77423],[-122.52262,37.75698],[-122.46683,37.70464],[-122.46172,37.69992],[-122.41011,37.65116],[-122.3898,37.6317],[-122.35872,37.59148],[-122.3457,37.57012],[-122.32381,37.53401],[-122.30359,37.50026],[-122.29148,37.47997],[-122.27831,37.45749],[-122.25917,37.42611],[-122.25677,37.42223],[-122.25368,37.41715],[-122.24194,37.39812],[-122.22022,37.37714],[-122.18395,37.37267],[-122.1541,37.38967],[-122.12661,37.42809],[-122.11275,37.44791],[-122.10807,37.4602],[-122.10824,37.4637],[-122.12084,37.48402],[-122.1356,37.50235],[-122.1421,37.51049],[-122.17073,37.535],[-122.20625,37.55001],[-122.22996,37.56004],[-122.25328,37.56983],[-122.27258,37.57795],[-122.29427,37.58712],[-122.31784,37.59701],[-122.33383,37.60374],[-122.34378,37.60794],[-122.34954,37.6104],[-122.35734,37.61406]],"type":"LineString"}
}
