{
  "id": 2031656915,
  "type": "Feature",
  "properties": {
    "geom:area": 0,
    "geom:bbox": "-122.401100,37.624250,-121.258860,37.963030",
    "geom:latitude": 37.83079010466326,
    "geom:longitude": -121.85270915534957,
    "src:alt_label": "swim-takeoff",
    "src:geom": "swim",
    "swim:elevations": [
      152,
      521,
      669,
      1201,
      1510,
      1943,
      2348,
      2590,
      2895,
      3300,
      3492,
      3770,
      3840,
      4162,
      4325,
      4430,
      4579,
      4807,
      5127,
      5392,
      5566,
      5598,
      5847
    ],
    "swim:geom": "takeoff",
    "swim:timestamps": [
      1782562398,
      1782562436,
      1782562462,
      1782562495,
      1782562519,
      1782562556,
      1782562586,
      1782562602,
      1782562624,
      1782562678,
      1782562696,
      1782562733,
      1782562746,
      1782562783,
      1782562806,
      1782562823,
      1782562840,
      1782562865,
      1782562897,
      1782562940,
      1782562975,
      1782562984,
      1782563019
    ],
    "wof:geomhash": "1c1c7d021e18a64c22ce6d95e34f6958",
    "wof:id": 2031656915,
    "wof:repo": "sfomuseum-data-flights-2026-06"
  },
  "bbox": [
    -122.4011,
    37.62425,
    -121.25886,
    37.96303
  ],
  "geometry": {"coordinates":[[-122.38781,37.62425],[-122.4011,37.65053],[-122.37449,37.66815],[-122.32678,37.67967],[-122.29206,37.69056],[-122.23692,37.70942],[-122.1916,37.72921],[-122.16864,37.7412],[-122.13746,37.75733],[-122.05337,37.80103],[-122.02306,37.81611],[-121.95105,37.83606],[-121.92165,37.84159],[-121.83722,37.85723],[-121.78427,37.86701],[-121.74461,37.87437],[-121.70394,37.88192],[-121.64323,37.89306],[-121.56656,37.90705],[-121.46153,37.92633],[-121.37238,37.94263],[-121.34987,37.94663],[-121.25886,37.96303]],"type":"LineString"}
}
