{
  "id": 2031476943,
  "type": "Feature",
  "properties": {
    "geom:area": 0,
    "geom:bbox": "-122.390000,37.620000,-74.170000,43.280000",
    "geom:latitude": 41.94172222679846,
    "geom:longitude": -98.69701791248355,
    "src:alt_label": "swim-route",
    "src:geom": "swim",
    "swim:geom": "route",
    "wof:geomhash": "d3c9e881d1629512e935bcc12f5dbda0",
    "wof:id": 2031476943,
    "wof:repo": "sfomuseum-data-flights-2026-06"
  },
  "bbox": [
    -122.39,
    37.62,
    -74.17,
    43.28
  ],
  "geometry": {"coordinates":[[-122.38,37.62],[-122.3,37.68],[-122.31,37.7],[-122.31,37.7],[-122.34,37.75],[-122.35,37.76],[-122.35,37.77],[-122.36,37.79],[-122.38,37.84],[-122.39,37.85],[-122.39,37.86],[-122.38,37.94],[-122.32,37.97],[-122.13,38.04],[-122.05,38.07],[-121.98,38.1],[-121.96,38.11],[-121.83,38.16],[-121.72,38.2],[-121.62,38.25],[-121.59,38.26],[-121.52,38.28],[-121.5,38.29],[-121.39,38.34],[-121.33,38.38],[-121.25,38.42],[-121.18,38.47],[-121.11,38.51],[-120.93,38.62],[-120.75,38.73],[-120.18,39.08],[-119.39,39.54],[-119.2,39.65],[-118.97,39.79],[-118.8,39.88],[-118.57,39.96],[-118.39,40.02],[-118.22,40.07],[-117.86,40.19],[-115.26,40.97],[-114.46,41.19],[-113.84,41.36],[-113.3,41.46],[-112.76,41.56],[-111.96,41.69],[-110.88,41.87],[-110.44,41.93],[-110,42],[-109.42,42.08],[-108.84,42.16],[-108.61,42.19],[-107.54,42.32],[-107.1,42.38],[-106,42.5],[-105.15,42.62],[-104.68,42.68],[-103.88,42.78],[-103.41,42.84],[-102.98,42.9],[-102.6,42.99],[-102.27,43.01],[-102.09,43.02],[-101.39,43.06],[-99.97,43.14],[-98.79,43.19],[-98.14,43.22],[-96.73,43.25],[-96.7,43.25],[-93.95,43.28],[-91.22,43.23],[-89.99,43.19],[-89.71,43.18],[-88.28,43.12],[-87,42.97],[-86.01,42.85],[-85.5,42.79],[-85.17,42.67],[-85,42.61],[-84.51,42.44],[-83.46,42.05],[-82.95,42.01],[-81.83,41.92],[-81.23,41.86],[-80.58,41.8],[-79.21,41.66],[-77.97,41.51],[-77.69,41.47],[-77.41,41.43],[-77.32,41.42],[-76.94,41.36],[-76.87,41.35],[-76.77,41.34],[-76.49,41.26],[-76.16,41.17],[-76.05,41.14],[-75.74,41.06],[-75.69,41.04],[-75.64,41.03],[-75.6,41.02],[-75.58,41.01],[-75.47,40.98],[-75.4,40.96],[-75.17,40.9],[-75.11,40.88],[-75.05,40.86],[-74.92,40.83],[-74.92,40.83],[-74.87,40.82],[-74.82,40.81],[-74.76,40.8],[-74.71,40.79],[-74.7,40.79],[-74.65,40.78],[-74.61,40.77],[-74.49,40.75],[-74.44,40.74],[-74.38,40.73],[-74.27,40.71],[-74.17,40.69]],"type":"LineString"}
}
