{
  "id": 2031627849,
  "type": "Feature",
  "properties": {
    "geom:area": 0,
    "geom:bbox": "-122.344820,36.733810,-121.895410,37.606010",
    "geom:latitude": 37.22293216616089,
    "geom:longitude": -122.12759062123614,
    "src:alt_label": "swim-approach",
    "src:geom": "swim",
    "swim:elevations": [
      5178,
      4633,
      4356,
      4206,
      3921,
      3711,
      3587,
      3293,
      3136,
      3075,
      3011,
      2827,
      2721,
      2412,
      2160,
      1978,
      1847,
      1827,
      1815,
      1831,
      1794,
      1769,
      1520,
      1465,
      1223,
      1183,
      976,
      911,
      900,
      669,
      609,
      456,
      337,
      253,
      95,
      79
    ],
    "swim:geom": "approach",
    "swim:timestamps": [
      1782308346,
      1782308389,
      1782308412,
      1782308437,
      1782308490,
      1782308527,
      1782308550,
      1782308592,
      1782308611,
      1782308627,
      1782308654,
      1782308687,
      1782308706,
      1782308749,
      1782308785,
      1782308807,
      1782308838,
      1782308855,
      1782308906,
      1782308911,
      1782308965,
      1782308971,
      1782309027,
      1782309035,
      1782309087,
      1782309094,
      1782309139,
      1782309159,
      1782309181,
      1782309235,
      1782309246,
      1782309283,
      1782309312,
      1782309335,
      1782309385,
      1782309390
    ],
    "wof:geomhash": "bf16516c972a0cd50bc5626afb973046",
    "wof:id": 2031627849,
    "wof:repo": "sfomuseum-data-flights-2026-06"
  },
  "bbox": [
    -122.34482,
    36.73381,
    -121.89541,
    37.60601
  ],
  "geometry": {"coordinates":[[-121.89541,36.73381],[-121.9114,36.80414],[-121.92197,36.84274],[-121.93352,36.88333],[-121.96336,36.96635],[-122.01022,37.00924],[-122.03777,37.03387],[-122.0881,37.07771],[-122.11082,37.09694],[-122.12867,37.11199],[-122.15884,37.13746],[-122.19234,37.16576],[-122.21131,37.18183],[-122.25281,37.21631],[-122.28709,37.24512],[-122.29629,37.26876],[-122.30082,37.30197],[-122.28476,37.31557],[-122.22442,37.34416],[-122.21792,37.3478],[-122.1568,37.38203],[-122.15059,37.38565],[-122.10601,37.42695],[-122.10166,37.43461],[-122.09694,37.48109],[-122.10127,37.48672],[-122.13466,37.5178],[-122.15357,37.5259],[-122.17522,37.53453],[-122.22737,37.55668],[-122.23716,37.56087],[-122.26962,37.57448],[-122.29213,37.58379],[-122.30867,37.59081],[-122.34198,37.60483],[-122.34482,37.60601]],"type":"LineString"}
}
