{
  "id": 2031591793,
  "type": "Feature",
  "properties": {
    "geom:area": 0,
    "geom:bbox": "-122.359230,36.755540,-121.896830,37.611960",
    "geom:latitude": 37.24900861046331,
    "geom:longitude": -122.07101009744977,
    "src:alt_label": "swim-approach",
    "src:geom": "swim",
    "swim:elevations": [
      5284,
      4955,
      4746,
      4532,
      4228,
      3881,
      3713,
      3502,
      3304,
      2969,
      2785,
      2574,
      2427,
      2302,
      2133,
      1891,
      1828,
      1810,
      1626,
      1525,
      1349,
      1250,
      1219,
      970,
      849,
      760,
      574,
      426,
      334,
      219,
      104,
      67
    ],
    "swim:geom": "approach",
    "swim:timestamps": [
      1781962358,
      1781962407,
      1781962431,
      1781962453,
      1781962482,
      1781962518,
      1781962554,
      1781962575,
      1781962615,
      1781962672,
      1781962700,
      1781962730,
      1781962753,
      1781962778,
      1781962804,
      1781962850,
      1781962888,
      1781962909,
      1781962936,
      1781962958,
      1781962984,
      1781963021,
      1781963040,
      1781963093,
      1781963121,
      1781963136,
      1781963181,
      1781963214,
      1781963239,
      1781963268,
      1781963301,
      1781963324
    ],
    "wof:geomhash": "214edf603661f5c4271d8729fc550cd6",
    "wof:id": 2031591793,
    "wof:repo": "sfomuseum-data-flights-2026-06"
  },
  "bbox": [
    -122.35923,
    36.75554,
    -121.89683,
    37.61196
  ],
  "geometry": {"coordinates":[[-121.89683,36.75554],[-121.91985,36.83347],[-121.93015,36.87004],[-121.93935,36.9028],[-121.95111,36.9452],[-121.97011,36.99548],[-121.98905,37.0446],[-121.99981,37.0718],[-122.01918,37.12135],[-122.0442,37.18548],[-122.05648,37.21648],[-122.06895,37.24845],[-122.07905,37.27414],[-122.08885,37.29908],[-122.09932,37.32536],[-122.11515,37.36693],[-122.09596,37.39815],[-122.08223,37.41519],[-122.06575,37.4365],[-122.0532,37.45491],[-122.06104,37.47753],[-122.09524,37.50041],[-122.11472,37.50902],[-122.16808,37.53167],[-122.1946,37.54285],[-122.20917,37.54907],[-122.24713,37.56503],[-122.27486,37.57655],[-122.29458,37.58489],[-122.31687,37.59427],[-122.34179,37.60474],[-122.35923,37.61196]],"type":"LineString"}
}
