{
  "id": 2031551097,
  "type": "Feature",
  "properties": {
    "geom:area": 0,
    "geom:bbox": "-122.390000,37.620000,-76.390000,40.440000",
    "geom:latitude": 39.79293536434595,
    "geom:longitude": -99.42759211831424,
    "src:alt_label": "swim-route",
    "src:geom": "swim",
    "swim:geom": "route",
    "wof:geomhash": "44ae3bee73d378191bb8144f493fe34c",
    "wof:id": 2031551097,
    "wof:repo": "sfomuseum-data-flights-2026-06"
  },
  "bbox": [
    -122.39,
    37.62,
    -76.39,
    40.44
  ],
  "geometry": {"coordinates":[[-122.38,37.62],[-122.3,37.68],[-122.31,37.7],[-122.31,37.7],[-122.34,37.75],[-122.34,37.76],[-122.35,37.76],[-122.36,37.79],[-122.38,37.83],[-122.39,37.85],[-122.39,37.85],[-122.38,37.94],[-122.31,37.96],[-122.22,37.96],[-122.21,37.96],[-122.01,38],[-121.93,38.02],[-121.86,38.03],[-121.79,38.05],[-121.71,38.06],[-121.6,38.08],[-121.48,38.11],[-121.45,38.11],[-121.37,38.13],[-121.12,38.18],[-121.02,38.2],[-120.92,38.21],[-120.87,38.22],[-120.83,38.23],[-119.24,38.52],[-117.3,38.84],[-116.8,38.92],[-115.62,39.09],[-113.37,39.38],[-113.31,39.39],[-113.1,39.42],[-111.74,39.57],[-111.53,39.59],[-110.25,39.72],[-109.85,39.75],[-108.44,39.87],[-108.22,39.89],[-107.28,39.95],[-107.06,39.97],[-105.06,40.08],[-103.18,40.15],[-103.05,40.16],[-100.59,40.2],[-99.06,40.23],[-98.98,40.23],[-97.52,40.24],[-97.16,40.26],[-95.73,40.33],[-94.73,40.37],[-94.31,40.38],[-93.91,40.4],[-93.18,40.41],[-92.92,40.42],[-92.13,40.43],[-91.87,40.43],[-90.8,40.44],[-89.9,40.44],[-89.45,40.43],[-88.1,40.41],[-87.06,40.38],[-86.53,40.36],[-85.58,40.32],[-85.27,40.31],[-83.28,40.2],[-82.59,40.15],[-82.09,40.12],[-81.6,40.05],[-81.32,40.01],[-80.84,39.94],[-80.13,39.83],[-79.92,39.8],[-79.64,39.75],[-79.58,39.74],[-79.25,39.69],[-79.22,39.68],[-79.17,39.67],[-79.09,39.66],[-78.97,39.63],[-78.8,39.6],[-78.75,39.59],[-78.65,39.56],[-78.61,39.55],[-78.4,39.51],[-78.39,39.51],[-78.14,39.45],[-78.13,39.45],[-78.02,39.45],[-77.97,39.45],[-77.74,39.45],[-77.69,39.45],[-77.66,39.45],[-77.54,39.45],[-77.42,39.45],[-77.36,39.45],[-77.3,39.44],[-77.18,39.44],[-77.07,39.43],[-77.06,39.43],[-76.94,39.43],[-76.82,39.42],[-76.74,39.42],[-76.71,39.41],[-76.59,39.38],[-76.52,39.36],[-76.51,39.36],[-76.49,39.34],[-76.45,39.28],[-76.43,39.26],[-76.41,39.23],[-76.39,39.21],[-76.47,39.2],[-76.58,39.19],[-76.67,39.18]],"type":"LineString"}
}
