{
  "id": 2031557433,
  "type": "Feature",
  "properties": {
    "geom:area": 0,
    "geom:bbox": "-122.539990,36.720400,-121.296280,37.667770",
    "geom:latitude": 37.197723711191,
    "geom:longitude": -121.99538459864026,
    "src:alt_label": "swim-takeoff",
    "src:geom": "swim",
    "swim:elevations": [
      327,
      520,
      622,
      722,
      997,
      1216,
      1483,
      1796,
      2262,
      2412,
      2769,
      3021,
      3235,
      3418,
      3538,
      3672,
      3734,
      3898,
      4387,
      4590,
      4980,
      5047,
      5355,
      5502,
      5656,
      5978,
      6253,
      6446,
      6666,
      6848,
      7117,
      7154,
      7191,
      7468,
      7621,
      7914,
      8123,
      8321
    ],
    "swim:geom": "takeoff",
    "swim:timestamps": [
      1781655020,
      1781655051,
      1781655060,
      1781655069,
      1781655107,
      1781655134,
      1781655163,
      1781655193,
      1781655236,
      1781655252,
      1781655290,
      1781655318,
      1781655351,
      1781655387,
      1781655402,
      1781655417,
      1781655423,
      1781655438,
      1781655478,
      1781655493,
      1781655533,
      1781655542,
      1781655587,
      1781655605,
      1781655620,
      1781655656,
      1781655686,
      1781655708,
      1781655738,
      1781655762,
      1781655798,
      1781655807,
      1781655813,
      1781655856,
      1781655878,
      1781655920,
      1781655956,
      1781655986
    ],
    "wof:geomhash": "c50979a5890f80c793adc76ef2829006",
    "wof:id": 2031557433,
    "wof:repo": "sfomuseum-data-flights-2026-06"
  },
  "bbox": [
    -122.53999,
    36.7204,
    -121.29628,
    37.66777
  ],
  "geometry": {"coordinates":[[-122.40982,37.63387],[-122.44135,37.64748],[-122.4515,37.65195],[-122.46153,37.65647],[-122.51039,37.66777],[-122.53999,37.64666],[-122.53496,37.61159],[-122.51665,37.57529],[-122.49034,37.52238],[-122.47989,37.50194],[-122.43629,37.4655],[-122.39947,37.44169],[-122.35408,37.41231],[-122.3019,37.3786],[-122.27889,37.36378],[-122.25567,37.34884],[-122.24639,37.34282],[-122.22308,37.3278],[-122.16111,37.28774],[-122.13837,37.27301],[-122.07798,37.23376],[-122.06407,37.22477],[-121.99152,37.17756],[-121.96193,37.1583],[-121.93717,37.14223],[-121.87765,37.10328],[-121.82754,37.07058],[-121.79062,37.04646],[-121.7403,37.01356],[-121.69864,36.9862],[-121.63652,36.9453],[-121.62076,36.93494],[-121.61027,36.92803],[-121.53373,36.87747],[-121.49446,36.85155],[-121.41777,36.80136],[-121.3519,36.75739],[-121.29628,36.7204]],"type":"LineString"}
}
