{
  "id": 2031522365,
  "type": "Feature",
  "properties": {
    "geom:area": 0,
    "geom:bbox": "-122.544560,36.732940,-121.458030,37.659980",
    "geom:latitude": 37.21957686277246,
    "geom:longitude": -122.07792317577889,
    "src:alt_label": "swim-takeoff",
    "src:geom": "swim",
    "swim:elevations": [
      152,
      213,
      938,
      1111,
      1516,
      1628,
      1783,
      1834,
      1982,
      2409,
      2789,
      3180,
      3246,
      3476,
      3550,
      3648,
      3759,
      3966,
      4133,
      4442,
      4615,
      4811,
      5145,
      5191,
      5332,
      5443,
      5795,
      5913,
      6054,
      6156,
      6354,
      6519,
      7110,
      7533,
      7573
    ],
    "swim:geom": "takeoff",
    "swim:timestamps": [
      1781296511,
      1781296517,
      1781296576,
      1781296604,
      1781296648,
      1781296660,
      1781296676,
      1781296681,
      1781296694,
      1781296728,
      1781296757,
      1781296792,
      1781296801,
      1781296843,
      1781296855,
      1781296873,
      1781296893,
      1781296933,
      1781296953,
      1781296987,
      1781297011,
      1781297035,
      1781297066,
      1781297072,
      1781297095,
      1781297115,
      1781297156,
      1781297172,
      1781297194,
      1781297209,
      1781297240,
      1781297271,
      1781297308,
      1781297338,
      1781297343
    ],
    "wof:geomhash": "a2cd3f727fe98eb6e6f6beaefb0d2710",
    "wof:id": 2031522365,
    "wof:repo": "sfomuseum-data-flights-2026-06"
  },
  "bbox": [
    -122.54456,
    36.73294,
    -121.45803,
    37.65998
  ],
  "geometry": {"coordinates":[[-122.37983,37.62069],[-122.38464,37.62275],[-122.43917,37.64676],[-122.47063,37.65998],[-122.53032,37.65931],[-122.54138,37.64684],[-122.54456,37.62687],[-122.54251,37.62011],[-122.53506,37.60418],[-122.51085,37.56131],[-122.49204,37.52424],[-122.46274,37.48069],[-122.45071,37.47172],[-122.389,37.42697],[-122.36958,37.41269],[-122.34094,37.39196],[-122.30739,37.3672],[-122.23876,37.31667],[-122.20213,37.28908],[-122.14084,37.24373],[-122.09684,37.21132],[-122.0516,37.17779],[-121.99348,37.13458],[-121.98229,37.1263],[-121.93902,37.09411],[-121.90077,37.06554],[-121.82154,37.00636],[-121.79208,36.98436],[-121.74782,36.95117],[-121.71838,36.92903],[-121.6577,36.88349],[-121.5952,36.83638],[-121.52241,36.78152],[-121.46716,36.73982],[-121.45803,36.73294]],"type":"LineString"}
}
