{
  "id": 2031483471,
  "type": "Feature",
  "properties": {
    "geom:area": 0,
    "geom:bbox": "-122.987040,37.295740,-122.097610,38.488060",
    "geom:latitude": 37.76234285414451,
    "geom:longitude": -122.48582073198111,
    "src:alt_label": "swim-approach",
    "src:geom": "swim",
    "swim:elevations": [
      7107,
      6891,
      6658,
      6439,
      6212,
      6126,
      5850,
      5536,
      5326,
      5250,
      5137,
      4933,
      4825,
      4600,
      4350,
      4311,
      4104,
      3988,
      3927,
      3843,
      3602,
      3403,
      3353,
      3353,
      3353,
      3353,
      3295,
      2992,
      2709,
      2638,
      2366,
      2093,
      2011,
      1922,
      1829,
      1829,
      1829,
      1829,
      1829,
      1829,
      1829,
      1829,
      1829,
      1679,
      1548,
      1272,
      1219,
      1219,
      1219,
      1219,
      1166,
      1156,
      941,
      855,
      699,
      476,
      333,
      239,
      200,
      81
    ],
    "swim:geom": "approach",
    "swim:timestamps": [
      1780960728,
      1780960763,
      1780960796,
      1780960826,
      1780960857,
      1780960869,
      1780960907,
      1780960947,
      1780960976,
      1780960987,
      1780961005,
      1780961031,
      1780961047,
      1780961074,
      1780961109,
      1780961115,
      1780961142,
      1780961158,
      1780961166,
      1780961178,
      1780961210,
      1780961236,
      1780961276,
      1780961302,
      1780961314,
      1780961364,
      1780961387,
      1780961426,
      1780961458,
      1780961469,
      1780961506,
      1780961545,
      1780961558,
      1780961571,
      1780961600,
      1780961628,
      1780961667,
      1780961676,
      1780961698,
      1780961702,
      1780961731,
      1780961746,
      1780961770,
      1780961809,
      1780961831,
      1780961872,
      1780961905,
      1780961914,
      1780961941,
      1780961967,
      1780961998,
      1780962002,
      1780962044,
      1780962061,
      1780962096,
      1780962143,
      1780962178,
      1780962206,
      1780962218,
      1780962246
    ],
    "wof:geomhash": "d27f2d748ab4c5abfc9791b4aa63fe05",
    "wof:id": 2031483471,
    "wof:repo": "sfomuseum-data-flights-2026-06"
  },
  "bbox": [
    -122.98704,
    37.29574,
    -122.09761,
    38.48806
  ],
  "geometry": {"coordinates":[[-122.98704,38.48806],[-122.94079,38.43246],[-122.89728,38.38034],[-122.85706,38.33217],[-122.81732,38.28462],[-122.80225,38.26662],[-122.76311,38.2056],[-122.74137,38.13902],[-122.72826,38.09214],[-122.72352,38.07512],[-122.71563,38.04698],[-122.7043,38.00665],[-122.69742,37.9827],[-122.68533,37.94136],[-122.66125,37.88992],[-122.65446,37.88216],[-122.62149,37.84962],[-122.60055,37.83034],[-122.59027,37.8209],[-122.57504,37.80685],[-122.53563,37.77006],[-122.50391,37.74008],[-122.45737,37.69607],[-122.43005,37.67042],[-122.41796,37.65906],[-122.36678,37.61057],[-122.35211,37.5866],[-122.33025,37.54416],[-122.31263,37.50905],[-122.31143,37.49714],[-122.3099,37.45451],[-122.32809,37.41564],[-122.33653,37.40404],[-122.34531,37.39188],[-122.3637,37.36485],[-122.35933,37.33497],[-122.32653,37.30055],[-122.31438,37.29705],[-122.28238,37.29574],[-122.27679,37.29678],[-122.23967,37.30939],[-122.21995,37.31641],[-122.18888,37.32761],[-122.15628,37.35996],[-122.14234,37.38108],[-122.11557,37.41941],[-122.09761,37.45084],[-122.09816,37.45993],[-122.10503,37.48645],[-122.11429,37.51056],[-122.14372,37.52311],[-122.14742,37.52491],[-122.18492,37.54104],[-122.20017,37.54754],[-122.23266,37.56119],[-122.27381,37.57847],[-122.3006,37.5898],[-122.3192,37.59759],[-122.32726,37.60097],[-122.34617,37.60894]],"type":"LineString"}
}
