{
  "id": 2031555715,
  "type": "Feature",
  "properties": {
    "geom:area": 0,
    "geom:bbox": "-122.770000,37.620000,-77.460000,42.480000",
    "geom:latitude": 41.4263077910023,
    "geom:longitude": -100.40348813000377,
    "src:alt_label": "swim-route",
    "src:geom": "swim",
    "swim:geom": "route",
    "wof:geomhash": "1bc30cc914e0f294a1ad5ba5d382246f",
    "wof:id": 2031555715,
    "wof:repo": "sfomuseum-data-flights-2026-06"
  },
  "bbox": [
    -122.77,
    37.62,
    -77.46,
    42.48
  ],
  "geometry": {"coordinates":[[-77.46,38.95],[-77.5,39.01],[-77.52,39.03],[-77.52,39.03],[-77.54,39.05],[-77.55,39.07],[-77.56,39.09],[-77.57,39.09],[-77.58,39.12],[-77.6,39.14],[-77.62,39.16],[-77.63,39.18],[-77.72,39.3],[-77.78,39.39],[-77.81,39.45],[-77.81,39.46],[-77.83,39.49],[-77.85,39.52],[-77.86,39.54],[-77.87,39.54],[-77.88,39.54],[-77.9,39.55],[-77.99,39.58],[-78.1,39.61],[-78.18,39.64],[-78.26,39.66],[-78.39,39.7],[-78.4,39.7],[-78.42,39.71],[-78.43,39.71],[-78.55,39.75],[-78.61,39.77],[-78.7,39.79],[-78.79,39.82],[-79.41,40],[-79.82,40.21],[-80.06,40.33],[-80.33,40.47],[-80.58,40.6],[-80.72,40.66],[-80.74,40.67],[-81.07,40.83],[-81.14,40.87],[-81.6,41.09],[-81.84,41.21],[-82.24,41.34],[-82.76,41.48],[-82.94,41.54],[-83.68,41.74],[-84.14,41.86],[-84.35,41.92],[-84.56,41.98],[-85,42.01],[-85.11,42.02],[-85.31,42.05],[-86.88,42.2],[-87,42.21],[-87.61,42.13],[-88.56,42.2],[-88.8,42.21],[-88.82,42.22],[-89.13,42.24],[-92.64,42.41],[-93.15,42.43],[-93.56,42.44],[-94.86,42.47],[-95.65,42.48],[-96.28,42.48],[-97.13,42.48],[-97.86,42.47],[-99.39,42.45],[-101.38,42.38],[-102.24,42.34],[-104.64,42.2],[-107.41,41.97],[-107.59,41.96],[-107.89,41.94],[-109.07,41.85],[-110.25,41.75],[-110.83,41.69],[-112.68,41.5],[-112.91,41.47],[-113.73,41.38],[-113.84,41.36],[-114.46,41.21],[-115.08,41.06],[-116.92,40.57],[-117.1,40.52],[-118.01,40.27],[-120.5,39.52],[-121.1,39.34],[-121.45,39.13],[-121.6,39.04],[-121.65,39.02],[-121.82,38.91],[-121.84,38.9],[-121.92,38.85],[-122.25,38.66],[-122.29,38.63],[-122.44,38.54],[-122.68,38.31],[-122.69,38.3],[-122.77,38.22],[-122.75,38.16],[-122.7,38],[-122.69,37.95],[-122.67,37.9],[-122.65,37.87],[-122.59,37.82],[-122.58,37.81],[-122.53,37.77],[-122.51,37.74],[-122.5,37.74],[-122.5,37.73],[-122.44,37.68],[-122.37,37.62],[-122.38,37.62]],"type":"LineString"}
}
