{
  "id": 2031424603,
  "type": "Feature",
  "properties": {
    "geom:area": 0,
    "geom:bbox": "-122.380000,33.640000,-84.040000,37.640000",
    "geom:latitude": 36.377910430607514,
    "geom:longitude": -102.6159284887838,
    "src:alt_label": "swim-route",
    "src:geom": "swim",
    "swim:geom": "route",
    "wof:geomhash": "5dc89369330d55ff330a53d95846f6aa",
    "wof:id": 2031424603,
    "wof:repo": "sfomuseum-data-flights-2026-06"
  },
  "bbox": [
    -122.38,
    33.64,
    -84.04,
    37.64
  ],
  "geometry": {"coordinates":[[-122.38,37.62],[-120.24,37.64],[-119.06,37.64],[-117.09,37.61],[-115.88,37.58],[-113.97,37.5],[-111.86,37.37],[-109.16,37.16],[-106.32,36.86],[-105.11,36.72],[-104.86,36.68],[-101.86,36.26],[-101.21,36.16],[-101,36.12],[-100.57,36.05],[-99.23,35.82],[-99.21,35.82],[-97.6,35.52],[-97.42,35.48],[-97.32,35.46],[-97.18,35.43],[-96.9,35.37],[-95,35.5],[-93.08,35.61],[-92.09,35.65],[-91.74,35.66],[-91.05,35.69],[-90.36,35.71],[-89.34,35.73],[-87.45,35.74],[-87.14,35.74],[-86.4,35.74],[-86.28,35.56],[-86.24,35.5],[-86.22,35.48],[-86.19,35.43],[-86.03,35.27],[-85.58,34.79],[-85.43,34.64],[-85.17,34.36],[-84.97,34.14],[-84.84,34.01],[-84.82,33.99],[-84.79,33.96],[-84.76,33.92],[-84.58,33.73],[-84.43,33.73],[-84.31,33.73],[-84.26,33.73],[-84.14,33.73],[-84.06,33.73],[-84.04,33.73],[-84.21,33.69],[-84.3,33.67],[-84.4,33.64],[-84.43,33.64]],"type":"LineString"}
}
