{
  "id": 2031522425,
  "type": "Feature",
  "properties": {
    "geom:area": 0,
    "geom:bbox": "-122.405000,33.649444,-84.235000,38.594444",
    "geom:latitude": 37.28780091243842,
    "geom:longitude": -103.06984783300665,
    "src:alt_label": "swim-path",
    "src:geom": "swim",
    "swim:altitudes": [
      "011",
      "011",
      "011",
      "011",
      "011",
      "050",
      "050",
      "050",
      "099",
      "099",
      "099",
      "099",
      "105",
      "105",
      "150",
      "150",
      "150",
      "150",
      "150",
      "200",
      "200",
      "200",
      "257",
      "257",
      "257",
      "257",
      "273",
      "302",
      "302",
      "302",
      "331",
      "331",
      "346",
      "346",
      "348",
      "360",
      "367",
      "370C",
      "370C",
      "370C",
      "370C",
      "370C",
      "370C",
      "370C",
      "370C",
      "370C",
      "370C",
      "370C",
      "370C",
      "370C",
      "370C",
      "370C",
      "370C",
      "370C",
      "370C",
      "370C",
      "370C",
      "370C",
      "370C",
      "370C",
      "370C",
      "370C",
      "370C",
      "370C",
      "370C",
      "370C",
      "370C",
      "370C",
      "370C",
      "370C",
      "370C",
      "370C",
      "370C",
      "370C",
      "370C",
      "370C",
      "370C",
      "370C",
      "370C",
      "370C",
      "370C",
      "370C",
      "370C",
      "370C",
      "370C",
      "370C",
      "370C",
      "370C",
      "370C",
      "370C",
      "370C",
      "370C",
      "370C",
      "370C",
      "370C",
      "370C",
      "370C",
      "370C",
      "370C",
      "370C",
      "370C",
      "370C",
      "370C",
      "370C",
      "370C",
      "370C",
      "370C",
      "370C",
      "370C",
      "370C",
      "370C",
      "370C",
      "370C",
      "370C",
      "370C",
      "370C",
      "370C",
      "370C",
      "370C",
      "370C",
      "370C",
      "370C",
      "370C",
      "370C",
      "370C",
      "370C",
      "370C",
      "370C",
      "370C",
      "370C",
      "370C",
      "370",
      "374",
      "374",
      "388C",
      "388C",
      "389C",
      "389C",
      "389C",
      "389C",
      "390C",
      "390C",
      "390C",
      "390C",
      "390C",
      "390C",
      "390C",
      "390C",
      "390C",
      "390C",
      "390C",
      "390C",
      "390C",
      "390C",
      "390C",
      "390C",
      "390C",
      "390C",
      "390C",
      "390C",
      "390C",
      "390C",
      "390C",
      "390C",
      "390C",
      "390C",
      "390C",
      "390C",
      "390C",
      "390C",
      "390C",
      "390C",
      "390C",
      "390C",
      "390C",
      "390C",
      "390C",
      "390C",
      "390C",
      "390C",
      "390C",
      "390C",
      "390C",
      "390C",
      "390C",
      "390C",
      "390C",
      "390C",
      "390C",
      "390C",
      "390C",
      "390C",
      "390C",
      "390C",
      "390C",
      "390C",
      "390C",
      "390C",
      "390C",
      "390C",
      "390C",
      "390C",
      "390C",
      "390C",
      "390C",
      "390C",
      "390C",
      "390C",
      "390C",
      "390C",
      "390C",
      "390C",
      "390C",
      "390C",
      "390C",
      "390C",
      "390C",
      "390C",
      "390C",
      "390C",
      "390C",
      "390C",
      "390C",
      "390C",
      "390C",
      "390C",
      "390C",
      "390C",
      "390C",
      "390C",
      "390C",
      "390C",
      "390C",
      "390C",
      "390C",
      "390C",
      "390C",
      "390C",
      "390C",
      "390C",
      "390C",
      "390C",
      "390C",
      "390C",
      "390C",
      "390C",
      "390C",
      "390C",
      "390C",
      "390C",
      "390C",
      "390C",
      "390C",
      "390C",
      "390C",
      "390C",
      "390C",
      "390C",
      "390C",
      "390C",
      "390C",
      "390C",
      "390C",
      "391C",
      "390",
      "390",
      "374",
      "374",
      "374",
      "362",
      "346",
      "346",
      "330C",
      "330C",
      "330C",
      "330C",
      "330C",
      "330C",
      "330C",
      "330C",
      "330C",
      "330",
      "330",
      "330",
      "330",
      "330",
      "320",
      "320",
      "292",
      "292",
      "278",
      "257",
      "249",
      "238",
      "238",
      "228",
      "228",
      "196",
      "175",
      "175",
      "175",
      "141C",
      "141C",
      "141C",
      "141C",
      "125",
      "120",
      "120",
      "120",
      "120",
      "120",
      "118",
      "118",
      "072",
      "072",
      "072",
      "040",
      "040",
      "040",
      "039",
      "039",
      "010",
      "010",
      "010",
      "010"
    ],
    "swim:geom": "path",
    "swim:speeds": [
      177,
      177,
      177,
      177,
      177,
      259,
      259,
      259,
      295,
      295,
      295,
      295,
      300,
      300,
      373,
      373,
      373,
      373,
      373,
      401,
      401,
      401,
      444,
      444,
      444,
      444,
      457,
      478,
      478,
      478,
      491,
      491,
      490,
      490,
      491,
      489,
      485,
      484,
      484,
      484,
      484,
      484,
      484,
      484,
      484,
      484,
      484,
      484,
      485,
      485,
      485,
      485,
      485,
      485,
      485,
      484,
      484,
      484,
      484,
      484,
      484,
      484,
      484,
      484,
      484,
      483,
      483,
      483,
      483,
      483,
      483,
      486,
      486,
      486,
      486,
      489,
      489,
      489,
      489,
      495,
      496,
      496,
      496,
      496,
      498,
      498,
      498,
      497,
      497,
      497,
      497,
      496,
      496,
      502,
      505,
      505,
      505,
      506,
      506,
      508,
      508,
      508,
      509,
      509,
      509,
      512,
      512,
      512,
      511,
      511,
      511,
      509,
      508,
      508,
      508,
      507,
      507,
      507,
      507,
      507,
      507,
      508,
      508,
      508,
      507,
      507,
      507,
      507,
      511,
      514,
      514,
      516,
      517,
      517,
      517,
      517,
      519,
      519,
      519,
      519,
      514,
      514,
      514,
      514,
      516,
      516,
      518,
      518,
      520,
      520,
      519,
      519,
      518,
      518,
      518,
      517,
      517,
      517,
      518,
      518,
      518,
      518,
      518,
      518,
      518,
      518,
      519,
      522,
      523,
      523,
      523,
      523,
      523,
      523,
      523,
      523,
      522,
      521,
      521,
      520,
      520,
      520,
      514,
      514,
      514,
      514,
      513,
      511,
      511,
      511,
      511,
      511,
      511,
      511,
      511,
      511,
      511,
      511,
      511,
      512,
      510,
      510,
      510,
      512,
      512,
      512,
      517,
      517,
      518,
      518,
      518,
      516,
      516,
      518,
      517,
      517,
      517,
      519,
      519,
      519,
      519,
      519,
      519,
      520,
      520,
      520,
      520,
      520,
      519,
      519,
      519,
      519,
      518,
      518,
      518,
      518,
      516,
      516,
      516,
      516,
      515,
      515,
      515,
      510,
      510,
      507,
      507,
      495,
      491,
      491,
      491,
      492,
      485,
      485,
      486,
      486,
      487,
      490,
      488,
      488,
      488,
      490,
      490,
      492,
      493,
      493,
      488,
      488,
      488,
      483,
      486,
      486,
      486,
      486,
      484,
      483,
      483,
      484,
      484,
      484,
      484,
      486,
      485,
      485,
      485,
      485,
      483,
      483,
      481,
      481,
      480,
      462,
      454,
      446,
      446,
      436,
      436,
      441,
      445,
      445,
      445,
      388,
      388,
      388,
      388,
      376,
      360,
      360,
      360,
      268,
      268,
      262,
      262,
      246,
      246,
      246,
      244,
      244,
      244,
      203,
      203,
      141,
      141,
      141,
      141
    ],
    "swim:timestamps": [
      1781302672,
      1781302672,
      1781302672,
      1781302672,
      1781302672,
      1781302792,
      1781302792,
      1781302792,
      1781302888,
      1781302888,
      1781302888,
      1781302888,
      1781302912,
      1781302912,
      1781303032,
      1781303032,
      1781303032,
      1781303032,
      1781303032,
      1781303152,
      1781303152,
      1781303152,
      1781303333,
      1781303333,
      1781303333,
      1781303333,
      1781303393,
      1781303513,
      1781303513,
      1781303513,
      1781303633,
      1781303633,
      1781303693,
      1781303693,
      1781303707,
      1781303768,
      1781303813,
      1781303873,
      1781303873,
      1781303948,
      1781304008,
      1781304008,
      1781304054,
      1781304054,
      1781304054,
      1781304234,
      1781304234,
      1781304248,
      1781304368,
      1781304368,
      1781304414,
      1781304488,
      1781304534,
      1781304549,
      1781304549,
      1781304669,
      1781304669,
      1781304669,
      1781304669,
      1781304789,
      1781304789,
      1781304849,
      1781304849,
      1781304849,
      1781304969,
      1781305029,
      1781305075,
      1781305209,
      1781305270,
      1781305270,
      1781305270,
      1781305450,
      1781305450,
      1781305450,
      1781305450,
      1781305630,
      1781305630,
      1781305630,
      1781305630,
      1781305930,
      1781305990,
      1781305990,
      1781305990,
      1781305990,
      1781306171,
      1781306171,
      1781306171,
      1781306231,
      1781306231,
      1781306231,
      1781306231,
      1781306351,
      1781306351,
      1781306651,
      1781306683,
      1781306683,
      1781306711,
      1781306772,
      1781306772,
      1781306803,
      1781306803,
      1781306803,
      1781306923,
      1781306923,
      1781306923,
      1781307024,
      1781307024,
      1781307024,
      1781307223,
      1781307223,
      1781307223,
      1781307343,
      1781307444,
      1781307444,
      1781307464,
      1781307524,
      1781307524,
      1781307644,
      1781307644,
      1781307644,
      1781307644,
      1781307824,
      1781307824,
      1781307824,
      1781307944,
      1781307944,
      1781307944,
      1781307944,
      1781308064,
      1781308124,
      1781308124,
      1781308185,
      1781308245,
      1781308245,
      1781308425,
      1781308425,
      1781308545,
      1781308545,
      1781308545,
      1781308545,
      1781308785,
      1781308785,
      1781308785,
      1781308785,
      1781308966,
      1781308966,
      1781309026,
      1781309139,
      1781309146,
      1781309146,
      1781309206,
      1781309259,
      1781309266,
      1781309266,
      1781309266,
      1781309386,
      1781309386,
      1781309386,
      1781309439,
      1781309623,
      1781309623,
      1781309680,
      1781309747,
      1781309747,
      1781309800,
      1781309807,
      1781309867,
      1781310040,
      1781310107,
      1781310107,
      1781310107,
      1781310220,
      1781310220,
      1781310220,
      1781310401,
      1781310401,
      1781310521,
      1781310581,
      1781310581,
      1781310641,
      1781310641,
      1781310641,
      1781310881,
      1781310881,
      1781310881,
      1781310881,
      1781310941,
      1781311062,
      1781311062,
      1781311062,
      1781311062,
      1781311182,
      1781311182,
      1781311182,
      1781311182,
      1781311242,
      1781311362,
      1781311362,
      1781311362,
      1781311422,
      1781311507,
      1781311507,
      1781311507,
      1781311567,
      1781311567,
      1781311567,
      1781311662,
      1781311662,
      1781311723,
      1781311723,
      1781311843,
      1781311868,
      1781311868,
      1781311903,
      1781311988,
      1781311988,
      1781311988,
      1781312228,
      1781312228,
      1781312228,
      1781312263,
      1781312263,
      1781312348,
      1781312408,
      1781312408,
      1781312408,
      1781312468,
      1781312528,
      1781312589,
      1781312589,
      1781312589,
      1781312589,
      1781312769,
      1781312804,
      1781312804,
      1781312804,
      1781313009,
      1781313009,
      1781313009,
      1781313009,
      1781313129,
      1781313129,
      1781313129,
      1781313490,
      1781313490,
      1781313610,
      1781313610,
      1781313703,
      1781313790,
      1781313790,
      1781313790,
      1781313823,
      1781314004,
      1781314004,
      1781314064,
      1781314064,
      1781314244,
      1781314271,
      1781314304,
      1781314304,
      1781314364,
      1781314391,
      1781314391,
      1781314545,
      1781314571,
      1781314571,
      1781314691,
      1781314691,
      1781314691,
      1781314751,
      1781314811,
      1781314811,
      1781314905,
      1781314905,
      1781314931,
      1781315025,
      1781315025,
      1781315112,
      1781315112,
      1781315112,
      1781315112,
      1781315266,
      1781315326,
      1781315352,
      1781315386,
      1781315386,
      1781315532,
      1781315532,
      1781315592,
      1781315592,
      1781315626,
      1781315686,
      1781315712,
      1781315746,
      1781315746,
      1781315772,
      1781315772,
      1781315866,
      1781315927,
      1781315927,
      1781315927,
      1781316047,
      1781316047,
      1781316047,
      1781316047,
      1781316107,
      1781316227,
      1781316227,
      1781316227,
      1781316297,
      1781316297,
      1781316347,
      1781316347,
      1781316477,
      1781316477,
      1781316477,
      1781316587,
      1781316587,
      1781316587,
      1781316648,
      1781316648,
      1781316888,
      1781316888,
      1781316888,
      1781316888
    ],
    "wof:geomhash": "aab4b7f3fb134f3c13f1d73af75fc24d",
    "wof:id": 2031522425,
    "wof:repo": "sfomuseum-data-flights-2026-06"
  },
  "bbox": [
    -122.405,
    33.64944444444444,
    -84.235,
    38.59444444444445
  ],
  "geometry": {"coordinates":[[-122.405,37.635555555555555],[-122.405,37.635555555555555],[-122.405,37.635555555555555],[-122.405,37.635555555555555],[-122.405,37.635555555555555],[-122.28888888888889,37.69166666666666],[-122.28888888888889,37.69166666666666],[-122.28888888888889,37.69166666666666],[-122.16666666666667,37.766666666666666],[-122.16666666666667,37.766666666666666],[-122.16666666666667,37.766666666666666],[-122.16666666666667,37.766666666666666],[-122.13222222222221,37.778888888888886],[-122.13222222222221,37.778888888888886],[-121.88916666666667,37.83027777777778],[-121.88916666666667,37.83027777777778],[-121.88916666666667,37.83027777777778],[-121.88916666666667,37.83027777777778],[-121.88916666666667,37.83027777777778],[-121.61972222222222,37.88583333333333],[-121.61972222222222,37.88583333333333],[-121.61972222222222,37.88583333333333],[-121.18055555555556,37.97555555555556],[-121.18055555555556,37.97555555555556],[-121.18055555555556,37.97555555555556],[-121.18055555555556,37.97555555555556],[-121.02666666666667,38.00277777777778],[-120.69861111111112,38.05333333333333],[-120.69861111111112,38.05333333333333],[-120.69861111111112,38.05333333333333],[-120.36083333333333,38.10416666666667],[-120.36083333333333,38.10416666666667],[-120.19305555555556,38.12916666666667],[-120.19305555555556,38.12916666666667],[-120.15444444444445,38.132777777777775],[-119.98694444444445,38.158055555555556],[-119.85972222222222,38.17805555555555],[-119.68972222222223,38.2025],[-119.68972222222223,38.2025],[-119.48583333333333,38.230000000000004],[-119.31916666666666,38.25333333333333],[-119.31916666666666,38.25333333333333],[-119.18583333333333,38.27333333333333],[-119.18583333333333,38.27333333333333],[-119.18583333333333,38.27333333333333],[-118.68111111111112,38.342222222222226],[-118.68111111111112,38.342222222222226],[-118.64888888888889,38.345555555555556],[-118.29805555555555,38.393055555555556],[-118.29805555555555,38.393055555555556],[-118.17555555555556,38.40888888888889],[-117.95694444444445,38.43694444444444],[-117.81916666666666,38.45444444444445],[-117.78916666666666,38.458333333333336],[-117.78916666666666,38.458333333333336],[-117.44444444444444,38.50111111111111],[-117.44444444444444,38.50111111111111],[-117.44444444444444,38.50111111111111],[-117.44444444444444,38.50111111111111],[-117.09916666666666,38.51722222222222],[-117.09916666666666,38.51722222222222],[-116.92666666666668,38.52027777777778],[-116.92666666666668,38.52027777777778],[-116.92666666666668,38.52027777777778],[-116.58138888888888,38.532222222222224],[-116.41111111111111,38.53805555555555],[-116.30416666666666,38.54138888888889],[-115.89500000000001,38.55305555555555],[-115.72472222222223,38.5575],[-115.72472222222223,38.5575],[-115.72472222222223,38.5575],[-115.23194444444445,38.56861111111112],[-115.23194444444445,38.56861111111112],[-115.23194444444445,38.56861111111112],[-115.23194444444445,38.56861111111112],[-114.68055555555556,38.57916666666667],[-114.68055555555556,38.57916666666667],[-114.68055555555556,38.57916666666667],[-114.68055555555556,38.57916666666667],[-113.8025,38.59],[-113.62638888888888,38.59138888888889],[-113.62638888888888,38.59138888888889],[-113.62638888888888,38.59138888888889],[-113.62638888888888,38.59138888888889],[-113.13166666666666,38.59388888888889],[-113.13166666666666,38.59388888888889],[-113.13166666666666,38.59388888888889],[-112.95361111111112,38.59444444444445],[-112.95361111111112,38.59444444444445],[-112.95361111111112,38.59444444444445],[-112.95361111111112,38.59444444444445],[-112.60138888888888,38.594166666666666],[-112.60138888888888,38.594166666666666],[-111.71277777777777,38.589444444444446],[-111.60472222222222,38.58833333333334],[-111.60472222222222,38.58833333333334],[-111.53083333333333,38.587500000000006],[-111.35083333333333,38.58555555555556],[-111.35083333333333,38.58555555555556],[-111.24333333333334,38.58416666666667],[-111.24333333333334,38.58416666666667],[-111.24333333333334,38.58416666666667],[-110.89694444444446,38.57888888888889],[-110.89694444444446,38.57888888888889],[-110.89694444444446,38.57888888888889],[-110.56777777777778,38.57333333333334],[-110.56777777777778,38.57333333333334],[-110.56777777777778,38.57333333333334],[-109.98972222222223,38.56083333333333],[-109.98972222222223,38.56083333333333],[-109.98972222222223,38.56083333333333],[-109.63305555555554,38.55166666666666],[-109.315,38.5425],[-109.315,38.5425],[-109.23944444444444,38.540277777777774],[-109.05972222222222,38.53472222222222],[-109.05972222222222,38.53472222222222],[-108.70111111111112,38.5225],[-108.70111111111112,38.5225],[-108.70111111111112,38.5225],[-108.70111111111112,38.5225],[-108.16611111111112,38.5025],[-108.16611111111112,38.5025],[-108.16611111111112,38.5025],[-107.8086111111111,38.48777777777778],[-107.8086111111111,38.48777777777778],[-107.8086111111111,38.48777777777778],[-107.8086111111111,38.48777777777778],[-107.45,38.471944444444446],[-107.26805555555555,38.46333333333334],[-107.26805555555555,38.46333333333334],[-107.09777777777778,38.45527777777778],[-106.91555555555556,38.44611111111111],[-106.91555555555556,38.44611111111111],[-106.36916666666666,38.4175],[-106.36916666666666,38.4175],[-106.00583333333333,38.39694444444444],[-106.00583333333333,38.39694444444444],[-106.00583333333333,38.39694444444444],[-106.00583333333333,38.39694444444444],[-105.25611111111111,38.350833333333334],[-105.25611111111111,38.350833333333334],[-105.25611111111111,38.350833333333334],[-105.25611111111111,38.350833333333334],[-104.73583333333333,38.31583333333333],[-104.73583333333333,38.31583333333333],[-104.55333333333333,38.30305555555555],[-104.2175,38.2825],[-104.18333333333334,38.28194444444444],[-104.18333333333334,38.28194444444444],[-104.00138888888888,38.27305555555555],[-103.85305555555556,38.26611111111111],[-103.81694444444445,38.263333333333335],[-103.81694444444445,38.263333333333335],[-103.81694444444445,38.263333333333335],[-103.4525,38.24305555555556],[-103.4525,38.24305555555556],[-103.4525,38.24305555555556],[-103.27305555555556,38.23277777777778],[-102.73138888888889,38.251666666666665],[-102.73138888888889,38.251666666666665],[-102.54944444444445,38.230555555555554],[-102.36777777777777,38.20027777777778],[-102.36777777777777,38.20027777777778],[-102.19,38.170833333333334],[-102.18972222222223,38.170833333333334],[-102.00861111111111,38.14083333333333],[-101.4738888888889,38.050555555555555],[-101.28972222222222,38.01861111111111],[-101.28972222222222,38.01861111111111],[-101.28972222222222,38.01861111111111],[-100.93055555555556,37.955555555555556],[-100.93055555555556,37.955555555555556],[-100.93055555555556,37.955555555555556],[-100.42222222222223,37.855000000000004],[-100.42222222222223,37.855000000000004],[-100.06777777777778,37.77972222222222],[-99.89250000000001,37.74277777777778],[-99.89250000000001,37.74277777777778],[-99.71583333333334,37.70472222222222],[-99.71583333333334,37.70472222222222],[-99.71583333333334,37.70472222222222],[-98.99111111111111,37.54472222222222],[-98.99111111111111,37.54472222222222],[-98.99111111111111,37.54472222222222],[-98.99111111111111,37.54472222222222],[-98.82027777777778,37.506388888888885],[-98.47944444444444,37.428888888888885],[-98.47944444444444,37.428888888888885],[-98.47944444444444,37.428888888888885],[-98.47944444444444,37.428888888888885],[-98.14166666666668,37.350833333333334],[-98.14166666666668,37.350833333333334],[-98.14166666666668,37.350833333333334],[-98.14166666666668,37.350833333333334],[-97.97083333333333,37.31083333333333],[-97.63222222222221,37.231388888888894],[-97.63222222222221,37.231388888888894],[-97.63222222222221,37.231388888888894],[-97.45944444444444,37.197222222222216],[-97.22527777777778,37.14805555555556],[-97.22527777777778,37.14805555555556],[-97.22527777777778,37.14805555555556],[-97.05027777777778,37.11138888888889],[-97.05027777777778,37.11138888888889],[-97.05027777777778,37.11138888888889],[-96.76555555555555,37.051944444444445],[-96.76555555555555,37.051944444444445],[-96.595,37.015277777777776],[-96.595,37.015277777777776],[-96.24694444444445,36.94],[-96.17777777777778,36.92444444444444],[-96.17777777777778,36.92444444444444],[-96.07416666666666,36.90222222222222],[-95.83222222222221,36.848888888888894],[-95.83222222222221,36.848888888888894],[-95.83222222222221,36.848888888888894],[-95.13,36.690555555555555],[-95.13,36.690555555555555],[-95.13,36.690555555555555],[-95.02527777777777,36.66638888888889],[-95.02527777777777,36.66638888888889],[-94.78305555555555,36.61055555555556],[-94.60777777777777,36.569722222222225],[-94.60777777777777,36.569722222222225],[-94.60777777777777,36.569722222222225],[-94.43472222222222,36.52916666666667],[-94.2611111111111,36.488055555555555],[-94.08944444444444,36.447222222222216],[-94.08944444444444,36.447222222222216],[-94.08944444444444,36.447222222222216],[-94.08944444444444,36.447222222222216],[-93.59166666666667,36.32694444444445],[-93.4875,36.30138888888889],[-93.4875,36.30138888888889],[-93.4875,36.30138888888889],[-92.90861111111111,36.158055555555556],[-92.90861111111111,36.158055555555556],[-92.90861111111111,36.158055555555556],[-92.90861111111111,36.158055555555556],[-92.57,36.072500000000005],[-92.57,36.072500000000005],[-92.57,36.072500000000005],[-91.56638888888888,35.8125],[-91.56638888888888,35.8125],[-91.23611111111111,35.724722222222226],[-91.23611111111111,35.724722222222226],[-91,35.656388888888884],[-90.76694444444445,35.59805555555556],[-90.76694444444445,35.59805555555556],[-90.76694444444445,35.59805555555556],[-90.68083333333334,35.57666666666667],[-90.21083333333334,35.44583333333333],[-90.21083333333334,35.44583333333333],[-90.05333333333333,35.40138888888889],[-90.05333333333333,35.40138888888889],[-89.58277777777778,35.26888888888889],[-89.50305555555556,35.24583333333334],[-89.42555555555556,35.22361111111111],[-89.42555555555556,35.22361111111111],[-89.2675,35.17861111111111],[-89.18583333333333,35.155],[-89.18583333333333,35.155],[-88.7961111111111,35.04277777777778],[-88.71388888888889,35.018055555555556],[-88.71388888888889,35.018055555555556],[-88.42027777777778,34.93111111111111],[-88.42027777777778,34.93111111111111],[-88.42027777777778,34.93111111111111],[-88.26944444444445,34.88611111111111],[-88.11222222222221,34.83916666666667],[-88.11222222222221,34.83916666666667],[-87.86611111111111,34.765277777777776],[-87.86611111111111,34.765277777777776],[-87.80361111111111,34.74638888888889],[-87.55805555555555,34.67166666666667],[-87.55805555555555,34.67166666666667],[-87.33638888888889,34.615],[-87.33638888888889,34.615],[-87.33638888888889,34.615],[-87.33638888888889,34.615],[-86.91833333333334,34.53805555555555],[-86.76305555555555,34.49888888888889],[-86.69777777777779,34.481944444444444],[-86.60666666666665,34.45777777777778],[-86.60666666666665,34.45777777777778],[-86.23388888888888,34.35944444444445],[-86.23388888888888,34.35944444444445],[-86.07888888888888,34.31861111111112],[-86.07888888888888,34.31861111111112],[-85.98777777777778,34.294999999999995],[-85.84055555555555,34.25666666666667],[-85.78305555555555,34.24166666666667],[-85.71055555555556,34.22277777777778],[-85.71055555555556,34.22277777777778],[-85.64194444444445,34.20472222222222],[-85.64194444444445,34.20472222222222],[-85.43388888888889,34.14972222222222],[-85.29138888888889,34.11194444444445],[-85.29138888888889,34.11194444444445],[-85.29138888888889,34.11194444444445],[-85.04194444444444,34.03777777777778],[-85.04194444444444,34.03777777777778],[-85.04194444444444,34.03777777777778],[-85.04194444444444,34.03777777777778],[-84.94361111111111,33.97277777777778],[-84.75305555555556,33.84638888888889],[-84.75305555555556,33.84638888888889],[-84.75305555555556,33.84638888888889],[-84.65,33.78333333333333],[-84.65,33.78333333333333],[-84.58999999999999,33.73916666666667],[-84.58999999999999,33.73916666666667],[-84.4,33.733333333333334],[-84.4,33.733333333333334],[-84.4,33.733333333333334],[-84.26361111111112,33.7325],[-84.26361111111112,33.7325],[-84.26361111111112,33.7325],[-84.235,33.68527777777778],[-84.235,33.68527777777778],[-84.4363888888889,33.64944444444444],[-84.4363888888889,33.64944444444444],[-84.4363888888889,33.64944444444444],[-84.4363888888889,33.64944444444444]],"type":"LineString"}
}
