{
  "id": 2031506767,
  "type": "Feature",
  "properties": {
    "geom:area": 0,
    "geom:bbox": "-122.359310,37.425700,-121.245940,37.639710",
    "geom:latitude": 37.546249065531796,
    "geom:longitude": -121.8205050477202,
    "src:alt_label": "swim-approach",
    "src:geom": "swim",
    "swim:elevations": [
      4837,
      4722,
      4357,
      4196,
      3921,
      3718,
      3599,
      3466,
      3394,
      3298,
      3213,
      3174,
      3048,
      3048,
      3048,
      3048,
      2964,
      2910,
      2744,
      2743,
      2743,
      2743,
      2672,
      2577,
      2446,
      2438,
      2183,
      2150,
      2134,
      2134,
      2134,
      2051,
      1789,
      1556,
      1422,
      1127,
      1045,
      877,
      783,
      732,
      523,
      380,
      347,
      306,
      197,
      121,
      28
    ],
    "swim:geom": "approach",
    "swim:timestamps": [
      1781221530,
      1781221541,
      1781221580,
      1781221602,
      1781221633,
      1781221657,
      1781221673,
      1781221688,
      1781221697,
      1781221711,
      1781221731,
      1781221742,
      1781221796,
      1781221827,
      1781221835,
      1781221868,
      1781221883,
      1781221895,
      1781221933,
      1781221970,
      1781221999,
      1781222030,
      1781222048,
      1781222061,
      1781222085,
      1781222109,
      1781222157,
      1781222171,
      1781222215,
      1781222240,
      1781222265,
      1781222286,
      1781222327,
      1781222360,
      1781222379,
      1781222423,
      1781222438,
      1781222485,
      1781222516,
      1781222524,
      1781222572,
      1781222606,
      1781222615,
      1781222630,
      1781222663,
      1781222686,
      1781222717
    ],
    "wof:geomhash": "84c4a4481b339fc38faf9297c21b50b9",
    "wof:id": 2031506767,
    "wof:repo": "sfomuseum-data-flights-2026-06"
  },
  "bbox": [
    -122.35931,
    37.4257,
    -121.24594,
    37.63971
  ],
  "geometry": {"coordinates":[[-121.24594,37.5952],[-121.26607,37.59247],[-121.33642,37.58433],[-121.37723,37.57966],[-121.43218,37.57341],[-121.47548,37.56833],[-121.50377,37.56507],[-121.5302,37.56199],[-121.54595,37.56012],[-121.57106,37.55714],[-121.60534,37.55308],[-121.62339,37.5509],[-121.69489,37.58087],[-121.72659,37.60373],[-121.73549,37.61012],[-121.7713,37.63467],[-121.79216,37.63971],[-121.8088,37.63866],[-121.86426,37.63153],[-121.91489,37.61663],[-121.92503,37.58422],[-121.89611,37.55845],[-121.87342,37.55008],[-121.85723,37.54414],[-121.82663,37.53262],[-121.79593,37.52042],[-121.78265,37.47014],[-121.78836,37.45474],[-121.84221,37.43008],[-121.87776,37.4257],[-121.91354,37.42636],[-121.94106,37.43568],[-121.99084,37.45671],[-122.02969,37.47316],[-122.05221,37.48274],[-122.10248,37.50399],[-122.11935,37.51112],[-122.16879,37.53194],[-122.19842,37.54454],[-122.20601,37.54772],[-122.25275,37.56741],[-122.28277,37.57995],[-122.28976,37.58289],[-122.30099,37.58765],[-122.32353,37.59709],[-122.33913,37.60358],[-122.35931,37.6123]],"type":"LineString"}
}
