{
  "id": 2031486551,
  "type": "Feature",
  "properties": {
    "geom:area": 0,
    "geom:bbox": "-122.478611,37.631111,-111.250278,48.154167",
    "geom:latitude": 43.10763152070783,
    "geom:longitude": -117.1179813716473,
    "src:alt_label": "swim-path",
    "src:geom": "swim",
    "swim:altitudes": [
      "008",
      "016",
      "016",
      "050",
      "050",
      "071",
      "090",
      "109",
      "129",
      "129",
      "198",
      "198",
      "198",
      "220",
      "220",
      "220",
      "265",
      "308",
      "318",
      "318",
      "330C",
      "330C",
      "330C",
      "330C",
      "330C",
      "330C",
      "330C",
      "330C",
      "330C",
      "330C",
      "330C",
      "330C",
      "330C",
      "330C",
      "330C",
      "330C",
      "342",
      "342",
      "350C",
      "350C",
      "350C",
      "350C",
      "350C",
      "350C",
      "350C",
      "350C",
      "350C",
      "350C",
      "350C",
      "350C",
      "350C",
      "350C",
      "350C",
      "350C",
      "350C",
      "350C",
      "350C",
      "350C",
      "350C",
      "350C",
      "350C",
      "350C",
      "350C",
      "350C",
      "350C",
      "350C",
      "350C",
      "350C",
      "350C",
      "350C",
      "350C",
      "350C",
      "350C",
      "350C",
      "350C",
      "350C",
      "350C",
      "350C",
      "350C",
      "350C",
      "350C",
      "350C",
      "350C",
      "350C",
      "350C"
    ],
    "swim:geom": "path",
    "swim:speeds": [
      162,
      156,
      156,
      272,
      272,
      282,
      297,
      315,
      325,
      325,
      420,
      420,
      420,
      442,
      442,
      442,
      472,
      484,
      496,
      496,
      498,
      498,
      501,
      503,
      503,
      503,
      500,
      500,
      504,
      510,
      524,
      524,
      524,
      547,
      547,
      547,
      543,
      543,
      540,
      540,
      540,
      540,
      541,
      541,
      542,
      542,
      542,
      543,
      547,
      547,
      550,
      553,
      553,
      556,
      556,
      555,
      555,
      552,
      552,
      550,
      549,
      547,
      547,
      546,
      546,
      543,
      543,
      548,
      548,
      553,
      553,
      554,
      557,
      557,
      557,
      560,
      560,
      560,
      557,
      557,
      556,
      556,
      553,
      553,
      553
    ],
    "swim:timestamps": [
      1780958111,
      1780958126,
      1780958126,
      1780958351,
      1780958351,
      1780958411,
      1780958471,
      1780958531,
      1780958591,
      1780958591,
      1780958892,
      1780958892,
      1780958892,
      1780959012,
      1780959012,
      1780959012,
      1780959192,
      1780959372,
      1780959432,
      1780959432,
      1780959493,
      1780959553,
      1780959853,
      1780959913,
      1780959973,
      1780959973,
      1780960099,
      1780960099,
      1780960219,
      1780960274,
      1780960399,
      1780960399,
      1780960399,
      1780960634,
      1780960634,
      1780960640,
      1780960760,
      1780960760,
      1780960940,
      1780960940,
      1780960940,
      1780961120,
      1780961180,
      1780961180,
      1780961301,
      1780961301,
      1780961301,
      1780961481,
      1780961601,
      1780961601,
      1780961661,
      1780961781,
      1780961781,
      1780961961,
      1780961961,
      1780962082,
      1780962082,
      1780962202,
      1780962202,
      1780962322,
      1780962382,
      1780962442,
      1780962442,
      1780962562,
      1780962562,
      1780962742,
      1780962742,
      1780962923,
      1780962923,
      1780963043,
      1780963043,
      1780963115,
      1780963235,
      1780963235,
      1780963235,
      1780963487,
      1780963487,
      1780963487,
      1780963728,
      1780963728,
      1780963788,
      1780963788,
      1780963908,
      1780963908,
      1780963908
    ],
    "wof:geomhash": "db759d0e0e20d5bdc210ca44e585985d",
    "wof:id": 2031486551,
    "wof:repo": "sfomuseum-data-flights-2026-06"
  },
  "bbox": [
    -122.4786111111111,
    37.63111111111111,
    -111.25027777777778,
    48.15416666666667
  ],
  "geometry": {"coordinates":[[-122.40305555555557,37.63111111111111],[-122.41666666666667,37.63333333333333],[-122.41666666666667,37.63333333333333],[-122.4786111111111,37.79277777777778],[-122.4786111111111,37.79277777777778],[-122.43416666666667,37.86194444444445],[-122.38472222222222,37.934999999999995],[-122.33277777777778,38.01138888888889],[-122.27833333333334,38.092222222222226],[-122.27833333333334,38.092222222222226],[-121.91166666666668,38.5475],[-121.91166666666668,38.5475],[-121.91166666666668,38.5475],[-121.72638888888889,38.74166666666667],[-121.72638888888889,38.74166666666667],[-121.72638888888889,38.74166666666667],[-121.4413888888889,39.03722222222222],[-121.12805555555555,39.35861111111111],[-121.02027777777778,39.468611111111116],[-121.02027777777778,39.468611111111116],[-120.91083333333334,39.57944444444445],[-120.80333333333333,39.687777777777775],[-120.24777777777778,40.24166666666667],[-120.13527777777779,40.352222222222224],[-120.02222222222223,40.46333333333334],[-120.02222222222223,40.46333333333334],[-119.77527777777777,40.703611111111115],[-119.77527777777777,40.703611111111115],[-119.54833333333333,40.9225],[-119.45055555555555,41.01638888888889],[-119.19444444444444,41.26888888888889],[-119.19444444444444,41.26888888888889],[-119.19444444444444,41.26888888888889],[-118.73444444444445,41.72833333333333],[-118.73444444444445,41.72833333333333],[-118.71111111111111,41.751666666666665],[-118.46527777777779,41.99388888888889],[-118.46527777777779,41.99388888888889],[-118.12027777777777,42.32944444444445],[-118.12027777777777,42.32944444444445],[-118.12027777777777,42.32944444444445],[-117.745,42.68944444444444],[-117.62027777777777,42.80777777777777],[-117.62027777777777,42.80777777777777],[-117.36833333333333,43.04527777777778],[-117.36833333333333,43.04527777777778],[-117.36833333333333,43.04527777777778],[-116.98472222222222,43.40222222222222],[-116.69944444444445,43.66416666666667],[-116.69944444444445,43.66416666666667],[-116.56916666666666,43.782777777777774],[-116.30333333333333,44.02305555555555],[-116.30333333333333,44.02305555555555],[-115.905,44.378055555555555],[-115.905,44.378055555555555],[-115.63583333333334,44.615],[-115.63583333333334,44.615],[-115.36444444444444,44.85111111111111],[-115.36444444444444,44.85111111111111],[-115.08972222222222,45.087500000000006],[-114.95555555555556,45.20194444444445],[-114.81722222222221,45.31944444444445],[-114.81722222222221,45.31944444444445],[-114.54083333333332,45.55222222222222],[-114.54083333333332,45.55222222222222],[-114.12333333333332,45.89888888888889],[-114.12333333333332,45.89888888888889],[-113.69916666666667,46.2475],[-113.69916666666667,46.2475],[-113.41250000000001,46.48083333333334],[-113.41250000000001,46.48083333333334],[-113.26777777777778,46.597500000000004],[-112.94500000000001,46.855000000000004],[-112.94500000000001,46.855000000000004],[-112.94500000000001,46.855000000000004],[-112.35416666666666,47.318333333333335],[-112.35416666666666,47.318333333333335],[-112.35416666666666,47.318333333333335],[-111.71333333333334,47.808055555555555],[-111.71333333333334,47.808055555555555],[-111.58944444444444,47.90138888888889],[-111.58944444444444,47.90138888888889],[-111.25027777777778,48.15416666666667],[-111.25027777777778,48.15416666666667],[-111.25027777777778,48.15416666666667]],"type":"LineString"}
}
