{
  "id": 2031465953,
  "type": "Feature",
  "properties": {
    "date:cessation_lower": "2026-06-06",
    "date:cessation_upper": "2026-06-06",
    "date:inception_lower": "2026-06-06",
    "date:inception_upper": "2026-06-06",
    "edtf:cessation": "2026-06-06T02:09:52-07:00",
    "edtf:inception": "2026-06-06T12:55:00Z",
    "flysfo:actual_timestamp": -1,
    "flysfo:airline": "UA",
    "flysfo:base_airline": "",
    "flysfo:base_flight_number": "4685",
    "flysfo:date": "2026-06-06",
    "flysfo:estimated_timestamp": 1780762860,
    "flysfo:event": "A",
    "flysfo:flight_number": "UA2778",
    "flysfo:gate": "D5",
    "flysfo:journey": "OMA-SFO",
    "flysfo:scheduled_timestamp": 1780763280,
    "flysfo:timestamp": 1780763280,
    "geom:area": 0,
    "geom:bbox": "-122.370943,37.617990,-95.897601,41.301438",
    "geom:latitude": 39.459714,
    "geom:longitude": -109.134272,
    "iata:airline": "UA",
    "iata:base_airline": "",
    "icao:aircraft": "A320",
    "icao:airline": "UAL",
    "icao:base_airline": "ACA",
    "lbl:latitude": 37.616825,
    "lbl:longitude": -122.381021,
    "sfomuseum:aircraft_id": 1159292085,
    "sfomuseum:airline_id": 1159285413,
    "sfomuseum:arrival_id": 102527513,
    "sfomuseum:base_flight_id": "20260606-A-ACA-4685",
    "sfomuseum:departure_id": 102524739,
    "sfomuseum:flight_id": "20260606-A-UAL-2778",
    "sfomuseum:flight_number": [
      "UAL2778",
      "UA2778"
    ],
    "sfomuseum:placetype": "flight",
    "src:geom": "flysfo",
    "src:geom_alt": [
      "swim-route",
      "swim-path",
      "swim-approach"
    ],
    "swim:tail_number": "N483UA",
    "wof:belongsto": [
      1947304067,
      102527513,
      1947304595,
      102191575,
      85633793,
      102087579,
      85922583,
      554784711,
      85688637,
      1947304607,
      1947304591,
      102085387
    ],
    "wof:concordances": {
      "swim:flight_ref": "148545885",
      "swim:gufi": "KP4252577Z"
    },
    "wof:country": "US",
    "wof:created": 1780848494,
    "wof:geomhash": "a4023a41644574291fc7580f5443d9f4",
    "wof:hierarchy": [
      {
        "building_id": 1947304067,
        "campus_id": 102527513,
        "concourse_id": 1947304595,
        "continent_id": 102191575,
        "country_id": 85633793,
        "county_id": 102087579,
        "custom_id": 2031465953,
        "flight_id": 2031465953,
        "locality_id": 85922583,
        "postalcode_id": 554784711,
        "region_id": 85688637,
        "venue_id": 1947304607,
        "wing_id": 1947304591
      },
      {
        "building_id": 1947304067,
        "campus_id": 102527513,
        "concourse_id": 1947304595,
        "continent_id": 102191575,
        "country_id": 85633793,
        "county_id": 102085387,
        "custom_id": 2031465953,
        "flight_id": 2031465953,
        "region_id": 85688637,
        "venue_id": 1947304607,
        "wing_id": 1947304591
      }
    ],
    "wof:id": 2031465953,
    "wof:involves": [
      1947304607,
      1159283597,
      1159292085,
      102527513,
      102524739,
      1159285413
    ],
    "wof:lastmodified": 1780849098,
    "wof:name": "UA2778 (OMA-SFO)",
    "wof:parent_id": 1947304607,
    "wof:placetype": "custom",
    "wof:placetype_alt": [
      "flight"
    ],
    "wof:repo": "sfomuseum-data-flights-2026-06",
    "wof:superseded_by": [],
    "wof:supersedes": []
  },
  "bbox": [
    -122.370943,
    37.61799,
    -95.897601,
    41.301438
  ],
  "geometry": {"coordinates":[[-95.897601,41.301438],[-122.370943,37.61799]],"type":"MultiPoint"}
}
