{
  "id": 2031544569,
  "type": "Feature",
  "properties": {
    "geom:area": 0,
    "geom:bbox": "-122.844140,37.367320,-122.094190,38.486640",
    "geom:latitude": 37.75760249629522,
    "geom:longitude": -122.47834231157134,
    "src:alt_label": "swim-approach",
    "src:geom": "swim",
    "swim:elevations": [
      7529,
      7304,
      7154,
      6862,
      6589,
      6466,
      6136,
      5970,
      5720,
      5454,
      5391,
      4923,
      4878,
      4396,
      4246,
      3849,
      3573,
      3446,
      3350,
      3353,
      3353,
      3353,
      3353,
      3098,
      2932,
      2762,
      2554,
      2404,
      2298,
      2074,
      1880,
      1525,
      1371,
      1285,
      1219,
      1219,
      1187,
      1035,
      961,
      945,
      819,
      678,
      455,
      442,
      363,
      274,
      219,
      567,
      906,
      945,
      945,
      1006,
      1265,
      1492,
      1543,
      1556,
      1797
    ],
    "swim:geom": "approach",
    "swim:timestamps": [
      1781536425,
      1781536448,
      1781536466,
      1781536497,
      1781536525,
      1781536539,
      1781536573,
      1781536591,
      1781536617,
      1781536647,
      1781536654,
      1781536705,
      1781536710,
      1781536762,
      1781536778,
      1781536820,
      1781536851,
      1781536871,
      1781536904,
      1781536924,
      1781536977,
      1781537002,
      1781537018,
      1781537063,
      1781537087,
      1781537114,
      1781537143,
      1781537176,
      1781537203,
      1781537240,
      1781537260,
      1781537301,
      1781537335,
      1781537357,
      1781537398,
      1781537401,
      1781537445,
      1781537482,
      1781537511,
      1781537530,
      1781537560,
      1781537584,
      1781537632,
      1781537637,
      1781537656,
      1781537678,
      1781537717,
      1781537755,
      1781537784,
      1781537817,
      1781537833,
      1781537844,
      1781537874,
      1781537897,
      1781537938,
      1781537946,
      1781537977
    ],
    "wof:geomhash": "9666383c480021b185c44c4d108fabb4",
    "wof:id": 2031544569,
    "wof:repo": "sfomuseum-data-flights-2026-06"
  },
  "bbox": [
    -122.84414,
    37.36732,
    -122.09419,
    38.48664
  ],
  "geometry": {"coordinates":[[-122.84414,38.48664],[-122.83152,38.44378],[-122.82236,38.41179],[-122.80615,38.35581],[-122.79158,38.30622],[-122.78427,38.28167],[-122.76668,38.22131],[-122.75792,38.19147],[-122.74452,38.14534],[-122.73,38.09548],[-122.7265,38.08323],[-122.70193,37.99888],[-122.69967,37.99111],[-122.67276,37.9071],[-122.65673,37.88475],[-122.60309,37.83336],[-122.56464,37.79702],[-122.53933,37.77313],[-122.50002,37.73594],[-122.4778,37.71489],[-122.41939,37.66053],[-122.39275,37.63527],[-122.37527,37.61868],[-122.34072,37.56466],[-122.32367,37.53519],[-122.30414,37.50301],[-122.29406,37.46695],[-122.30864,37.42476],[-122.31344,37.39208],[-122.27637,37.36732],[-122.25122,37.37354],[-122.20613,37.3996],[-122.16885,37.42035],[-122.14702,37.43233],[-122.10776,37.4556],[-122.10587,37.45791],[-122.09419,37.49425],[-122.12591,37.51409],[-122.15349,37.52557],[-122.17165,37.533],[-122.20109,37.54558],[-122.22492,37.55571],[-122.26975,37.5745],[-122.27376,37.57617],[-122.28926,37.58258],[-122.30701,37.59006],[-122.33945,37.60371],[-122.37788,37.60993],[-122.41162,37.61166],[-122.4543,37.61415],[-122.47477,37.61527],[-122.48974,37.61599],[-122.52227,37.59957],[-122.53114,37.57501],[-122.54538,37.52692],[-122.54797,37.51831],[-122.54849,37.48252]],"type":"LineString"}
}
