{
  "id": 2031493019,
  "type": "Feature",
  "properties": {
    "geom:area": 0,
    "geom:bbox": "-122.763540,37.279370,-122.106920,38.218200",
    "geom:latitude": 37.602852607356276,
    "geom:longitude": -122.41427316417321,
    "src:alt_label": "swim-approach",
    "src:geom": "swim",
    "swim:elevations": [
      5998,
      5523,
      5426,
      5280,
      4967,
      4417,
      4350,
      3835,
      3552,
      3465,
      3353,
      3353,
      3353,
      3353,
      3353,
      3353,
      3067,
      2970,
      2895,
      2773,
      2743,
      2710,
      2601,
      2505,
      2436,
      2438,
      2446,
      2438,
      2438,
      2287,
      2215,
      2135,
      2122,
      1985,
      1939,
      1782,
      1688,
      1425,
      1312,
      1220,
      1219,
      1132,
      912,
      821,
      668,
      577,
      331,
      209,
      122,
      78
    ],
    "swim:geom": "approach",
    "swim:timestamps": [
      1781025829,
      1781025878,
      1781025887,
      1781025903,
      1781025934,
      1781025986,
      1781025995,
      1781026045,
      1781026074,
      1781026085,
      1781026119,
      1781026152,
      1781026191,
      1781026215,
      1781026247,
      1781026263,
      1781026312,
      1781026331,
      1781026345,
      1781026371,
      1781026395,
      1781026425,
      1781026453,
      1781026477,
      1781026500,
      1781026536,
      1781026574,
      1781026618,
      1781026657,
      1781026697,
      1781026713,
      1781026744,
      1781026809,
      1781026851,
      1781026862,
      1781026906,
      1781026923,
      1781026968,
      1781026995,
      1781027021,
      1781027048,
      1781027075,
      1781027117,
      1781027136,
      1781027175,
      1781027194,
      1781027248,
      1781027281,
      1781027308,
      1781027320
    ],
    "wof:geomhash": "82ba6374d7cf0588e1fea807e7c5e99b",
    "wof:id": 2031493019,
    "wof:repo": "sfomuseum-data-flights-2026-06"
  },
  "bbox": [
    -122.76354,
    37.27937,
    -122.10692,
    38.2182
  ],
  "geometry": {"coordinates":[[-122.76354,38.2182],[-122.73914,38.12667],[-122.73424,38.10992],[-122.72577,38.08113],[-122.70929,38.0247],[-122.68137,37.92897],[-122.67412,37.91309],[-122.60947,37.83897],[-122.56807,37.80006],[-122.55159,37.78463],[-122.50582,37.74158],[-122.46554,37.70358],[-122.42134,37.66204],[-122.39616,37.63828],[-122.36269,37.60621],[-122.35219,37.5878],[-122.32113,37.52802],[-122.30778,37.50608],[-122.29744,37.48954],[-122.27894,37.46017],[-122.26971,37.43128],[-122.27855,37.39476],[-122.2876,37.36031],[-122.29538,37.33081],[-122.31192,37.30795],[-122.34983,37.27937],[-122.40027,37.28526],[-122.45575,37.30194],[-122.49168,37.32785],[-122.47512,37.36625],[-122.45549,37.37586],[-122.41237,37.37877],[-122.32235,37.38272],[-122.26439,37.38542],[-122.24963,37.38731],[-122.20028,37.41168],[-122.18108,37.42211],[-122.13364,37.44872],[-122.11719,37.47129],[-122.10692,37.49365],[-122.12047,37.51301],[-122.14685,37.52463],[-122.18733,37.54164],[-122.20569,37.54918],[-122.24176,37.56484],[-122.25841,37.57216],[-122.30121,37.58992],[-122.32192,37.59861],[-122.339,37.60591],[-122.34668,37.60909]],"type":"LineString"}
}
