{
  "id": 2031501259,
  "type": "Feature",
  "properties": {
    "geom:area": 0,
    "geom:bbox": "-122.350000,37.447222,-104.650000,39.860000",
    "geom:latitude": 38.76075766340388,
    "geom:longitude": -113.53762353748486,
    "src:alt_label": "swim-path",
    "src:geom": "swim",
    "swim:altitudes": [
      "060",
      "060",
      "060",
      "079",
      "079",
      "087",
      "095",
      "095",
      "113",
      "113",
      "113",
      "113",
      "200",
      "200",
      "200",
      "226",
      "226",
      "232",
      "232",
      "242",
      "256",
      "256",
      "256",
      "266",
      "266",
      "266",
      "276",
      "276",
      "276",
      "320C",
      "320C",
      "320C",
      "320C",
      "320C",
      "320C",
      "320C",
      "320C",
      "320C",
      "320C",
      "320C",
      "320C",
      "320C",
      "320C",
      "320C",
      "320C",
      "320C",
      "320C",
      "320C",
      "320C",
      "320C",
      "320C",
      "320C",
      "320C",
      "320C",
      "320C",
      "320C",
      "320C",
      "320C",
      "320C",
      "320C",
      "320C",
      "320C",
      "320C",
      "320C",
      "320C",
      "320C",
      "320C",
      "320C",
      "320C",
      "320C",
      "320C",
      "320C",
      "320C",
      "320C",
      "320C",
      "320C",
      "320C",
      "320C",
      "320C",
      "320C",
      "320C",
      "320C",
      "320C",
      "320C",
      "320C",
      "320C",
      "320C",
      "320C",
      "320C",
      "320C",
      "320C",
      "320C",
      "320C",
      "320C",
      "320C",
      "320C",
      "320C",
      "320C",
      "320C",
      "320C",
      "320C",
      "320C",
      "320C",
      "320C",
      "320C",
      "320C",
      "320C",
      "320C",
      "320C",
      "320C",
      "266",
      "266",
      "241",
      "214",
      "168",
      "168",
      "159",
      "147",
      "138",
      "103",
      "103",
      "103",
      "100",
      "100",
      "086",
      "078",
      "071",
      "071",
      "070",
      "070",
      "061",
      "061",
      "042",
      "019",
      "013",
      "013",
      "003"
    ],
    "swim:geom": "path",
    "swim:speeds": [
      179,
      179,
      179,
      241,
      241,
      266,
      271,
      271,
      280,
      280,
      280,
      280,
      279,
      279,
      279,
      283,
      283,
      312,
      312,
      325,
      359,
      359,
      359,
      366,
      366,
      366,
      372,
      372,
      372,
      385,
      385,
      385,
      386,
      379,
      379,
      379,
      377,
      377,
      382,
      382,
      382,
      384,
      390,
      390,
      390,
      395,
      395,
      390,
      390,
      391,
      391,
      395,
      396,
      396,
      397,
      402,
      402,
      407,
      407,
      399,
      399,
      414,
      409,
      409,
      412,
      412,
      412,
      415,
      415,
      415,
      413,
      413,
      413,
      418,
      418,
      417,
      417,
      413,
      416,
      416,
      416,
      415,
      415,
      414,
      413,
      413,
      415,
      415,
      415,
      418,
      423,
      423,
      424,
      424,
      423,
      422,
      422,
      420,
      420,
      420,
      420,
      420,
      419,
      419,
      419,
      418,
      419,
      419,
      419,
      419,
      415,
      415,
      400,
      377,
      331,
      331,
      319,
      321,
      315,
      257,
      257,
      257,
      245,
      257,
      253,
      253,
      240,
      240,
      250,
      246,
      240,
      240,
      213,
      193,
      168,
      168,
      139
    ],
    "swim:timestamps": [
      1781149262,
      1781149262,
      1781149262,
      1781149355,
      1781149355,
      1781149390,
      1781149409,
      1781149409,
      1781149510,
      1781149510,
      1781149510,
      1781149510,
      1781149691,
      1781149691,
      1781149691,
      1781149811,
      1781149811,
      1781149871,
      1781149871,
      1781149931,
      1781150051,
      1781150051,
      1781150051,
      1781150111,
      1781150111,
      1781150111,
      1781150171,
      1781150171,
      1781150171,
      1781150532,
      1781150532,
      1781150532,
      1781150592,
      1781150652,
      1781150652,
      1781150652,
      1781150772,
      1781150772,
      1781150892,
      1781150892,
      1781150892,
      1781151072,
      1781151132,
      1781151132,
      1781151132,
      1781151493,
      1781151493,
      1781151553,
      1781151553,
      1781151673,
      1781151673,
      1781151793,
      1781151853,
      1781151853,
      1781151913,
      1781152216,
      1781152216,
      1781152396,
      1781152396,
      1781152517,
      1781152517,
      1781152757,
      1781152937,
      1781152937,
      1781152997,
      1781152997,
      1781152997,
      1781153177,
      1781153177,
      1781153177,
      1781153357,
      1781153357,
      1781153417,
      1781153838,
      1781153838,
      1781153938,
      1781153998,
      1781154138,
      1781154178,
      1781154238,
      1781154358,
      1781154378,
      1781154478,
      1781154498,
      1781154618,
      1781154618,
      1781154779,
      1781154798,
      1781154798,
      1781154859,
      1781155019,
      1781155019,
      1781155079,
      1781155099,
      1781155139,
      1781155159,
      1781155159,
      1781155379,
      1781155379,
      1781155379,
      1781155439,
      1781155439,
      1781155499,
      1781155559,
      1781155559,
      1781155619,
      1781155679,
      1781155739,
      1781155739,
      1781155739,
      1781156220,
      1781156220,
      1781156275,
      1781156359,
      1781156520,
      1781156520,
      1781156539,
      1781156580,
      1781156599,
      1781156760,
      1781156760,
      1781156760,
      1781156780,
      1781156839,
      1781156900,
      1781156940,
      1781156959,
      1781156959,
      1781157020,
      1781157060,
      1781157120,
      1781157120,
      1781157200,
      1781157320,
      1781157361,
      1781157361,
      1781157440
    ],
    "wof:geomhash": "a481c06ff3dfae275a0b978bb58ad2da",
    "wof:id": 2031501259,
    "wof:repo": "sfomuseum-data-flights-2026-06"
  },
  "bbox": [
    -122.35,
    37.447222222222216,
    -104.65,
    39.86
  ],
  "geometry": {"coordinates":[[-104.65,39.833333333333336],[-104.65,39.833333333333336],[-104.65,39.833333333333336],[-104.73333333333333,39.81666666666667],[-104.73333333333333,39.81666666666667],[-104.79277777777777,39.82833333333333],[-104.81666666666666,39.833333333333336],[-104.81666666666666,39.833333333333336],[-104.98944444444444,39.844722222222224],[-104.98944444444444,39.844722222222224],[-104.98944444444444,39.844722222222224],[-104.98944444444444,39.844722222222224],[-105.28999999999999,39.85194444444445],[-105.28999999999999,39.85194444444445],[-105.28999999999999,39.85194444444445],[-105.48055555555555,39.85583333333334],[-105.48055555555555,39.85583333333334],[-105.59083333333332,39.85777777777778],[-105.59083333333332,39.85777777777778],[-105.70972222222223,39.86],[-105.96111111111111,39.83972222222222],[-105.96111111111111,39.83972222222222],[-105.96111111111111,39.83972222222222],[-106.095,39.82805555555556],[-106.095,39.82805555555556],[-106.095,39.82805555555556],[-106.22833333333334,39.816111111111105],[-106.22833333333334,39.816111111111105],[-106.22833333333334,39.816111111111105],[-107.05444444444444,39.73111111111111],[-107.05444444444444,39.73111111111111],[-107.05444444444444,39.73111111111111],[-107.19055555555556,39.71555555555556],[-107.33194444444445,39.69944444444444],[-107.33194444444445,39.69944444444444],[-107.33194444444445,39.69944444444444],[-107.59944444444444,39.66861111111111],[-107.59944444444444,39.66861111111111],[-107.87166666666666,39.63638888888889],[-107.87166666666666,39.63638888888889],[-107.87166666666666,39.63638888888889],[-108.28194444444445,39.586666666666666],[-108.4225,39.56916666666667],[-108.4225,39.56916666666667],[-108.4225,39.56916666666667],[-109.27083333333333,39.46],[-109.27083333333333,39.46],[-109.4075,39.44194444444444],[-109.4075,39.44194444444444],[-109.68388888888889,39.40472222222222],[-109.68388888888889,39.40472222222222],[-109.96388888888889,39.36611111111111],[-110.10333333333332,39.347500000000004],[-110.10333333333332,39.347500000000004],[-110.24527777777777,39.328611111111115],[-110.9525,39.230555555555554],[-110.9525,39.230555555555554],[-111.38944444444445,39.16777777777777],[-111.38944444444445,39.16777777777777],[-111.67444444444445,39.12583333333333],[-111.67444444444445,39.12583333333333],[-112.2475,39.03916666666667],[-112.67305555555556,38.973055555555554],[-112.67305555555556,38.973055555555554],[-112.81638888888888,38.95027777777778],[-112.81638888888888,38.95027777777778],[-112.81638888888888,38.95027777777778],[-113.2525,38.88],[-113.2525,38.88],[-113.2525,38.88],[-113.68166666666667,38.80916666666666],[-113.68166666666667,38.80916666666666],[-113.82444444444444,38.78527777777778],[-114.83194444444445,38.61083333333333],[-114.83194444444445,38.61083333333333],[-115.06444444444445,38.569722222222225],[-115.22888888888889,38.53972222222222],[-115.54222222222222,38.48222222222223],[-115.65833333333335,38.46055555555556],[-115.80083333333333,38.43472222222222],[-116.08638888888889,38.38027777777778],[-116.11361111111111,38.375277777777775],[-116.37166666666666,38.32472222222223],[-116.39722222222223,38.31888888888889],[-116.67777777777778,38.25555555555555],[-116.67777777777778,38.25555555555555],[-117.07305555555556,38.165277777777774],[-117.10111111111111,38.15861111111111],[-117.10111111111111,38.15861111111111],[-117.25222222222222,38.12361111111111],[-117.63166666666666,38.03583333333333],[-117.63166666666666,38.03583333333333],[-117.7761111111111,38.00361111111111],[-117.83138888888888,37.996944444444445],[-117.92194444444445,37.987500000000004],[-117.97972222222222,37.981388888888894],[-117.97972222222222,37.981388888888894],[-118.5075,37.924166666666665],[-118.5075,37.924166666666665],[-118.5075,37.924166666666665],[-118.65472222222223,37.907777777777774],[-118.65472222222223,37.907777777777774],[-118.79944444444445,37.891666666666666],[-118.94666666666667,37.875],[-118.94666666666667,37.875],[-119.07638888888889,37.86],[-119.22166666666666,37.84305555555556],[-119.36944444444444,37.825833333333335],[-119.36944444444444,37.825833333333335],[-119.36944444444444,37.825833333333335],[-120.53666666666666,37.683611111111105],[-120.53666666666666,37.683611111111105],[-120.68333333333334,37.666666666666664],[-120.88333333333334,37.65],[-121.19638888888889,37.60138888888889],[-121.19638888888889,37.60138888888889],[-121.25,37.6],[-121.30555555555556,37.58722222222222],[-121.35,37.583333333333336],[-121.5936111111111,37.56527777777777],[-121.5936111111111,37.56527777777777],[-121.5936111111111,37.56527777777777],[-121.63333333333334,37.56666666666667],[-121.7,37.53333333333333],[-121.76666666666667,37.483333333333334],[-121.79138888888889,37.455555555555556],[-121.81666666666666,37.45],[-121.81666666666666,37.45],[-121.91666666666667,37.45],[-121.96000000000001,37.447222222222216],[-122.03361111111111,37.47694444444445],[-122.03361111111111,37.47694444444445],[-122.13333333333334,37.516666666666666],[-122.25,37.56666666666667],[-122.28111111111112,37.58166666666667],[-122.28111111111112,37.58166666666667],[-122.35,37.6]],"type":"LineString"}
}
