{
  "id": 2031587043,
  "type": "Feature",
  "properties": {
    "geom:area": 0,
    "geom:bbox": "-122.396750,37.628440,-121.304690,38.153990",
    "geom:latitude": 37.985368724102166,
    "geom:longitude": -121.96274589506599,
    "src:alt_label": "swim-takeoff",
    "src:geom": "swim",
    "swim:elevations": [
      276,
      534,
      741,
      1000,
      1265,
      1649,
      2315,
      2865,
      3177,
      3317,
      3652,
      4006,
      4159,
      4674,
      5081,
      5441,
      5741,
      5955,
      6311,
      6597,
      6949,
      7178,
      7458,
      7723,
      7763,
      8003
    ],
    "swim:geom": "takeoff",
    "swim:timestamps": [
      1781933601,
      1781933635,
      1781933662,
      1781933677,
      1781933700,
      1781933742,
      1781933783,
      1781933815,
      1781933840,
      1781933867,
      1781933897,
      1781933931,
      1781933943,
      1781933986,
      1781934022,
      1781934055,
      1781934084,
      1781934105,
      1781934138,
      1781934165,
      1781934204,
      1781934229,
      1781934265,
      1781934295,
      1781934301,
      1781934334
    ],
    "wof:geomhash": "4d49bf21aaa6f8a34253541cfa415130",
    "wof:id": 2031587043,
    "wof:repo": "sfomuseum-data-flights-2026-06"
  },
  "bbox": [
    -122.39675,
    37.62844,
    -121.30469,
    38.15399
  ],
  "geometry": {"coordinates":[[-122.39675,37.62844],[-122.39576,37.65364],[-122.37432,37.67501],[-122.36398,37.68961],[-122.34808,37.71086],[-122.34527,37.7591],[-122.3698,37.80941],[-122.3856,37.84976],[-122.38599,37.88272],[-122.37549,37.92061],[-122.32913,37.95104],[-122.2607,37.96571],[-122.23561,37.9709],[-122.14547,37.98898],[-122.06684,38.00454],[-121.99122,38.01961],[-121.9263,38.03257],[-121.8772,38.04239],[-121.7969,38.05828],[-121.73209,38.07109],[-121.63657,38.08987],[-121.57454,38.10202],[-121.4846,38.11946],[-121.40727,38.13427],[-121.3915,38.13719],[-121.30469,38.15399]],"type":"LineString"}
}
