{
  "id": 2031528671,
  "type": "Feature",
  "properties": {
    "geom:area": 0,
    "geom:bbox": "-122.380000,37.490000,-77.460000,43.300000",
    "geom:latitude": 41.0964486558047,
    "geom:longitude": -99.54257606912164,
    "src:alt_label": "swim-route",
    "src:geom": "swim",
    "swim:geom": "route",
    "wof:geomhash": "b27362110b34cd029eeed43a70165341",
    "wof:id": 2031528671,
    "wof:repo": "sfomuseum-data-flights-2026-06"
  },
  "bbox": [
    -122.38,
    37.49,
    -77.46,
    43.3
  ],
  "geometry": {"coordinates":[[-77.46,38.95],[-77.5,39.01],[-77.52,39.03],[-77.52,39.03],[-77.54,39.05],[-77.55,39.07],[-77.56,39.09],[-77.57,39.09],[-77.58,39.12],[-77.6,39.14],[-77.62,39.16],[-77.63,39.18],[-77.72,39.3],[-77.78,39.39],[-77.81,39.45],[-77.81,39.46],[-77.83,39.49],[-77.85,39.52],[-77.86,39.54],[-77.87,39.54],[-77.88,39.54],[-77.9,39.55],[-77.99,39.58],[-77.99,39.58],[-78.11,39.61],[-78.18,39.64],[-78.26,39.66],[-78.39,39.7],[-78.4,39.7],[-78.42,39.71],[-78.43,39.71],[-78.48,39.73],[-78.5,39.73],[-78.58,39.76],[-78.67,39.82],[-78.85,39.94],[-79.27,40.15],[-80.03,40.66],[-80.24,40.8],[-80.45,40.94],[-80.88,41.21],[-80.96,41.27],[-81.81,41.8],[-82.24,42.06],[-83.34,42.73],[-83.75,42.97],[-85,43.09],[-86.27,43.2],[-86.37,43.2],[-86.47,43.19],[-87,43.17],[-88.28,43.12],[-88.51,43.12],[-88.7,43.12],[-89.11,43.13],[-89.17,43.13],[-89.86,43.13],[-90.27,43.21],[-90.39,43.24],[-90.62,43.3],[-90.69,43.29],[-90.77,43.29],[-90.88,43.3],[-91.17,43.28],[-91.27,43.27],[-91.43,43.26],[-91.73,43.24],[-91.93,43.22],[-92.86,43.14],[-93.05,43.12],[-93.33,43.09],[-94.08,43.02],[-94.35,43],[-94.71,42.96],[-95.47,42.88],[-96.23,42.79],[-97.46,42.64],[-98.54,42.49],[-98.69,42.47],[-99.31,42.36],[-99.54,42.32],[-99.68,42.29],[-100.12,42.21],[-101.11,42.01],[-102.03,41.82],[-102.93,41.63],[-104.55,41.26],[-104.77,41.21],[-105.24,41.13],[-105.71,41.04],[-105.89,41.01],[-106.12,40.97],[-106.4,40.92],[-108.32,40.53],[-108.52,40.5],[-109.14,40.37],[-109.58,40.27],[-111.11,39.94],[-113.28,39.42],[-113.43,39.38],[-115.44,38.86],[-116.73,38.5],[-117.09,38.4],[-117.28,38.34],[-117.31,38.33],[-117.43,38.3],[-117.57,38.21],[-117.76,37.96],[-118.76,37.9],[-119.1,37.86],[-119.99,37.75],[-120.04,37.74],[-120.26,37.72],[-120.28,37.72],[-120.38,37.7],[-120.4,37.7],[-120.75,37.66],[-120.78,37.66],[-120.83,37.65],[-120.96,37.63],[-121,37.63],[-121.08,37.62],[-121.18,37.6],[-121.26,37.59],[-121.39,37.58],[-121.41,37.58],[-121.6,37.55],[-121.61,37.55],[-121.62,37.55],[-121.7,37.53],[-121.8,37.51],[-121.83,37.5],[-121.88,37.49],[-122.08,37.54],[-122.14,37.56],[-122.18,37.57],[-122.28,37.59],[-122.33,37.61],[-122.36,37.61],[-122.38,37.62]],"type":"LineString"}
}
