{
  "id": 2031674975,
  "type": "Feature",
  "properties": {
    "geom:area": 0,
    "geom:bbox": "-122.526700,37.628690,-121.244090,37.966850",
    "geom:latitude": 37.84196669090803,
    "geom:longitude": -121.98058521552848,
    "src:alt_label": "swim-takeoff",
    "src:geom": "swim",
    "swim:elevations": [
      322,
      566,
      655,
      819,
      1045,
      1423,
      1808,
      2099,
      2514,
      3041,
      3386,
      3420,
      3731,
      4038,
      4296,
      4720,
      5037,
      5286,
      5459,
      5641,
      5729,
      5791,
      5828,
      5961,
      6120,
      6193,
      6486,
      6676,
      6829,
      7088,
      7323,
      7454
    ],
    "swim:geom": "takeoff",
    "swim:timestamps": [
      1782800276,
      1782800305,
      1782800314,
      1782800341,
      1782800370,
      1782800396,
      1782800423,
      1782800444,
      1782800470,
      1782800506,
      1782800547,
      1782800550,
      1782800578,
      1782800603,
      1782800629,
      1782800664,
      1782800695,
      1782800719,
      1782800737,
      1782800755,
      1782800766,
      1782800815,
      1782800835,
      1782800866,
      1782800894,
      1782800903,
      1782800935,
      1782800965,
      1782800987,
      1782801018,
      1782801052,
      1782801075
    ],
    "wof:geomhash": "2673f83ef109013ccb149a0674ffc371",
    "wof:id": 2031674975,
    "wof:repo": "sfomuseum-data-flights-2026-06"
  },
  "bbox": [
    -122.5267,
    37.62869,
    -121.24409,
    37.96685
  ],
  "geometry": {"coordinates":[[-122.39829,37.62869],[-122.42462,37.64011],[-122.4335,37.644],[-122.46407,37.6575],[-122.50216,37.67428],[-122.52334,37.70066],[-122.52569,37.73511],[-122.5267,37.76271],[-122.52054,37.79508],[-122.47459,37.8235],[-122.40492,37.84172],[-122.39936,37.84235],[-122.34737,37.84759],[-122.29925,37.83986],[-122.2473,37.82727],[-122.17663,37.81018],[-122.11412,37.81127],[-122.06569,37.82045],[-122.02928,37.8267],[-121.99103,37.83349],[-121.96783,37.83768],[-121.86589,37.85615],[-121.82409,37.86367],[-121.75513,37.87617],[-121.69062,37.88782],[-121.66872,37.89177],[-121.59142,37.90556],[-121.51891,37.91844],[-121.46614,37.92779],[-121.38639,37.94188],[-121.30186,37.95671],[-121.24409,37.96685]],"type":"LineString"}
}
