{
  "id": 2031505777,
  "type": "Feature",
  "properties": {
    "geom:area": 0,
    "geom:bbox": "-122.416667,37.650000,-122.117222,47.872500",
    "geom:latitude": 42.72030985244881,
    "geom:longitude": -122.21423715012425,
    "src:alt_label": "swim-path",
    "src:geom": "swim",
    "swim:altitudes": [
      "015",
      "015",
      "015",
      "032",
      "032",
      "032",
      "067",
      "091",
      "091",
      "091",
      "091",
      "108",
      "141",
      "141",
      "141",
      "141",
      "173",
      "173",
      "190",
      "190",
      "217",
      "217",
      "217",
      "217",
      "258",
      "258",
      "258",
      "258",
      "269",
      "269",
      "269",
      "312",
      "312",
      "323",
      "323",
      "323",
      "323",
      "332",
      "332",
      "340C",
      "340C",
      "340C",
      "340C",
      "340C",
      "340C",
      "340C",
      "340C",
      "340C",
      "340C",
      "340C",
      "340C",
      "340C",
      "340C",
      "340C",
      "340C",
      "340C",
      "340C",
      "340C",
      "340C",
      "340C",
      "340C",
      "340C",
      "340C",
      "340C",
      "340C",
      "340C",
      "340C",
      "340C",
      "340C",
      "340C",
      "340C",
      "340C",
      "340C",
      "340C",
      "340C",
      "340C",
      "340C",
      "340C",
      "340C",
      "340C",
      "340C",
      "340C",
      "340C",
      "340C",
      "340C",
      "340C",
      "340C",
      "340C",
      "340C",
      "340C",
      "340C",
      "340C",
      "340C",
      "340C",
      "340C",
      "340C",
      "340C",
      "340C",
      "340C",
      "340C",
      "340C",
      "340C",
      "340C",
      "340C",
      "340C",
      "340C",
      "340C",
      "340C",
      "340C",
      "340C",
      "340C",
      "340C",
      "340C",
      "340C",
      "340C",
      "340C",
      "340C",
      "340C",
      "340C",
      "340C",
      "340C",
      "340C",
      "340C",
      "340C",
      "340C",
      "340C",
      "340C",
      "340C",
      "340C",
      "340C",
      "340C",
      "340C",
      "340C",
      "340C",
      "340C",
      "340C",
      "340C",
      "340C",
      "340C",
      "340C",
      "296",
      "296",
      "296",
      "296"
    ],
    "swim:geom": "path",
    "swim:speeds": [
      190,
      190,
      190,
      201,
      201,
      201,
      264,
      274,
      274,
      274,
      274,
      299,
      345,
      345,
      345,
      345,
      363,
      363,
      368,
      368,
      386,
      386,
      386,
      386,
      412,
      412,
      412,
      412,
      419,
      419,
      419,
      442,
      442,
      443,
      443,
      443,
      443,
      443,
      443,
      441,
      441,
      441,
      440,
      440,
      437,
      437,
      437,
      435,
      435,
      435,
      435,
      435,
      435,
      435,
      435,
      435,
      435,
      435,
      436,
      436,
      436,
      437,
      437,
      438,
      439,
      439,
      440,
      440,
      440,
      440,
      440,
      440,
      440,
      440,
      440,
      440,
      440,
      442,
      442,
      442,
      442,
      441,
      441,
      440,
      440,
      440,
      439,
      439,
      439,
      439,
      439,
      439,
      438,
      438,
      438,
      425,
      425,
      425,
      422,
      422,
      426,
      426,
      428,
      428,
      428,
      424,
      424,
      424,
      423,
      423,
      423,
      420,
      420,
      420,
      419,
      419,
      419,
      419,
      403,
      403,
      403,
      399,
      399,
      399,
      398,
      398,
      398,
      391,
      391,
      391,
      391,
      383,
      383,
      381,
      381,
      381,
      380,
      380,
      380,
      380,
      389,
      389,
      389,
      389
    ],
    "swim:timestamps": [
      1781142599,
      1781142599,
      1781142599,
      1781142646,
      1781142646,
      1781142646,
      1781142766,
      1781142826,
      1781142826,
      1781142826,
      1781142826,
      1781142886,
      1781143007,
      1781143007,
      1781143007,
      1781143007,
      1781143127,
      1781143127,
      1781143187,
      1781143187,
      1781143307,
      1781143307,
      1781143307,
      1781143307,
      1781143487,
      1781143487,
      1781143487,
      1781143487,
      1781143547,
      1781143547,
      1781143547,
      1781143787,
      1781143787,
      1781143847,
      1781143847,
      1781143847,
      1781143847,
      1781143902,
      1781143902,
      1781144264,
      1781144264,
      1781144264,
      1781144328,
      1781144328,
      1781144448,
      1781144448,
      1781144448,
      1781144508,
      1781144508,
      1781144508,
      1781144628,
      1781144628,
      1781144628,
      1781144688,
      1781144688,
      1781144809,
      1781144809,
      1781144809,
      1781144869,
      1781144869,
      1781144869,
      1781144929,
      1781144929,
      1781144989,
      1781145049,
      1781145049,
      1781145109,
      1781145109,
      1781145109,
      1781145109,
      1781145223,
      1781145223,
      1781145223,
      1781145223,
      1781145343,
      1781145343,
      1781145343,
      1781145463,
      1781145463,
      1781145463,
      1781145463,
      1781145583,
      1781145583,
      1781145643,
      1781145643,
      1781145643,
      1781145763,
      1781145763,
      1781145823,
      1781145823,
      1781145823,
      1781145823,
      1781145943,
      1781145943,
      1781145943,
      1781146124,
      1781146124,
      1781146124,
      1781146184,
      1781146184,
      1781146244,
      1781146244,
      1781146484,
      1781146484,
      1781146484,
      1781146604,
      1781146604,
      1781146604,
      1781146664,
      1781146664,
      1781146664,
      1781146784,
      1781146784,
      1781146784,
      1781146905,
      1781146905,
      1781146905,
      1781146905,
      1781147145,
      1781147145,
      1781147145,
      1781147265,
      1781147265,
      1781147265,
      1781147325,
      1781147325,
      1781147325,
      1781147505,
      1781147505,
      1781147505,
      1781147505,
      1781147746,
      1781147746,
      1781147806,
      1781147806,
      1781147806,
      1781147866,
      1781147866,
      1781147866,
      1781147866,
      1781148046,
      1781148046,
      1781148046,
      1781148046
    ],
    "wof:geomhash": "d5a0dec387b0fc4baf114ad48f8001fd",
    "wof:id": 2031505777,
    "wof:repo": "sfomuseum-data-flights-2026-06"
  },
  "bbox": [
    -122.41666666666667,
    37.65,
    -122.11722222222221,
    47.8725
  ],
  "geometry": {"coordinates":[[-122.41666666666667,37.65],[-122.41666666666667,37.65],[-122.41666666666667,37.65],[-122.37638888888888,37.66777777777777],[-122.37638888888888,37.66777777777777],[-122.37638888888888,37.66777777777777],[-122.28166666666667,37.76166666666666],[-122.25861111111111,37.837500000000006],[-122.25861111111111,37.837500000000006],[-122.25861111111111,37.837500000000006],[-122.25861111111111,37.837500000000006],[-122.23611111111111,37.91555555555556],[-122.18222222222222,38.1],[-122.18222222222222,38.1],[-122.18222222222222,38.1],[-122.18222222222222,38.1],[-122.12527777777777,38.29333333333333],[-122.12527777777777,38.29333333333333],[-122.11722222222221,38.39555555555555],[-122.11722222222221,38.39555555555555],[-122.12944444444443,38.593333333333334],[-122.12944444444443,38.593333333333334],[-122.12944444444443,38.593333333333334],[-122.12944444444443,38.593333333333334],[-122.13305555555554,38.93472222222222],[-122.13305555555554,38.93472222222222],[-122.13305555555554,38.93472222222222],[-122.13305555555554,38.93472222222222],[-122.135,39.051944444444445],[-122.135,39.051944444444445],[-122.135,39.051944444444445],[-122.14194444444445,39.54944444444444],[-122.14194444444445,39.54944444444444],[-122.14361111111111,39.6725],[-122.14361111111111,39.6725],[-122.14361111111111,39.6725],[-122.14361111111111,39.6725],[-122.1438888888889,39.769999999999996],[-122.1438888888889,39.769999999999996],[-122.15583333333333,40.519444444444446],[-122.15583333333333,40.519444444444446],[-122.15583333333333,40.519444444444446],[-122.15777777777778,40.641666666666666],[-122.15777777777778,40.641666666666666],[-122.16083333333334,40.88361111111111],[-122.16083333333334,40.88361111111111],[-122.16083333333334,40.88361111111111],[-122.16277777777778,41.00472222222222],[-122.16277777777778,41.00472222222222],[-122.16277777777778,41.00472222222222],[-122.16638888888889,41.246944444444445],[-122.16638888888889,41.246944444444445],[-122.16638888888889,41.246944444444445],[-122.16833333333334,41.36694444444444],[-122.16833333333334,41.36694444444444],[-122.17194444444445,41.615],[-122.17194444444445,41.615],[-122.17194444444445,41.615],[-122.1738888888889,41.73722222222222],[-122.1738888888889,41.73722222222222],[-122.1738888888889,41.73722222222222],[-122.17583333333334,41.86027777777778],[-122.17583333333334,41.86027777777778],[-122.17777777777778,41.98305555555556],[-122.17944444444444,42.10916666666667],[-122.17944444444444,42.10916666666667],[-122.18138888888889,42.23305555555556],[-122.18138888888889,42.23305555555556],[-122.18138888888889,42.23305555555556],[-122.18138888888889,42.23305555555556],[-122.18472222222222,42.455555555555556],[-122.18472222222222,42.455555555555556],[-122.18472222222222,42.455555555555556],[-122.18472222222222,42.455555555555556],[-122.18861111111111,42.69944444444444],[-122.18861111111111,42.69944444444444],[-122.18861111111111,42.69944444444444],[-122.19250000000001,42.946666666666665],[-122.19250000000001,42.946666666666665],[-122.19250000000001,42.946666666666665],[-122.19250000000001,42.946666666666665],[-122.19638888888889,43.190555555555555],[-122.19638888888889,43.190555555555555],[-122.19833333333334,43.315],[-122.19833333333334,43.315],[-122.19833333333334,43.315],[-122.20222222222222,43.55777777777777],[-122.20222222222222,43.55777777777777],[-122.20416666666667,43.67944444444444],[-122.20416666666667,43.67944444444444],[-122.20416666666667,43.67944444444444],[-122.20416666666667,43.67944444444444],[-122.20805555555556,43.922777777777775],[-122.20805555555556,43.922777777777775],[-122.20805555555556,43.922777777777775],[-122.22583333333334,44.2825],[-122.22583333333334,44.2825],[-122.22583333333334,44.2825],[-122.27444444444444,44.39138888888889],[-122.27444444444444,44.39138888888889],[-122.2975,44.5075],[-122.2975,44.5075],[-122.29416666666667,44.9925],[-122.29416666666667,44.9925],[-122.29416666666667,44.9925],[-122.29305555555555,45.22527777777778],[-122.29305555555555,45.22527777777778],[-122.29305555555555,45.22527777777778],[-122.2925,45.342222222222226],[-122.2925,45.342222222222226],[-122.2925,45.342222222222226],[-122.2911111111111,45.57527777777778],[-122.2911111111111,45.57527777777778],[-122.2911111111111,45.57527777777778],[-122.28999999999999,45.805277777777775],[-122.28999999999999,45.805277777777775],[-122.28999999999999,45.805277777777775],[-122.28999999999999,45.805277777777775],[-122.2875,46.26833333333333],[-122.2875,46.26833333333333],[-122.2875,46.26833333333333],[-122.28611111111111,46.49],[-122.28611111111111,46.49],[-122.28611111111111,46.49],[-122.28527777777778,46.60027777777778],[-122.28527777777778,46.60027777777778],[-122.28527777777778,46.60027777777778],[-122.28388888888888,46.924166666666665],[-122.28388888888888,46.924166666666665],[-122.28388888888888,46.924166666666665],[-122.28388888888888,46.924166666666665],[-122.28111111111112,47.35],[-122.28111111111112,47.35],[-122.28055555555555,47.45388888888889],[-122.28055555555555,47.45388888888889],[-122.28055555555555,47.45388888888889],[-122.28,47.55888888888889],[-122.28,47.55888888888889],[-122.28,47.55888888888889],[-122.28,47.55888888888889],[-122.2786111111111,47.8725],[-122.2786111111111,47.8725],[-122.2786111111111,47.8725],[-122.2786111111111,47.8725]],"type":"LineString"}
}
