{
  "id": 2031510425,
  "type": "Feature",
  "properties": {
    "geom:area": 0,
    "geom:bbox": "-122.344590,37.447590,-121.255570,37.608250",
    "geom:latitude": 37.527695046101684,
    "geom:longitude": -121.81064121652103,
    "src:alt_label": "swim-approach",
    "src:geom": "swim",
    "swim:elevations": [
      4302,
      4252,
      4132,
      3982,
      3846,
      3520,
      3446,
      3353,
      3353,
      3353,
      3308,
      3064,
      3011,
      2838,
      2742,
      2684,
      2524,
      2308,
      2109,
      1960,
      1827,
      1731,
      1508,
      1426,
      1202,
      1165,
      1097,
      957,
      681,
      635,
      401,
      153,
      89
    ],
    "swim:geom": "approach",
    "swim:timestamps": [
      1781178926,
      1781178934,
      1781178952,
      1781178973,
      1781178996,
      1781179043,
      1781179054,
      1781179092,
      1781179119,
      1781179145,
      1781179187,
      1781179224,
      1781179247,
      1781179272,
      1781179290,
      1781179346,
      1781179371,
      1781179400,
      1781179431,
      1781179460,
      1781179488,
      1781179523,
      1781179554,
      1781179564,
      1781179614,
      1781179636,
      1781179651,
      1781179677,
      1781179707,
      1781179711,
      1781179756,
      1781179824,
      1781179839
    ],
    "wof:geomhash": "ed7bf52c252fb81b4c2fdfc5aac52082",
    "wof:id": 2031510425,
    "wof:repo": "sfomuseum-data-flights-2026-06"
  },
  "bbox": [
    -122.34459,
    37.44759,
    -121.25557,
    37.60825
  ],
  "geometry": {"coordinates":[[-121.25557,37.51801],[-121.26803,37.51901],[-121.29672,37.52143],[-121.32822,37.52423],[-121.36513,37.52751],[-121.43823,37.53419],[-121.45593,37.53581],[-121.5122,37.5408],[-121.55373,37.54455],[-121.59411,37.54812],[-121.65889,37.54499],[-121.70939,37.56172],[-121.73941,37.57621],[-121.77448,37.58755],[-121.80143,37.58235],[-121.83501,37.51913],[-121.83775,37.48824],[-121.85697,37.45645],[-121.90084,37.44759],[-121.94316,37.44831],[-121.98217,37.45487],[-122.02619,37.4733],[-122.06391,37.48989],[-122.07605,37.49512],[-122.13771,37.52107],[-122.16217,37.53143],[-122.17841,37.53834],[-122.20554,37.5498],[-122.23637,37.56275],[-122.24061,37.56453],[-122.28183,37.58187],[-122.33315,37.60346],[-122.34459,37.60825]],"type":"LineString"}
}
