{
  "id": 2031509399,
  "type": "Feature",
  "properties": {
    "geom:area": 0,
    "geom:bbox": "-122.351520,37.446620,-121.256590,37.608860",
    "geom:latitude": 37.532260361495105,
    "geom:longitude": -121.81289229197276,
    "src:alt_label": "swim-approach",
    "src:geom": "swim",
    "swim:elevations": [
      4464,
      4092,
      3901,
      3541,
      3309,
      3175,
      3050,
      2886,
      2591,
      2433,
      2438,
      2438,
      2438,
      2438,
      2383,
      2033,
      1856,
      1829,
      1829,
      1465,
      1102,
      1009,
      832,
      730,
      669,
      500,
      387,
      211,
      176,
      54
    ],
    "swim:geom": "approach",
    "swim:timestamps": [
      1781167033,
      1781167068,
      1781167089,
      1781167129,
      1781167155,
      1781167182,
      1781167223,
      1781167248,
      1781167270,
      1781167298,
      1781167325,
      1781167370,
      1781167394,
      1781167431,
      1781167445,
      1781167488,
      1781167511,
      1781167546,
      1781167570,
      1781167614,
      1781167663,
      1781167685,
      1781167713,
      1781167734,
      1781167746,
      1781167783,
      1781167808,
      1781167853,
      1781167864,
      1781167897
    ],
    "wof:geomhash": "f6b2e0e34d4cab2d1cda3dee29a99dce",
    "wof:id": 2031509399,
    "wof:repo": "sfomuseum-data-flights-2026-06"
  },
  "bbox": [
    -122.35152,
    37.44662,
    -121.25659,
    37.60886
  ],
  "geometry": {"coordinates":[[-121.25659,37.59383],[-121.33059,37.58454],[-121.37324,37.57987],[-121.45413,37.57072],[-121.50449,37.56491],[-121.55161,37.55931],[-121.61784,37.55157],[-121.65315,37.54427],[-121.6876,37.53927],[-121.72882,37.54472],[-121.76611,37.54721],[-121.80558,37.5075],[-121.81229,37.4787],[-121.84713,37.44871],[-121.8663,37.44731],[-121.9242,37.44662],[-121.95335,37.44696],[-121.99749,37.4598],[-122.0246,37.47098],[-122.07531,37.49242],[-122.13031,37.51574],[-122.15526,37.52633],[-122.18732,37.53979],[-122.21061,37.54948],[-122.22264,37.55469],[-122.25967,37.57028],[-122.27991,37.57879],[-122.31655,37.59419],[-122.32617,37.59819],[-122.35152,37.60886]],"type":"LineString"}
}
