{
  "id": 2031608193,
  "type": "Feature",
  "properties": {
    "geom:area": 0,
    "geom:bbox": "-122.362270,36.728410,-121.882690,37.613720",
    "geom:latitude": 37.21353334634479,
    "geom:longitude": -122.09209711177022,
    "src:alt_label": "swim-approach",
    "src:geom": "swim",
    "swim:elevations": [
      5173,
      4989,
      4643,
      4434,
      4252,
      4206,
      4108,
      3926,
      3875,
      3693,
      3628,
      3415,
      3297,
      3179,
      2996,
      2702,
      2352,
      2207,
      1963,
      1854,
      1690,
      1497,
      1459,
      1341,
      1223,
      927,
      726,
      689,
      570,
      453,
      353,
      216,
      88,
      193
    ],
    "swim:geom": "approach",
    "swim:timestamps": [
      1782154763,
      1782154782,
      1782154819,
      1782154841,
      1782154876,
      1782154891,
      1782154916,
      1782154943,
      1782154950,
      1782154984,
      1782155013,
      1782155068,
      1782155087,
      1782155102,
      1782155131,
      1782155176,
      1782155216,
      1782155241,
      1782155275,
      1782155298,
      1782155325,
      1782155361,
      1782155370,
      1782155403,
      1782155433,
      1782155482,
      1782155514,
      1782155523,
      1782155543,
      1782155571,
      1782155597,
      1782155633,
      1782155666,
      1782155692
    ],
    "wof:geomhash": "0a95a07bd647492a7aae8433aa56a039",
    "wof:id": 2031608193,
    "wof:repo": "sfomuseum-data-flights-2026-06"
  },
  "bbox": [
    -122.36227,
    36.72841,
    -121.88269,
    37.61372
  ],
  "geometry": {"coordinates":[[-121.88269,36.72841],[-121.89804,36.75866],[-121.91591,36.81982],[-121.9262,36.85647],[-121.94178,36.9127],[-121.94822,36.93555],[-121.96051,36.97113],[-121.97492,37.00847],[-121.97868,37.01817],[-121.99648,37.06366],[-122.0112,37.10088],[-122.04042,37.16364],[-122.06394,37.17587],[-122.08475,37.18324],[-122.12376,37.19733],[-122.17634,37.22417],[-122.17841,37.26935],[-122.17556,37.29783],[-122.17144,37.3355],[-122.16905,37.36111],[-122.16636,37.39103],[-122.16226,37.43091],[-122.16125,37.44069],[-122.15772,37.47582],[-122.15442,37.50542],[-122.18536,37.53908],[-122.21609,37.55187],[-122.2247,37.55555],[-122.24434,37.56389],[-122.26954,37.57422],[-122.29062,37.58329],[-122.31824,37.59482],[-122.34279,37.60515],[-122.36227,37.61372]],"type":"LineString"}
}
