{
  "id": 2031418867,
  "type": "Feature",
  "properties": {
    "geom:area": 0,
    "geom:bbox": "-122.299722,37.483333,-80.146944,43.757778",
    "geom:latitude": 41.215115166298204,
    "geom:longitude": -101.32280618617504,
    "src:alt_label": "swim-path",
    "src:geom": "swim",
    "swim:altitudes": [
      "111",
      "111",
      "111",
      "111",
      "121",
      "121",
      "236",
      "236",
      "252",
      "252",
      "260",
      "260",
      "260",
      "260",
      "279",
      "287",
      "287",
      "287",
      "292",
      "292",
      "307",
      "307",
      "308",
      "308",
      "319",
      "319",
      "326",
      "326",
      "333",
      "334",
      "334",
      "334",
      "340C",
      "340C",
      "340C",
      "340C",
      "340C",
      "340C",
      "340C",
      "340C",
      "340C",
      "340C",
      "340C",
      "340C",
      "340C",
      "340C",
      "340C",
      "340C",
      "340C",
      "340C",
      "340C",
      "340C",
      "340C",
      "340C",
      "341C",
      "341C",
      "341C",
      "341C",
      "340C",
      "340C",
      "340C",
      "340C",
      "340C",
      "340C",
      "340C",
      "340C",
      "340C",
      "340C",
      "340C",
      "340C",
      "340C",
      "340C",
      "340C",
      "340C",
      "340C",
      "340C",
      "340C",
      "341C",
      "341C",
      "340C",
      "340C",
      "340C",
      "340C",
      "340C",
      "340C",
      "340C",
      "341C",
      "341C",
      "340C",
      "340C",
      "340C",
      "340C",
      "340C",
      "340C",
      "340C",
      "340C",
      "340C",
      "340C",
      "340C",
      "340C",
      "340C",
      "340C",
      "340C",
      "340C",
      "340C",
      "340C",
      "340C",
      "340C",
      "340C",
      "340C",
      "340C",
      "340C",
      "340C",
      "340C",
      "340C",
      "340C",
      "340C",
      "340C",
      "340C",
      "340C",
      "340C",
      "340C",
      "340C",
      "340C",
      "340C",
      "340C",
      "340C",
      "340C",
      "340C",
      "340C",
      "340C",
      "340C",
      "340C",
      "340C",
      "340C",
      "340C",
      "340C",
      "340C",
      "340C",
      "340C",
      "340C",
      "340C",
      "340C",
      "340C",
      "340C",
      "340C",
      "340C",
      "340C",
      "341C",
      "341C",
      "340C",
      "340C",
      "340C",
      "340C",
      "340C",
      "340C",
      "340C",
      "341C",
      "341C",
      "341C",
      "341C",
      "340C",
      "340C",
      "340C",
      "340C",
      "340C",
      "340C",
      "340C",
      "340C",
      "340C",
      "340C",
      "340C",
      "340C",
      "341C",
      "341C",
      "341C",
      "340C",
      "340C",
      "340C",
      "340C",
      "340C",
      "340C",
      "340C",
      "340C",
      "340C",
      "340C",
      "340C",
      "341C",
      "341C",
      "341C",
      "341C",
      "341C",
      "341C",
      "340C",
      "340C",
      "340C",
      "340C",
      "340C",
      "340C",
      "340C",
      "340C",
      "340C",
      "340C",
      "340C",
      "340C",
      "340C",
      "340C",
      "340C",
      "340C",
      "340C",
      "340C",
      "340C",
      "340C",
      "340C",
      "340C",
      "341C",
      "340C",
      "340C",
      "340C",
      "340C",
      "340C",
      "340C",
      "340C",
      "340C",
      "340C",
      "340C",
      "340C",
      "340C",
      "340C",
      "340C",
      "340C",
      "340C",
      "340C",
      "340C",
      "340C",
      "340C",
      "340C",
      "340C",
      "340C",
      "340C",
      "340C",
      "340C",
      "340C",
      "340C",
      "340C",
      "340C",
      "340C",
      "340C",
      "340C",
      "340C",
      "340C",
      "340C",
      "340C",
      "340C",
      "340C",
      "340C",
      "340C",
      "340C",
      "340C",
      "340C",
      "340C",
      "340C",
      "340C",
      "340C",
      "340C",
      "340C",
      "340C",
      "340C",
      "340C",
      "340C",
      "340C",
      "340C",
      "340C",
      "340C",
      "340C",
      "340C",
      "340C",
      "340C",
      "340C",
      "340C",
      "340C",
      "340C",
      "340C",
      "340C",
      "340C",
      "340C",
      "340C",
      "339",
      "314",
      "255",
      "255",
      "216",
      "133",
      "117",
      "117",
      "104",
      "082",
      "068",
      "068",
      "060",
      "060",
      "050",
      "050",
      "040",
      "017",
      "017",
      "010"
    ],
    "swim:geom": "path",
    "swim:speeds": [
      326,
      326,
      326,
      326,
      365,
      365,
      424,
      424,
      434,
      434,
      440,
      440,
      440,
      440,
      452,
      453,
      453,
      453,
      454,
      454,
      447,
      447,
      450,
      450,
      435,
      435,
      433,
      433,
      419,
      420,
      420,
      420,
      415,
      416,
      416,
      416,
      416,
      416,
      419,
      421,
      421,
      420,
      420,
      411,
      411,
      411,
      412,
      412,
      412,
      417,
      417,
      421,
      421,
      421,
      420,
      422,
      422,
      422,
      429,
      429,
      429,
      434,
      434,
      435,
      437,
      437,
      439,
      440,
      442,
      442,
      442,
      442,
      443,
      442,
      441,
      433,
      433,
      434,
      434,
      435,
      435,
      437,
      437,
      435,
      433,
      433,
      435,
      435,
      435,
      433,
      433,
      433,
      433,
      434,
      429,
      429,
      429,
      432,
      432,
      432,
      434,
      434,
      432,
      432,
      432,
      425,
      419,
      418,
      417,
      417,
      416,
      416,
      416,
      414,
      409,
      409,
      406,
      404,
      404,
      405,
      405,
      405,
      401,
      407,
      402,
      402,
      405,
      405,
      398,
      396,
      396,
      397,
      397,
      399,
      399,
      399,
      401,
      401,
      402,
      403,
      403,
      402,
      402,
      402,
      402,
      403,
      402,
      402,
      409,
      409,
      402,
      402,
      399,
      402,
      402,
      404,
      413,
      420,
      420,
      427,
      427,
      429,
      429,
      429,
      435,
      435,
      440,
      440,
      440,
      440,
      442,
      440,
      440,
      440,
      440,
      440,
      435,
      439,
      439,
      435,
      424,
      424,
      424,
      417,
      419,
      419,
      419,
      418,
      418,
      418,
      417,
      417,
      417,
      411,
      411,
      408,
      408,
      406,
      406,
      407,
      406,
      406,
      407,
      407,
      410,
      409,
      409,
      408,
      408,
      407,
      398,
      398,
      398,
      398,
      398,
      399,
      400,
      400,
      400,
      401,
      401,
      401,
      401,
      401,
      400,
      400,
      400,
      402,
      402,
      402,
      402,
      402,
      402,
      400,
      400,
      400,
      399,
      399,
      401,
      401,
      401,
      402,
      402,
      402,
      402,
      402,
      401,
      403,
      403,
      403,
      403,
      403,
      407,
      407,
      414,
      412,
      412,
      409,
      409,
      411,
      411,
      415,
      421,
      421,
      423,
      423,
      397,
      397,
      398,
      398,
      398,
      400,
      402,
      402,
      415,
      415,
      416,
      416,
      418,
      421,
      421,
      422,
      425,
      424,
      423,
      446,
      446,
      450,
      407,
      380,
      380,
      347,
      312,
      307,
      307,
      301,
      241,
      241,
      241,
      240,
      234,
      228,
      228,
      230,
      169,
      169,
      148
    ],
    "swim:timestamps": [
      1780355765,
      1780355765,
      1780355765,
      1780355765,
      1780355825,
      1780355825,
      1780356366,
      1780356366,
      1780356486,
      1780356486,
      1780356546,
      1780356546,
      1780356546,
      1780356546,
      1780356727,
      1780356787,
      1780356787,
      1780356787,
      1780356847,
      1780356847,
      1780356967,
      1780356967,
      1780356975,
      1780356975,
      1780357027,
      1780357027,
      1780357095,
      1780357095,
      1780357147,
      1780357155,
      1780357155,
      1780357155,
      1780357268,
      1780357275,
      1780357275,
      1780357275,
      1780357328,
      1780357335,
      1780357452,
      1780357508,
      1780357508,
      1780357515,
      1780357568,
      1780357753,
      1780357753,
      1780357753,
      1780357808,
      1780357808,
      1780357808,
      1780357873,
      1780357873,
      1780357989,
      1780357989,
      1780357989,
      1780358234,
      1780358294,
      1780358294,
      1780358294,
      1780358594,
      1780358594,
      1780358594,
      1780358955,
      1780358955,
      1780359015,
      1780359090,
      1780359090,
      1780359330,
      1780359390,
      1780359436,
      1780359450,
      1780359450,
      1780359450,
      1780359630,
      1780359676,
      1780359690,
      1780359871,
      1780359871,
      1780359976,
      1780359991,
      1780360036,
      1780360051,
      1780360111,
      1780360217,
      1780360291,
      1780360351,
      1780360351,
      1780360517,
      1780360517,
      1780360577,
      1780360724,
      1780360724,
      1780360757,
      1780360757,
      1780360818,
      1780361084,
      1780361084,
      1780361084,
      1780361204,
      1780361204,
      1780361204,
      1780361385,
      1780361385,
      1780361565,
      1780361565,
      1780361565,
      1780361745,
      1780361926,
      1780361986,
      1780362106,
      1780362106,
      1780362166,
      1780362166,
      1780362166,
      1780362286,
      1780362406,
      1780362406,
      1780362465,
      1780362585,
      1780362585,
      1780362705,
      1780362705,
      1780362705,
      1780362946,
      1780362987,
      1780363006,
      1780363006,
      1780363107,
      1780363107,
      1780363127,
      1780363186,
      1780363186,
      1780363307,
      1780363307,
      1780363366,
      1780363366,
      1780363366,
      1780363426,
      1780363426,
      1780363468,
      1780363487,
      1780363487,
      1780363547,
      1780363547,
      1780363648,
      1780363648,
      1780363667,
      1780363708,
      1780363708,
      1780363907,
      1780363907,
      1780363967,
      1780363967,
      1780364027,
      1780364087,
      1780364087,
      1780364189,
      1780364249,
      1780364309,
      1780364309,
      1780364328,
      1780364328,
      1780364388,
      1780364388,
      1780364388,
      1780364508,
      1780364508,
      1780364628,
      1780364628,
      1780364729,
      1780364729,
      1780364748,
      1780364790,
      1780364790,
      1780364850,
      1780364850,
      1780364850,
      1780364989,
      1780365030,
      1780365030,
      1780365090,
      1780365210,
      1780365210,
      1780365210,
      1780365289,
      1780365409,
      1780365409,
      1780365409,
      1780365450,
      1780365450,
      1780365469,
      1780365529,
      1780365529,
      1780365529,
      1780365590,
      1780365631,
      1780365650,
      1780365650,
      1780365770,
      1780365770,
      1780365811,
      1780365830,
      1780365830,
      1780365871,
      1780365931,
      1780365950,
      1780365991,
      1780365991,
      1780366070,
      1780366070,
      1780366111,
      1780366231,
      1780366231,
      1780366231,
      1780366310,
      1780366310,
      1780366371,
      1780366412,
      1780366412,
      1780366431,
      1780366491,
      1780366491,
      1780366491,
      1780366532,
      1780366611,
      1780366712,
      1780366731,
      1780366731,
      1780366832,
      1780366832,
      1780366832,
      1780366911,
      1780366952,
      1780366971,
      1780367031,
      1780367092,
      1780367092,
      1780367152,
      1780367152,
      1780367193,
      1780367193,
      1780367212,
      1780367253,
      1780367253,
      1780367253,
      1780367313,
      1780367332,
      1780367373,
      1780367433,
      1780367433,
      1780367493,
      1780367493,
      1780367512,
      1780367673,
      1780367673,
      1780367854,
      1780367914,
      1780367914,
      1780368214,
      1780368214,
      1780368334,
      1780368334,
      1780368454,
      1780368514,
      1780368514,
      1780368695,
      1780368695,
      1780368995,
      1780368995,
      1780369115,
      1780369296,
      1780369296,
      1780369356,
      1780369416,
      1780369416,
      1780370102,
      1780370102,
      1780370222,
      1780370222,
      1780370341,
      1780370521,
      1780370521,
      1780370642,
      1780370942,
      1780371002,
      1780371062,
      1780371303,
      1780371303,
      1780371603,
      1780371691,
      1780371843,
      1780371843,
      1780371963,
      1780372264,
      1780372324,
      1780372324,
      1780372384,
      1780372504,
      1780372574,
      1780372574,
      1780372624,
      1780372634,
      1780372694,
      1780372694,
      1780372744,
      1780372880,
      1780372880,
      1780372924
    ],
    "wof:geomhash": "afb58585e8bed15233540d4c4e1bd58a",
    "wof:id": 2031418867,
    "wof:repo": "sfomuseum-data-flights-2026-06"
  },
  "bbox": [
    -122.29972222222221,
    37.483333333333334,
    -80.14694444444446,
    43.757777777777775
  ],
  "geometry": {"coordinates":[[-80.14694444444446,43.757777777777775],[-80.14694444444446,43.757777777777775],[-80.14694444444446,43.757777777777775],[-80.14694444444446,43.757777777777775],[-80.27944444444444,43.736111111111114],[-80.27944444444444,43.736111111111114],[-81.67222222222223,43.72888888888889],[-81.67222222222223,43.72888888888889],[-82.00555555555556,43.72527777777778],[-82.00555555555556,43.72527777777778],[-82.17833333333334,43.72138888888889],[-82.17833333333334,43.72138888888889],[-82.17833333333334,43.72138888888889],[-82.17833333333334,43.72138888888889],[-82.69250000000001,43.68527777777778],[-82.86749999999999,43.67222222222222],[-82.86749999999999,43.67222222222222],[-82.86749999999999,43.67222222222222],[-83.03888888888889,43.654444444444444],[-83.03888888888889,43.654444444444444],[-83.37833333333333,43.62027777777778],[-83.37833333333333,43.62027777777778],[-83.38861111111112,43.61944444444445],[-83.38861111111112,43.61944444444445],[-83.545,43.60333333333333],[-83.545,43.60333333333333],[-83.71833333333333,43.585],[-83.71833333333333,43.585],[-83.85972222222222,43.57027777777778],[-83.87555555555555,43.56861111111112],[-83.87555555555555,43.56861111111112],[-83.87555555555555,43.56861111111112],[-84.1875,43.53472222222222],[-84.1888888888889,43.53472222222222],[-84.1888888888889,43.53472222222222],[-84.1888888888889,43.53472222222222],[-84.34555555555555,43.5175],[-84.34666666666666,43.5175],[-84.66333333333334,43.481944444444444],[-84.82222222222222,43.46388888888889],[-84.82222222222222,43.46388888888889],[-84.8236111111111,43.46388888888889],[-84.98027777777779,43.44583333333333],[-85.4475,43.406388888888884],[-85.4475,43.406388888888884],[-85.4475,43.406388888888884],[-85.60055555555554,43.3925],[-85.60055555555554,43.3925],[-85.60055555555554,43.3925],[-85.75916666666667,43.37777777777778],[-85.75916666666667,43.37777777777778],[-86.07305555555556,43.348888888888894],[-86.07305555555556,43.348888888888894],[-86.07305555555556,43.348888888888894],[-86.73388888888888,43.284166666666664],[-86.89333333333335,43.268055555555556],[-86.89333333333335,43.268055555555556],[-86.89333333333335,43.268055555555556],[-87.68805555555556,43.18388888888889],[-87.68805555555556,43.18388888888889],[-87.68805555555556,43.18388888888889],[-88.67416666666666,43.112500000000004],[-88.67416666666666,43.112500000000004],[-88.8425,43.10583333333334],[-89.03888888888889,43.096944444444446],[-89.03888888888889,43.096944444444446],[-89.715,43.06638888888889],[-89.88111111111111,43.058055555555555],[-89.99527777777777,43.05222222222222],[-90.05,43.04944444444444],[-90.05,43.04944444444444],[-90.05,43.04944444444444],[-90.53194444444445,43.02333333333333],[-90.66333333333334,43.01583333333333],[-90.6975,43.013888888888886],[-91.18388888888889,42.98527777777778],[-91.18388888888889,42.98527777777778],[-91.47555555555556,42.96666666666667],[-91.54277777777777,42.962500000000006],[-91.6363888888889,42.95638888888889],[-91.7025,42.95194444444445],[-91.86527777777778,42.941111111111105],[-92.15972222222223,42.92055555555555],[-92.35416666666666,42.906666666666666],[-92.51694444444445,42.89472222222222],[-92.51694444444445,42.89472222222222],[-92.97361111111111,42.86],[-92.97361111111111,42.86],[-93.13611111111112,42.84722222222222],[-93.49444444444444,42.818333333333335],[-93.49444444444444,42.818333333333335],[-93.6236111111111,42.80777777777777],[-93.6236111111111,42.80777777777777],[-93.7863888888889,42.79388888888889],[-94.49694444444445,42.731388888888894],[-94.49694444444445,42.731388888888894],[-94.49694444444445,42.731388888888894],[-94.81222222222222,42.70194444444445],[-94.81222222222222,42.70194444444445],[-94.81222222222222,42.70194444444445],[-95.29861111111111,42.655],[-95.29861111111111,42.655],[-95.77888888888889,42.60638888888889],[-95.77888888888889,42.60638888888889],[-95.77888888888889,42.60638888888889],[-96.28611111111111,42.55305555555555],[-96.75111111111111,42.50222222222222],[-96.90611111111112,42.485],[-97.21472222222222,42.44944444444444],[-97.21472222222222,42.44944444444444],[-97.36888888888888,42.431666666666665],[-97.36888888888888,42.431666666666665],[-97.36888888888888,42.431666666666665],[-97.67444444444445,42.394999999999996],[-97.95666666666666,42.36055555555556],[-97.95666666666666,42.36055555555556],[-98.10916666666667,42.33527777777778],[-98.39694444444446,42.269444444444446],[-98.39694444444446,42.269444444444446],[-98.6875,42.20166666666667],[-98.6875,42.20166666666667],[-98.6875,42.20166666666667],[-99.25111111111111,42.06805555555556],[-99.3711111111111,42.03805555555555],[-99.39333333333335,42.03388888888889],[-99.39333333333335,42.03388888888889],[-99.65972222222223,41.96888888888889],[-99.65972222222223,41.96888888888889],[-99.7088888888889,41.956944444444446],[-99.825,41.92833333333333],[-99.825,41.92833333333333],[-100.12527777777777,41.85416666666667],[-100.12527777777777,41.85416666666667],[-100.24555555555555,41.823888888888895],[-100.24555555555555,41.823888888888895],[-100.24555555555555,41.823888888888895],[-100.38777777777779,41.78805555555555],[-100.38777777777779,41.78805555555555],[-100.48694444444445,41.76027777777778],[-100.53138888888888,41.75194444444445],[-100.53138888888888,41.75194444444445],[-100.67055555555557,41.71638888888889],[-100.67055555555557,41.71638888888889],[-100.91000000000001,41.65555555555555],[-100.91000000000001,41.65555555555555],[-100.95194444444445,41.64416666666666],[-101.05194444444444,41.618611111111115],[-101.05194444444444,41.618611111111115],[-101.53999999999999,41.55027777777777],[-101.53999999999999,41.55027777777777],[-101.6863888888889,41.53],[-101.6863888888889,41.53],[-101.85805555555555,41.50555555555555],[-102.00583333333333,41.48444444444444],[-102.00583333333333,41.48444444444444],[-102.23444444444445,41.45194444444445],[-102.3888888888889,41.43055555555555],[-102.54527777777777,41.407222222222224],[-102.54527777777777,41.407222222222224],[-102.61944444444444,41.39472222222222],[-102.61944444444444,41.39472222222222],[-102.76722222222222,41.3725],[-102.76722222222222,41.3725],[-102.76722222222222,41.3725],[-103.08194444444445,41.32472222222223],[-103.08194444444445,41.32472222222223],[-103.40138888888889,41.275],[-103.40138888888889,41.275],[-103.65944444444445,41.23388888888889],[-103.65944444444445,41.23388888888889],[-103.72222222222223,41.224444444444444],[-103.81888888888888,41.20805555555556],[-103.81888888888888,41.20805555555556],[-103.97833333333334,41.18277777777777],[-103.97833333333334,41.18277777777777],[-103.97833333333334,41.18277777777777],[-104.35333333333332,41.12166666666667],[-104.44777777777779,41.10583333333334],[-104.44777777777779,41.10583333333334],[-104.60194444444444,41.08027777777778],[-104.89916666666667,41.028888888888886],[-104.89916666666667,41.028888888888886],[-104.89916666666667,41.028888888888886],[-105.10694444444444,40.994166666666665],[-105.40666666666667,40.94222222222222],[-105.40666666666667,40.94222222222222],[-105.40666666666667,40.94222222222222],[-105.49694444444445,40.92583333333333],[-105.49694444444445,40.92583333333333],[-105.55583333333333,40.91583333333333],[-105.70305555555557,40.88972222222222],[-105.70305555555557,40.88972222222222],[-105.70305555555557,40.88972222222222],[-105.84638888888888,40.86388888888889],[-105.93666666666667,40.846944444444446],[-105.99055555555556,40.83777777777778],[-105.99055555555556,40.83777777777778],[-106.28416666666666,40.784166666666664],[-106.28416666666666,40.784166666666664],[-106.36944444444444,40.76722222222222],[-106.42833333333334,40.7575],[-106.42833333333334,40.7575],[-106.515,40.74111111111111],[-106.66083333333334,40.71388888888889],[-106.7038888888889,40.70583333333334],[-106.80666666666666,40.68611111111111],[-106.80666666666666,40.68611111111111],[-106.99527777777777,40.65083333333333],[-106.99527777777777,40.65083333333333],[-107.09305555555555,40.63],[-107.37472222222222,40.57666666666667],[-107.37472222222222,40.57666666666667],[-107.37472222222222,40.57666666666667],[-107.56055555555555,40.54111111111111],[-107.56055555555555,40.54111111111111],[-107.70361111111112,40.51277777777778],[-107.79833333333333,40.49388888888889],[-107.79833333333333,40.49388888888889],[-107.84694444444445,40.48444444444444],[-107.99,40.45583333333334],[-107.99,40.45583333333334],[-107.99,40.45583333333334],[-108.0825,40.43722222222222],[-108.27305555555556,40.39861111111111],[-108.50583333333333,40.35111111111111],[-108.55666666666666,40.34055555555556],[-108.55666666666666,40.34055555555556],[-108.78999999999999,40.29194444444444],[-108.78999999999999,40.29194444444444],[-108.78999999999999,40.29194444444444],[-108.97694444444444,40.25277777777778],[-109.09166666666667,40.228611111111114],[-109.11666666666666,40.223333333333336],[-109.25083333333333,40.18083333333333],[-109.36666666666666,40.11611111111111],[-109.36666666666666,40.11611111111111],[-109.48138888888889,40.05083333333333],[-109.48138888888889,40.05083333333333],[-109.58277777777778,40.00555555555555],[-109.58277777777778,40.00555555555555],[-109.60638888888889,39.99527777777778],[-109.71361111111112,39.96027777777778],[-109.71361111111112,39.96027777777778],[-109.71361111111112,39.96027777777778],[-109.85388888888889,39.93222222222222],[-109.88222222222221,39.92638888888889],[-109.99416666666667,39.90333333333333],[-110.13583333333334,39.87416666666667],[-110.13583333333334,39.87416666666667],[-110.27666666666667,39.845],[-110.27666666666667,39.845],[-110.30194444444444,39.83972222222222],[-110.7,39.75611111111111],[-110.7,39.75611111111111],[-111.13111111111111,39.663888888888884],[-111.27277777777778,39.63305555555556],[-111.27277777777778,39.63305555555556],[-111.9725,39.47833333333333],[-111.9725,39.47833333333333],[-112.25555555555556,39.41444444444444],[-112.25555555555556,39.41444444444444],[-112.5436111111111,39.34861111111111],[-112.69277777777778,39.31388888888888],[-112.69277777777778,39.31388888888888],[-113.1325,39.211111111111116],[-113.1325,39.211111111111116],[-113.82833333333333,39.04416666666666],[-113.82833333333333,39.04416666666666],[-114.09944444444444,38.97777777777778],[-114.5025,38.87777777777778],[-114.5025,38.87777777777778],[-114.63805555555557,38.843611111111116],[-114.77583333333334,38.808611111111105],[-114.77583333333334,38.808611111111105],[-116.36527777777778,38.393055555555556],[-116.36527777777778,38.393055555555556],[-116.64277777777778,38.31777777777778],[-116.64277777777778,38.31777777777778],[-116.92,38.24166666666667],[-117.32916666666667,38.128055555555555],[-117.32916666666667,38.128055555555555],[-117.61027777777777,38.04888888888889],[-118.34333333333333,37.942499999999995],[-118.49,37.92638888888889],[-118.63861111111112,37.91],[-119.26333333333334,37.83861111111111],[-119.26333333333334,37.83861111111111],[-120.04527777777777,37.74444444444445],[-120.26666666666667,37.71666666666667],[-120.60472222222222,37.675555555555555],[-120.60472222222222,37.675555555555555],[-120.85138888888888,37.646388888888886],[-121.41972222222223,37.57472222222223],[-121.52555555555556,37.5625],[-121.52555555555556,37.5625],[-121.62777777777777,37.55027777777777],[-121.80027777777778,37.50888888888889],[-121.9,37.483333333333334],[-121.9,37.483333333333334],[-121.96222222222222,37.49583333333334],[-121.98333333333333,37.5],[-122.05,37.5],[-122.05,37.5],[-122.12027777777777,37.51361111111111],[-122.26666666666667,37.583333333333336],[-122.26666666666667,37.583333333333336],[-122.29972222222221,37.589444444444446]],"type":"LineString"}
}
