{
  "id": 2031514973,
  "type": "Feature",
  "properties": {
    "geom:area": 0,
    "geom:bbox": "-122.736667,37.629444,-122.005000,47.451944",
    "geom:latitude": 42.54157608716072,
    "geom:longitude": -122.22351663381896,
    "src:alt_label": "swim-path",
    "src:geom": "swim",
    "swim:altitudes": [
      "009",
      "009",
      "009",
      "012",
      "033",
      "054",
      "054",
      "054",
      "054",
      "054",
      "106",
      "129",
      "129",
      "129",
      "129",
      "129",
      "210",
      "210",
      "210",
      "210",
      "226",
      "226",
      "226",
      "257",
      "274",
      "274",
      "274",
      "274",
      "280",
      "296",
      "296",
      "301",
      "301",
      "311",
      "311",
      "311",
      "322",
      "322",
      "322",
      "322",
      "360C",
      "360C",
      "360C",
      "360C",
      "360C",
      "360C",
      "360C",
      "360C",
      "360C",
      "360C",
      "360C",
      "360C",
      "360C",
      "360C",
      "360C",
      "360C",
      "360C",
      "360C",
      "360C",
      "360C",
      "360C",
      "360C",
      "360C",
      "360C",
      "360C",
      "360C",
      "360C",
      "360C",
      "360C",
      "360C",
      "360C",
      "360C",
      "360C",
      "360C",
      "360C",
      "360C",
      "360C",
      "360C",
      "360C",
      "360C",
      "360C",
      "360C",
      "360C",
      "360C",
      "360C",
      "360C",
      "360C",
      "360C",
      "360C",
      "360C",
      "360C",
      "360C",
      "360C",
      "360C",
      "360C",
      "360C",
      "360C",
      "360C",
      "360C",
      "360C",
      "360C",
      "360C",
      "360C",
      "360C",
      "360C",
      "360C",
      "360C",
      "360C",
      "360C",
      "360C",
      "360C",
      "360C",
      "360C",
      "360C",
      "360C",
      "360C",
      "360C",
      "360C",
      "360C",
      "360C",
      "360C",
      "360C",
      "360C",
      "360C",
      "360C",
      "360C",
      "360C",
      "360C",
      "360C",
      "360C",
      "360",
      "360",
      "360",
      "360",
      "360",
      "360",
      "360",
      "360",
      "360",
      "273",
      "273",
      "273",
      "273",
      "273",
      "237",
      "237",
      "237",
      "212",
      "212",
      "212",
      "212",
      "157",
      "157",
      "157",
      "157",
      "140",
      "140",
      "140",
      "120",
      "120",
      "120",
      "105",
      "105",
      "105",
      "085",
      "085",
      "085",
      "085",
      "051",
      "051",
      "051",
      "041",
      "041",
      "041",
      "029",
      "029",
      "029",
      "003",
      "003",
      "003",
      "003",
      "003"
    ],
    "swim:geom": "path",
    "swim:speeds": [
      188,
      188,
      188,
      189,
      234,
      264,
      264,
      264,
      264,
      264,
      297,
      318,
      318,
      318,
      318,
      318,
      374,
      374,
      374,
      374,
      387,
      387,
      387,
      398,
      403,
      403,
      403,
      403,
      417,
      420,
      420,
      430,
      430,
      437,
      437,
      437,
      443,
      443,
      443,
      443,
      448,
      448,
      448,
      448,
      448,
      448,
      448,
      447,
      447,
      447,
      447,
      447,
      444,
      444,
      444,
      444,
      444,
      444,
      444,
      444,
      444,
      445,
      445,
      444,
      444,
      444,
      442,
      442,
      442,
      438,
      438,
      438,
      437,
      437,
      438,
      438,
      438,
      438,
      440,
      440,
      440,
      440,
      442,
      443,
      443,
      443,
      443,
      443,
      443,
      441,
      441,
      441,
      441,
      441,
      442,
      442,
      442,
      443,
      443,
      441,
      441,
      441,
      441,
      441,
      440,
      440,
      440,
      440,
      440,
      441,
      441,
      441,
      442,
      442,
      442,
      442,
      442,
      442,
      442,
      442,
      442,
      442,
      442,
      442,
      442,
      442,
      442,
      442,
      442,
      442,
      442,
      442,
      442,
      442,
      442,
      442,
      442,
      442,
      442,
      417,
      417,
      417,
      417,
      417,
      397,
      397,
      397,
      386,
      386,
      386,
      386,
      344,
      344,
      344,
      344,
      339,
      339,
      339,
      333,
      333,
      333,
      325,
      325,
      325,
      272,
      272,
      272,
      272,
      217,
      217,
      217,
      218,
      218,
      218,
      213,
      213,
      213,
      142,
      142,
      142,
      142,
      142
    ],
    "swim:timestamps": [
      1781205804,
      1781205804,
      1781205804,
      1781205813,
      1781205873,
      1781205933,
      1781205933,
      1781205933,
      1781205933,
      1781205933,
      1781206053,
      1781206113,
      1781206113,
      1781206113,
      1781206113,
      1781206113,
      1781206354,
      1781206354,
      1781206354,
      1781206354,
      1781206414,
      1781206414,
      1781206414,
      1781206532,
      1781206592,
      1781206592,
      1781206592,
      1781206592,
      1781206654,
      1781206712,
      1781206712,
      1781206772,
      1781206772,
      1781206834,
      1781206834,
      1781206834,
      1781206892,
      1781206892,
      1781206892,
      1781206892,
      1781207132,
      1781207132,
      1781207132,
      1781207132,
      1781207195,
      1781207195,
      1781207195,
      1781207375,
      1781207375,
      1781207375,
      1781207375,
      1781207375,
      1781207555,
      1781207555,
      1781207555,
      1781207555,
      1781207555,
      1781207673,
      1781207673,
      1781207673,
      1781207673,
      1781207856,
      1781207856,
      1781207916,
      1781207916,
      1781207916,
      1781207976,
      1781207976,
      1781207976,
      1781208154,
      1781208154,
      1781208154,
      1781208214,
      1781208214,
      1781208276,
      1781208276,
      1781208276,
      1781208276,
      1781208394,
      1781208394,
      1781208394,
      1781208394,
      1781208454,
      1781208515,
      1781208515,
      1781208575,
      1781208575,
      1781208575,
      1781208575,
      1781208755,
      1781208755,
      1781208755,
      1781208755,
      1781208755,
      1781208815,
      1781208815,
      1781208815,
      1781208875,
      1781208875,
      1781208935,
      1781208935,
      1781208935,
      1781208935,
      1781208935,
      1781208995,
      1781208995,
      1781208995,
      1781209055,
      1781209055,
      1781209236,
      1781209236,
      1781209236,
      1781209296,
      1781209356,
      1781209356,
      1781209356,
      1781209356,
      1781209416,
      1781209476,
      1781209476,
      1781209476,
      1781209476,
      1781209476,
      1781209536,
      1781209536,
      1781209536,
      1781209596,
      1781209596,
      1781209596,
      1781209596,
      1781209716,
      1781209716,
      1781209716,
      1781209716,
      1781209836,
      1781209836,
      1781209836,
      1781209836,
      1781209836,
      1781210197,
      1781210197,
      1781210197,
      1781210197,
      1781210197,
      1781210317,
      1781210317,
      1781210317,
      1781210377,
      1781210377,
      1781210377,
      1781210377,
      1781210555,
      1781210555,
      1781210555,
      1781210555,
      1781210618,
      1781210618,
      1781210618,
      1781210678,
      1781210678,
      1781210678,
      1781210735,
      1781210735,
      1781210735,
      1781210858,
      1781210858,
      1781210858,
      1781210858,
      1781211035,
      1781211035,
      1781211035,
      1781211095,
      1781211095,
      1781211095,
      1781211158,
      1781211158,
      1781211158,
      1781211339,
      1781211339,
      1781211339,
      1781211339,
      1781211339
    ],
    "wof:geomhash": "f80dce01ff66e83b37bf23b9afa193d0",
    "wof:id": 2031514973,
    "wof:repo": "sfomuseum-data-flights-2026-06"
  },
  "bbox": [
    -122.73666666666666,
    37.629444444444445,
    -122.005,
    47.45194444444445
  ],
  "geometry": {"coordinates":[[-122.4,37.63333333333333],[-122.4,37.63333333333333],[-122.4,37.63333333333333],[-122.40055555555556,37.629444444444445],[-122.46861111111112,37.65833333333333],[-122.5261111111111,37.70805555555556],[-122.5261111111111,37.70805555555556],[-122.5261111111111,37.70805555555556],[-122.5261111111111,37.70805555555556],[-122.5261111111111,37.70805555555556],[-122.47277777777778,37.852222222222224],[-122.41722222222222,37.92861111111111],[-122.41722222222222,37.92861111111111],[-122.41722222222222,37.92861111111111],[-122.41722222222222,37.92861111111111],[-122.41722222222222,37.92861111111111],[-122.16166666666668,38.27055555555555],[-122.16166666666668,38.27055555555555],[-122.16166666666668,38.27055555555555],[-122.16166666666668,38.27055555555555],[-122.11,38.36888888888889],[-122.11,38.36888888888889],[-122.11,38.36888888888889],[-122.08694444444444,38.586666666666666],[-122.07583333333334,38.69972222222222],[-122.07583333333334,38.69972222222222],[-122.07583333333334,38.69972222222222],[-122.07583333333334,38.69972222222222],[-122.06833333333333,38.80083333333333],[-122.05555555555556,38.9325],[-122.05555555555556,38.9325],[-122.04222222222222,39.05277777777778],[-122.04222222222222,39.05277777777778],[-122.03444444444445,39.16083333333333],[-122.03444444444445,39.16083333333333],[-122.03444444444445,39.16083333333333],[-122.03361111111111,39.29833333333333],[-122.03361111111111,39.29833333333333],[-122.03361111111111,39.29833333333333],[-122.03361111111111,39.29833333333333],[-122.03027777777778,39.795833333333334],[-122.03027777777778,39.795833333333334],[-122.03027777777778,39.795833333333334],[-122.03027777777778,39.795833333333334],[-122.02972222222222,39.92055555555555],[-122.02972222222222,39.92055555555555],[-122.02972222222222,39.92055555555555],[-122.02722222222222,40.28666666666666],[-122.02722222222222,40.28666666666666],[-122.02722222222222,40.28666666666666],[-122.02722222222222,40.28666666666666],[-122.02722222222222,40.28666666666666],[-122.02444444444444,40.653888888888886],[-122.02444444444444,40.653888888888886],[-122.02444444444444,40.653888888888886],[-122.02444444444444,40.653888888888886],[-122.02444444444444,40.653888888888886],[-122.02277777777778,40.89944444444444],[-122.02277777777778,40.89944444444444],[-122.02277777777778,40.89944444444444],[-122.02277777777778,40.89944444444444],[-122.02,41.27111111111111],[-122.02,41.27111111111111],[-122.01916666666666,41.39944444444444],[-122.01916666666666,41.39944444444444],[-122.01916666666666,41.39944444444444],[-122.01805555555555,41.522777777777776],[-122.01805555555555,41.522777777777776],[-122.01805555555555,41.522777777777776],[-122.01583333333333,41.88638888888889],[-122.01583333333333,41.88638888888889],[-122.01583333333333,41.88638888888889],[-122.01444444444445,42.009166666666665],[-122.01444444444445,42.009166666666665],[-122.01361111111112,42.14055555555556],[-122.01361111111112,42.14055555555556],[-122.01361111111112,42.14055555555556],[-122.01361111111112,42.14055555555556],[-122.01166666666667,42.386944444444445],[-122.01166666666667,42.386944444444445],[-122.01166666666667,42.386944444444445],[-122.01166666666667,42.386944444444445],[-122.01055555555556,42.50972222222222],[-122.00972222222222,42.63444444444444],[-122.00972222222222,42.63444444444444],[-122.00916666666667,42.7575],[-122.00916666666667,42.7575],[-122.00916666666667,42.7575],[-122.00916666666667,42.7575],[-122.00611111111111,43.12361111111111],[-122.00611111111111,43.12361111111111],[-122.00611111111111,43.12361111111111],[-122.00611111111111,43.12361111111111],[-122.00611111111111,43.12361111111111],[-122.005,43.24777777777778],[-122.005,43.24777777777778],[-122.005,43.24777777777778],[-122.00805555555556,43.36638888888889],[-122.00805555555556,43.36638888888889],[-122.03555555555555,43.48638888888889],[-122.03555555555555,43.48638888888889],[-122.03555555555555,43.48638888888889],[-122.03555555555555,43.48638888888889],[-122.03555555555555,43.48638888888889],[-122.06361111111111,43.60527777777778],[-122.06361111111111,43.60527777777778],[-122.06361111111111,43.60527777777778],[-122.0925,43.72638888888889],[-122.0925,43.72638888888889],[-122.17944444444444,44.08694444444445],[-122.17944444444444,44.08694444444445],[-122.17944444444444,44.08694444444445],[-122.2088888888889,44.21],[-122.2375,44.328611111111115],[-122.2375,44.328611111111115],[-122.2375,44.328611111111115],[-122.2375,44.328611111111115],[-122.26722222222222,44.450833333333335],[-122.29694444444445,44.569722222222225],[-122.29694444444445,44.569722222222225],[-122.29694444444445,44.569722222222225],[-122.29694444444445,44.569722222222225],[-122.29694444444445,44.569722222222225],[-122.32666666666667,44.69166666666666],[-122.32666666666667,44.69166666666666],[-122.32666666666667,44.69166666666666],[-122.35583333333332,44.81111111111111],[-122.35583333333332,44.81111111111111],[-122.35583333333332,44.81111111111111],[-122.35583333333332,44.81111111111111],[-122.41472222222222,45.047777777777775],[-122.41472222222222,45.047777777777775],[-122.41472222222222,45.047777777777775],[-122.41472222222222,45.047777777777775],[-122.47500000000001,45.28777777777778],[-122.47500000000001,45.28777777777778],[-122.47500000000001,45.28777777777778],[-122.47500000000001,45.28777777777778],[-122.47500000000001,45.28777777777778],[-122.65861111111111,46.01861111111111],[-122.65861111111111,46.01861111111111],[-122.65861111111111,46.01861111111111],[-122.65861111111111,46.01861111111111],[-122.65861111111111,46.01861111111111],[-122.70138888888889,46.21611111111111],[-122.70138888888889,46.21611111111111],[-122.70138888888889,46.21611111111111],[-122.72333333333333,46.34305555555556],[-122.72333333333333,46.34305555555556],[-122.72333333333333,46.34305555555556],[-122.72333333333333,46.34305555555556],[-122.73583333333333,46.63916666666667],[-122.73583333333333,46.63916666666667],[-122.73583333333333,46.63916666666667],[-122.73583333333333,46.63916666666667],[-122.73666666666666,46.724722222222226],[-122.73666666666666,46.724722222222226],[-122.73666666666666,46.724722222222226],[-122.69833333333334,46.81888888888889],[-122.69833333333334,46.81888888888889],[-122.69833333333334,46.81888888888889],[-122.60944444444443,46.88666666666666],[-122.60944444444443,46.88666666666666],[-122.60944444444443,46.88666666666666],[-122.45055555555555,47.00361111111111],[-122.45055555555555,47.00361111111111],[-122.45055555555555,47.00361111111111],[-122.45055555555555,47.00361111111111],[-122.32222222222222,47.19361111111111],[-122.32222222222222,47.19361111111111],[-122.32222222222222,47.19361111111111],[-122.31916666666666,47.25277777777778],[-122.31916666666666,47.25277777777778],[-122.31916666666666,47.25277777777778],[-122.31944444444444,47.31194444444444],[-122.31944444444444,47.31194444444444],[-122.31944444444444,47.31194444444444],[-122.31805555555555,47.45194444444445],[-122.31805555555555,47.45194444444445],[-122.31805555555555,47.45194444444445],[-122.31805555555555,47.45194444444445],[-122.31805555555555,47.45194444444445]],"type":"LineString"}
}
