{
  "id": 2031591751,
  "type": "Feature",
  "properties": {
    "geom:area": 0,
    "geom:bbox": "-122.760610,37.396620,-122.116420,38.507430",
    "geom:latitude": 37.824753433224785,
    "geom:longitude": -122.47905106709823,
    "src:alt_label": "swim-approach",
    "src:geom": "swim",
    "swim:elevations": [
      7312,
      7315,
      7299,
      7273,
      7175,
      6893,
      6635,
      6343,
      6245,
      5920,
      5776,
      5712,
      5597,
      5302,
      5153,
      4947,
      4629,
      4508,
      4253,
      4146,
      4039,
      3857,
      3444,
      3354,
      3353,
      3353,
      3355,
      3353,
      3353,
      3093,
      2927,
      2761,
      2636,
      2501,
      2143,
      1894,
      1791,
      1507,
      1349,
      1253,
      1208,
      998,
      912,
      889,
      831,
      710,
      676,
      543,
      481,
      361,
      277,
      131,
      51,
      59
    ],
    "swim:geom": "approach",
    "swim:timestamps": [
      1781993277,
      1781993290,
      1781993337,
      1781993344,
      1781993356,
      1781993388,
      1781993416,
      1781993449,
      1781993462,
      1781993500,
      1781993518,
      1781993525,
      1781993540,
      1781993577,
      1781993596,
      1781993623,
      1781993663,
      1781993678,
      1781993712,
      1781993728,
      1781993740,
      1781993764,
      1781993818,
      1781993841,
      1781993873,
      1781993880,
      1781993902,
      1781993932,
      1781993949,
      1781993992,
      1781994021,
      1781994056,
      1781994072,
      1781994092,
      1781994144,
      1781994178,
      1781994204,
      1781994233,
      1781994251,
      1781994262,
      1781994276,
      1781994327,
      1781994355,
      1781994385,
      1781994396,
      1781994426,
      1781994437,
      1781994470,
      1781994488,
      1781994522,
      1781994544,
      1781994585,
      1781994609,
      1781994618
    ],
    "wof:geomhash": "dfc1f8058a2f9b0b86174ea955655fdd",
    "wof:id": 2031591751,
    "wof:repo": "sfomuseum-data-flights-2026-06"
  },
  "bbox": [
    -122.76061,
    37.39662,
    -122.11642,
    38.50743
  ],
  "geometry": {"coordinates":[[-122.62254,38.50743],[-122.63311,38.48682],[-122.66885,38.41705],[-122.6743,38.40646],[-122.68345,38.38866],[-122.70795,38.34131],[-122.7288,38.30052],[-122.75363,38.25167],[-122.76061,38.23314],[-122.75235,38.17376],[-122.74422,38.14528],[-122.74137,38.13521],[-122.73488,38.11238],[-122.71874,38.05629],[-122.71081,38.02902],[-122.69922,37.98925],[-122.68223,37.92995],[-122.67453,37.90882],[-122.63961,37.86779],[-122.62154,37.85064],[-122.6074,37.83736],[-122.57874,37.81023],[-122.5166,37.75138],[-122.49018,37.72661],[-122.45388,37.69264],[-122.44584,37.68506],[-122.42162,37.66211],[-122.38902,37.63129],[-122.37305,37.61391],[-122.34442,37.56849],[-122.3252,37.53714],[-122.30239,37.49979],[-122.29205,37.48303],[-122.27943,37.46267],[-122.23063,37.42077],[-122.18794,37.40527],[-122.15511,37.39662],[-122.12192,37.41099],[-122.11642,37.43016],[-122.1197,37.44161],[-122.12483,37.45564],[-122.14676,37.50091],[-122.16412,37.52143],[-122.18505,37.53861],[-122.19432,37.54272],[-122.21918,37.55323],[-122.22736,37.55668],[-122.25328,37.56762],[-122.26616,37.57298],[-122.29036,37.58315],[-122.30608,37.58981],[-122.33504,37.60199],[-122.35176,37.60896],[-122.35802,37.6117]],"type":"LineString"}
}
