{
  "id": 2031674069,
  "type": "Feature",
  "properties": {
    "geom:area": 0,
    "geom:bbox": "-122.753700,37.354750,-122.127000,38.487140",
    "geom:latitude": 37.813618571630236,
    "geom:longitude": -122.46676024732427,
    "src:alt_label": "swim-approach",
    "src:geom": "swim",
    "swim:elevations": [
      7313,
      7315,
      7315,
      7315,
      7201,
      6948,
      6798,
      6363,
      6080,
      5650,
      5218,
      4901,
      4382,
      4088,
      3917,
      3718,
      3633,
      3552,
      3419,
      3356,
      3351,
      3342,
      3198,
      2975,
      2783,
      2750,
      2667,
      2462,
      2438,
      2438,
      2373,
      2236,
      1971,
      1807,
      1637,
      1524,
      1514,
      1340,
      1243,
      1101,
      1004,
      963,
      828,
      605,
      487,
      335,
      247,
      95,
      62
    ],
    "swim:geom": "approach",
    "swim:timestamps": [
      1782733281,
      1782733310,
      1782733330,
      1782733347,
      1782733371,
      1782733399,
      1782733415,
      1782733458,
      1782733481,
      1782733518,
      1782733551,
      1782733575,
      1782733616,
      1782733647,
      1782733664,
      1782733697,
      1782733731,
      1782733747,
      1782733781,
      1782733797,
      1782733802,
      1782733852,
      1782733879,
      1782733907,
      1782733933,
      1782733938,
      1782733950,
      1782733982,
      1782734035,
      1782734051,
      1782734096,
      1782734112,
      1782734149,
      1782734178,
      1782734201,
      1782734246,
      1782734269,
      1782734300,
      1782734331,
      1782734361,
      1782734381,
      1782734392,
      1782734413,
      1782734457,
      1782734481,
      1782734516,
      1782734537,
      1782734572,
      1782734583
    ],
    "wof:geomhash": "1c42d2684f6ca94846b071fcb1abcdb9",
    "wof:id": 2031674069,
    "wof:repo": "sfomuseum-data-flights-2026-06"
  },
  "bbox": [
    -122.7537,
    37.35475,
    -122.127,
    38.48714
  ],
  "geometry": {"coordinates":[[-122.49703,38.48714],[-122.54537,38.44083],[-122.58042,38.40712],[-122.60881,38.37951],[-122.64787,38.3415],[-122.69557,38.29489],[-122.72179,38.26904],[-122.7537,38.18767],[-122.74384,38.14165],[-122.72406,38.07296],[-122.70561,38.01141],[-122.69333,37.96987],[-122.66641,37.89906],[-122.62741,37.85645],[-122.60472,37.83479],[-122.56037,37.79307],[-122.51808,37.75305],[-122.49952,37.73547],[-122.46227,37.70045],[-122.44505,37.68426],[-122.44016,37.67969],[-122.39046,37.63297],[-122.36538,37.60888],[-122.34828,37.57735],[-122.33319,37.54893],[-122.3301,37.54337],[-122.32274,37.53066],[-122.30217,37.49692],[-122.31319,37.43527],[-122.3191,37.41699],[-122.32096,37.36609],[-122.3055,37.35475],[-122.26027,37.36166],[-122.23053,37.37871],[-122.20564,37.39319],[-122.1599,37.42076],[-122.14222,37.44031],[-122.127,37.46986],[-122.13369,37.49767],[-122.15449,37.51894],[-122.16991,37.53326],[-122.18023,37.53899],[-122.20114,37.54785],[-122.2448,37.56625],[-122.26815,37.57601],[-122.29863,37.58895],[-122.31494,37.59579],[-122.34106,37.60675],[-122.34895,37.6101]],"type":"LineString"}
}
