{
  "id": 2031486395,
  "type": "Feature",
  "properties": {
    "geom:area": 0,
    "geom:bbox": "-126.758889,36.512222,-122.550000,37.663056",
    "geom:latitude": 37.094647762505794,
    "geom:longitude": -124.65635364699696,
    "src:alt_label": "swim-path",
    "src:geom": "swim",
    "swim:altitudes": [
      "045",
      "045",
      "045",
      "045",
      "094",
      "094",
      "094",
      "109",
      "109",
      "122",
      "122",
      "122",
      "143",
      "194",
      "194",
      "194",
      "211",
      "211",
      "223",
      "223",
      "223",
      "254",
      "254",
      "266",
      "266",
      "266",
      "276",
      "283",
      "283",
      "283",
      "283",
      "300C",
      "300C",
      "300C",
      "300C",
      "300C",
      "300C",
      "300C",
      "300C",
      "300C",
      "300C",
      "300C",
      "300C",
      "300C",
      "300C",
      "300C",
      "300C",
      "300C",
      "300C",
      "300C",
      "300C",
      "300C"
    ],
    "swim:geom": "path",
    "swim:speeds": [
      264,
      264,
      264,
      264,
      285,
      285,
      285,
      320,
      320,
      361,
      361,
      361,
      365,
      396,
      396,
      396,
      404,
      404,
      411,
      411,
      411,
      439,
      439,
      444,
      444,
      444,
      449,
      458,
      458,
      458,
      458,
      468,
      468,
      468,
      468,
      466,
      466,
      466,
      466,
      466,
      468,
      468,
      468,
      468,
      468,
      469,
      469,
      469,
      469,
      469,
      469,
      469
    ],
    "swim:timestamps": [
      1780954518,
      1780954518,
      1780954518,
      1780954518,
      1780954638,
      1780954638,
      1780954638,
      1780954698,
      1780954698,
      1780954758,
      1780954758,
      1780954758,
      1780954818,
      1780954999,
      1780954999,
      1780954999,
      1780955059,
      1780955059,
      1780955119,
      1780955119,
      1780955119,
      1780955299,
      1780955299,
      1780955359,
      1780955359,
      1780955359,
      1780955419,
      1780955479,
      1780955479,
      1780955479,
      1780955479,
      1780955660,
      1780955660,
      1780955660,
      1780955660,
      1780955780,
      1780955780,
      1780955840,
      1780955840,
      1780955840,
      1780956020,
      1780956020,
      1780956140,
      1780956140,
      1780956140,
      1780956200,
      1780956200,
      1780956200,
      1780956320,
      1780956320,
      1780956320,
      1780956320
    ],
    "wof:geomhash": "e447160e233c7d280cef426ef11267f6",
    "wof:id": 2031486395,
    "wof:repo": "sfomuseum-data-flights-2026-06"
  },
  "bbox": [
    -126.75888888888889,
    36.51222222222222,
    -122.55,
    37.66305555555555
  ],
  "geometry": {"coordinates":[[-122.55,37.66305555555555],[-122.55,37.66305555555555],[-122.55,37.66305555555555],[-122.55,37.66305555555555],[-122.74027777777778,37.61333333333334],[-122.74027777777778,37.61333333333334],[-122.74027777777778,37.61333333333334],[-122.8425,37.58694444444445],[-122.8425,37.58694444444445],[-122.95972222222223,37.55638888888888],[-122.95972222222223,37.55638888888888],[-122.95972222222223,37.55638888888888],[-123.08166666666666,37.524166666666666],[-123.46972222222223,37.421388888888885],[-123.46972222222223,37.421388888888885],[-123.46972222222223,37.421388888888885],[-123.60388888888889,37.385555555555555],[-123.60388888888889,37.385555555555555],[-123.7388888888889,37.348888888888894],[-123.7388888888889,37.348888888888894],[-123.7388888888889,37.348888888888894],[-124.16805555555555,37.23222222222223],[-124.16805555555555,37.23222222222223],[-124.31666666666666,37.19138888888889],[-124.31666666666666,37.19138888888889],[-124.31666666666666,37.19138888888889],[-124.46444444444445,37.150555555555556],[-124.61388888888888,37.10888888888889],[-124.61388888888888,37.10888888888889],[-124.61388888888888,37.10888888888889],[-124.61388888888888,37.10888888888889],[-125.07472222222222,36.97972222222222],[-125.07472222222222,36.97972222222222],[-125.07472222222222,36.97972222222222],[-125.07472222222222,36.97972222222222],[-125.38222222222221,36.89722222222222],[-125.38222222222221,36.89722222222222],[-125.535,36.85527777777778],[-125.535,36.85527777777778],[-125.535,36.85527777777778],[-125.99472222222222,36.72805555555556],[-125.99472222222222,36.72805555555556],[-126.30055555555555,36.6425],[-126.30055555555555,36.6425],[-126.30055555555555,36.6425],[-126.4525,36.599444444444444],[-126.4525,36.599444444444444],[-126.4525,36.599444444444444],[-126.75888888888889,36.51222222222222],[-126.75888888888889,36.51222222222222],[-126.75888888888889,36.51222222222222],[-126.75888888888889,36.51222222222222]],"type":"LineString"}
}
