{
  "id": 2031521951,
  "type": "Feature",
  "properties": {
    "geom:area": 0,
    "geom:bbox": "-122.737222,37.666667,-121.894444,47.320000",
    "geom:latitude": 42.52697785385171,
    "geom:longitude": -122.17180172460867,
    "src:alt_label": "swim-path",
    "src:geom": "swim",
    "swim:altitudes": [
      "018",
      "018",
      "018",
      "049",
      "049",
      "049",
      "049",
      "108",
      "108",
      "108",
      "108",
      "144",
      "144",
      "144",
      "144",
      "161",
      "201",
      "201",
      "218",
      "218",
      "234",
      "249",
      "249",
      "249",
      "277",
      "288",
      "288",
      "288",
      "311",
      "311",
      "311",
      "311",
      "311",
      "343",
      "343",
      "343",
      "343",
      "351",
      "351",
      "351",
      "359C",
      "359C",
      "360C",
      "360C",
      "360C",
      "360C",
      "360C",
      "360C",
      "360C",
      "360C",
      "360C",
      "360C",
      "360C",
      "360C",
      "360C",
      "360C",
      "360C",
      "360C",
      "360C",
      "360C",
      "360C",
      "360C",
      "360C",
      "360C",
      "360C",
      "360C",
      "360C",
      "360C",
      "360C",
      "360C",
      "360C",
      "360C",
      "360C",
      "360C",
      "360C",
      "360C",
      "360C",
      "360C",
      "360C",
      "360C",
      "360C",
      "360C",
      "360C",
      "360C",
      "360C",
      "360C",
      "360C",
      "360C",
      "360C",
      "360C",
      "360C",
      "360C",
      "360C",
      "360C",
      "360C",
      "360C",
      "360C",
      "360C",
      "360C",
      "360C",
      "360C",
      "360C",
      "360C",
      "360C",
      "360C",
      "360C",
      "360C",
      "360C",
      "360C",
      "360C",
      "360",
      "360",
      "360",
      "360",
      "360",
      "360",
      "360",
      "360",
      "360",
      "360",
      "351",
      "351",
      "307",
      "307",
      "307",
      "307",
      "307",
      "254",
      "254",
      "236",
      "236",
      "236",
      "236",
      "215",
      "215",
      "215",
      "180",
      "180",
      "159",
      "159",
      "159",
      "159",
      "132",
      "132",
      "123",
      "123",
      "123",
      "107",
      "107",
      "105",
      "105",
      "099",
      "096",
      "096",
      "088",
      "088",
      "088",
      "085",
      "085",
      "075",
      "075",
      "075",
      "075",
      "034",
      "034",
      "034",
      "034",
      "027",
      "027",
      "027"
    ],
    "swim:geom": "path",
    "swim:speeds": [
      239,
      239,
      239,
      275,
      275,
      275,
      275,
      311,
      311,
      311,
      311,
      350,
      350,
      350,
      350,
      364,
      383,
      383,
      392,
      392,
      403,
      408,
      408,
      408,
      428,
      431,
      431,
      431,
      443,
      443,
      443,
      443,
      443,
      446,
      446,
      446,
      446,
      446,
      446,
      446,
      446,
      446,
      445,
      445,
      445,
      443,
      443,
      443,
      443,
      444,
      444,
      444,
      444,
      447,
      447,
      447,
      447,
      447,
      449,
      449,
      449,
      448,
      447,
      447,
      447,
      447,
      447,
      447,
      446,
      446,
      446,
      446,
      446,
      446,
      446,
      446,
      446,
      446,
      446,
      443,
      443,
      443,
      442,
      442,
      442,
      440,
      440,
      440,
      440,
      439,
      439,
      439,
      439,
      439,
      439,
      439,
      437,
      437,
      437,
      436,
      436,
      436,
      435,
      435,
      435,
      433,
      433,
      433,
      433,
      433,
      433,
      433,
      433,
      433,
      433,
      432,
      432,
      432,
      432,
      432,
      430,
      430,
      415,
      415,
      415,
      415,
      415,
      373,
      373,
      363,
      363,
      363,
      363,
      360,
      360,
      360,
      345,
      345,
      343,
      343,
      343,
      343,
      324,
      324,
      325,
      325,
      325,
      322,
      322,
      300,
      300,
      289,
      280,
      280,
      267,
      267,
      267,
      258,
      258,
      257,
      257,
      257,
      257,
      173,
      173,
      173,
      173,
      172,
      172,
      172
    ],
    "swim:timestamps": [
      1781296697,
      1781296697,
      1781296697,
      1781296795,
      1781296795,
      1781296795,
      1781296795,
      1781296976,
      1781296976,
      1781296976,
      1781296976,
      1781297096,
      1781297096,
      1781297096,
      1781297096,
      1781297156,
      1781297276,
      1781297276,
      1781297336,
      1781297336,
      1781297396,
      1781297456,
      1781297456,
      1781297456,
      1781297576,
      1781297636,
      1781297636,
      1781297636,
      1781297757,
      1781297757,
      1781297757,
      1781297757,
      1781297757,
      1781297939,
      1781297939,
      1781297939,
      1781297939,
      1781297997,
      1781297997,
      1781297997,
      1781298057,
      1781298057,
      1781298237,
      1781298237,
      1781298237,
      1781298418,
      1781298418,
      1781298418,
      1781298418,
      1781298478,
      1781298478,
      1781298478,
      1781298478,
      1781298658,
      1781298658,
      1781298658,
      1781298658,
      1781298658,
      1781298838,
      1781298838,
      1781298838,
      1781298898,
      1781299018,
      1781299018,
      1781299079,
      1781299079,
      1781299079,
      1781299079,
      1781299201,
      1781299201,
      1781299201,
      1781299201,
      1781299261,
      1781299261,
      1781299261,
      1781299441,
      1781299441,
      1781299441,
      1781299441,
      1781299561,
      1781299561,
      1781299561,
      1781299621,
      1781299621,
      1781299621,
      1781299741,
      1781299741,
      1781299741,
      1781299741,
      1781299801,
      1781299801,
      1781299982,
      1781299982,
      1781299982,
      1781299982,
      1781299982,
      1781300102,
      1781300102,
      1781300102,
      1781300162,
      1781300162,
      1781300162,
      1781300282,
      1781300282,
      1781300282,
      1781300402,
      1781300402,
      1781300402,
      1781300402,
      1781300402,
      1781300643,
      1781300643,
      1781300643,
      1781300643,
      1781300643,
      1781300763,
      1781300763,
      1781300763,
      1781300763,
      1781300763,
      1781300823,
      1781300823,
      1781300943,
      1781300943,
      1781300943,
      1781300943,
      1781300943,
      1781301123,
      1781301123,
      1781301183,
      1781301183,
      1781301183,
      1781301183,
      1781301244,
      1781301244,
      1781301244,
      1781301364,
      1781301364,
      1781301424,
      1781301424,
      1781301424,
      1781301424,
      1781301502,
      1781301502,
      1781301544,
      1781301544,
      1781301544,
      1781301604,
      1781301604,
      1781301622,
      1781301622,
      1781301664,
      1781301679,
      1781301679,
      1781301724,
      1781301724,
      1781301724,
      1781301739,
      1781301739,
      1781301784,
      1781301784,
      1781301784,
      1781301784,
      1781302040,
      1781302040,
      1781302040,
      1781302040,
      1781302085,
      1781302085,
      1781302085
    ],
    "wof:geomhash": "a2ab6a2f4e243c4dd7f39e448812f03d",
    "wof:id": 2031521951,
    "wof:repo": "sfomuseum-data-flights-2026-06"
  },
  "bbox": [
    -122.73722222222223,
    37.666666666666664,
    -121.89444444444445,
    47.32
  ],
  "geometry": {"coordinates":[[-122.36666666666666,37.666666666666664],[-122.36666666666666,37.666666666666664],[-122.36666666666666,37.666666666666664],[-122.24916666666667,37.70861111111111],[-122.24916666666667,37.70861111111111],[-122.24916666666667,37.70861111111111],[-122.24916666666667,37.70861111111111],[-122.22972222222222,37.939722222222215],[-122.22972222222222,37.939722222222215],[-122.22972222222222,37.939722222222215],[-122.22972222222222,37.939722222222215],[-122.1738888888889,38.12861111111111],[-122.1738888888889,38.12861111111111],[-122.1738888888889,38.12861111111111],[-122.1738888888889,38.12861111111111],[-122.1438888888889,38.22694444444445],[-122.07805555555555,38.43944444444444],[-122.07805555555555,38.43944444444444],[-122.04388888888889,38.546388888888885],[-122.04388888888889,38.546388888888885],[-122.00805555555556,38.65611111111111],[-121.97194444444445,38.76861111111111],[-121.97194444444445,38.76861111111111],[-121.97194444444445,38.76861111111111],[-121.89611111111111,38.99944444444444],[-121.89444444444445,39.11972222222222],[-121.89444444444445,39.11972222222222],[-121.89444444444445,39.11972222222222],[-121.89944444444446,39.36666666666667],[-121.89944444444446,39.36666666666667],[-121.89944444444446,39.36666666666667],[-121.89944444444446,39.36666666666667],[-121.89944444444446,39.36666666666667],[-121.90694444444445,39.735],[-121.90694444444445,39.735],[-121.90694444444445,39.735],[-121.90694444444445,39.735],[-121.91111111111111,39.85777777777778],[-121.91111111111111,39.85777777777778],[-121.91111111111111,39.85777777777778],[-121.91472222222222,39.980555555555554],[-121.91472222222222,39.980555555555554],[-121.9238888888889,40.348333333333336],[-121.9238888888889,40.348333333333336],[-121.9238888888889,40.348333333333336],[-121.93361111111112,40.71527777777778],[-121.93361111111112,40.71527777777778],[-121.93361111111112,40.71527777777778],[-121.93361111111112,40.71527777777778],[-121.93666666666667,40.83833333333334],[-121.93666666666667,40.83833333333334],[-121.93666666666667,40.83833333333334],[-121.93666666666667,40.83833333333334],[-121.94611111111111,41.21194444444445],[-121.94611111111111,41.21194444444445],[-121.94611111111111,41.21194444444445],[-121.94611111111111,41.21194444444445],[-121.94611111111111,41.21194444444445],[-121.95611111111111,41.590833333333336],[-121.95611111111111,41.590833333333336],[-121.95611111111111,41.590833333333336],[-121.95944444444444,41.715833333333336],[-121.96638888888889,41.96388888888889],[-121.96638888888889,41.96388888888889],[-121.97,42.10111111111111],[-121.97,42.10111111111111],[-121.97,42.10111111111111],[-121.97,42.10111111111111],[-121.97638888888889,42.34777777777778],[-121.97638888888889,42.34777777777778],[-121.97638888888889,42.34777777777778],[-121.97638888888889,42.34777777777778],[-121.98,42.47027777777778],[-121.98,42.47027777777778],[-121.98,42.47027777777778],[-121.99,42.84388888888889],[-121.99,42.84388888888889],[-121.99,42.84388888888889],[-121.99,42.84388888888889],[-121.99694444444445,43.08833333333334],[-121.99694444444445,43.08833333333334],[-121.99694444444445,43.08833333333334],[-122.00055555555555,43.211666666666666],[-122.00055555555555,43.211666666666666],[-122.00055555555555,43.211666666666666],[-122.02444444444444,43.43805555555555],[-122.02444444444444,43.43805555555555],[-122.02444444444444,43.43805555555555],[-122.02444444444444,43.43805555555555],[-122.05305555555556,43.55972222222222],[-122.05305555555556,43.55972222222222],[-122.14444444444445,43.94277777777778],[-122.14444444444445,43.94277777777778],[-122.14444444444445,43.94277777777778],[-122.14444444444445,43.94277777777778],[-122.14444444444445,43.94277777777778],[-122.20194444444445,44.18138888888889],[-122.20194444444445,44.18138888888889],[-122.20194444444445,44.18138888888889],[-122.23083333333334,44.300555555555555],[-122.23083333333334,44.300555555555555],[-122.23083333333334,44.300555555555555],[-122.28861111111111,44.536944444444444],[-122.28861111111111,44.536944444444444],[-122.28861111111111,44.536944444444444],[-122.34638888888888,44.77194444444444],[-122.34638888888888,44.77194444444444],[-122.34638888888888,44.77194444444444],[-122.34638888888888,44.77194444444444],[-122.34638888888888,44.77194444444444],[-122.46416666666667,45.24527777777778],[-122.46416666666667,45.24527777777778],[-122.46416666666667,45.24527777777778],[-122.46416666666667,45.24527777777778],[-122.46416666666667,45.24527777777778],[-122.52388888888889,45.481944444444444],[-122.52388888888889,45.481944444444444],[-122.52388888888889,45.481944444444444],[-122.52388888888889,45.481944444444444],[-122.52388888888889,45.481944444444444],[-122.55361111111111,45.59861111111111],[-122.55361111111111,45.59861111111111],[-122.61138888888888,45.8275],[-122.61138888888888,45.8275],[-122.61138888888888,45.8275],[-122.61138888888888,45.8275],[-122.61138888888888,45.8275],[-122.685,46.13194444444444],[-122.685,46.13194444444444],[-122.70472222222223,46.23083333333334],[-122.70472222222223,46.23083333333334],[-122.70472222222223,46.23083333333334],[-122.70472222222223,46.23083333333334],[-122.72305555555556,46.34583333333334],[-122.72305555555556,46.34583333333334],[-122.72305555555556,46.34583333333334],[-122.72972222222222,46.524166666666666],[-122.72972222222222,46.524166666666666],[-122.73277777777778,46.618611111111115],[-122.73277777777778,46.618611111111115],[-122.73277777777778,46.618611111111115],[-122.73277777777778,46.618611111111115],[-122.73722222222223,46.757222222222225],[-122.73722222222223,46.757222222222225],[-122.70833333333334,46.81027777777778],[-122.70833333333334,46.81027777777778],[-122.70833333333334,46.81027777777778],[-122.62333333333332,46.87694444444445],[-122.62333333333332,46.87694444444445],[-122.59333333333333,46.89833333333333],[-122.59333333333333,46.89833333333333],[-122.53861111111111,46.93611111111111],[-122.51694444444445,46.95],[-122.51694444444445,46.95],[-122.46222222222222,46.99027777777778],[-122.46222222222222,46.99027777777778],[-122.46222222222222,46.99027777777778],[-122.44666666666667,47.0075],[-122.44666666666667,47.0075],[-122.41027777777778,47.05138888888889],[-122.41027777777778,47.05138888888889],[-122.41027777777778,47.05138888888889],[-122.41027777777778,47.05138888888889],[-122.32027777777778,47.28666666666666],[-122.32027777777778,47.28666666666666],[-122.32027777777778,47.28666666666666],[-122.32027777777778,47.28666666666666],[-122.31916666666666,47.32],[-122.31916666666666,47.32],[-122.31916666666666,47.32]],"type":"LineString"}
}
