{
  "id": 2031637343,
  "type": "Feature",
  "properties": {
    "geom:area": 0,
    "geom:bbox": "-122.360420,37.467240,-121.244510,37.615090",
    "geom:latitude": 37.53894899020181,
    "geom:longitude": -121.80970139375049,
    "src:alt_label": "swim-approach",
    "src:geom": "swim",
    "swim:elevations": [
      5062,
      4748,
      4661,
      4364,
      4167,
      4150,
      4083,
      4077,
      3952,
      3713,
      3595,
      3327,
      3060,
      2856,
      2742,
      2745,
      2730,
      2681,
      2497,
      2345,
      2172,
      2118,
      2075,
      1967,
      1829,
      1828,
      1734,
      1489,
      1263,
      1115,
      1036,
      864,
      682,
      671,
      571,
      523,
      465,
      365,
      255,
      141,
      0
    ],
    "swim:geom": "approach",
    "swim:timestamps": [
      1782425904,
      1782425934,
      1782425946,
      1782425991,
      1782426023,
      1782426026,
      1782426051,
      1782426056,
      1782426080,
      1782426110,
      1782426128,
      1782426156,
      1782426187,
      1782426210,
      1782426234,
      1782426240,
      1782426298,
      1782426310,
      1782426332,
      1782426357,
      1782426378,
      1782426386,
      1782426393,
      1782426411,
      1782426448,
      1782426457,
      1782426491,
      1782426526,
      1782426563,
      1782426587,
      1782426603,
      1782426641,
      1782426686,
      1782426692,
      1782426713,
      1782426725,
      1782426737,
      1782426767,
      1782426795,
      1782426826,
      1782426863
    ],
    "wof:geomhash": "bb7245079a134a61c7e439c369121e44",
    "wof:id": 2031637343,
    "wof:repo": "sfomuseum-data-flights-2026-06"
  },
  "bbox": [
    -122.36042,
    37.46724,
    -121.24451,
    37.61509
  ],
  "geometry": {"coordinates":[[-121.24451,37.59486],[-121.298,37.58801],[-121.31886,37.58572],[-121.39567,37.57697],[-121.44961,37.57087],[-121.45577,37.57012],[-121.49517,37.56558],[-121.50215,37.56477],[-121.53745,37.56068],[-121.57975,37.55576],[-121.60388,37.55288],[-121.64312,37.55555],[-121.68429,37.56362],[-121.71198,37.55537],[-121.72765,37.53182],[-121.73057,37.52537],[-121.79109,37.48987],[-121.80662,37.4884],[-121.83603,37.48542],[-121.87024,37.48169],[-121.89817,37.4784],[-121.9092,37.47717],[-121.91837,37.4761],[-121.94277,37.47315],[-121.99133,37.46724],[-122.00325,37.46753],[-122.04307,37.48094],[-122.08207,37.49762],[-122.12395,37.51527],[-122.14902,37.52587],[-122.1638,37.5322],[-122.19812,37.54663],[-122.23344,37.5616],[-122.23823,37.56359],[-122.255,37.5706],[-122.26519,37.57485],[-122.27459,37.57886],[-122.29525,37.58755],[-122.31479,37.59577],[-122.33683,37.60503],[-122.36042,37.61509]],"type":"LineString"}
}
