{
  "id": 2031425915,
  "type": "Feature",
  "properties": {
    "geom:area": 0,
    "geom:bbox": "-122.383333,37.709444,-121.583333,38.833333",
    "geom:latitude": 38.27658370293014,
    "geom:longitude": -121.94937621222904,
    "src:alt_label": "swim-path",
    "src:geom": "swim",
    "swim:altitudes": [
      "053",
      "088",
      "100",
      "100",
      "099",
      "101",
      "100",
      "100",
      "101",
      "082",
      "081",
      "081",
      "071",
      "070",
      "070",
      "048",
      "020",
      "006",
      "006"
    ],
    "swim:geom": "path",
    "swim:speeds": [
      260,
      289,
      302,
      302,
      296,
      298,
      301,
      301,
      300,
      298,
      300,
      300,
      289,
      283,
      283,
      271,
      198,
      153,
      153
    ],
    "swim:timestamps": [
      1780382773,
      1780382828,
      1780382888,
      1780382888,
      1780382979,
      1780383013,
      1780383068,
      1780383122,
      1780383193,
      1780383302,
      1780383313,
      1780383313,
      1780383373,
      1780383433,
      1780383433,
      1780383608,
      1780383848,
      1780384028,
      1780384028
    ],
    "wof:geomhash": "d1c3b15efff5e4aca848e84091269fce",
    "wof:id": 2031425915,
    "wof:repo": "sfomuseum-data-flights-2026-06"
  },
  "bbox": [
    -122.38333333333334,
    37.70944444444445,
    -121.58333333333333,
    38.833333333333336
  ],
  "geometry": {"coordinates":[[-122.34666666666666,37.70944444444445],[-122.36666666666666,37.78333333333333],[-122.38333333333334,37.86666666666667],[-122.38333333333334,37.86666666666667],[-122.32222222222222,37.971111111111114],[-122.28388888888888,37.99055555555556],[-122.18333333333334,38.03333333333333],[-122.11666666666666,38.083333333333336],[-122.01611111111112,38.12444444444444],[-121.86666666666666,38.233333333333334],[-121.86833333333333,38.24305555555556],[-121.86833333333333,38.24305555555556],[-121.80111111111111,38.306666666666665],[-121.73861111111111,38.37027777777778],[-121.73861111111111,38.37027777777778],[-121.68333333333334,38.6],[-121.65,38.833333333333336],[-121.58333333333333,38.733333333333334],[-121.58333333333333,38.733333333333334]],"type":"LineString"}
}
