{
  "id": 2031616065,
  "type": "Feature",
  "properties": {
    "geom:area": 0,
    "geom:bbox": "-122.351570,37.475170,-121.244440,37.611190",
    "geom:latitude": 37.5493827554502,
    "geom:longitude": -121.80436992695702,
    "src:alt_label": "swim-approach",
    "src:geom": "swim",
    "swim:elevations": [
      4666,
      4479,
      4415,
      4206,
      3810,
      3567,
      3414,
      3332,
      3312,
      3201,
      3168,
      3048,
      3048,
      2951,
      2689,
      2486,
      2440,
      2354,
      2250,
      1924,
      1809,
      1547,
      1308,
      1286,
      1145,
      881,
      743,
      603,
      451,
      338,
      279,
      198,
      154,
      63
    ],
    "swim:geom": "approach",
    "swim:timestamps": [
      1782247065,
      1782247083,
      1782247092,
      1782247113,
      1782247149,
      1782247180,
      1782247227,
      1782247249,
      1782247255,
      1782247281,
      1782247290,
      1782247338,
      1782247374,
      1782247404,
      1782247439,
      1782247466,
      1782247496,
      1782247528,
      1782247546,
      1782247588,
      1782247604,
      1782247644,
      1782247678,
      1782247684,
      1782247717,
      1782247761,
      1782247788,
      1782247817,
      1782247853,
      1782247879,
      1782247896,
      1782247921,
      1782247934,
      1782247960
    ],
    "wof:geomhash": "8bbb03bf989e18e475a8ffc0e6f22c95",
    "wof:id": 2031616065,
    "wof:repo": "sfomuseum-data-flights-2026-06"
  },
  "bbox": [
    -122.35157,
    37.47517,
    -121.24444,
    37.61119
  ],
  "geometry": {"coordinates":[[-121.24444,37.59533],[-121.28148,37.59032],[-121.3001,37.58802],[-121.34226,37.58333],[-121.4146,37.57517],[-121.47717,37.5679],[-121.56334,37.55786],[-121.59969,37.55375],[-121.6096,37.55328],[-121.64937,37.56536],[-121.66111,37.57187],[-121.72031,37.60449],[-121.76915,37.59991],[-121.78933,37.57054],[-121.80885,37.53522],[-121.82432,37.50734],[-121.84811,37.4788],[-121.89115,37.47517],[-121.91672,37.47891],[-121.97342,37.48675],[-121.99666,37.48986],[-122.05063,37.49714],[-122.09511,37.50465],[-122.10253,37.5071],[-122.14166,37.52275],[-122.19153,37.54387],[-122.22067,37.55618],[-122.24878,37.56797],[-122.27906,37.58072],[-122.29739,37.58843],[-122.30911,37.59333],[-122.32605,37.60047],[-122.33461,37.60408],[-122.35157,37.61119]],"type":"LineString"}
}
