{
  "id": 2031542529,
  "type": "Feature",
  "properties": {
    "geom:area": 0,
    "geom:bbox": "-122.412090,37.624360,-121.257750,38.007610",
    "geom:latitude": 37.83303435070564,
    "geom:longitude": -121.8583989318181,
    "src:alt_label": "swim-takeoff",
    "src:geom": "swim",
    "swim:elevations": [
      152,
      527,
      834,
      1100,
      1442,
      1752,
      1861,
      2145,
      2455,
      2771,
      3163,
      3527,
      3758,
      3931,
      3971,
      4626,
      4891,
      5246,
      5397,
      5780,
      6122,
      6206,
      6236,
      6701,
      7017,
      7296,
      7460,
      7619,
      7710
    ],
    "swim:geom": "takeoff",
    "swim:timestamps": [
      1781473645,
      1781473676,
      1781473700,
      1781473728,
      1781473767,
      1781473798,
      1781473806,
      1781473826,
      1781473846,
      1781473862,
      1781473892,
      1781473943,
      1781473959,
      1781473977,
      1781473980,
      1781474035,
      1781474065,
      1781474091,
      1781474103,
      1781474144,
      1781474178,
      1781474187,
      1781474190,
      1781474237,
      1781474273,
      1781474304,
      1781474322,
      1781474341,
      1781474353
    ],
    "wof:geomhash": "dec6cb661dbe76d2cc927f2fdd5dd362",
    "wof:id": 2031542529,
    "wof:repo": "sfomuseum-data-flights-2026-06"
  },
  "bbox": [
    -122.41209,
    37.62436,
    -121.25775,
    38.00761
  ],
  "geometry": {"coordinates":[[-122.38894,37.62436],[-122.41209,37.64181],[-122.40946,37.66286],[-122.38169,37.67565],[-122.32901,37.68357],[-122.28346,37.69669],[-122.27181,37.70025],[-122.24118,37.70989],[-122.21185,37.72008],[-122.19027,37.73042],[-122.15167,37.75076],[-122.07567,37.79008],[-122.04936,37.80384],[-122.02199,37.81778],[-122.01696,37.82],[-121.91484,37.84365],[-121.85426,37.85475],[-121.80272,37.86435],[-121.77861,37.86882],[-121.69608,37.88406],[-121.62607,37.89655],[-121.60698,37.89995],[-121.60063,37.90107],[-121.4985,37.91955],[-121.42043,37.93703],[-121.35855,37.96324],[-121.32225,37.97938],[-121.28282,37.9967],[-121.25775,38.00761]],"type":"LineString"}
}
