{
  "id": 2031459883,
  "type": "Feature",
  "properties": {
    "geom:area": 0,
    "geom:bbox": "-122.399444,37.642222,-73.516667,42.021111",
    "geom:latitude": 40.31912458947506,
    "geom:longitude": -97.55251323641014,
    "src:alt_label": "swim-path",
    "src:geom": "swim",
    "swim:altitudes": [
      "014",
      "057",
      "057",
      "088",
      "088",
      "141",
      "141",
      "188",
      "188",
      "196",
      "208",
      "224",
      "224",
      "224",
      "291",
      "291",
      "291",
      "312",
      "312",
      "323",
      "342",
      "350C",
      "350C",
      "350C",
      "350C",
      "350C",
      "350C",
      "350C",
      "350C",
      "350C",
      "350C",
      "350C",
      "350C",
      "350C",
      "350C",
      "350C",
      "350C",
      "350C",
      "350C",
      "350C",
      "350C",
      "350C",
      "350C",
      "350C",
      "350C",
      "350C",
      "350C",
      "350C",
      "350C",
      "350C",
      "350C",
      "350C",
      "350C",
      "350C",
      "350C",
      "350C",
      "350C",
      "350C",
      "350C",
      "350C",
      "350C",
      "350C",
      "350C",
      "350C",
      "350C",
      "350C",
      "350C",
      "350C",
      "350C",
      "350C",
      "350C",
      "350C",
      "350C",
      "350C",
      "350C",
      "350C",
      "350C",
      "350C",
      "350C",
      "350C",
      "350C",
      "350C",
      "350C",
      "350C",
      "350C",
      "350C",
      "350C",
      "350C",
      "350C",
      "350C",
      "350C",
      "350C",
      "350C",
      "350C",
      "350C",
      "350C",
      "350C",
      "350C",
      "350",
      "350",
      "370C",
      "370C",
      "370C",
      "370C",
      "370C",
      "370C",
      "370C",
      "370C",
      "370C",
      "370C",
      "370C",
      "370C",
      "370C",
      "370C",
      "370C",
      "370C",
      "370C",
      "370C",
      "370C",
      "370C",
      "370C",
      "370C",
      "370C",
      "370C",
      "370C",
      "370C",
      "370C",
      "370C",
      "370C",
      "370C",
      "370C",
      "370C",
      "370C",
      "370C",
      "370C",
      "370C",
      "370C",
      "370C",
      "370C",
      "370",
      "370",
      "370",
      "370",
      "370",
      "370",
      "370",
      "376",
      "386",
      "386",
      "386",
      "390C",
      "390C",
      "390C",
      "390C",
      "390C",
      "390C",
      "390C",
      "390C",
      "390C",
      "390C",
      "390C",
      "390C",
      "390C",
      "390C",
      "390C",
      "390C",
      "390C",
      "390C",
      "390C",
      "390C",
      "390C",
      "390C",
      "390C",
      "390C",
      "390C",
      "390C",
      "390C",
      "390C",
      "390C",
      "390C",
      "390C",
      "390C",
      "390C",
      "390C",
      "390C",
      "390C",
      "390C",
      "390C",
      "390C",
      "390C",
      "390C",
      "390C",
      "390C",
      "390C",
      "390C",
      "390C",
      "390C",
      "390C",
      "390C",
      "390C",
      "390C",
      "390C",
      "390C",
      "390C",
      "390C",
      "390C",
      "390C",
      "390C",
      "390C",
      "390C",
      "390C",
      "390C",
      "390C",
      "390C",
      "390C",
      "390C",
      "390C",
      "390C",
      "390C",
      "390C",
      "390C",
      "390C",
      "390C",
      "390C",
      "390C",
      "390C",
      "390C",
      "390C",
      "390C",
      "390C",
      "390C",
      "390C",
      "390C",
      "390C",
      "390C",
      "390C",
      "390C",
      "390C",
      "390C",
      "390C",
      "390C",
      "390C",
      "390C",
      "390C",
      "390C",
      "390C",
      "390C",
      "390C",
      "390C",
      "390C",
      "390C",
      "390C",
      "390C",
      "390C",
      "390C",
      "390C",
      "390C",
      "390C",
      "390C",
      "390C",
      "390C",
      "390C",
      "390C",
      "390C",
      "390C",
      "390C",
      "390C",
      "390C",
      "390C",
      "390C",
      "390C",
      "390C",
      "390C",
      "390C",
      "390C",
      "390C",
      "390C",
      "390C",
      "390C",
      "390C",
      "390C",
      "390C",
      "390C",
      "390C",
      "390C",
      "390C",
      "390C",
      "390C",
      "390C",
      "390C",
      "390C",
      "390C",
      "390C",
      "390C",
      "390C",
      "390C",
      "390C",
      "390C",
      "390C",
      "390C",
      "390C",
      "390C",
      "390C",
      "390C",
      "390C",
      "390C",
      "390C",
      "390C",
      "390C",
      "390C",
      "390C",
      "390C",
      "390C",
      "390C",
      "390C",
      "390C",
      "390C",
      "390C",
      "390C",
      "390C",
      "390C",
      "390C",
      "390C",
      "390C",
      "390C",
      "390C",
      "390C",
      "390C",
      "390C",
      "390C",
      "390C",
      "390C",
      "390C",
      "390C",
      "390C",
      "390C",
      "390C",
      "390C",
      "390C",
      "390C",
      "390C",
      "390",
      "390",
      "390",
      "349",
      "349",
      "286",
      "259",
      "259",
      "259",
      "233",
      "233",
      "230C",
      "230C",
      "205",
      "204",
      "204",
      "199",
      "199",
      "199",
      "185",
      "185",
      "156",
      "117",
      "117",
      "117",
      "082",
      "067",
      "052",
      "052",
      "052",
      "030",
      "026",
      "026",
      "020",
      "010",
      "010"
    ],
    "swim:geom": "path",
    "swim:speeds": [
      174,
      262,
      262,
      279,
      279,
      333,
      333,
      378,
      378,
      393,
      434,
      462,
      462,
      462,
      512,
      512,
      512,
      511,
      511,
      508,
      508,
      507,
      507,
      510,
      510,
      510,
      510,
      509,
      509,
      509,
      509,
      509,
      509,
      509,
      508,
      508,
      508,
      507,
      507,
      505,
      505,
      503,
      503,
      494,
      494,
      494,
      488,
      488,
      489,
      489,
      489,
      489,
      489,
      490,
      490,
      492,
      494,
      494,
      495,
      495,
      495,
      495,
      495,
      495,
      495,
      495,
      495,
      493,
      492,
      492,
      491,
      491,
      490,
      490,
      490,
      490,
      490,
      489,
      489,
      489,
      489,
      489,
      489,
      489,
      489,
      489,
      485,
      485,
      484,
      484,
      485,
      485,
      485,
      485,
      485,
      485,
      485,
      485,
      484,
      484,
      474,
      474,
      470,
      469,
      468,
      468,
      468,
      468,
      466,
      465,
      465,
      465,
      464,
      462,
      462,
      461,
      461,
      459,
      458,
      458,
      458,
      462,
      462,
      463,
      463,
      464,
      464,
      464,
      467,
      467,
      470,
      470,
      472,
      472,
      472,
      472,
      474,
      474,
      474,
      474,
      474,
      476,
      476,
      478,
      478,
      478,
      483,
      486,
      486,
      486,
      486,
      497,
      497,
      497,
      501,
      501,
      508,
      507,
      505,
      505,
      507,
      507,
      511,
      511,
      512,
      512,
      513,
      513,
      513,
      514,
      516,
      516,
      517,
      517,
      520,
      520,
      520,
      520,
      522,
      522,
      522,
      522,
      524,
      527,
      527,
      527,
      527,
      528,
      528,
      528,
      528,
      529,
      529,
      529,
      529,
      528,
      528,
      528,
      528,
      527,
      527,
      527,
      527,
      527,
      527,
      527,
      527,
      526,
      526,
      526,
      526,
      526,
      526,
      526,
      526,
      525,
      526,
      526,
      526,
      522,
      522,
      522,
      516,
      516,
      514,
      514,
      498,
      498,
      498,
      498,
      500,
      501,
      501,
      501,
      504,
      506,
      506,
      507,
      507,
      508,
      508,
      509,
      508,
      508,
      508,
      507,
      508,
      507,
      508,
      507,
      507,
      507,
      507,
      508,
      508,
      508,
      508,
      508,
      508,
      507,
      507,
      506,
      506,
      506,
      506,
      506,
      507,
      508,
      508,
      508,
      508,
      508,
      509,
      509,
      509,
      509,
      509,
      509,
      510,
      510,
      510,
      507,
      507,
      507,
      507,
      507,
      506,
      506,
      503,
      503,
      503,
      503,
      502,
      501,
      501,
      500,
      500,
      502,
      500,
      500,
      496,
      497,
      495,
      495,
      496,
      494,
      493,
      493,
      492,
      493,
      492,
      492,
      492,
      491,
      491,
      491,
      492,
      491,
      491,
      492,
      492,
      493,
      493,
      494,
      494,
      494,
      494,
      494,
      495,
      496,
      496,
      497,
      497,
      498,
      498,
      498,
      498,
      499,
      499,
      499,
      499,
      500,
      500,
      500,
      499,
      499,
      512,
      510,
      510,
      510,
      495,
      495,
      491,
      491,
      464,
      459,
      459,
      456,
      456,
      456,
      354,
      354,
      337,
      315,
      315,
      315,
      306,
      293,
      282,
      282,
      282,
      220,
      180,
      180,
      181,
      144,
      144
    ],
    "swim:timestamps": [
      1780686611,
      1780686731,
      1780686731,
      1780686791,
      1780686791,
      1780686911,
      1780686911,
      1780687032,
      1780687032,
      1780687092,
      1780687152,
      1780687212,
      1780687212,
      1780687212,
      1780687452,
      1780687452,
      1780687452,
      1780687512,
      1780687512,
      1780687564,
      1780687633,
      1780687684,
      1780687684,
      1780687753,
      1780687753,
      1780687804,
      1780687813,
      1780687864,
      1780687864,
      1780687984,
      1780687984,
      1780688044,
      1780688053,
      1780688053,
      1780688104,
      1780688104,
      1780688113,
      1780688225,
      1780688225,
      1780688285,
      1780688285,
      1780688354,
      1780688354,
      1780688534,
      1780688534,
      1780688534,
      1780688645,
      1780688645,
      1780688765,
      1780688774,
      1780688774,
      1780688774,
      1780688834,
      1780688885,
      1780688894,
      1780688946,
      1780689006,
      1780689014,
      1780689066,
      1780689075,
      1780689075,
      1780689075,
      1780689126,
      1780689126,
      1780689186,
      1780689246,
      1780689246,
      1780689426,
      1780689486,
      1780689486,
      1780689546,
      1780689546,
      1780689606,
      1780689606,
      1780689666,
      1780689666,
      1780689666,
      1780689847,
      1780689847,
      1780689847,
      1780690027,
      1780690087,
      1780690087,
      1780690087,
      1780690207,
      1780690207,
      1780690568,
      1780690568,
      1780690681,
      1780690681,
      1780690688,
      1780690688,
      1780690741,
      1780690748,
      1780690808,
      1780690873,
      1780691048,
      1780691048,
      1780691174,
      1780691174,
      1780691409,
      1780691409,
      1780691529,
      1780691589,
      1780691649,
      1780691709,
      1780691709,
      1780691709,
      1780692135,
      1780692195,
      1780692195,
      1780692195,
      1780692255,
      1780692315,
      1780692315,
      1780692375,
      1780692375,
      1780692495,
      1780692616,
      1780692616,
      1780692616,
      1780692796,
      1780692796,
      1780692916,
      1780692916,
      1780693036,
      1780693036,
      1780693036,
      1780693216,
      1780693216,
      1780693337,
      1780693337,
      1780693457,
      1780693457,
      1780693517,
      1780693517,
      1780693637,
      1780693637,
      1780693637,
      1780693757,
      1780693757,
      1780693877,
      1780693877,
      1780693937,
      1780693937,
      1780693937,
      1780694118,
      1780694178,
      1780694178,
      1780694178,
      1780694238,
      1780694478,
      1780694478,
      1780694478,
      1780694598,
      1780694598,
      1780694639,
      1780694699,
      1780694779,
      1780694779,
      1780694879,
      1780694879,
      1780695139,
      1780695139,
      1780695199,
      1780695199,
      1780695360,
      1780695360,
      1780695360,
      1780695420,
      1780695540,
      1780695540,
      1780695600,
      1780695600,
      1780695780,
      1780695780,
      1780695840,
      1780695840,
      1780695961,
      1780696021,
      1780696021,
      1780696021,
      1780696141,
      1780696261,
      1780696261,
      1780696321,
      1780696321,
      1780696381,
      1780696441,
      1780696441,
      1780696501,
      1780696602,
      1780696662,
      1780696662,
      1780696662,
      1780696754,
      1780696754,
      1780696814,
      1780696842,
      1780696874,
      1780696874,
      1780696934,
      1780696934,
      1780696962,
      1780696962,
      1780696994,
      1780696994,
      1780697054,
      1780697174,
      1780697263,
      1780697294,
      1780697323,
      1780697323,
      1780697383,
      1780697383,
      1780697443,
      1780697475,
      1780697535,
      1780697535,
      1780697563,
      1780697563,
      1780697563,
      1780697804,
      1780697804,
      1780697864,
      1780697864,
      1780698345,
      1780698345,
      1780698405,
      1780698405,
      1780698525,
      1780698585,
      1780698585,
      1780698585,
      1780698705,
      1780698765,
      1780698765,
      1780698826,
      1780698826,
      1780698886,
      1780698886,
      1780699006,
      1780699066,
      1780699082,
      1780699082,
      1780699126,
      1780699142,
      1780699186,
      1780699202,
      1780699246,
      1780699246,
      1780699246,
      1780699306,
      1780699366,
      1780699382,
      1780699382,
      1780699382,
      1780699427,
      1780699442,
      1780699487,
      1780699487,
      1780699547,
      1780699547,
      1780699607,
      1780699623,
      1780699667,
      1780699727,
      1780699743,
      1780699743,
      1780699743,
      1780699803,
      1780699847,
      1780699863,
      1780699907,
      1780699907,
      1780699907,
      1780699967,
      1780699967,
      1780700164,
      1780700164,
      1780700164,
      1780700404,
      1780700404,
      1780700404,
      1780700568,
      1780700568,
      1780700628,
      1780700628,
      1780700688,
      1780700688,
      1780700688,
      1780700808,
      1780700825,
      1780700885,
      1780700885,
      1780700945,
      1780700945,
      1780700988,
      1780701049,
      1780701049,
      1780701125,
      1780701169,
      1780701185,
      1780701185,
      1780701229,
      1780701245,
      1780701305,
      1780701305,
      1780701349,
      1780701365,
      1780701409,
      1780701426,
      1780701426,
      1780701486,
      1780701486,
      1780701546,
      1780701589,
      1780701606,
      1780701606,
      1780701649,
      1780701649,
      1780701726,
      1780701726,
      1780701770,
      1780701770,
      1780701786,
      1780701830,
      1780701846,
      1780701890,
      1780701950,
      1780701950,
      1780702010,
      1780702010,
      1780702070,
      1780702070,
      1780702087,
      1780702147,
      1780702190,
      1780702190,
      1780702190,
      1780702207,
      1780702371,
      1780702387,
      1780702387,
      1780702507,
      1780702507,
      1780702611,
      1780702671,
      1780702671,
      1780702671,
      1780702731,
      1780702731,
      1780702791,
      1780702791,
      1780703032,
      1780703039,
      1780703039,
      1780703092,
      1780703092,
      1780703092,
      1780703202,
      1780703202,
      1780703321,
      1780703502,
      1780703502,
      1780703502,
      1780703632,
      1780703693,
      1780703753,
      1780703753,
      1780703753,
      1780704102,
      1780704168,
      1780704168,
      1780704233,
      1780704353,
      1780704353
    ],
    "wof:geomhash": "94c4ce14295a71a3722d7a773eac65f7",
    "wof:id": 2031459883,
    "wof:repo": "sfomuseum-data-flights-2026-06"
  },
  "bbox": [
    -122.39944444444446,
    37.64222222222222,
    -73.51666666666667,
    42.02111111111111
  ],
  "geometry": {"coordinates":[[-122.39944444444446,37.64222222222222],[-122.27194444444444,37.697222222222216],[-122.27194444444444,37.697222222222216],[-122.24444444444444,37.765],[-122.24444444444444,37.765],[-122.20416666666667,37.924166666666665],[-122.20416666666667,37.924166666666665],[-121.96166666666667,37.963055555555556],[-121.96166666666667,37.963055555555556],[-121.82388888888889,37.98027777777778],[-121.68944444444445,38.00833333333333],[-121.53194444444445,38.03361111111111],[-121.53194444444445,38.03361111111111],[-121.53194444444445,38.03361111111111],[-120.85388888888889,38.14666666666667],[-120.85388888888889,38.14666666666667],[-120.85388888888889,38.14666666666667],[-120.67833333333334,38.17444444444444],[-120.67833333333334,38.17444444444444],[-120.54527777777777,38.19416666666666],[-120.32972222222222,38.228611111111114],[-120.19388888888889,38.24861111111111],[-120.19388888888889,38.24861111111111],[-119.97583333333334,38.282777777777774],[-119.97583333333334,38.282777777777774],[-119.83972222222222,38.301111111111105],[-119.79833333333333,38.30305555555555],[-119.66166666666668,38.30722222222222],[-119.66166666666668,38.30722222222222],[-119.26944444444445,38.32222222222222],[-119.26944444444445,38.32222222222222],[-119.08916666666666,38.32944444444445],[-119.09027777777777,38.33083333333334],[-119.09027777777777,38.33083333333334],[-118.91277777777778,38.33694444444445],[-118.91277777777778,38.33694444444445],[-118.91055555555556,38.338055555555556],[-118.56138888888889,38.3525],[-118.56138888888889,38.3525],[-118.38222222222221,38.367777777777775],[-118.38222222222221,38.367777777777775],[-118.17083333333333,38.39888888888889],[-118.17083333333333,38.39888888888889],[-117.66194444444444,38.46638888888889],[-117.66194444444444,38.46638888888889],[-117.66194444444444,38.46638888888889],[-117.35638888888889,38.50527777777778],[-117.35638888888889,38.50527777777778],[-117.0111111111111,38.55027777777777],[-116.97472222222223,38.555277777777775],[-116.97472222222223,38.555277777777775],[-116.97472222222223,38.555277777777775],[-116.80083333333333,38.57777777777778],[-116.66638888888889,38.595],[-116.62777777777777,38.599722222222226],[-116.49222222222222,38.61694444444444],[-116.31777777777778,38.63861111111111],[-116.28,38.64333333333333],[-116.14111111111112,38.660555555555554],[-116.10722222222222,38.664722222222224],[-116.10722222222222,38.664722222222224],[-116.10722222222222,38.664722222222224],[-115.9675,38.681666666666665],[-115.9675,38.681666666666665],[-115.79527777777777,38.7025],[-115.61999999999999,38.723333333333336],[-115.61999999999999,38.723333333333336],[-115.09722222222221,38.78361111111111],[-114.92555555555556,38.80305555555555],[-114.92555555555556,38.80305555555555],[-114.75166666666667,38.822500000000005],[-114.75166666666667,38.822500000000005],[-114.58,38.84111111111111],[-114.58,38.84111111111111],[-114.40527777777778,38.86],[-114.40527777777778,38.86],[-114.40527777777778,38.86],[-113.8888888888889,38.91416666666667],[-113.8888888888889,38.91416666666667],[-113.8888888888889,38.91416666666667],[-113.36916666666666,38.96638888888889],[-113.19833333333334,38.98305555555556],[-113.19833333333334,38.98305555555556],[-113.19833333333334,38.98305555555556],[-112.84888888888888,39.01611111111111],[-112.84888888888888,39.01611111111111],[-111.81555555555555,39.10805555555556],[-111.81555555555555,39.10805555555556],[-111.5125,39.134166666666665],[-111.5125,39.134166666666665],[-111.47055555555556,39.13666666666666],[-111.47055555555556,39.13666666666666],[-111.3411111111111,39.14722222222222],[-111.29583333333333,39.15083333333333],[-111.13222222222221,39.16361111111111],[-110.96000000000001,39.176944444444445],[-110.44222222222223,39.21555555555556],[-110.44222222222223,39.21555555555556],[-110.1,39.24],[-110.1,39.24],[-109.4213888888889,39.285],[-109.4213888888889,39.285],[-109.08749999999999,39.30583333333333],[-108.92166666666667,39.315555555555555],[-108.75583333333333,39.32527777777778],[-108.59222222222222,39.33444444444444],[-108.59222222222222,39.33444444444444],[-108.59222222222222,39.33444444444444],[-107.40777777777778,39.394999999999996],[-107.2425,39.402499999999996],[-107.2425,39.402499999999996],[-107.2425,39.402499999999996],[-107.065,39.413333333333334],[-106.90111111111112,39.42833333333333],[-106.90111111111112,39.42833333333333],[-106.73722222222223,39.448055555555555],[-106.73722222222223,39.448055555555555],[-106.41250000000001,39.48388888888889],[-106.07194444444444,39.51972222222222],[-106.07194444444444,39.51972222222222],[-106.07194444444444,39.51972222222222],[-105.57638888888889,39.566111111111105],[-105.57638888888889,39.566111111111105],[-105.24638888888889,39.594166666666666],[-105.24638888888889,39.594166666666666],[-104.91277777777778,39.62138888888889],[-104.91277777777778,39.62138888888889],[-104.91277777777778,39.62138888888889],[-104.43083333333334,39.659166666666664],[-104.43083333333334,39.659166666666664],[-104.09277777777777,39.68444444444444],[-104.09277777777777,39.68444444444444],[-103.75305555555556,39.70888888888889],[-103.75305555555556,39.70888888888889],[-103.585,39.720555555555556],[-103.585,39.720555555555556],[-103.24277777777777,39.743611111111115],[-103.24277777777777,39.743611111111115],[-103.24277777777777,39.743611111111115],[-102.90833333333335,39.78777777777778],[-102.90833333333335,39.78777777777778],[-102.5786111111111,39.84444444444445],[-102.5786111111111,39.84444444444445],[-102.41027777777778,39.8725],[-102.41027777777778,39.8725],[-102.41027777777778,39.8725],[-101.89777777777779,39.95527777777778],[-101.69250000000001,39.988055555555555],[-101.69250000000001,39.988055555555555],[-101.69250000000001,39.988055555555555],[-101.52027777777778,40.015],[-100.82083333333333,40.121944444444445],[-100.82083333333333,40.121944444444445],[-100.82083333333333,40.121944444444445],[-100.46194444444444,40.175],[-100.46194444444444,40.175],[-100.34194444444444,40.192499999999995],[-100.16222222222223,40.218333333333334],[-99.9263888888889,40.25194444444445],[-99.9263888888889,40.25194444444445],[-99.61861111111111,40.29472222222222],[-99.61861111111111,40.29472222222222],[-98.85138888888888,40.39805555555556],[-98.85138888888888,40.39805555555556],[-98.66611111111112,40.42222222222222],[-98.66611111111112,40.42222222222222],[-98.1525,40.487500000000004],[-98.1525,40.487500000000004],[-98.1525,40.487500000000004],[-97.96694444444445,40.51027777777778],[-97.59472222222222,40.55555555555555],[-97.59472222222222,40.55555555555555],[-97.40944444444445,40.5775],[-97.40944444444445,40.5775],[-96.86305555555555,40.64055555555556],[-96.86305555555555,40.64055555555556],[-96.67611111111111,40.66166666666666],[-96.67611111111111,40.66166666666666],[-96.3,40.70277777777778],[-96.10972222222222,40.723055555555554],[-96.10972222222222,40.723055555555554],[-96.10972222222222,40.723055555555554],[-95.69638888888889,40.76638888888889],[-95.31583333333333,40.80444444444444],[-95.31583333333333,40.80444444444444],[-95.12583333333333,40.823055555555555],[-95.12583333333333,40.823055555555555],[-94.93416666666667,40.84166666666667],[-94.74222222222222,40.86],[-94.74222222222222,40.86],[-94.55138888888888,40.8775],[-94.23666666666666,40.90611111111111],[-94.045,40.92305555555555],[-94.045,40.92305555555555],[-94.045,40.92305555555555],[-93.735,40.94972222222222],[-93.735,40.94972222222222],[-93.5825,40.96277777777778],[-93.46805555555555,40.97222222222222],[-93.35055555555554,40.981944444444444],[-93.35055555555554,40.981944444444444],[-93.15916666666668,40.99722222222222],[-93.15916666666668,40.99722222222222],[-93.08388888888888,41.00333333333333],[-93.08388888888888,41.00333333333333],[-93.00361111111111,41.01],[-93.00361111111111,41.01],[-92.81055555555555,41.03388888888889],[-92.43027777777779,41.09027777777778],[-92.12444444444444,41.13583333333333],[-92.04777777777778,41.14694444444444],[-91.93555555555555,41.163333333333334],[-91.93555555555555,41.163333333333334],[-91.74305555555556,41.190555555555555],[-91.74305555555556,41.190555555555555],[-91.57694444444444,41.21416666666667],[-91.47722222222222,41.227222222222224],[-91.32555555555555,41.24805555555556],[-91.32555555555555,41.24805555555556],[-91.19777777777779,41.26638888888889],[-91.19777777777779,41.26638888888889],[-91.19777777777779,41.26638888888889],[-90.44527777777778,41.36611111111111],[-90.44527777777778,41.36611111111111],[-90.25916666666667,41.390277777777776],[-90.25916666666667,41.390277777777776],[-88.79027777777777,41.5675],[-88.79027777777777,41.5675],[-88.6086111111111,41.588055555555556],[-88.6086111111111,41.588055555555556],[-88.23833333333333,41.62916666666667],[-88.05083333333333,41.64944444444444],[-88.05083333333333,41.64944444444444],[-88.05083333333333,41.64944444444444],[-87.67277777777778,41.68944444444444],[-87.48666666666666,41.70861111111111],[-87.48666666666666,41.70861111111111],[-87.30027777777778,41.7275],[-87.30027777777778,41.7275],[-87.10944444444443,41.74666666666667],[-87.10944444444443,41.74666666666667],[-86.73777777777778,41.782777777777774],[-86.55527777777777,41.8],[-86.51805555555555,41.80416666666667],[-86.51805555555555,41.80416666666667],[-86.36583333333333,41.8175],[-86.33305555555555,41.82055555555556],[-86.18083333333334,41.83444444444444],[-86.14444444444445,41.83777777777778],[-85.99083333333333,41.85166666666667],[-85.99083333333333,41.85166666666667],[-85.99083333333333,41.85166666666667],[-85.80527777777777,41.867777777777775],[-85.61194444444443,41.88472222222222],[-85.5775,41.8875],[-85.5775,41.8875],[-85.5775,41.8875],[-85.42194444444445,41.90083333333333],[-85.38777777777779,41.90361111111111],[-85.23277777777778,41.91638888888889],[-85.23277777777778,41.91638888888889],[-85.04416666666667,41.931666666666665],[-85.04416666666667,41.931666666666665],[-84.85444444444444,41.946666666666665],[-84.82194444444444,41.94944444444444],[-84.66694444444445,41.96138888888889],[-84.48694444444445,41.975],[-84.44388888888889,41.97833333333333],[-84.44388888888889,41.97833333333333],[-84.44388888888889,41.97833333333333],[-84.25277777777778,41.9925],[-84.11138888888888,42.00277777777778],[-84.07083333333333,42.00555555555555],[-83.92444444444445,42.01611111111111],[-83.92444444444445,42.01611111111111],[-83.92444444444445,42.01611111111111],[-83.73111111111112,42.020833333333336],[-83.73111111111112,42.020833333333336],[-83.09388888888888,42.02111111111111],[-83.09388888888888,42.02111111111111],[-83.09388888888888,42.02111111111111],[-82.33972222222222,42.01361111111111],[-82.33972222222222,42.01361111111111],[-82.33972222222222,42.01361111111111],[-81.82222222222222,42.00555555555555],[-81.82222222222222,42.00555555555555],[-81.63472222222222,42.001666666666665],[-81.63472222222222,42.001666666666665],[-81.44861111111112,41.99638888888889],[-81.44861111111112,41.99638888888889],[-81.44861111111112,41.99638888888889],[-81.07472222222222,41.98861111111111],[-81.04722222222222,41.98888888888889],[-80.8611111111111,41.98416666666667],[-80.8611111111111,41.98416666666667],[-80.67500000000001,41.97916666666667],[-80.67500000000001,41.97916666666667],[-80.51666666666667,41.97361111111111],[-80.33083333333333,41.967777777777776],[-80.33083333333333,41.967777777777776],[-80.11916666666666,41.96222222222222],[-79.9625,41.95638888888889],[-79.92444444444445,41.955555555555556],[-79.92444444444445,41.955555555555556],[-79.7786111111111,41.94916666666666],[-79.74194444444444,41.94916666666666],[-79.55694444444444,41.94222222222222],[-79.55694444444444,41.94222222222222],[-79.41333333333334,41.93666666666666],[-79.37555555555555,41.934999999999995],[-79.22888888888889,41.92916666666667],[-79.19388888888889,41.92777777777778],[-79.19388888888889,41.92777777777778],[-79.01027777777777,41.92027777777778],[-79.01027777777777,41.92027777777778],[-78.82527777777777,41.91222222222222],[-78.70444444444445,41.906666666666666],[-78.64333333333335,41.903888888888886],[-78.64333333333335,41.903888888888886],[-78.52583333333334,41.89361111111111],[-78.52583333333334,41.89361111111111],[-78.27888888888889,41.85416666666667],[-78.27888888888889,41.85416666666667],[-78.16277777777778,41.837500000000006],[-78.16277777777778,41.837500000000006],[-78.09944444444444,41.82833333333333],[-77.9863888888889,41.8125],[-77.91583333333334,41.802499999999995],[-77.80361111111111,41.78583333333333],[-77.6236111111111,41.756388888888885],[-77.6236111111111,41.756388888888885],[-77.44361111111111,41.72694444444445],[-77.44361111111111,41.72694444444445],[-77.2275,41.69138888888889],[-77.2275,41.69138888888889],[-77.18944444444445,41.68472222222222],[-77.01777777777778,41.64277777777778],[-76.87833333333333,41.60472222222222],[-76.87833333333333,41.60472222222222],[-76.87833333333333,41.60472222222222],[-76.84222222222222,41.595],[-76.38277777777778,41.468333333333334],[-76.33638888888889,41.45527777777778],[-76.33638888888889,41.45527777777778],[-75.99388888888889,41.35944444444445],[-75.99388888888889,41.35944444444445],[-75.66000000000001,41.26277777777778],[-75.49972222222222,41.209722222222226],[-75.49972222222222,41.209722222222226],[-75.49972222222222,41.209722222222226],[-75.33333333333333,41.15361111111111],[-75.33333333333333,41.15361111111111],[-75.15694444444445,41.09388888888889],[-75.15694444444445,41.09388888888889],[-74.49805555555555,40.952222222222225],[-74.46666666666667,40.95],[-74.46666666666667,40.95],[-74.33416666666666,40.93277777777777],[-74.33416666666666,40.93277777777777],[-74.33416666666666,40.93277777777777],[-74.06666666666666,40.88333333333333],[-74.06666666666666,40.88333333333333],[-74,40.7],[-73.9,40.43333333333333],[-73.9,40.43333333333333],[-73.9,40.43333333333333],[-73.76833333333333,40.28444444444444],[-73.67916666666667,40.25972222222222],[-73.61861111111111,40.32555555555556],[-73.61861111111111,40.32555555555556],[-73.61861111111111,40.32555555555556],[-73.51666666666667,40.733333333333334],[-73.58333333333333,40.766666666666666],[-73.58333333333333,40.766666666666666],[-73.64722222222223,40.763888888888886],[-73.71861111111112,40.69194444444444],[-73.71861111111112,40.69194444444444]],"type":"LineString"}
}
