{
  "id": 2031562391,
  "type": "Feature",
  "properties": {
    "geom:area": 0,
    "geom:bbox": "-122.645490,36.728460,-121.883090,37.611190",
    "geom:latitude": 37.235190858243115,
    "geom:longitude": -122.27355010875222,
    "src:alt_label": "swim-approach",
    "src:geom": "swim",
    "swim:elevations": [
      5573,
      5208,
      4817,
      4602,
      4466,
      4297,
      4122,
      4022,
      3878,
      3665,
      3473,
      3445,
      3361,
      3225,
      3048,
      3048,
      3048,
      3048,
      3018,
      2903,
      2801,
      2624,
      2443,
      2438,
      2438,
      2438,
      2438,
      2438,
      2438,
      2438,
      2438,
      2438,
      2438,
      2438,
      2240,
      2112,
      1936,
      1829,
      1829,
      1829,
      1829,
      1829,
      1829,
      1829,
      1708,
      1521,
      1420,
      1277,
      1221,
      1219,
      1219,
      1194,
      1119,
      925,
      773,
      604,
      494,
      402,
      223,
      185,
      0
    ],
    "swim:geom": "approach",
    "swim:timestamps": [
      1781693417,
      1781693451,
      1781693478,
      1781693505,
      1781693524,
      1781693547,
      1781693577,
      1781693591,
      1781693617,
      1781693654,
      1781693691,
      1781693696,
      1781693708,
      1781693732,
      1781693783,
      1781693807,
      1781693822,
      1781693848,
      1781693868,
      1781693896,
      1781693926,
      1781693967,
      1781694013,
      1781694037,
      1781694085,
      1781694094,
      1781694141,
      1781694173,
      1781694198,
      1781694223,
      1781694253,
      1781694281,
      1781694301,
      1781694338,
      1781694383,
      1781694413,
      1781694445,
      1781694470,
      1781694506,
      1781694513,
      1781694565,
      1781694589,
      1781694613,
      1781694652,
      1781694679,
      1781694707,
      1781694733,
      1781694774,
      1781694799,
      1781694823,
      1781694858,
      1781694897,
      1781694910,
      1781694953,
      1781694983,
      1781695016,
      1781695037,
      1781695059,
      1781695105,
      1781695110,
      1781695154
    ],
    "wof:geomhash": "1e9af858c7947aaef955f3d69666cf32",
    "wof:id": 2031562391,
    "wof:repo": "sfomuseum-data-flights-2026-06"
  },
  "bbox": [
    -122.64549,
    36.72846,
    -121.88309,
    37.61119
  ],
  "geometry": {"coordinates":[[-121.88309,36.72846],[-121.90458,36.77906],[-121.917,36.82278],[-121.92916,36.86624],[-121.93713,36.89548],[-121.95679,36.92635],[-122.00387,36.95292],[-122.02473,36.96359],[-122.06506,36.98409],[-122.12125,37.01264],[-122.1767,37.03975],[-122.18522,37.04387],[-122.20355,37.05263],[-122.23953,37.06967],[-122.31625,37.10596],[-122.35085,37.1224],[-122.37376,37.13336],[-122.41093,37.151],[-122.43711,37.16345],[-122.47338,37.18066],[-122.51133,37.19881],[-122.56276,37.22355],[-122.61917,37.25145],[-122.64549,37.2684],[-122.64372,37.32028],[-122.64075,37.33089],[-122.60787,37.37236],[-122.56764,37.36219],[-122.54261,37.34238],[-122.51798,37.32267],[-122.48817,37.29881],[-122.46026,37.2764],[-122.44036,37.26049],[-122.40323,37.23083],[-122.34487,37.22394],[-122.30411,37.23007],[-122.28496,37.25894],[-122.28952,37.28667],[-122.29627,37.32609],[-122.29764,37.33376],[-122.28998,37.38642],[-122.26067,37.39272],[-122.23238,37.38694],[-122.18881,37.37783],[-122.16028,37.38341],[-122.13338,37.3994],[-122.10916,37.41403],[-122.07174,37.43778],[-122.05941,37.45839],[-122.05087,37.47984],[-122.08017,37.49706],[-122.12051,37.51129],[-122.13452,37.51746],[-122.17849,37.53608],[-122.20881,37.54889],[-122.24181,37.56265],[-122.26122,37.57092],[-122.28038,37.57902],[-122.31717,37.59444],[-122.32172,37.59625],[-122.35727,37.61119]],"type":"LineString"}
}
