{
  "id": 2031537707,
  "type": "Feature",
  "properties": {
    "geom:area": 0,
    "geom:bbox": "-122.300000,37.483333,-70.752500,43.368889",
    "geom:latitude": 40.918633912962825,
    "geom:longitude": -96.36950171741071,
    "src:alt_label": "swim-path",
    "src:geom": "swim",
    "swim:altitudes": [
      "034",
      "034",
      "052",
      "052",
      "052",
      "122",
      "122",
      "122",
      "145",
      "145",
      "145",
      "145",
      "194",
      "194",
      "215",
      "215",
      "263",
      "263",
      "263",
      "263",
      "276",
      "276",
      "276",
      "290",
      "290",
      "300C",
      "300C",
      "300C",
      "300C",
      "300C",
      "300C",
      "300C",
      "300C",
      "300C",
      "300C",
      "300C",
      "300C",
      "300C",
      "300C",
      "300C",
      "300C",
      "300C",
      "300C",
      "300C",
      "300C",
      "300C",
      "300C",
      "300C",
      "300C",
      "300C",
      "300C",
      "300C",
      "300C",
      "300C",
      "300C",
      "300C",
      "300C",
      "300C",
      "300C",
      "300C",
      "300C",
      "300C",
      "300C",
      "300C",
      "300C",
      "300C",
      "300C",
      "300C",
      "300C",
      "300C",
      "300C",
      "300C",
      "300C",
      "300C",
      "300C",
      "300C",
      "300C",
      "300C",
      "300C",
      "300C",
      "300C",
      "300C",
      "300C",
      "300C",
      "300C",
      "300C",
      "300C",
      "300C",
      "300C",
      "300C",
      "300C",
      "300C",
      "300C",
      "300C",
      "300C",
      "300C",
      "300C",
      "300C",
      "300C",
      "300C",
      "300C",
      "300C",
      "300C",
      "300C",
      "300C",
      "300C",
      "300C",
      "300C",
      "300C",
      "300C",
      "300C",
      "300C",
      "300C",
      "300C",
      "300C",
      "300C",
      "300C",
      "300C",
      "300C",
      "300C",
      "300C",
      "300C",
      "300C",
      "300C",
      "300C",
      "300C",
      "300C",
      "300C",
      "300C",
      "300C",
      "300C",
      "300C",
      "300C",
      "300C",
      "300C",
      "300C",
      "300C",
      "300C",
      "300C",
      "300C",
      "300C",
      "300C",
      "300C",
      "300C",
      "300C",
      "300C",
      "300C",
      "300C",
      "300C",
      "300C",
      "300C",
      "300C",
      "300C",
      "300C",
      "300C",
      "300C",
      "300C",
      "300C",
      "300C",
      "300C",
      "300C",
      "300C",
      "300C",
      "300C",
      "300C",
      "300C",
      "300C",
      "300C",
      "300C",
      "300C",
      "300C",
      "300C",
      "300C",
      "300C",
      "300C",
      "300",
      "300",
      "300",
      "300",
      "303",
      "322",
      "322",
      "322",
      "322",
      "322",
      "322",
      "340",
      "340",
      "340",
      "340",
      "340",
      "358C",
      "358C",
      "358C",
      "358C",
      "358C",
      "360C",
      "360C",
      "360C",
      "360C",
      "360C",
      "360C",
      "360C",
      "360C",
      "360C",
      "360C",
      "360C",
      "360C",
      "360C",
      "360C",
      "360C",
      "360C",
      "360C",
      "360C",
      "360C",
      "360C",
      "360C",
      "360C",
      "360C",
      "360C",
      "360C",
      "360C",
      "360C",
      "360C",
      "360C",
      "360C",
      "360C",
      "360C",
      "360C",
      "360C",
      "360C",
      "360C",
      "360C",
      "360C",
      "360C",
      "360C",
      "360C",
      "360C",
      "360C",
      "360C",
      "360C",
      "360C",
      "360C",
      "360C",
      "360C",
      "360C",
      "360C",
      "360C",
      "360C",
      "360C",
      "360C",
      "360C",
      "360C",
      "360C",
      "360C",
      "360C",
      "360C",
      "360C",
      "360C",
      "360C",
      "360C",
      "360C",
      "360C",
      "360C",
      "360C",
      "360C",
      "360C",
      "360C",
      "360C",
      "360C",
      "360C",
      "360C",
      "360C",
      "360C",
      "360C",
      "360C",
      "360C",
      "360C",
      "360C",
      "360C",
      "360C",
      "360C",
      "360C",
      "360C",
      "360C",
      "360C",
      "360C",
      "360C",
      "360C",
      "360C",
      "360C",
      "360C",
      "360C",
      "360C",
      "360C",
      "360C",
      "360C",
      "360C",
      "360C",
      "360C",
      "360C",
      "360C",
      "360C",
      "360C",
      "360C",
      "360C",
      "360C",
      "360C",
      "360C",
      "360C",
      "360C",
      "360C",
      "360C",
      "360C",
      "360C",
      "360C",
      "360C",
      "360C",
      "360C",
      "360C",
      "360C",
      "360C",
      "360C",
      "360C",
      "360C",
      "360C",
      "360C",
      "360C",
      "360C",
      "360C",
      "360C",
      "360C",
      "360C",
      "360C",
      "360C",
      "360C",
      "360C",
      "360C",
      "360C",
      "360C",
      "360C",
      "360C",
      "360C",
      "360C",
      "360C",
      "360C",
      "360C",
      "360C",
      "360C",
      "360C",
      "360C",
      "360C",
      "360C",
      "360C",
      "360C",
      "360C",
      "360C",
      "360C",
      "360C",
      "360C",
      "360C",
      "360C",
      "360C",
      "360C",
      "360C",
      "360C",
      "360C",
      "360C",
      "360C",
      "360C",
      "360C",
      "360C",
      "360C",
      "360C",
      "360C",
      "360C",
      "360C",
      "360C",
      "360C",
      "360C",
      "360C",
      "360C",
      "360C",
      "360C",
      "360C",
      "360C",
      "360C",
      "360C",
      "360C",
      "360C",
      "360C",
      "360C",
      "360C",
      "360C",
      "360C",
      "360C",
      "360C",
      "360C",
      "360C",
      "360C",
      "360C",
      "360C",
      "360C",
      "360C",
      "360C",
      "360C",
      "360C",
      "360C",
      "360C",
      "360C",
      "360C",
      "360C",
      "360C",
      "360C",
      "360C",
      "360C",
      "360C",
      "360C",
      "360C",
      "360C",
      "360C",
      "360C",
      "360C",
      "360C",
      "360C",
      "360C",
      "360C",
      "360C",
      "360C",
      "360C",
      "360C",
      "360C",
      "360C",
      "360C",
      "360C",
      "360C",
      "360C",
      "360C",
      "360C",
      "360C",
      "360C",
      "360C",
      "360C",
      "360C",
      "360C",
      "360C",
      "360C",
      "360C",
      "360C",
      "360C",
      "360C",
      "360C",
      "360C",
      "360C",
      "360C",
      "360C",
      "360C",
      "360C",
      "360C",
      "360C",
      "360C",
      "360C",
      "360C",
      "360C",
      "360C",
      "360C",
      "360C",
      "360C",
      "360C",
      "360C",
      "360C",
      "360C",
      "360C",
      "360C",
      "360C",
      "360C",
      "360C",
      "360C",
      "360C",
      "360C",
      "360C",
      "360C",
      "360C",
      "360C",
      "360C",
      "360C",
      "360C",
      "360C",
      "360C",
      "360C",
      "360C",
      "360C",
      "360C",
      "360C",
      "360C",
      "360C",
      "360C",
      "360C",
      "360C",
      "360C",
      "360C",
      "360C",
      "360C",
      "360C",
      "360C",
      "360C",
      "360C",
      "360C",
      "360C",
      "360C",
      "360C",
      "360C",
      "360C",
      "360C",
      "360C",
      "360C",
      "360C",
      "360C",
      "360C",
      "360C",
      "360C",
      "360C",
      "360C",
      "360C",
      "360C",
      "360C",
      "360C",
      "360C",
      "360C",
      "360C",
      "360C",
      "360C",
      "360C",
      "360C",
      "360C",
      "360C",
      "360C",
      "360C",
      "360C",
      "360C",
      "360C",
      "360C",
      "360C",
      "360C",
      "360C",
      "360C",
      "360C",
      "360C",
      "360C",
      "360C",
      "360C",
      "360C",
      "360C",
      "360C",
      "360C",
      "360C",
      "360C",
      "360C",
      "360C",
      "360C",
      "360C",
      "360C",
      "360C",
      "360C",
      "360C",
      "360C",
      "360C",
      "360C",
      "360C",
      "360C",
      "360C",
      "360C",
      "360C",
      "360C",
      "360C",
      "360C",
      "360C",
      "360C",
      "360C",
      "360C",
      "360C",
      "360C",
      "360C",
      "360C",
      "360C",
      "360C",
      "360C",
      "360C",
      "360C",
      "360C",
      "360C",
      "360C",
      "360C",
      "360C",
      "360C",
      "360C",
      "360C",
      "360C",
      "360C",
      "360C",
      "360C",
      "360C",
      "360C",
      "360C",
      "360C",
      "360C",
      "360C",
      "360C",
      "360C",
      "360C",
      "360C",
      "360C",
      "360C",
      "360C",
      "360C",
      "360C",
      "360C",
      "360C",
      "360C",
      "360C",
      "360C",
      "360C",
      "360C",
      "360C",
      "360C",
      "360C",
      "360C",
      "360C",
      "360C",
      "360C",
      "360C",
      "360C",
      "360C",
      "360C",
      "360C",
      "360C",
      "360C",
      "360C",
      "360C",
      "360C",
      "360C",
      "360C",
      "360C",
      "360C",
      "360C",
      "360C",
      "360C",
      "360C",
      "360C",
      "360C",
      "360C",
      "360C",
      "360C",
      "360C",
      "360C",
      "360C",
      "360C",
      "360C",
      "360C",
      "360C",
      "360C",
      "360C",
      "360C",
      "360C",
      "360C",
      "360C",
      "360C",
      "360C",
      "360C",
      "360C",
      "360C",
      "360C",
      "360C",
      "360C",
      "360C",
      "360C",
      "360C",
      "360C",
      "360C",
      "360C",
      "360C",
      "360C",
      "360C",
      "360C",
      "360C",
      "360C",
      "360C",
      "360C",
      "360C",
      "360C",
      "360C",
      "360C",
      "360C",
      "360C",
      "360C",
      "360C",
      "360C",
      "360C",
      "360C",
      "360C",
      "360C",
      "360C",
      "360C",
      "360C",
      "360C",
      "360C",
      "360C",
      "360C",
      "360C",
      "360C",
      "360C",
      "360C",
      "360C",
      "360C",
      "360C",
      "360C",
      "360C",
      "360C",
      "360C",
      "360C",
      "360C",
      "360C",
      "360C",
      "360C",
      "360C",
      "360C",
      "360C",
      "360C",
      "360C",
      "360C",
      "360C",
      "360C",
      "360C",
      "360C",
      "360C",
      "360C",
      "360C",
      "360C",
      "360C",
      "360C",
      "360C",
      "360C",
      "360C",
      "360C",
      "360C",
      "360C",
      "360C",
      "360C",
      "360C",
      "360C",
      "360C",
      "360C",
      "360C",
      "360C",
      "360C",
      "360C",
      "360",
      "360",
      "360",
      "360",
      "337",
      "337",
      "337",
      "312",
      "312",
      "312",
      "312",
      "300C",
      "300C",
      "300C",
      "294",
      "294",
      "294",
      "294",
      "294",
      "272",
      "272",
      "272",
      "240",
      "210",
      "210",
      "210",
      "188",
      "188",
      "188",
      "188",
      "137",
      "137",
      "137",
      "111",
      "111",
      "111",
      "100",
      "100",
      "100",
      "100",
      "100",
      "089",
      "089",
      "089",
      "037",
      "037",
      "037",
      "037",
      "037",
      "037",
      "010",
      "010",
      "010",
      "010"
    ],
    "swim:geom": "path",
    "swim:speeds": [
      243,
      243,
      285,
      285,
      285,
      326,
      326,
      326,
      344,
      344,
      344,
      344,
      369,
      369,
      378,
      378,
      397,
      397,
      397,
      397,
      408,
      408,
      408,
      415,
      415,
      418,
      418,
      418,
      420,
      420,
      416,
      416,
      416,
      416,
      416,
      416,
      411,
      411,
      411,
      411,
      411,
      407,
      407,
      407,
      396,
      396,
      396,
      398,
      398,
      398,
      397,
      397,
      397,
      397,
      410,
      405,
      407,
      407,
      407,
      407,
      389,
      388,
      388,
      388,
      387,
      387,
      387,
      385,
      384,
      384,
      384,
      384,
      384,
      384,
      388,
      390,
      390,
      390,
      390,
      392,
      393,
      393,
      393,
      394,
      394,
      394,
      395,
      395,
      395,
      395,
      398,
      398,
      398,
      399,
      399,
      399,
      399,
      399,
      404,
      404,
      404,
      404,
      404,
      395,
      395,
      395,
      395,
      395,
      395,
      394,
      394,
      392,
      391,
      391,
      391,
      391,
      391,
      391,
      391,
      391,
      391,
      391,
      391,
      391,
      391,
      391,
      391,
      405,
      405,
      405,
      405,
      407,
      407,
      407,
      407,
      407,
      407,
      406,
      406,
      406,
      406,
      406,
      400,
      400,
      400,
      400,
      400,
      400,
      388,
      388,
      388,
      388,
      388,
      387,
      387,
      387,
      388,
      388,
      388,
      388,
      388,
      391,
      391,
      391,
      391,
      391,
      391,
      412,
      412,
      412,
      412,
      412,
      412,
      412,
      412,
      412,
      412,
      412,
      412,
      411,
      405,
      405,
      405,
      405,
      405,
      405,
      347,
      347,
      347,
      347,
      347,
      352,
      352,
      352,
      352,
      352,
      352,
      352,
      352,
      352,
      350,
      350,
      349,
      349,
      348,
      348,
      349,
      349,
      349,
      349,
      357,
      357,
      357,
      357,
      357,
      357,
      362,
      362,
      362,
      362,
      362,
      362,
      365,
      365,
      365,
      365,
      365,
      365,
      373,
      373,
      373,
      373,
      373,
      373,
      373,
      373,
      373,
      373,
      370,
      370,
      370,
      370,
      370,
      370,
      369,
      369,
      369,
      369,
      369,
      370,
      370,
      370,
      371,
      371,
      368,
      371,
      371,
      371,
      371,
      368,
      368,
      372,
      372,
      372,
      371,
      371,
      372,
      372,
      372,
      372,
      372,
      372,
      372,
      372,
      372,
      372,
      373,
      373,
      374,
      374,
      374,
      374,
      374,
      374,
      376,
      376,
      376,
      376,
      376,
      379,
      380,
      379,
      379,
      379,
      379,
      379,
      379,
      379,
      379,
      379,
      378,
      378,
      378,
      377,
      377,
      377,
      376,
      376,
      376,
      376,
      375,
      375,
      375,
      375,
      374,
      374,
      374,
      374,
      374,
      374,
      374,
      374,
      374,
      374,
      374,
      374,
      374,
      376,
      376,
      376,
      376,
      376,
      376,
      376,
      376,
      380,
      380,
      380,
      380,
      380,
      380,
      380,
      381,
      381,
      381,
      381,
      381,
      381,
      380,
      380,
      380,
      380,
      380,
      380,
      381,
      381,
      381,
      381,
      381,
      381,
      381,
      381,
      381,
      381,
      383,
      383,
      383,
      383,
      383,
      385,
      385,
      385,
      385,
      385,
      386,
      386,
      386,
      386,
      386,
      386,
      385,
      385,
      385,
      385,
      386,
      386,
      386,
      386,
      386,
      388,
      388,
      388,
      389,
      389,
      389,
      389,
      389,
      392,
      392,
      392,
      392,
      392,
      398,
      398,
      395,
      395,
      395,
      395,
      395,
      395,
      394,
      394,
      395,
      395,
      394,
      394,
      395,
      395,
      395,
      395,
      395,
      395,
      395,
      395,
      395,
      395,
      395,
      395,
      395,
      395,
      395,
      395,
      395,
      396,
      396,
      396,
      396,
      396,
      396,
      396,
      396,
      396,
      396,
      396,
      396,
      396,
      396,
      396,
      396,
      396,
      397,
      397,
      397,
      397,
      397,
      397,
      397,
      398,
      398,
      399,
      399,
      399,
      399,
      399,
      399,
      399,
      400,
      400,
      400,
      400,
      400,
      400,
      400,
      399,
      399,
      399,
      398,
      398,
      402,
      402,
      398,
      398,
      398,
      398,
      397,
      397,
      397,
      402,
      397,
      397,
      397,
      397,
      397,
      400,
      400,
      400,
      400,
      400,
      400,
      399,
      399,
      399,
      399,
      399,
      399,
      398,
      395,
      395,
      395,
      395,
      397,
      397,
      397,
      397,
      397,
      397,
      397,
      396,
      397,
      396,
      396,
      396,
      396,
      397,
      397,
      397,
      397,
      396,
      396,
      396,
      396,
      396,
      396,
      398,
      398,
      398,
      398,
      398,
      408,
      408,
      408,
      408,
      408,
      408,
      408,
      410,
      410,
      410,
      410,
      410,
      410,
      410,
      408,
      408,
      408,
      408,
      407,
      407,
      407,
      404,
      404,
      404,
      404,
      404,
      404,
      404,
      402,
      404,
      404,
      404,
      404,
      404,
      404,
      404,
      404,
      404,
      404,
      403,
      403,
      403,
      403,
      403,
      404,
      404,
      404,
      404,
      404,
      404,
      406,
      406,
      406,
      407,
      407,
      407,
      407,
      407,
      407,
      407,
      408,
      408,
      408,
      408,
      409,
      409,
      409,
      409,
      409,
      409,
      411,
      411,
      412,
      412,
      412,
      412,
      412,
      413,
      413,
      414,
      414,
      414,
      414,
      416,
      416,
      416,
      416,
      417,
      419,
      419,
      419,
      420,
      420,
      420,
      421,
      421,
      422,
      422,
      422,
      422,
      422,
      422,
      422,
      422,
      424,
      425,
      425,
      426,
      426,
      426,
      426,
      426,
      431,
      431,
      431,
      431,
      431,
      433,
      433,
      433,
      433,
      432,
      432,
      432,
      432,
      432,
      432,
      432,
      432,
      432,
      433,
      433,
      433,
      433,
      433,
      434,
      434,
      434,
      434,
      434,
      434,
      435,
      436,
      436,
      436,
      436,
      436,
      436,
      437,
      437,
      437,
      441,
      441,
      441,
      438,
      438,
      438,
      438,
      440,
      439,
      439,
      439,
      440,
      440,
      439,
      439,
      439,
      439,
      440,
      440,
      440,
      439,
      439,
      439,
      439,
      439,
      439,
      438,
      438,
      438,
      438,
      438,
      438,
      438,
      438,
      438,
      438,
      438,
      438,
      438,
      438,
      438,
      438,
      438,
      438,
      438,
      438,
      438,
      438,
      438,
      438,
      438,
      437,
      437,
      437,
      437,
      437,
      437,
      437,
      437,
      415,
      415,
      411,
      411,
      411,
      411,
      411,
      411,
      416,
      416,
      416,
      416,
      445,
      445,
      445,
      437,
      437,
      437,
      437,
      426,
      426,
      426,
      444,
      444,
      444,
      444,
      444,
      437,
      437,
      437,
      414,
      391,
      391,
      391,
      383,
      383,
      383,
      383,
      352,
      352,
      352,
      344,
      344,
      344,
      307,
      307,
      307,
      307,
      307,
      240,
      240,
      240,
      199,
      199,
      199,
      199,
      199,
      199,
      140,
      140,
      140,
      140
    ],
    "swim:timestamps": [
      1781437099,
      1781437099,
      1781437153,
      1781437153,
      1781437153,
      1781437333,
      1781437333,
      1781437333,
      1781437394,
      1781437394,
      1781437394,
      1781437394,
      1781437514,
      1781437514,
      1781437574,
      1781437574,
      1781437754,
      1781437754,
      1781437754,
      1781437754,
      1781437814,
      1781437814,
      1781437814,
      1781437874,
      1781437874,
      1781437934,
      1781437934,
      1781437934,
      1781437994,
      1781437994,
      1781438294,
      1781438354,
      1781438354,
      1781438354,
      1781438354,
      1781438354,
      1781438595,
      1781438595,
      1781438595,
      1781438595,
      1781438595,
      1781438655,
      1781438655,
      1781438655,
      1781438810,
      1781438810,
      1781438810,
      1781438835,
      1781438835,
      1781438835,
      1781438870,
      1781438870,
      1781438930,
      1781438930,
      1781439110,
      1781439135,
      1781439170,
      1781439170,
      1781439170,
      1781439170,
      1781439290,
      1781439410,
      1781439410,
      1781439410,
      1781439448,
      1781439448,
      1781439448,
      1781439591,
      1781439628,
      1781439628,
      1781439628,
      1781439688,
      1781439688,
      1781439688,
      1781439771,
      1781439808,
      1781439808,
      1781439808,
      1781439808,
      1781439831,
      1781439868,
      1781439868,
      1781439891,
      1781439928,
      1781439928,
      1781439928,
      1781439988,
      1781439988,
      1781439988,
      1781439988,
      1781440071,
      1781440071,
      1781440071,
      1781440131,
      1781440131,
      1781440131,
      1781440131,
      1781440131,
      1781440432,
      1781440432,
      1781440432,
      1781440432,
      1781440432,
      1781440612,
      1781440612,
      1781440612,
      1781440612,
      1781440612,
      1781440612,
      1781440672,
      1781440672,
      1781440732,
      1781440912,
      1781440912,
      1781440912,
      1781440912,
      1781440972,
      1781440972,
      1781440972,
      1781441033,
      1781441033,
      1781441033,
      1781441093,
      1781441093,
      1781441213,
      1781441213,
      1781441213,
      1781441513,
      1781441513,
      1781441513,
      1781441513,
      1781441573,
      1781441573,
      1781441573,
      1781441573,
      1781441573,
      1781441573,
      1781441754,
      1781441754,
      1781441754,
      1781441754,
      1781441754,
      1781441934,
      1781441934,
      1781441934,
      1781441934,
      1781441934,
      1781441934,
      1781442174,
      1781442174,
      1781442174,
      1781442174,
      1781442174,
      1781442234,
      1781442234,
      1781442234,
      1781442354,
      1781442354,
      1781442354,
      1781442354,
      1781442354,
      1781442595,
      1781442595,
      1781442595,
      1781442595,
      1781442595,
      1781442595,
      1781442803,
      1781442803,
      1781442803,
      1781442803,
      1781442803,
      1781442835,
      1781442835,
      1781442895,
      1781442983,
      1781442983,
      1781442983,
      1781442983,
      1781443015,
      1781443075,
      1781443075,
      1781443075,
      1781443075,
      1781443075,
      1781443075,
      1781443223,
      1781443223,
      1781443223,
      1781443223,
      1781443223,
      1781443343,
      1781443343,
      1781443343,
      1781443343,
      1781443343,
      1781443460,
      1781443460,
      1781443460,
      1781443460,
      1781443524,
      1781443524,
      1781443584,
      1781443584,
      1781443704,
      1781443704,
      1781443764,
      1781443764,
      1781443764,
      1781443764,
      1781444004,
      1781444004,
      1781444004,
      1781444004,
      1781444004,
      1781444004,
      1781444185,
      1781444185,
      1781444185,
      1781444185,
      1781444185,
      1781444185,
      1781444425,
      1781444425,
      1781444425,
      1781444425,
      1781444425,
      1781444425,
      1781444606,
      1781444606,
      1781444606,
      1781444606,
      1781444606,
      1781444786,
      1781444786,
      1781444786,
      1781444786,
      1781444786,
      1781444906,
      1781444906,
      1781444906,
      1781444906,
      1781444906,
      1781444906,
      1781445206,
      1781445206,
      1781445206,
      1781445206,
      1781445206,
      1781445266,
      1781445266,
      1781445266,
      1781445326,
      1781445326,
      1781445370,
      1781445386,
      1781445386,
      1781445386,
      1781445386,
      1781445491,
      1781445491,
      1781445519,
      1781445519,
      1781445519,
      1781445639,
      1781445639,
      1781445759,
      1781445759,
      1781445819,
      1781445851,
      1781445851,
      1781445851,
      1781445851,
      1781445911,
      1781445911,
      1781445911,
      1781445939,
      1781445939,
      1781445999,
      1781445999,
      1781445999,
      1781446031,
      1781446060,
      1781446060,
      1781446152,
      1781446152,
      1781446152,
      1781446152,
      1781446152,
      1781446300,
      1781446332,
      1781446360,
      1781446360,
      1781446360,
      1781446360,
      1781446360,
      1781446420,
      1781446420,
      1781446452,
      1781446452,
      1781446480,
      1781446480,
      1781446480,
      1781446540,
      1781446540,
      1781446540,
      1781446572,
      1781446572,
      1781446572,
      1781446572,
      1781446600,
      1781446600,
      1781446600,
      1781446693,
      1781446721,
      1781446721,
      1781446753,
      1781446753,
      1781446753,
      1781446753,
      1781446781,
      1781446781,
      1781446813,
      1781446901,
      1781446901,
      1781446901,
      1781446901,
      1781446993,
      1781446993,
      1781446993,
      1781446993,
      1781446993,
      1781447021,
      1781447021,
      1781447021,
      1781447201,
      1781447201,
      1781447201,
      1781447201,
      1781447233,
      1781447233,
      1781447233,
      1781447294,
      1781447321,
      1781447321,
      1781447354,
      1781447354,
      1781447354,
      1781447474,
      1781447474,
      1781447534,
      1781447534,
      1781447534,
      1781447534,
      1781447654,
      1781447654,
      1781447654,
      1781447654,
      1781447654,
      1781447774,
      1781447774,
      1781447774,
      1781447774,
      1781447774,
      1781447894,
      1781447894,
      1781447894,
      1781447894,
      1781447894,
      1781447955,
      1781447955,
      1781447955,
      1781447955,
      1781447955,
      1781448135,
      1781448135,
      1781448135,
      1781448135,
      1781448135,
      1781448135,
      1781448375,
      1781448375,
      1781448375,
      1781448375,
      1781448435,
      1781448435,
      1781448435,
      1781448435,
      1781448435,
      1781448555,
      1781448555,
      1781448555,
      1781448616,
      1781448616,
      1781448616,
      1781448616,
      1781448616,
      1781448796,
      1781448796,
      1781448796,
      1781448796,
      1781448796,
      1781448834,
      1781448834,
      1781448954,
      1781448954,
      1781448954,
      1781449015,
      1781449015,
      1781449015,
      1781449135,
      1781449135,
      1781449195,
      1781449195,
      1781449216,
      1781449216,
      1781449255,
      1781449255,
      1781449277,
      1781449277,
      1781449277,
      1781449337,
      1781449337,
      1781449337,
      1781449337,
      1781449375,
      1781449375,
      1781449435,
      1781449435,
      1781449435,
      1781449457,
      1781449457,
      1781449457,
      1781449577,
      1781449577,
      1781449577,
      1781449675,
      1781449736,
      1781449736,
      1781449736,
      1781449769,
      1781449769,
      1781449796,
      1781449796,
      1781449796,
      1781449829,
      1781449829,
      1781449890,
      1781449890,
      1781449890,
      1781449976,
      1781449976,
      1781449976,
      1781450010,
      1781450010,
      1781450010,
      1781450010,
      1781450276,
      1781450276,
      1781450336,
      1781450336,
      1781450336,
      1781450336,
      1781450396,
      1781450396,
      1781450396,
      1781450456,
      1781450456,
      1781450456,
      1781450456,
      1781450456,
      1781450637,
      1781450637,
      1781450697,
      1781450697,
      1781450697,
      1781450757,
      1781450757,
      1781450782,
      1781450782,
      1781450817,
      1781450817,
      1781450817,
      1781450817,
      1781450877,
      1781450877,
      1781450877,
      1781450903,
      1781450937,
      1781450937,
      1781450937,
      1781450937,
      1781450937,
      1781451023,
      1781451023,
      1781451023,
      1781451083,
      1781451083,
      1781451083,
      1781451263,
      1781451263,
      1781451263,
      1781451263,
      1781451263,
      1781451263,
      1781451383,
      1781451418,
      1781451418,
      1781451418,
      1781451418,
      1781451503,
      1781451503,
      1781451503,
      1781451503,
      1781451564,
      1781451564,
      1781451564,
      1781451598,
      1781451624,
      1781451658,
      1781451658,
      1781451658,
      1781451658,
      1781451684,
      1781451684,
      1781451684,
      1781451684,
      1781451778,
      1781451778,
      1781451778,
      1781451804,
      1781451804,
      1781451804,
      1781451924,
      1781451924,
      1781451924,
      1781451924,
      1781451924,
      1781452139,
      1781452139,
      1781452139,
      1781452164,
      1781452164,
      1781452164,
      1781452164,
      1781452259,
      1781452259,
      1781452259,
      1781452259,
      1781452284,
      1781452284,
      1781452284,
      1781452405,
      1781452405,
      1781452405,
      1781452405,
      1781452465,
      1781452465,
      1781452465,
      1781452559,
      1781452559,
      1781452559,
      1781452559,
      1781452705,
      1781452705,
      1781452705,
      1781452740,
      1781452765,
      1781452765,
      1781452765,
      1781452765,
      1781452825,
      1781452825,
      1781452825,
      1781452885,
      1781452885,
      1781452885,
      1781452980,
      1781452980,
      1781452980,
      1781452980,
      1781452980,
      1781453066,
      1781453066,
      1781453066,
      1781453100,
      1781453100,
      1781453100,
      1781453126,
      1781453126,
      1781453126,
      1781453186,
      1781453186,
      1781453280,
      1781453280,
      1781453366,
      1781453366,
      1781453366,
      1781453401,
      1781453401,
      1781453401,
      1781453426,
      1781453461,
      1781453461,
      1781453521,
      1781453521,
      1781453521,
      1781453521,
      1781453606,
      1781453606,
      1781453666,
      1781453666,
      1781453701,
      1781453701,
      1781453701,
      1781453726,
      1781453726,
      1781453761,
      1781453761,
      1781453761,
      1781453761,
      1781453881,
      1781453881,
      1781453881,
      1781453881,
      1781453907,
      1781453967,
      1781453967,
      1781453967,
      1781454027,
      1781454027,
      1781454027,
      1781454087,
      1781454087,
      1781454147,
      1781454147,
      1781454147,
      1781454147,
      1781454147,
      1781454207,
      1781454207,
      1781454207,
      1781454267,
      1781454327,
      1781454327,
      1781454387,
      1781454387,
      1781454387,
      1781454387,
      1781454387,
      1781454688,
      1781454688,
      1781454688,
      1781454688,
      1781454688,
      1781454808,
      1781454868,
      1781454868,
      1781454868,
      1781454928,
      1781454928,
      1781454928,
      1781454928,
      1781454928,
      1781455349,
      1781455349,
      1781455349,
      1781455349,
      1781455409,
      1781455409,
      1781455409,
      1781455409,
      1781455409,
      1781455589,
      1781455589,
      1781455589,
      1781455589,
      1781455589,
      1781455589,
      1781455709,
      1781455769,
      1781455769,
      1781455769,
      1781455769,
      1781455769,
      1781455769,
      1781455889,
      1781455889,
      1781455889,
      1781455917,
      1781455917,
      1781455917,
      1781455949,
      1781456010,
      1781456010,
      1781456010,
      1781456037,
      1781456070,
      1781456070,
      1781456070,
      1781456097,
      1781456097,
      1781456190,
      1781456190,
      1781456190,
      1781456190,
      1781456217,
      1781456217,
      1781456217,
      1781456430,
      1781456430,
      1781456430,
      1781456430,
      1781456430,
      1781456430,
      1781456610,
      1781456610,
      1781456610,
      1781456610,
      1781456610,
      1781456698,
      1781456698,
      1781456698,
      1781456698,
      1781456851,
      1781456851,
      1781456851,
      1781456911,
      1781456971,
      1781456971,
      1781456998,
      1781456998,
      1781456998,
      1781457031,
      1781457031,
      1781457031,
      1781457058,
      1781457058,
      1781457058,
      1781457091,
      1781457151,
      1781457151,
      1781457179,
      1781457211,
      1781457211,
      1781457211,
      1781457211,
      1781457211,
      1781457299,
      1781457299,
      1781457419,
      1781457419,
      1781457419,
      1781457419,
      1781457419,
      1781457419,
      1781457599,
      1781457599,
      1781457599,
      1781457599,
      1781457780,
      1781457780,
      1781457780,
      1781457900,
      1781457900,
      1781457900,
      1781457900,
      1781457960,
      1781457960,
      1781457960,
      1781458080,
      1781458080,
      1781458080,
      1781458080,
      1781458080,
      1781458140,
      1781458140,
      1781458140,
      1781458217,
      1781458314,
      1781458314,
      1781458314,
      1781458379,
      1781458379,
      1781458379,
      1781458379,
      1781458554,
      1781458554,
      1781458554,
      1781458614,
      1781458614,
      1781458614,
      1781458679,
      1781458679,
      1781458679,
      1781458679,
      1781458679,
      1781458794,
      1781458794,
      1781458794,
      1781459093,
      1781459093,
      1781459093,
      1781459093,
      1781459093,
      1781459093,
      1781459269,
      1781459269,
      1781459269,
      1781459269
    ],
    "wof:geomhash": "a1b987eb4340753a22cec4709b77aac7",
    "wof:id": 2031537707,
    "wof:repo": "sfomuseum-data-flights-2026-06"
  },
  "bbox": [
    -122.3,
    37.483333333333334,
    -70.7525,
    43.36888888888889
  ],
  "geometry": {"coordinates":[[-70.93333333333334,42.31666666666667],[-70.93333333333334,42.31666666666667],[-70.85444444444444,42.327222222222225],[-70.85444444444444,42.327222222222225],[-70.85444444444444,42.327222222222225],[-70.7525,42.509166666666665],[-70.7525,42.509166666666665],[-70.7525,42.509166666666665],[-70.84777777777778,42.57194444444445],[-70.84777777777778,42.57194444444445],[-70.84777777777778,42.57194444444445],[-70.84777777777778,42.57194444444445],[-71.075,42.683611111111105],[-71.075,42.683611111111105],[-71.19333333333334,42.74055555555556],[-71.19333333333334,42.74055555555556],[-71.62138888888889,42.81916666666667],[-71.62138888888889,42.81916666666667],[-71.62138888888889,42.81916666666667],[-71.62138888888889,42.81916666666667],[-71.7725,42.83583333333333],[-71.7725,42.83583333333333],[-71.7725,42.83583333333333],[-71.92777777777778,42.852222222222224],[-71.92777777777778,42.852222222222224],[-72.08749999999999,42.869166666666665],[-72.08749999999999,42.869166666666665],[-72.08749999999999,42.869166666666665],[-72.24388888888889,42.885555555555555],[-72.24388888888889,42.885555555555555],[-73.01638888888888,42.963055555555556],[-73.17972222222222,42.978611111111114],[-73.17972222222222,42.978611111111114],[-73.17972222222222,42.978611111111114],[-73.17972222222222,42.978611111111114],[-73.17972222222222,42.978611111111114],[-73.81333333333333,43.00527777777778],[-73.81333333333333,43.00527777777778],[-73.81333333333333,43.00527777777778],[-73.81333333333333,43.00527777777778],[-73.81333333333333,43.00527777777778],[-73.965,43.00861111111111],[-73.965,43.00861111111111],[-73.965,43.00861111111111],[-74.3275,43.01638888888889],[-74.3275,43.01638888888889],[-74.3275,43.01638888888889],[-74.41611111111112,43.021388888888886],[-74.41611111111112,43.021388888888886],[-74.41611111111112,43.021388888888886],[-74.47805555555556,43.02361111111111],[-74.47805555555556,43.02361111111111],[-74.62888888888888,43.030277777777776],[-74.62888888888888,43.030277777777776],[-75.02805555555555,43.163888888888884],[-75.09333333333333,43.2075],[-75.14083333333333,43.239444444444445],[-75.14083333333333,43.239444444444445],[-75.14083333333333,43.239444444444445],[-75.14083333333333,43.239444444444445],[-75.39277777777778,43.36888888888889],[-75.67750000000001,43.316944444444445],[-75.67750000000001,43.316944444444445],[-75.67750000000001,43.316944444444445],[-75.75777777777778,43.299166666666665],[-75.75777777777778,43.299166666666665],[-75.75777777777778,43.299166666666665],[-76.09527777777777,43.22416666666667],[-76.1763888888889,43.20583333333334],[-76.1763888888889,43.20583333333334],[-76.1763888888889,43.20583333333334],[-76.31583333333333,43.174166666666665],[-76.31583333333333,43.174166666666665],[-76.31583333333333,43.174166666666665],[-76.51444444444445,43.12888888888889],[-76.59916666666666,43.10944444444445],[-76.59916666666666,43.10944444444445],[-76.59916666666666,43.10944444444445],[-76.59916666666666,43.10944444444445],[-76.65944444444445,43.096111111111114],[-76.74722222222222,43.09027777777778],[-76.74722222222222,43.09027777777778],[-76.80472222222222,43.09111111111111],[-76.89694444444446,43.092222222222226],[-76.89694444444446,43.092222222222226],[-76.89694444444446,43.092222222222226],[-77.04638888888888,43.09444444444445],[-77.04638888888888,43.09444444444445],[-77.04638888888888,43.09444444444445],[-77.04638888888888,43.09444444444445],[-77.25666666666666,43.09666666666667],[-77.25666666666666,43.09666666666667],[-77.25666666666666,43.09666666666667],[-77.4075,43.09805555555556],[-77.4075,43.09805555555556],[-77.4075,43.09805555555556],[-77.4075,43.09805555555556],[-77.4075,43.09805555555556],[-78.14444444444445,42.95],[-78.14444444444445,42.95],[-78.14444444444445,42.95],[-78.14444444444445,42.95],[-78.14444444444445,42.95],[-78.57027777777778,42.85722222222223],[-78.57027777777778,42.85722222222223],[-78.57027777777778,42.85722222222223],[-78.57027777777778,42.85722222222223],[-78.57027777777778,42.85722222222223],[-78.57027777777778,42.85722222222223],[-78.71416666666667,42.836111111111116],[-78.71416666666667,42.836111111111116],[-78.86083333333333,42.82277777777778],[-79.30305555555556,42.80305555555555],[-79.30305555555556,42.80305555555555],[-79.30305555555556,42.80305555555555],[-79.30305555555556,42.80305555555555],[-79.45027777777779,42.79833333333333],[-79.45027777777779,42.79833333333333],[-79.45027777777779,42.79833333333333],[-79.59694444444445,42.79361111111111],[-79.59694444444445,42.79361111111111],[-79.59694444444445,42.79361111111111],[-79.74388888888889,42.788888888888884],[-79.74388888888889,42.788888888888884],[-80.0411111111111,42.77861111111111],[-80.0411111111111,42.77861111111111],[-80.0411111111111,42.77861111111111],[-80.78694444444444,42.771388888888886],[-80.78694444444444,42.771388888888886],[-80.78694444444444,42.771388888888886],[-80.78694444444444,42.771388888888886],[-80.93611111111112,42.794444444444444],[-80.93611111111112,42.794444444444444],[-80.93611111111112,42.794444444444444],[-80.93611111111112,42.794444444444444],[-80.93611111111112,42.794444444444444],[-80.93611111111112,42.794444444444444],[-81.39333333333335,42.82944444444445],[-81.39333333333335,42.82944444444445],[-81.39333333333335,42.82944444444445],[-81.39333333333335,42.82944444444445],[-81.39333333333335,42.82944444444445],[-81.85416666666666,42.82416666666667],[-81.85416666666666,42.82416666666667],[-81.85416666666666,42.82416666666667],[-81.85416666666666,42.82416666666667],[-81.85416666666666,42.82416666666667],[-81.85416666666666,42.82416666666667],[-82.44083333333333,42.781666666666666],[-82.44083333333333,42.781666666666666],[-82.44083333333333,42.781666666666666],[-82.44083333333333,42.781666666666666],[-82.44083333333333,42.781666666666666],[-82.58555555555554,42.77055555555555],[-82.58555555555554,42.77055555555555],[-82.58555555555554,42.77055555555555],[-82.87666666666667,42.74722222222222],[-82.87666666666667,42.74722222222222],[-82.87666666666667,42.74722222222222],[-82.87666666666667,42.74722222222222],[-82.87666666666667,42.74722222222222],[-83.46305555555556,42.69833333333333],[-83.46305555555556,42.69833333333333],[-83.46305555555556,42.69833333333333],[-83.46305555555556,42.69833333333333],[-83.46305555555556,42.69833333333333],[-83.46305555555556,42.69833333333333],[-83.96027777777778,42.65472222222222],[-83.96027777777778,42.65472222222222],[-83.96027777777778,42.65472222222222],[-83.96027777777778,42.65472222222222],[-83.96027777777778,42.65472222222222],[-84.06138888888889,42.64527777777778],[-84.06138888888889,42.64527777777778],[-84.21583333333334,42.63111111111111],[-84.42222222222223,42.611666666666665],[-84.42222222222223,42.611666666666665],[-84.42222222222223,42.611666666666665],[-84.42222222222223,42.611666666666665],[-84.52083333333333,42.6025],[-84.67166666666667,42.588055555555556],[-84.67166666666667,42.588055555555556],[-84.67166666666667,42.588055555555556],[-84.67166666666667,42.588055555555556],[-84.67166666666667,42.588055555555556],[-84.67166666666667,42.588055555555556],[-84.98055555555555,42.5575],[-84.98055555555555,42.5575],[-84.98055555555555,42.5575],[-84.98055555555555,42.5575],[-84.98055555555555,42.5575],[-85.24527777777777,42.530833333333334],[-85.24527777777777,42.530833333333334],[-85.24527777777777,42.530833333333334],[-85.24527777777777,42.530833333333334],[-85.24527777777777,42.530833333333334],[-85.50638888888889,42.50388888888889],[-85.50638888888889,42.50388888888889],[-85.50638888888889,42.50388888888889],[-85.50638888888889,42.50388888888889],[-85.63694444444445,42.49027777777778],[-85.63694444444445,42.49027777777778],[-85.76694444444445,42.47638888888889],[-85.76694444444445,42.47638888888889],[-86.02805555555555,42.44833333333333],[-86.02805555555555,42.44833333333333],[-86.15861111111111,42.43388888888889],[-86.15861111111111,42.43388888888889],[-86.15861111111111,42.43388888888889],[-86.15861111111111,42.43388888888889],[-86.70361111111112,42.3725],[-86.70361111111112,42.3725],[-86.70361111111112,42.3725],[-86.70361111111112,42.3725],[-86.70361111111112,42.3725],[-86.70361111111112,42.3725],[-87.10527777777777,42.32527777777778],[-87.10527777777777,42.32527777777778],[-87.10527777777777,42.32527777777778],[-87.10527777777777,42.32527777777778],[-87.10527777777777,42.32527777777778],[-87.10527777777777,42.32527777777778],[-87.64527777777778,42.274166666666666],[-87.64527777777778,42.274166666666666],[-87.64527777777778,42.274166666666666],[-87.64527777777778,42.274166666666666],[-87.64527777777778,42.274166666666666],[-87.64527777777778,42.274166666666666],[-88.06055555555555,42.24027777777778],[-88.06055555555555,42.24027777777778],[-88.06055555555555,42.24027777777778],[-88.06055555555555,42.24027777777778],[-88.06055555555555,42.24027777777778],[-88.47694444444444,42.20638888888889],[-88.47694444444444,42.20638888888889],[-88.47694444444444,42.20638888888889],[-88.47694444444444,42.20638888888889],[-88.47694444444444,42.20638888888889],[-88.74972222222222,42.183055555555555],[-88.74972222222222,42.183055555555555],[-88.74972222222222,42.183055555555555],[-88.74972222222222,42.183055555555555],[-88.74972222222222,42.183055555555555],[-88.74972222222222,42.183055555555555],[-89.44361111111111,42.12138888888889],[-89.44361111111111,42.12138888888889],[-89.44361111111111,42.12138888888889],[-89.44361111111111,42.12138888888889],[-89.44361111111111,42.12138888888889],[-89.5825,42.108333333333334],[-89.5825,42.108333333333334],[-89.5825,42.108333333333334],[-89.71944444444445,42.095555555555556],[-89.71944444444445,42.095555555555556],[-89.80027777777778,42.08777777777778],[-89.85777777777777,42.08222222222223],[-89.85777777777777,42.08222222222223],[-89.85777777777777,42.08222222222223],[-89.85777777777777,42.08222222222223],[-90.07583333333334,42.06111111111111],[-90.07583333333334,42.06111111111111],[-90.13277777777778,42.05555555555555],[-90.13277777777778,42.05555555555555],[-90.13277777777778,42.05555555555555],[-90.4363888888889,42.025277777777774],[-90.4363888888889,42.025277777777774],[-90.7088888888889,41.99722222222222],[-90.7088888888889,41.99722222222222],[-90.84916666666666,41.98277777777778],[-90.9038888888889,41.97694444444445],[-90.9038888888889,41.97694444444445],[-90.9038888888889,41.97694444444445],[-90.9038888888889,41.97694444444445],[-91.04138888888889,41.96222222222222],[-91.04138888888889,41.96222222222222],[-91.04138888888889,41.96222222222222],[-91.12416666666665,41.953611111111115],[-91.12416666666665,41.953611111111115],[-91.23611111111111,41.94138888888889],[-91.23611111111111,41.94138888888889],[-91.23611111111111,41.94138888888889],[-91.31805555555555,41.9325],[-91.37444444444444,41.92611111111111],[-91.37444444444444,41.92611111111111],[-91.59666666666666,41.901666666666664],[-91.59666666666666,41.901666666666664],[-91.59666666666666,41.901666666666664],[-91.59666666666666,41.901666666666664],[-91.59666666666666,41.901666666666664],[-91.93333333333334,41.86361111111111],[-92.01833333333333,41.853611111111114],[-92.07194444444444,41.847500000000004],[-92.07194444444444,41.847500000000004],[-92.07194444444444,41.847500000000004],[-92.07194444444444,41.847500000000004],[-92.07194444444444,41.847500000000004],[-92.21277777777777,41.83111111111111],[-92.21277777777777,41.83111111111111],[-92.2975,41.821111111111115],[-92.2975,41.821111111111115],[-92.35138888888888,41.81472222222222],[-92.35138888888888,41.81472222222222],[-92.35138888888888,41.81472222222222],[-92.4888888888889,41.79833333333333],[-92.4888888888889,41.79833333333333],[-92.4888888888889,41.79833333333333],[-92.57249999999999,41.788333333333334],[-92.57249999999999,41.788333333333334],[-92.57249999999999,41.788333333333334],[-92.57249999999999,41.788333333333334],[-92.62722222222222,41.781666666666666],[-92.62722222222222,41.781666666666666],[-92.62722222222222,41.781666666666666],[-92.85722222222222,41.75361111111111],[-92.90055555555556,41.74805555555556],[-92.90055555555556,41.74805555555556],[-92.99361111111111,41.736666666666665],[-92.99361111111111,41.736666666666665],[-92.99361111111111,41.736666666666665],[-92.99361111111111,41.736666666666665],[-93.0475,41.730000000000004],[-93.0475,41.730000000000004],[-93.12972222222221,41.719722222222224],[-93.32055555555556,41.695277777777775],[-93.32055555555556,41.695277777777775],[-93.32055555555556,41.695277777777775],[-93.32055555555556,41.695277777777775],[-93.54055555555556,41.66722222222222],[-93.54055555555556,41.66722222222222],[-93.54055555555556,41.66722222222222],[-93.54055555555556,41.66722222222222],[-93.54055555555556,41.66722222222222],[-93.59666666666666,41.65972222222222],[-93.59666666666666,41.65972222222222],[-93.59666666666666,41.65972222222222],[-94.01083333333334,41.60527777777778],[-94.01083333333334,41.60527777777778],[-94.01083333333334,41.60527777777778],[-94.01083333333334,41.60527777777778],[-94.09555555555555,41.59388888888889],[-94.09555555555555,41.59388888888889],[-94.09555555555555,41.59388888888889],[-94.235,41.575],[-94.28861111111111,41.56777777777778],[-94.28861111111111,41.56777777777778],[-94.36388888888888,41.55722222222222],[-94.36388888888888,41.55722222222222],[-94.36388888888888,41.55722222222222],[-94.64222222222223,41.51888888888889],[-94.64222222222223,41.51888888888889],[-94.77916666666667,41.49944444444444],[-94.77916666666667,41.49944444444444],[-94.77916666666667,41.49944444444444],[-94.77916666666667,41.49944444444444],[-95.05722222222222,41.46],[-95.05722222222222,41.46],[-95.05722222222222,41.46],[-95.05722222222222,41.46],[-95.05722222222222,41.46],[-95.33333333333333,41.41972222222222],[-95.33333333333333,41.41972222222222],[-95.33333333333333,41.41972222222222],[-95.33333333333333,41.41972222222222],[-95.33333333333333,41.41972222222222],[-95.58361111111111,41.38305555555556],[-95.58361111111111,41.38305555555556],[-95.58361111111111,41.38305555555556],[-95.58361111111111,41.38305555555556],[-95.58361111111111,41.38305555555556],[-95.75416666666666,41.3575],[-95.75416666666666,41.3575],[-95.75416666666666,41.3575],[-95.75416666666666,41.3575],[-95.75416666666666,41.3575],[-96.17416666666666,41.29361111111111],[-96.17416666666666,41.29361111111111],[-96.17416666666666,41.29361111111111],[-96.17416666666666,41.29361111111111],[-96.17416666666666,41.29361111111111],[-96.17416666666666,41.29361111111111],[-96.73861111111111,41.20527777777778],[-96.73861111111111,41.20527777777778],[-96.73861111111111,41.20527777777778],[-96.73861111111111,41.20527777777778],[-96.8775,41.18277777777777],[-96.8775,41.18277777777777],[-96.8775,41.18277777777777],[-96.8775,41.18277777777777],[-96.8775,41.18277777777777],[-97.15722222222223,41.1375],[-97.15722222222223,41.1375],[-97.15722222222223,41.1375],[-97.29805555555555,41.114444444444445],[-97.29805555555555,41.114444444444445],[-97.29805555555555,41.114444444444445],[-97.29805555555555,41.114444444444445],[-97.29805555555555,41.114444444444445],[-97.71416666666667,41.044999999999995],[-97.71416666666667,41.044999999999995],[-97.71416666666667,41.044999999999995],[-97.71416666666667,41.044999999999995],[-97.71416666666667,41.044999999999995],[-97.79861111111111,41.030833333333334],[-97.79861111111111,41.030833333333334],[-98.08138888888888,40.9825],[-98.08138888888888,40.9825],[-98.08138888888888,40.9825],[-98.22472222222223,40.95777777777778],[-98.22472222222223,40.95777777777778],[-98.22472222222223,40.95777777777778],[-98.50805555555556,40.908055555555556],[-98.50805555555556,40.908055555555556],[-98.65055555555556,40.88305555555556],[-98.65055555555556,40.88305555555556],[-98.70805555555556,40.87277777777778],[-98.70805555555556,40.87277777777778],[-98.79305555555555,40.8575],[-98.79305555555555,40.8575],[-98.84916666666666,40.847500000000004],[-98.84916666666666,40.847500000000004],[-98.84916666666666,40.847500000000004],[-98.98944444444444,40.82222222222222],[-98.98944444444444,40.82222222222222],[-98.98944444444444,40.82222222222222],[-98.98944444444444,40.82222222222222],[-99.09555555555555,40.80305555555555],[-99.09555555555555,40.80305555555555],[-99.21972222222223,40.780277777777776],[-99.21972222222223,40.780277777777776],[-99.21972222222223,40.780277777777776],[-99.275,40.769999999999996],[-99.275,40.769999999999996],[-99.275,40.769999999999996],[-99.55694444444444,40.717777777777776],[-99.55694444444444,40.717777777777776],[-99.55694444444444,40.717777777777776],[-99.78444444444445,40.67527777777777],[-99.91361111111112,40.65083333333333],[-99.91361111111112,40.65083333333333],[-99.91361111111112,40.65083333333333],[-100.01055555555556,40.632222222222225],[-100.01055555555556,40.632222222222225],[-100.05361111111111,40.62416666666667],[-100.05361111111111,40.62416666666667],[-100.05361111111111,40.62416666666667],[-100.15027777777779,40.605555555555554],[-100.15027777777779,40.605555555555554],[-100.2875,40.57916666666667],[-100.2875,40.57916666666667],[-100.2875,40.57916666666667],[-100.47666666666667,40.5425],[-100.47666666666667,40.5425],[-100.47666666666667,40.5425],[-100.57111111111111,40.52583333333333],[-100.57111111111111,40.52583333333333],[-100.57111111111111,40.52583333333333],[-100.57111111111111,40.52583333333333],[-101.1913888888889,40.43],[-101.1913888888889,40.43],[-101.33722222222222,40.415],[-101.33722222222222,40.415],[-101.33722222222222,40.415],[-101.33722222222222,40.415],[-101.48222222222222,40.400555555555556],[-101.48222222222222,40.400555555555556],[-101.48222222222222,40.400555555555556],[-101.62638888888888,40.38611111111111],[-101.62638888888888,40.38611111111111],[-101.62638888888888,40.38611111111111],[-101.62638888888888,40.38611111111111],[-101.62638888888888,40.38611111111111],[-102.0586111111111,40.342222222222226],[-102.0586111111111,40.342222222222226],[-102.20416666666667,40.32694444444445],[-102.20416666666667,40.32694444444445],[-102.20416666666667,40.32694444444445],[-102.34527777777777,40.31222222222222],[-102.34527777777777,40.31222222222222],[-102.40222222222222,40.30416666666667],[-102.40222222222222,40.30416666666667],[-102.48861111111111,40.29694444444444],[-102.48861111111111,40.29694444444444],[-102.48861111111111,40.29694444444444],[-102.48861111111111,40.29694444444444],[-102.63166666666666,40.28138888888889],[-102.63166666666666,40.28138888888889],[-102.63166666666666,40.28138888888889],[-102.69111111111111,40.27305555555555],[-102.77722222222222,40.26555555555556],[-102.77722222222222,40.26555555555556],[-102.77722222222222,40.26555555555556],[-102.77722222222222,40.26555555555556],[-102.77722222222222,40.26555555555556],[-102.97444444444444,40.24277777777778],[-102.97444444444444,40.24277777777778],[-102.97444444444444,40.24277777777778],[-103.11666666666666,40.22555555555556],[-103.11666666666666,40.22555555555556],[-103.11666666666666,40.22555555555556],[-103.5425,40.177499999999995],[-103.5425,40.177499999999995],[-103.5425,40.177499999999995],[-103.5425,40.177499999999995],[-103.5425,40.177499999999995],[-103.5425,40.177499999999995],[-103.82722222222222,40.144444444444446],[-103.90972222222223,40.13527777777778],[-103.90972222222223,40.13527777777778],[-103.90972222222223,40.13527777777778],[-103.90972222222223,40.13527777777778],[-104.10888888888888,40.11027777777778],[-104.10888888888888,40.11027777777778],[-104.10888888888888,40.11027777777778],[-104.10888888888888,40.11027777777778],[-104.24916666666667,40.09305555555556],[-104.24916666666667,40.09305555555556],[-104.24916666666667,40.09305555555556],[-104.33277777777778,40.08361111111111],[-104.3913888888889,40.07527777777778],[-104.47472222222223,40.06583333333333],[-104.47472222222223,40.06583333333333],[-104.47472222222223,40.06583333333333],[-104.47472222222223,40.06583333333333],[-104.53166666666667,40.05833333333333],[-104.53166666666667,40.05833333333333],[-104.53166666666667,40.05833333333333],[-104.53166666666667,40.05833333333333],[-104.75527777777778,40.030277777777776],[-104.75527777777778,40.030277777777776],[-104.75527777777778,40.030277777777776],[-104.815,40.02194444444444],[-104.815,40.02194444444444],[-104.815,40.02194444444444],[-105.10388888888889,39.98388888888889],[-105.10388888888889,39.98388888888889],[-105.10388888888889,39.98388888888889],[-105.10388888888889,39.98388888888889],[-105.10388888888889,39.98388888888889],[-105.64055555555557,39.913333333333334],[-105.64055555555557,39.913333333333334],[-105.64055555555557,39.913333333333334],[-105.68194444444445,39.907222222222224],[-105.68194444444445,39.907222222222224],[-105.68194444444445,39.907222222222224],[-105.68194444444445,39.907222222222224],[-105.93166666666667,39.873333333333335],[-105.93166666666667,39.873333333333335],[-105.93166666666667,39.873333333333335],[-105.93166666666667,39.873333333333335],[-105.97277777777778,39.86638888888889],[-105.97277777777778,39.86638888888889],[-105.97277777777778,39.86638888888889],[-106.25944444444444,39.82694444444445],[-106.25944444444444,39.82694444444445],[-106.25944444444444,39.82694444444445],[-106.25944444444444,39.82694444444445],[-106.40333333333334,39.80694444444444],[-106.40333333333334,39.80694444444444],[-106.40333333333334,39.80694444444444],[-106.64777777777779,39.775555555555556],[-106.64777777777779,39.775555555555556],[-106.64777777777779,39.775555555555556],[-106.64777777777779,39.775555555555556],[-106.97666666666667,39.739444444444445],[-106.97666666666667,39.739444444444445],[-106.97666666666667,39.739444444444445],[-107.07555555555555,39.728611111111114],[-107.11944444444444,39.72361111111111],[-107.11944444444444,39.72361111111111],[-107.11944444444444,39.72361111111111],[-107.11944444444444,39.72361111111111],[-107.26388888888889,39.70638888888889],[-107.26388888888889,39.70638888888889],[-107.26388888888889,39.70638888888889],[-107.40694444444445,39.690555555555555],[-107.40694444444445,39.690555555555555],[-107.40694444444445,39.690555555555555],[-107.64,39.663888888888884],[-107.64,39.663888888888884],[-107.64,39.663888888888884],[-107.64,39.663888888888884],[-107.64,39.663888888888884],[-107.83805555555556,39.63972222222222],[-107.83805555555556,39.63972222222222],[-107.83805555555556,39.63972222222222],[-107.93166666666667,39.62916666666667],[-107.93166666666667,39.62916666666667],[-107.93166666666667,39.62916666666667],[-107.98333333333333,39.62305555555555],[-107.98333333333333,39.62305555555555],[-107.98333333333333,39.62305555555555],[-108.12777777777777,39.60527777777778],[-108.12777777777777,39.60527777777778],[-108.36972222222222,39.575833333333335],[-108.36972222222222,39.575833333333335],[-108.56527777777778,39.551111111111105],[-108.56527777777778,39.551111111111105],[-108.56527777777778,39.551111111111105],[-108.65111111111112,39.540277777777774],[-108.65111111111112,39.540277777777774],[-108.65111111111112,39.540277777777774],[-108.71333333333334,39.5325],[-108.80166666666666,39.52111111111111],[-108.80166666666666,39.52111111111111],[-108.94888888888889,39.50222222222222],[-108.94888888888889,39.50222222222222],[-108.94888888888889,39.50222222222222],[-108.94888888888889,39.50222222222222],[-109.15666666666667,39.47527777777778],[-109.15666666666667,39.47527777777778],[-109.30222222222221,39.45611111111111],[-109.30222222222221,39.45611111111111],[-109.39,39.44416666666666],[-109.39,39.44416666666666],[-109.39,39.44416666666666],[-109.44888888888889,39.436388888888885],[-109.44888888888889,39.436388888888885],[-109.53722222222223,39.42472222222222],[-109.53722222222223,39.42472222222222],[-109.53722222222223,39.42472222222222],[-109.53722222222223,39.42472222222222],[-109.83222222222221,39.38444444444444],[-109.83222222222221,39.38444444444444],[-109.83222222222221,39.38444444444444],[-109.83222222222221,39.38444444444444],[-109.89305555555556,39.376111111111115],[-110.03833333333333,39.35611111111111],[-110.03833333333333,39.35611111111111],[-110.03833333333333,39.35611111111111],[-110.19,39.336111111111116],[-110.19,39.336111111111116],[-110.19,39.336111111111116],[-110.33916666666666,39.31583333333333],[-110.33916666666666,39.31583333333333],[-110.48722222222223,39.29555555555555],[-110.48722222222223,39.29555555555555],[-110.48722222222223,39.29555555555555],[-110.48722222222223,39.29555555555555],[-110.48722222222223,39.29555555555555],[-110.63527777777779,39.275],[-110.63527777777779,39.275],[-110.63527777777779,39.275],[-110.78611111111111,39.25388888888889],[-110.93583333333333,39.23277777777778],[-110.93583333333333,39.23277777777778],[-111.08611111111111,39.21138888888889],[-111.08611111111111,39.21138888888889],[-111.08611111111111,39.21138888888889],[-111.08611111111111,39.21138888888889],[-111.08611111111111,39.21138888888889],[-111.84722222222221,39.1],[-111.84722222222221,39.1],[-111.84722222222221,39.1],[-111.84722222222221,39.1],[-111.84722222222221,39.1],[-112.15111111111112,39.053888888888885],[-112.30222222222221,39.030833333333334],[-112.30222222222221,39.030833333333334],[-112.30222222222221,39.030833333333334],[-112.45194444444445,39.0075],[-112.45194444444445,39.0075],[-112.45194444444445,39.0075],[-112.45194444444445,39.0075],[-112.45194444444445,39.0075],[-113.50527777777778,38.83861111111111],[-113.50527777777778,38.83861111111111],[-113.50527777777778,38.83861111111111],[-113.50527777777778,38.83861111111111],[-113.65472222222223,38.81388888888888],[-113.65472222222223,38.81388888888888],[-113.65472222222223,38.81388888888888],[-113.65472222222223,38.81388888888888],[-113.65472222222223,38.81388888888888],[-114.10694444444444,38.737500000000004],[-114.10694444444444,38.737500000000004],[-114.10694444444444,38.737500000000004],[-114.10694444444444,38.737500000000004],[-114.10694444444444,38.737500000000004],[-114.10694444444444,38.737500000000004],[-114.4063888888889,38.68583333333333],[-114.5586111111111,38.659166666666664],[-114.5586111111111,38.659166666666664],[-114.5586111111111,38.659166666666664],[-114.5586111111111,38.659166666666664],[-114.5586111111111,38.659166666666664],[-114.5586111111111,38.659166666666664],[-114.8611111111111,38.60583333333334],[-114.8611111111111,38.60583333333334],[-114.8611111111111,38.60583333333334],[-114.92222222222223,38.594722222222224],[-114.92222222222223,38.594722222222224],[-114.92222222222223,38.594722222222224],[-115.01277777777777,38.578611111111115],[-115.16333333333334,38.55138888888889],[-115.16333333333334,38.55138888888889],[-115.16333333333334,38.55138888888889],[-115.24861111111112,38.53611111111111],[-115.31388888888888,38.524166666666666],[-115.31388888888888,38.524166666666666],[-115.31388888888888,38.524166666666666],[-115.40083333333334,38.50888888888889],[-115.40083333333334,38.50888888888889],[-115.64277777777778,38.46361111111111],[-115.64277777777778,38.46361111111111],[-115.64277777777778,38.46361111111111],[-115.64277777777778,38.46361111111111],[-115.70361111111112,38.45166666666667],[-115.70361111111112,38.45166666666667],[-115.70361111111112,38.45166666666667],[-116.2475,38.349722222222226],[-116.2475,38.349722222222226],[-116.2475,38.349722222222226],[-116.2475,38.349722222222226],[-116.2475,38.349722222222226],[-116.2475,38.349722222222226],[-116.69444444444444,38.251666666666665],[-116.69444444444444,38.251666666666665],[-116.69444444444444,38.251666666666665],[-116.69444444444444,38.251666666666665],[-116.69444444444444,38.251666666666665],[-116.90361111111112,38.20416666666667],[-116.90361111111112,38.20416666666667],[-116.90361111111112,38.20416666666667],[-116.90361111111112,38.20416666666667],[-117.27333333333333,38.11888888888889],[-117.27333333333333,38.11888888888889],[-117.27333333333333,38.11888888888889],[-117.42194444444445,38.08444444444444],[-117.56944444444444,38.05027777777777],[-117.56944444444444,38.05027777777777],[-117.63083333333333,38.03583333333333],[-117.63083333333333,38.03583333333333],[-117.63083333333333,38.03583333333333],[-117.71694444444445,38.01583333333333],[-117.71694444444445,38.01583333333333],[-117.71694444444445,38.01583333333333],[-117.78027777777778,38.00333333333333],[-117.78027777777778,38.00333333333333],[-117.78027777777778,38.00333333333333],[-117.86694444444444,37.99305555555556],[-118.02222222222223,37.97666666666667],[-118.02222222222223,37.97666666666667],[-118.08444444444444,37.97027777777778],[-118.17361111111111,37.96055555555556],[-118.17361111111111,37.96055555555556],[-118.17361111111111,37.96055555555556],[-118.17361111111111,37.96055555555556],[-118.17361111111111,37.96055555555556],[-118.3786111111111,37.93833333333333],[-118.3786111111111,37.93833333333333],[-118.66333333333334,37.90694444444444],[-118.66333333333334,37.90694444444444],[-118.66333333333334,37.90694444444444],[-118.66333333333334,37.90694444444444],[-118.66333333333334,37.90694444444444],[-118.66333333333334,37.90694444444444],[-119.11638888888888,37.855555555555554],[-119.11638888888888,37.855555555555554],[-119.11638888888888,37.855555555555554],[-119.11638888888888,37.855555555555554],[-119.56333333333333,37.80277777777778],[-119.56333333333333,37.80277777777778],[-119.56333333333333,37.80277777777778],[-119.87305555555555,37.76555555555556],[-119.87305555555555,37.76555555555556],[-119.87305555555555,37.76555555555556],[-119.87305555555555,37.76555555555556],[-120.02055555555556,37.74722222222222],[-120.02055555555556,37.74722222222222],[-120.02055555555556,37.74722222222222],[-120.29555555555555,37.71277777777778],[-120.29555555555555,37.71277777777778],[-120.29555555555555,37.71277777777778],[-120.29555555555555,37.71277777777778],[-120.29555555555555,37.71277777777778],[-120.44777777777779,37.693888888888885],[-120.44777777777779,37.693888888888885],[-120.44777777777779,37.693888888888885],[-120.66666666666667,37.666666666666664],[-120.88333333333334,37.65],[-120.88333333333334,37.65],[-120.88333333333334,37.65],[-121.03333333333333,37.61666666666667],[-121.03333333333333,37.61666666666667],[-121.03333333333333,37.61666666666667],[-121.03333333333333,37.61666666666667],[-121.4,37.583333333333336],[-121.4,37.583333333333336],[-121.4,37.583333333333336],[-121.51666666666667,37.56666666666667],[-121.51666666666667,37.56666666666667],[-121.51666666666667,37.56666666666667],[-121.65,37.55],[-121.65,37.55],[-121.65,37.55],[-121.65,37.55],[-121.65,37.55],[-121.8,37.483333333333334],[-121.8,37.483333333333334],[-121.8,37.483333333333334],[-122.15,37.516666666666666],[-122.15,37.516666666666666],[-122.15,37.516666666666666],[-122.15,37.516666666666666],[-122.15,37.516666666666666],[-122.15,37.516666666666666],[-122.3,37.583333333333336],[-122.3,37.583333333333336],[-122.3,37.583333333333336],[-122.3,37.583333333333336]],"type":"LineString"}
}
