{
  "id": 2031490939,
  "type": "Feature",
  "properties": {
    "geom:area": 0,
    "geom:bbox": "-122.366389,37.466667,-83.360278,42.615000",
    "geom:latitude": 40.92830139843609,
    "geom:longitude": -103.12750210781908,
    "src:alt_label": "swim-path",
    "src:geom": "swim",
    "swim:altitudes": [
      "015",
      "015",
      "015",
      "042",
      "073",
      "073",
      "073",
      "132",
      "147",
      "147",
      "166",
      "166",
      "183",
      "226",
      "247",
      "247",
      "247",
      "260",
      "260",
      "260",
      "260",
      "272",
      "279C",
      "279C",
      "279C",
      "280C",
      "280C",
      "280C",
      "280C",
      "280C",
      "280C",
      "280C",
      "280C",
      "280C",
      "280C",
      "280C",
      "280C",
      "280C",
      "280C",
      "280C",
      "280C",
      "280C",
      "280C",
      "280C",
      "280C",
      "280C",
      "280C",
      "280C",
      "280C",
      "280C",
      "280C",
      "280C",
      "280C",
      "280C",
      "280C",
      "280C",
      "280C",
      "280C",
      "280C",
      "280C",
      "280C",
      "280C",
      "280C",
      "280C",
      "280C",
      "280C",
      "280C",
      "280C",
      "280C",
      "280C",
      "280C",
      "280C",
      "280C",
      "280C",
      "280",
      "280",
      "280",
      "280",
      "280",
      "280",
      "280",
      "280",
      "273",
      "273",
      "273",
      "260C",
      "260C",
      "260C",
      "260C",
      "260C",
      "260C",
      "260C",
      "260C",
      "260C",
      "260C",
      "260C",
      "260C",
      "260C",
      "260C",
      "260C",
      "260C",
      "260C",
      "260C",
      "260C",
      "260C",
      "260C",
      "260C",
      "260C",
      "260C",
      "260C",
      "260C",
      "260C",
      "260C",
      "260C",
      "260C",
      "260C",
      "260C",
      "260C",
      "260C",
      "260C",
      "260C",
      "260C",
      "260C",
      "260C",
      "260C",
      "260C",
      "260C",
      "260C",
      "260C",
      "260C",
      "260C",
      "260C",
      "260",
      "260",
      "260",
      "274",
      "274",
      "274",
      "274",
      "274",
      "287",
      "287",
      "287",
      "287",
      "319",
      "319",
      "320",
      "320",
      "320",
      "320",
      "320",
      "320",
      "320",
      "320",
      "320",
      "320",
      "320",
      "320",
      "322",
      "322",
      "325",
      "325",
      "325",
      "325",
      "325",
      "340C",
      "340C",
      "340C",
      "340C",
      "340C",
      "340C",
      "340C",
      "340C",
      "340C",
      "340C",
      "340C",
      "340C",
      "340C",
      "340C",
      "340C",
      "340C",
      "340C",
      "340C",
      "340C",
      "340C",
      "340C",
      "340C",
      "340C",
      "340C",
      "340C",
      "340C",
      "340C",
      "340C",
      "340C",
      "340C",
      "340C",
      "340C",
      "340C",
      "340C",
      "340C",
      "340C",
      "340C",
      "340C",
      "340C",
      "340C",
      "340C",
      "340C",
      "340C",
      "340C",
      "340C",
      "340C",
      "340C",
      "340C",
      "340C",
      "340C",
      "340C",
      "340C",
      "340C",
      "340C",
      "340C",
      "340C",
      "340C",
      "340C",
      "340C",
      "340C",
      "340C",
      "340C",
      "340C",
      "340C",
      "340C",
      "340C",
      "340C",
      "340C",
      "340C",
      "340C",
      "340C",
      "340C",
      "340C",
      "340C",
      "340C",
      "340C",
      "340C",
      "340C",
      "340C",
      "340C",
      "340C",
      "340C",
      "340C",
      "340C",
      "340C",
      "340C",
      "340C",
      "340C",
      "340C",
      "340C",
      "340C",
      "340C",
      "340C",
      "340C",
      "340C",
      "340C",
      "340C",
      "340C",
      "340C",
      "340C",
      "340C",
      "340C",
      "340C",
      "340C",
      "340C",
      "340C",
      "340C",
      "340C",
      "340C",
      "340C",
      "340C",
      "340C",
      "340C",
      "340C",
      "340C",
      "340C",
      "340C",
      "340C",
      "340C",
      "340C",
      "340C",
      "340C",
      "340C",
      "340C",
      "340C",
      "340C",
      "340C",
      "340C",
      "340C",
      "340C",
      "340C",
      "340C",
      "340C",
      "340C",
      "340C",
      "340C",
      "340C",
      "340C",
      "340C",
      "340C",
      "340C",
      "340C",
      "340C",
      "340C",
      "340C",
      "340C",
      "340C",
      "340C",
      "340C",
      "340C",
      "340C",
      "340C",
      "340C",
      "340C",
      "340C",
      "340C",
      "340C",
      "340C",
      "340C",
      "340C",
      "340C",
      "340C",
      "340C",
      "340C",
      "340C",
      "340C",
      "340C",
      "340C",
      "340C",
      "340C",
      "340C",
      "340C",
      "340C",
      "340C",
      "340C",
      "340C",
      "340C",
      "340C",
      "340C",
      "340C",
      "340C",
      "340C",
      "340C",
      "340C",
      "340C",
      "340C",
      "340C",
      "340C",
      "340C",
      "340C",
      "340C",
      "340C",
      "340C",
      "340C",
      "340C",
      "340C",
      "340C",
      "340C",
      "340C",
      "340C",
      "340C",
      "340C",
      "340C",
      "340C",
      "340C",
      "340C",
      "340C",
      "340C",
      "340C",
      "340C",
      "340C",
      "340C",
      "340C",
      "340C",
      "340C",
      "340C",
      "340C",
      "340C",
      "340C",
      "340C",
      "340C",
      "340C",
      "340C",
      "340C",
      "340C",
      "340C",
      "340C",
      "340C",
      "340C",
      "340C",
      "340C",
      "340C",
      "340C",
      "340C",
      "340C",
      "340C",
      "340C",
      "340C",
      "340C",
      "340C",
      "340C",
      "340C",
      "340C",
      "340C",
      "340C",
      "340C",
      "340C",
      "340C",
      "340C",
      "340C",
      "340C",
      "340C",
      "340C",
      "340C",
      "340C",
      "340C",
      "340C",
      "340C",
      "340C",
      "340C",
      "340C",
      "340C",
      "340C",
      "340C",
      "340C",
      "340C",
      "340C",
      "340C",
      "340C",
      "340C",
      "340C",
      "340C",
      "340C",
      "340C",
      "340C",
      "340C",
      "340C",
      "340C",
      "340C",
      "340C",
      "340C",
      "340C",
      "340C",
      "340C",
      "340C",
      "340C",
      "340C",
      "340C",
      "340C",
      "340C",
      "340C",
      "340C",
      "340C",
      "340C",
      "340C",
      "340C",
      "340C",
      "340C",
      "340C",
      "340C",
      "340C",
      "340C",
      "340C",
      "340C",
      "340C",
      "340C",
      "340C",
      "340C",
      "340C",
      "340C",
      "340C",
      "340C",
      "340C",
      "340C",
      "340C",
      "340C",
      "340C",
      "340C",
      "340C",
      "340C",
      "340C",
      "340C",
      "340C",
      "340C",
      "340C",
      "340C",
      "340C",
      "340C",
      "340C",
      "340C",
      "340C",
      "340C",
      "340C",
      "340C",
      "340C",
      "340C",
      "340C",
      "340C",
      "340C",
      "340C",
      "340C",
      "340C",
      "340C",
      "340C",
      "340C",
      "340C",
      "340C",
      "340C",
      "340C",
      "340C",
      "340C",
      "340C",
      "340C",
      "340C",
      "340C",
      "340C",
      "340C",
      "340C",
      "340C",
      "340C",
      "340C",
      "340C",
      "340C",
      "340C",
      "340C",
      "340C",
      "340C",
      "340C",
      "340C",
      "340C",
      "340C",
      "340C",
      "340C",
      "340C",
      "340C",
      "340C",
      "340C",
      "340C",
      "340C",
      "340C",
      "340C",
      "340C",
      "340C",
      "340C",
      "340C",
      "340C",
      "340C",
      "340C",
      "340C",
      "340C",
      "340",
      "340",
      "340",
      "340",
      "340",
      "340",
      "340",
      "340",
      "340",
      "340",
      "340",
      "340",
      "340",
      "324",
      "290",
      "290",
      "290",
      "290",
      "290",
      "290",
      "244",
      "244",
      "244",
      "244",
      "244",
      "207",
      "207",
      "207",
      "207",
      "207",
      "207",
      "156",
      "156",
      "156",
      "156",
      "156",
      "140",
      "140",
      "140",
      "122",
      "122",
      "122",
      "122",
      "100",
      "100",
      "100",
      "100",
      "090",
      "090",
      "090",
      "090",
      "090",
      "082",
      "082",
      "082",
      "054",
      "054",
      "054",
      "054",
      "054",
      "046",
      "046",
      "035",
      "035",
      "035",
      "035",
      "035",
      "024",
      "024",
      "015",
      "015",
      "015",
      "007",
      "70",
      "70",
      "70",
      "70"
    ],
    "swim:geom": "path",
    "swim:speeds": [
      170,
      170,
      170,
      245,
      275,
      275,
      275,
      332,
      346,
      346,
      357,
      357,
      368,
      381,
      397,
      397,
      397,
      403,
      403,
      403,
      403,
      404,
      409,
      409,
      409,
      416,
      416,
      416,
      415,
      415,
      415,
      415,
      414,
      414,
      414,
      414,
      448,
      448,
      448,
      448,
      448,
      447,
      447,
      447,
      444,
      444,
      441,
      441,
      441,
      441,
      441,
      441,
      441,
      441,
      441,
      442,
      442,
      442,
      442,
      442,
      444,
      445,
      445,
      452,
      452,
      452,
      452,
      448,
      448,
      448,
      448,
      449,
      449,
      449,
      454,
      454,
      454,
      456,
      456,
      457,
      457,
      457,
      458,
      458,
      458,
      447,
      447,
      447,
      447,
      447,
      448,
      448,
      449,
      449,
      449,
      449,
      449,
      449,
      449,
      449,
      449,
      450,
      450,
      450,
      450,
      446,
      446,
      446,
      446,
      446,
      444,
      444,
      438,
      438,
      438,
      438,
      438,
      438,
      433,
      433,
      433,
      433,
      431,
      431,
      431,
      431,
      433,
      433,
      433,
      432,
      432,
      432,
      434,
      434,
      434,
      432,
      432,
      432,
      432,
      432,
      430,
      430,
      430,
      430,
      415,
      415,
      411,
      411,
      411,
      410,
      410,
      410,
      415,
      415,
      415,
      415,
      410,
      410,
      414,
      414,
      414,
      414,
      414,
      414,
      414,
      406,
      406,
      406,
      406,
      404,
      404,
      404,
      404,
      404,
      404,
      402,
      409,
      411,
      411,
      412,
      413,
      413,
      413,
      413,
      414,
      414,
      414,
      415,
      415,
      418,
      418,
      418,
      418,
      419,
      419,
      427,
      427,
      427,
      428,
      428,
      431,
      435,
      435,
      435,
      435,
      435,
      435,
      435,
      436,
      436,
      436,
      436,
      436,
      436,
      436,
      436,
      436,
      436,
      436,
      436,
      436,
      435,
      435,
      435,
      435,
      433,
      433,
      433,
      427,
      427,
      427,
      427,
      426,
      426,
      426,
      426,
      426,
      426,
      426,
      426,
      426,
      426,
      426,
      428,
      428,
      428,
      428,
      426,
      425,
      425,
      425,
      425,
      425,
      425,
      424,
      424,
      424,
      424,
      416,
      416,
      416,
      416,
      416,
      416,
      409,
      409,
      406,
      406,
      406,
      406,
      404,
      404,
      408,
      408,
      408,
      408,
      408,
      408,
      408,
      408,
      408,
      410,
      411,
      411,
      410,
      410,
      410,
      410,
      426,
      426,
      426,
      426,
      426,
      427,
      427,
      427,
      427,
      427,
      427,
      427,
      422,
      422,
      422,
      420,
      420,
      420,
      420,
      419,
      419,
      419,
      421,
      421,
      421,
      421,
      421,
      413,
      413,
      413,
      413,
      413,
      410,
      410,
      403,
      403,
      403,
      403,
      403,
      403,
      403,
      403,
      403,
      403,
      401,
      401,
      401,
      400,
      400,
      400,
      400,
      397,
      397,
      392,
      392,
      392,
      393,
      393,
      393,
      390,
      390,
      390,
      390,
      391,
      391,
      391,
      391,
      391,
      391,
      389,
      389,
      389,
      389,
      389,
      389,
      386,
      386,
      385,
      385,
      385,
      386,
      386,
      386,
      386,
      386,
      386,
      386,
      387,
      387,
      387,
      387,
      387,
      387,
      388,
      388,
      389,
      389,
      389,
      389,
      389,
      389,
      389,
      389,
      389,
      389,
      389,
      390,
      389,
      389,
      389,
      389,
      389,
      387,
      387,
      387,
      387,
      387,
      387,
      390,
      390,
      390,
      390,
      390,
      390,
      391,
      391,
      393,
      393,
      393,
      393,
      393,
      394,
      394,
      394,
      393,
      393,
      393,
      393,
      390,
      390,
      390,
      388,
      388,
      388,
      387,
      387,
      387,
      387,
      387,
      387,
      387,
      387,
      387,
      400,
      400,
      400,
      400,
      400,
      400,
      403,
      408,
      408,
      408,
      408,
      408,
      397,
      397,
      397,
      397,
      397,
      392,
      392,
      392,
      392,
      392,
      392,
      394,
      394,
      394,
      394,
      394,
      394,
      395,
      396,
      396,
      396,
      395,
      395,
      395,
      396,
      393,
      393,
      393,
      392,
      392,
      392,
      392,
      388,
      388,
      385,
      384,
      386,
      386,
      387,
      387,
      387,
      388,
      388,
      388,
      388,
      388,
      388,
      388,
      388,
      387,
      387,
      387,
      389,
      389,
      389,
      389,
      389,
      389,
      371,
      371,
      371,
      371,
      426,
      426,
      431,
      431,
      429,
      429,
      429,
      429,
      372,
      372,
      372,
      372,
      372,
      370,
      370,
      370,
      370,
      370,
      370,
      370,
      370,
      369,
      369,
      369,
      369,
      369,
      367,
      367,
      367,
      367,
      367,
      367,
      367,
      367,
      368,
      368,
      369,
      369,
      369,
      369,
      371,
      371,
      371,
      371,
      371,
      372,
      372,
      372,
      372,
      373,
      373,
      373,
      373,
      375,
      400,
      400,
      400,
      400,
      400,
      400,
      389,
      389,
      389,
      389,
      389,
      358,
      358,
      358,
      358,
      358,
      358,
      315,
      315,
      315,
      315,
      315,
      295,
      295,
      295,
      290,
      290,
      290,
      290,
      235,
      235,
      235,
      235,
      249,
      249,
      260,
      260,
      260,
      255,
      255,
      255,
      230,
      230,
      230,
      230,
      230,
      228,
      228,
      228,
      228,
      228,
      228,
      228,
      203,
      203,
      157,
      157,
      157,
      147,
      143,
      143,
      143,
      143
    ],
    "swim:timestamps": [
      1781009483,
      1781009483,
      1781009483,
      1781009594,
      1781009658,
      1781009658,
      1781009658,
      1781009838,
      1781009894,
      1781009894,
      1781009954,
      1781009954,
      1781010015,
      1781010195,
      1781010315,
      1781010315,
      1781010315,
      1781010379,
      1781010379,
      1781010379,
      1781010379,
      1781010439,
      1781010499,
      1781010499,
      1781010499,
      1781010559,
      1781010619,
      1781010619,
      1781010680,
      1781010680,
      1781010680,
      1781010680,
      1781010853,
      1781010853,
      1781010853,
      1781010853,
      1781011040,
      1781011040,
      1781011040,
      1781011040,
      1781011040,
      1781011341,
      1781011341,
      1781011341,
      1781011401,
      1781011401,
      1781011461,
      1781011461,
      1781011461,
      1781011521,
      1781011521,
      1781011581,
      1781011581,
      1781011581,
      1781011581,
      1781011641,
      1781011641,
      1781011641,
      1781011641,
      1781011641,
      1781011701,
      1781011761,
      1781011761,
      1781012004,
      1781012004,
      1781012004,
      1781012004,
      1781012124,
      1781012124,
      1781012124,
      1781012124,
      1781012184,
      1781012184,
      1781012184,
      1781012305,
      1781012305,
      1781012305,
      1781012362,
      1781012362,
      1781012425,
      1781012425,
      1781012425,
      1781012482,
      1781012482,
      1781012482,
      1781012843,
      1781012843,
      1781012843,
      1781012843,
      1781012843,
      1781012905,
      1781012905,
      1781012963,
      1781012963,
      1781012963,
      1781012963,
      1781012963,
      1781012963,
      1781013264,
      1781013264,
      1781013264,
      1781013324,
      1781013324,
      1781013324,
      1781013324,
      1781013566,
      1781013566,
      1781013566,
      1781013566,
      1781013566,
      1781013626,
      1781013626,
      1781013807,
      1781013807,
      1781013807,
      1781013807,
      1781013807,
      1781013807,
      1781013987,
      1781013987,
      1781013987,
      1781013987,
      1781014047,
      1781014047,
      1781014047,
      1781014047,
      1781014167,
      1781014167,
      1781014167,
      1781014227,
      1781014227,
      1781014227,
      1781014347,
      1781014347,
      1781014347,
      1781014407,
      1781014407,
      1781014407,
      1781014407,
      1781014407,
      1781014468,
      1781014468,
      1781014468,
      1781014468,
      1781014588,
      1781014588,
      1781014648,
      1781014648,
      1781014648,
      1781014708,
      1781014708,
      1781014708,
      1781014995,
      1781014995,
      1781014995,
      1781014995,
      1781015008,
      1781015008,
      1781015115,
      1781015115,
      1781015128,
      1781015128,
      1781015128,
      1781015128,
      1781015128,
      1781015235,
      1781015249,
      1781015249,
      1781015249,
      1781015295,
      1781015295,
      1781015309,
      1781015309,
      1781015309,
      1781015309,
      1781015355,
      1781015475,
      1781015489,
      1781015489,
      1781015535,
      1781015549,
      1781015549,
      1781015549,
      1781015549,
      1781015655,
      1781015655,
      1781015655,
      1781015716,
      1781015729,
      1781015761,
      1781015761,
      1781015761,
      1781015776,
      1781015789,
      1781015789,
      1781015836,
      1781015836,
      1781015836,
      1781015849,
      1781015849,
      1781015896,
      1781015956,
      1781015956,
      1781015956,
      1781015970,
      1781015970,
      1781015970,
      1781015970,
      1781016030,
      1781016134,
      1781016134,
      1781016134,
      1781016134,
      1781016134,
      1781016134,
      1781016314,
      1781016314,
      1781016314,
      1781016314,
      1781016314,
      1781016314,
      1781016554,
      1781016554,
      1781016554,
      1781016554,
      1781016614,
      1781016614,
      1781016614,
      1781016674,
      1781016674,
      1781016674,
      1781016674,
      1781016795,
      1781016795,
      1781016795,
      1781016795,
      1781016795,
      1781016795,
      1781017035,
      1781017035,
      1781017035,
      1781017155,
      1781017155,
      1781017170,
      1781017170,
      1781017170,
      1781017170,
      1781017215,
      1781017275,
      1781017275,
      1781017275,
      1781017335,
      1781017335,
      1781017335,
      1781017395,
      1781017395,
      1781017395,
      1781017395,
      1781017410,
      1781017410,
      1781017516,
      1781017516,
      1781017516,
      1781017516,
      1781017530,
      1781017530,
      1781017590,
      1781017590,
      1781017636,
      1781017636,
      1781017696,
      1781017696,
      1781017816,
      1781017816,
      1781017816,
      1781017816,
      1781017816,
      1781017876,
      1781017876,
      1781017876,
      1781017876,
      1781017891,
      1781017951,
      1781017951,
      1781017996,
      1781017996,
      1781017996,
      1781017996,
      1781018191,
      1781018191,
      1781018191,
      1781018191,
      1781018191,
      1781018297,
      1781018297,
      1781018297,
      1781018311,
      1781018311,
      1781018311,
      1781018311,
      1781018431,
      1781018431,
      1781018431,
      1781018477,
      1781018477,
      1781018477,
      1781018477,
      1781018491,
      1781018491,
      1781018491,
      1781018597,
      1781018597,
      1781018597,
      1781018597,
      1781018597,
      1781018657,
      1781018657,
      1781018657,
      1781018657,
      1781018657,
      1781018672,
      1781018672,
      1781018777,
      1781018777,
      1781018777,
      1781018837,
      1781018837,
      1781018837,
      1781018837,
      1781018837,
      1781018852,
      1781018912,
      1781018972,
      1781018972,
      1781018972,
      1781019018,
      1781019018,
      1781019018,
      1781019018,
      1781019092,
      1781019092,
      1781019198,
      1781019198,
      1781019198,
      1781019212,
      1781019212,
      1781019212,
      1781019318,
      1781019318,
      1781019318,
      1781019318,
      1781019378,
      1781019378,
      1781019378,
      1781019438,
      1781019453,
      1781019453,
      1781019573,
      1781019573,
      1781019573,
      1781019573,
      1781019573,
      1781019573,
      1781019693,
      1781019693,
      1781019739,
      1781019739,
      1781019739,
      1781019799,
      1781019799,
      1781019799,
      1781019799,
      1781019813,
      1781019813,
      1781019813,
      1781019979,
      1781019979,
      1781020039,
      1781020039,
      1781020039,
      1781020039,
      1781020054,
      1781020054,
      1781020099,
      1781020114,
      1781020114,
      1781020114,
      1781020114,
      1781020159,
      1781020219,
      1781020219,
      1781020219,
      1781020219,
      1781020219,
      1781020279,
      1781020339,
      1781020339,
      1781020339,
      1781020339,
      1781020339,
      1781020520,
      1781020520,
      1781020520,
      1781020520,
      1781020520,
      1781020520,
      1781020760,
      1781020760,
      1781020760,
      1781020820,
      1781020820,
      1781020820,
      1781020880,
      1781020880,
      1781020940,
      1781020940,
      1781020940,
      1781020940,
      1781020940,
      1781021000,
      1781021000,
      1781021000,
      1781021060,
      1781021060,
      1781021060,
      1781021060,
      1781021120,
      1781021120,
      1781021120,
      1781021181,
      1781021181,
      1781021181,
      1781021301,
      1781021301,
      1781021301,
      1781021361,
      1781021361,
      1781021361,
      1781021361,
      1781021361,
      1781021361,
      1781021601,
      1781021601,
      1781021601,
      1781021661,
      1781021661,
      1781021661,
      1781021721,
      1781021781,
      1781021781,
      1781021781,
      1781021781,
      1781021781,
      1781022022,
      1781022022,
      1781022022,
      1781022022,
      1781022022,
      1781022142,
      1781022142,
      1781022142,
      1781022142,
      1781022142,
      1781022142,
      1781022202,
      1781022202,
      1781022202,
      1781022262,
      1781022262,
      1781022262,
      1781022322,
      1781022442,
      1781022442,
      1781022502,
      1781022556,
      1781022556,
      1781022556,
      1781022562,
      1781022616,
      1781022616,
      1781022616,
      1781022676,
      1781022676,
      1781022683,
      1781022683,
      1781022743,
      1781022743,
      1781022796,
      1781022803,
      1781022856,
      1781022856,
      1781022863,
      1781022863,
      1781022863,
      1781022923,
      1781022923,
      1781022923,
      1781022923,
      1781022983,
      1781022983,
      1781022983,
      1781022983,
      1781023043,
      1781023043,
      1781023043,
      1781023097,
      1781023097,
      1781023163,
      1781023163,
      1781023163,
      1781023163,
      1781023337,
      1781023337,
      1781023337,
      1781023344,
      1781023397,
      1781023397,
      1781023457,
      1781023464,
      1781023524,
      1781023524,
      1781023524,
      1781023524,
      1781023584,
      1781023584,
      1781023584,
      1781023584,
      1781023584,
      1781023824,
      1781023824,
      1781023824,
      1781023824,
      1781023824,
      1781023938,
      1781023938,
      1781023938,
      1781024058,
      1781024058,
      1781024058,
      1781024058,
      1781024058,
      1781024118,
      1781024118,
      1781024118,
      1781024178,
      1781024178,
      1781024178,
      1781024178,
      1781024178,
      1781024238,
      1781024238,
      1781024298,
      1781024298,
      1781024298,
      1781024298,
      1781024539,
      1781024539,
      1781024539,
      1781024539,
      1781024539,
      1781024659,
      1781024659,
      1781024659,
      1781024659,
      1781024719,
      1781024719,
      1781024719,
      1781024719,
      1781024779,
      1781024839,
      1781024839,
      1781024839,
      1781024839,
      1781024839,
      1781024839,
      1781024954,
      1781024954,
      1781024954,
      1781024954,
      1781024954,
      1781025079,
      1781025079,
      1781025079,
      1781025079,
      1781025079,
      1781025079,
      1781025260,
      1781025260,
      1781025260,
      1781025260,
      1781025260,
      1781025320,
      1781025320,
      1781025320,
      1781025375,
      1781025375,
      1781025375,
      1781025375,
      1781025560,
      1781025560,
      1781025560,
      1781025560,
      1781025680,
      1781025680,
      1781025735,
      1781025735,
      1781025735,
      1781025800,
      1781025800,
      1781025800,
      1781025975,
      1781025975,
      1781025975,
      1781025975,
      1781025975,
      1781026041,
      1781026041,
      1781026101,
      1781026101,
      1781026101,
      1781026101,
      1781026101,
      1781026161,
      1781026161,
      1781026221,
      1781026221,
      1781026221,
      1781026281,
      1781026341,
      1781026341,
      1781026341,
      1781026341
    ],
    "wof:geomhash": "c56ea378843fe1f855cef56f4b595694",
    "wof:id": 2031490939,
    "wof:repo": "sfomuseum-data-flights-2026-06"
  },
  "bbox": [
    -122.36638888888888,
    37.46666666666667,
    -83.36027777777777,
    42.615
  ],
  "geometry": {"coordinates":[[-83.36027777777777,42.19833333333333],[-83.36027777777777,42.19833333333333],[-83.36027777777777,42.19833333333333],[-83.465,42.1375],[-83.5775,42.155],[-83.5775,42.155],[-83.5775,42.155],[-83.88388888888889,42.26861111111111],[-83.98055555555555,42.30361111111111],[-83.98055555555555,42.30361111111111],[-84.10166666666666,42.34805555555556],[-84.10166666666666,42.34805555555556],[-84.22555555555556,42.39333333333333],[-84.63027777777778,42.43888888888888],[-84.92055555555557,42.44555555555555],[-84.92055555555557,42.44555555555555],[-84.92055555555557,42.44555555555555],[-85.10555555555555,42.44972222222222],[-85.10555555555555,42.44972222222222],[-85.10555555555555,42.44972222222222],[-85.10555555555555,42.44972222222222],[-85.2575,42.4525],[-85.41333333333334,42.455555555555556],[-85.41333333333334,42.455555555555556],[-85.41333333333334,42.455555555555556],[-85.57138888888889,42.458333333333336],[-85.72722222222222,42.46055555555556],[-85.72722222222222,42.46055555555556],[-85.88305555555554,42.46333333333334],[-85.88305555555554,42.46333333333334],[-85.88305555555554,42.46333333333334],[-85.88305555555554,42.46333333333334],[-86.31638888888888,42.473055555555554],[-86.31638888888888,42.473055555555554],[-86.31638888888888,42.473055555555554],[-86.31638888888888,42.473055555555554],[-86.83944444444444,42.49],[-86.83944444444444,42.49],[-86.83944444444444,42.49],[-86.83944444444444,42.49],[-86.83944444444444,42.49],[-87.67861111111111,42.511944444444445],[-87.67861111111111,42.511944444444445],[-87.67861111111111,42.511944444444445],[-87.85027777777778,42.51555555555556],[-87.85027777777778,42.51555555555556],[-88.01722222222222,42.51916666666666],[-88.01722222222222,42.51916666666666],[-88.01722222222222,42.51916666666666],[-88.18305555555555,42.52222222222222],[-88.18305555555555,42.52222222222222],[-88.35027777777778,42.525277777777774],[-88.35027777777778,42.525277777777774],[-88.35027777777778,42.525277777777774],[-88.35027777777778,42.525277777777774],[-88.51638888888888,42.528055555555554],[-88.51638888888888,42.528055555555554],[-88.51638888888888,42.528055555555554],[-88.51638888888888,42.528055555555554],[-88.51638888888888,42.528055555555554],[-88.68388888888889,42.53055555555555],[-88.85194444444444,42.532777777777774],[-88.85194444444444,42.532777777777774],[-89.53555555555555,42.55361111111111],[-89.53555555555555,42.55361111111111],[-89.53555555555555,42.55361111111111],[-89.53555555555555,42.55361111111111],[-89.86777777777777,42.56111111111111],[-89.86777777777777,42.56111111111111],[-89.86777777777777,42.56111111111111],[-89.86777777777777,42.56111111111111],[-90.03611111111111,42.56527777777777],[-90.03611111111111,42.56527777777777],[-90.03611111111111,42.56527777777777],[-90.3786111111111,42.5775],[-90.3786111111111,42.5775],[-90.3786111111111,42.5775],[-90.54944444444445,42.58166666666667],[-90.54944444444445,42.58166666666667],[-90.72444444444444,42.58555555555556],[-90.72444444444444,42.58555555555556],[-90.72444444444444,42.58555555555556],[-90.89694444444446,42.589444444444446],[-90.89694444444446,42.589444444444446],[-90.89694444444446,42.589444444444446],[-91.91861111111112,42.60666666666667],[-91.91861111111112,42.60666666666667],[-91.91861111111112,42.60666666666667],[-91.91861111111112,42.60666666666667],[-91.91861111111112,42.60666666666667],[-92.08944444444444,42.60861111111111],[-92.08944444444444,42.60861111111111],[-92.25888888888889,42.61027777777778],[-92.25888888888889,42.61027777777778],[-92.25888888888889,42.61027777777778],[-92.25888888888889,42.61027777777778],[-92.25888888888889,42.61027777777778],[-92.25888888888889,42.61027777777778],[-93.10555555555555,42.615],[-93.10555555555555,42.615],[-93.10555555555555,42.615],[-93.27333333333333,42.615],[-93.27333333333333,42.615],[-93.27333333333333,42.615],[-93.27333333333333,42.615],[-93.94916666666667,42.61361111111111],[-93.94916666666667,42.61361111111111],[-93.94916666666667,42.61361111111111],[-93.94916666666667,42.61361111111111],[-93.94916666666667,42.61361111111111],[-94.11583333333333,42.612500000000004],[-94.11583333333333,42.612500000000004],[-94.6086111111111,42.598888888888894],[-94.6086111111111,42.598888888888894],[-94.6086111111111,42.598888888888894],[-94.6086111111111,42.598888888888894],[-94.6086111111111,42.598888888888894],[-94.6086111111111,42.598888888888894],[-95.08583333333333,42.578611111111115],[-95.08583333333333,42.578611111111115],[-95.08583333333333,42.578611111111115],[-95.08583333333333,42.578611111111115],[-95.24527777777777,42.57194444444445],[-95.24527777777777,42.57194444444445],[-95.24527777777777,42.57194444444445],[-95.24527777777777,42.57194444444445],[-95.57138888888889,42.55611111111111],[-95.57138888888889,42.55611111111111],[-95.57138888888889,42.55611111111111],[-95.73333333333333,42.54833333333333],[-95.73333333333333,42.54833333333333],[-95.73333333333333,42.54833333333333],[-96.05694444444444,42.531666666666666],[-96.05694444444444,42.531666666666666],[-96.05694444444444,42.531666666666666],[-96.21805555555555,42.52305555555555],[-96.21805555555555,42.52305555555555],[-96.21805555555555,42.52305555555555],[-96.21805555555555,42.52305555555555],[-96.21805555555555,42.52305555555555],[-96.37833333333333,42.51416666666667],[-96.37833333333333,42.51416666666667],[-96.37833333333333,42.51416666666667],[-96.37833333333333,42.51416666666667],[-96.72500000000001,42.49444444444445],[-96.72500000000001,42.49444444444445],[-96.87777777777777,42.485],[-96.87777777777777,42.485],[-96.87777777777777,42.485],[-97.02944444444444,42.476111111111116],[-97.02944444444444,42.476111111111116],[-97.02944444444444,42.476111111111116],[-97.74694444444445,42.433055555555555],[-97.74694444444445,42.433055555555555],[-97.74694444444445,42.433055555555555],[-97.74694444444445,42.433055555555555],[-97.7936111111111,42.42666666666666],[-97.7936111111111,42.42666666666666],[-98.06333333333333,42.407777777777774],[-98.06333333333333,42.407777777777774],[-98.08833333333332,42.40611111111111],[-98.08833333333332,42.40611111111111],[-98.08833333333332,42.40611111111111],[-98.08833333333332,42.40611111111111],[-98.08833333333332,42.40611111111111],[-98.36833333333333,42.38611111111111],[-98.39027777777778,42.38444444444444],[-98.39027777777778,42.38444444444444],[-98.39027777777778,42.38444444444444],[-98.51805555555555,42.374722222222225],[-98.51805555555555,42.374722222222225],[-98.54138888888889,42.37305555555555],[-98.54138888888889,42.37305555555555],[-98.54138888888889,42.37305555555555],[-98.54138888888889,42.37305555555555],[-98.66583333333334,42.36388888888889],[-98.95944444444444,42.34138888888889],[-98.99083333333333,42.33888888888889],[-98.99083333333333,42.33888888888889],[-99.11416666666666,42.32888888888889],[-99.14583333333334,42.32638888888889],[-99.14583333333334,42.32638888888889],[-99.14583333333334,42.32638888888889],[-99.14583333333334,42.32638888888889],[-99.42166666666667,42.303888888888885],[-99.42166666666667,42.303888888888885],[-99.42166666666667,42.303888888888885],[-99.57694444444444,42.29111111111111],[-99.60916666666667,42.288333333333334],[-99.70472222222223,42.28],[-99.70472222222223,42.28],[-99.70472222222223,42.28],[-99.7375,42.27722222222222],[-99.76472222222222,42.275],[-99.76472222222222,42.275],[-99.89750000000001,42.26361111111111],[-99.89750000000001,42.26361111111111],[-99.89750000000001,42.26361111111111],[-99.92444444444445,42.26138888888889],[-99.92444444444445,42.26138888888889],[-100.05749999999999,42.249722222222225],[-100.22,42.235],[-100.22,42.235],[-100.22,42.235],[-100.25055555555555,42.2325],[-100.25055555555555,42.2325],[-100.25055555555555,42.2325],[-100.25055555555555,42.2325],[-100.4063888888889,42.21805555555556],[-100.68611111111112,42.19138888888889],[-100.68611111111112,42.19138888888889],[-100.68611111111112,42.19138888888889],[-100.68611111111112,42.19138888888889],[-100.68611111111112,42.19138888888889],[-100.68611111111112,42.19138888888889],[-101.16944444444445,42.14388888888889],[-101.16944444444445,42.14388888888889],[-101.16944444444445,42.14388888888889],[-101.16944444444445,42.14388888888889],[-101.16944444444445,42.14388888888889],[-101.16944444444445,42.14388888888889],[-101.81694444444445,42.07833333333333],[-101.81694444444445,42.07833333333333],[-101.81694444444445,42.07833333333333],[-101.81694444444445,42.07833333333333],[-101.97416666666666,42.0625],[-101.97416666666666,42.0625],[-101.97416666666666,42.0625],[-102.13027777777778,42.04472222222222],[-102.13027777777778,42.04472222222222],[-102.13027777777778,42.04472222222222],[-102.13027777777778,42.04472222222222],[-102.44305555555556,42.01166666666666],[-102.44305555555556,42.01166666666666],[-102.44305555555556,42.01166666666666],[-102.44305555555556,42.01166666666666],[-102.44305555555556,42.01166666666666],[-102.44305555555556,42.01166666666666],[-103.07222222222222,41.94138888888889],[-103.07222222222222,41.94138888888889],[-103.07222222222222,41.94138888888889],[-103.38777777777779,41.905],[-103.38777777777779,41.905],[-103.45138888888889,41.897777777777776],[-103.45138888888889,41.897777777777776],[-103.45138888888889,41.897777777777776],[-103.45138888888889,41.897777777777776],[-103.54416666666667,41.882222222222225],[-103.69361111111111,41.842222222222226],[-103.69361111111111,41.842222222222226],[-103.69361111111111,41.842222222222226],[-103.84305555555555,41.80638888888888],[-103.84305555555555,41.80638888888888],[-103.84305555555555,41.80638888888888],[-103.99083333333333,41.771388888888886],[-103.99083333333333,41.771388888888886],[-103.99083333333333,41.771388888888886],[-103.99083333333333,41.771388888888886],[-104.0475,41.75888888888889],[-104.0475,41.75888888888889],[-104.28166666666667,41.700833333333335],[-104.28166666666667,41.700833333333335],[-104.28166666666667,41.700833333333335],[-104.28166666666667,41.700833333333335],[-104.33749999999999,41.687777777777775],[-104.33749999999999,41.687777777777775],[-104.47944444444444,41.65277777777778],[-104.47944444444444,41.65277777777778],[-104.56444444444445,41.630833333333335],[-104.56444444444445,41.630833333333335],[-104.70611111111111,41.595555555555556],[-104.70611111111111,41.595555555555556],[-104.99527777777777,41.52222222222222],[-104.99527777777777,41.52222222222222],[-104.99527777777777,41.52222222222222],[-104.99527777777777,41.52222222222222],[-104.99527777777777,41.52222222222222],[-105.13555555555556,41.48694444444445],[-105.13555555555556,41.48694444444445],[-105.13555555555556,41.48694444444445],[-105.13555555555556,41.48694444444445],[-105.19888888888889,41.47222222222222],[-105.34333333333333,41.43527777777778],[-105.34333333333333,41.43527777777778],[-105.4238888888889,41.413333333333334],[-105.4238888888889,41.413333333333334],[-105.4238888888889,41.413333333333334],[-105.4238888888889,41.413333333333334],[-105.93361111111112,41.28527777777778],[-105.93361111111112,41.28527777777778],[-105.93361111111112,41.28527777777778],[-105.93361111111112,41.28527777777778],[-105.93361111111112,41.28527777777778],[-106.16777777777779,41.22555555555556],[-106.16777777777779,41.22555555555556],[-106.16777777777779,41.22555555555556],[-106.2275,41.21194444444445],[-106.2275,41.21194444444445],[-106.2275,41.21194444444445],[-106.2275,41.21194444444445],[-106.52444444444444,41.13638888888889],[-106.52444444444444,41.13638888888889],[-106.52444444444444,41.13638888888889],[-106.63972222222223,41.10583333333334],[-106.63972222222223,41.10583333333334],[-106.63972222222223,41.10583333333334],[-106.63972222222223,41.10583333333334],[-106.66916666666667,41.099722222222226],[-106.66916666666667,41.099722222222226],[-106.66916666666667,41.099722222222226],[-106.93361111111112,41.03138888888889],[-106.93361111111112,41.03138888888889],[-106.93361111111112,41.03138888888889],[-106.93361111111112,41.03138888888889],[-106.93361111111112,41.03138888888889],[-107.07694444444444,40.99444444444445],[-107.07694444444444,40.99444444444445],[-107.07694444444444,40.99444444444445],[-107.07694444444444,40.99444444444445],[-107.07694444444444,40.99444444444445],[-107.10277777777777,40.987500000000004],[-107.10277777777777,40.987500000000004],[-107.34916666666666,40.92305555555555],[-107.34916666666666,40.92305555555555],[-107.34916666666666,40.92305555555555],[-107.49027777777778,40.88583333333333],[-107.49027777777778,40.88583333333333],[-107.49027777777778,40.88583333333333],[-107.49027777777778,40.88583333333333],[-107.49027777777778,40.88583333333333],[-107.51583333333333,40.87888888888889],[-107.66333333333334,40.83972222222222],[-107.79972222222221,40.80305555555555],[-107.79972222222221,40.80305555555555],[-107.79972222222221,40.80305555555555],[-107.91250000000001,40.77305555555555],[-107.91250000000001,40.77305555555555],[-107.91250000000001,40.77305555555555],[-107.91250000000001,40.77305555555555],[-108.0775,40.72833333333333],[-108.0775,40.72833333333333],[-108.31833333333333,40.66277777777778],[-108.31833333333333,40.66277777777778],[-108.31833333333333,40.66277777777778],[-108.31388888888888,40.663888888888884],[-108.31388888888888,40.663888888888884],[-108.31388888888888,40.663888888888884],[-108.58361111111111,40.589444444444446],[-108.58361111111111,40.589444444444446],[-108.58361111111111,40.589444444444446],[-108.58361111111111,40.589444444444446],[-108.72027777777778,40.55166666666666],[-108.72027777777778,40.55166666666666],[-108.72027777777778,40.55166666666666],[-108.85444444444444,40.51416666666667],[-108.87527777777777,40.50833333333333],[-108.87527777777777,40.50833333333333],[-109.135,40.43527777777778],[-109.135,40.43527777777778],[-109.135,40.43527777777778],[-109.135,40.43527777777778],[-109.135,40.43527777777778],[-109.135,40.43527777777778],[-109.40083333333334,40.35944444444445],[-109.40083333333334,40.35944444444445],[-109.50555555555556,40.32944444444445],[-109.50555555555556,40.32944444444445],[-109.50555555555556,40.32944444444445],[-109.6363888888889,40.29194444444444],[-109.6363888888889,40.29194444444444],[-109.6363888888889,40.29194444444444],[-109.6363888888889,40.29194444444444],[-109.66194444444444,40.28444444444444],[-109.66194444444444,40.28444444444444],[-109.66194444444444,40.28444444444444],[-110.02916666666667,40.17777777777778],[-110.02916666666667,40.17777777777778],[-110.16055555555556,40.14083333333333],[-110.16055555555556,40.14083333333333],[-110.16055555555556,40.14083333333333],[-110.16055555555556,40.14083333333333],[-110.18777777777778,40.134166666666665],[-110.18777777777778,40.134166666666665],[-110.29527777777777,40.10777777777778],[-110.32194444444444,40.10111111111111],[-110.32194444444444,40.10111111111111],[-110.32194444444444,40.10111111111111],[-110.32194444444444,40.10111111111111],[-110.42888888888889,40.074444444444445],[-110.56222222222222,40.04111111111111],[-110.56222222222222,40.04111111111111],[-110.56222222222222,40.04111111111111],[-110.56222222222222,40.04111111111111],[-110.56222222222222,40.04111111111111],[-110.69666666666667,40.007222222222225],[-110.83027777777778,39.97361111111111],[-110.83027777777778,39.97361111111111],[-110.83027777777778,39.97361111111111],[-110.83027777777778,39.97361111111111],[-110.83027777777778,39.97361111111111],[-111.22888888888889,39.871944444444445],[-111.22888888888889,39.871944444444445],[-111.22888888888889,39.871944444444445],[-111.22888888888889,39.871944444444445],[-111.22888888888889,39.871944444444445],[-111.22888888888889,39.871944444444445],[-111.75444444444445,39.73527777777778],[-111.75444444444445,39.73527777777778],[-111.75444444444445,39.73527777777778],[-111.88805555555557,39.7],[-111.88805555555557,39.7],[-111.88805555555557,39.7],[-112.02166666666666,39.66444444444444],[-112.02166666666666,39.66444444444444],[-112.15694444444445,39.62833333333333],[-112.15694444444445,39.62833333333333],[-112.15694444444445,39.62833333333333],[-112.15694444444445,39.62833333333333],[-112.15694444444445,39.62833333333333],[-112.2911111111111,39.5925],[-112.2911111111111,39.5925],[-112.2911111111111,39.5925],[-112.42472222222223,39.556666666666665],[-112.42472222222223,39.556666666666665],[-112.42472222222223,39.556666666666665],[-112.42472222222223,39.556666666666665],[-112.55527777777777,39.52111111111111],[-112.55527777777777,39.52111111111111],[-112.55527777777777,39.52111111111111],[-112.69027777777778,39.48444444444444],[-112.69027777777778,39.48444444444444],[-112.69027777777778,39.48444444444444],[-112.95666666666666,39.41138888888889],[-112.95666666666666,39.41138888888889],[-112.95666666666666,39.41138888888889],[-113.08694444444444,39.375277777777775],[-113.08694444444444,39.375277777777775],[-113.08694444444444,39.375277777777775],[-113.08694444444444,39.375277777777775],[-113.08694444444444,39.375277777777775],[-113.08694444444444,39.375277777777775],[-113.59138888888889,39.1875],[-113.59138888888889,39.1875],[-113.59138888888889,39.1875],[-113.70444444444445,39.120555555555555],[-113.70444444444445,39.120555555555555],[-113.70444444444445,39.120555555555555],[-113.81916666666666,39.05166666666666],[-113.93305555555555,38.98222222222223],[-113.93305555555555,38.98222222222223],[-113.93305555555555,38.98222222222223],[-113.93305555555555,38.98222222222223],[-113.93305555555555,38.98222222222223],[-114.42888888888889,38.774166666666666],[-114.42888888888889,38.774166666666666],[-114.42888888888889,38.774166666666666],[-114.42888888888889,38.774166666666666],[-114.42888888888889,38.774166666666666],[-114.69777777777779,38.724722222222226],[-114.69777777777779,38.724722222222226],[-114.69777777777779,38.724722222222226],[-114.69777777777779,38.724722222222226],[-114.69777777777779,38.724722222222226],[-114.69777777777779,38.724722222222226],[-114.83361111111111,38.69972222222222],[-114.83361111111111,38.69972222222222],[-114.83361111111111,38.69972222222222],[-114.97,38.674166666666665],[-114.97,38.674166666666665],[-114.97,38.674166666666665],[-115.1061111111111,38.64861111111111],[-115.37944444444443,38.596944444444446],[-115.37944444444443,38.596944444444446],[-115.51583333333333,38.57083333333334],[-115.65305555555557,38.544999999999995],[-115.65305555555557,38.544999999999995],[-115.65305555555557,38.544999999999995],[-115.65083333333334,38.544999999999995],[-115.78694444444444,38.51833333333333],[-115.78694444444444,38.51833333333333],[-115.78694444444444,38.51833333333333],[-115.92222222222223,38.492222222222225],[-115.92222222222223,38.492222222222225],[-115.92,38.49277777777778],[-115.92,38.49277777777778],[-116.05305555555556,38.46638888888889],[-116.05305555555556,38.46638888888889],[-116.185,38.44027777777777],[-116.185,38.44027777777777],[-116.32138888888889,38.41305555555555],[-116.32138888888889,38.41305555555555],[-116.31861111111111,38.41361111111111],[-116.31861111111111,38.41361111111111],[-116.31861111111111,38.41361111111111],[-116.45194444444445,38.386944444444445],[-116.45194444444445,38.386944444444445],[-116.45194444444445,38.386944444444445],[-116.45194444444445,38.386944444444445],[-116.58416666666666,38.36027777777778],[-116.58416666666666,38.36027777777778],[-116.58416666666666,38.36027777777778],[-116.58416666666666,38.36027777777778],[-116.71805555555555,38.33305555555556],[-116.71805555555555,38.33305555555556],[-116.71805555555555,38.33305555555556],[-116.85083333333333,38.30583333333333],[-116.85083333333333,38.30583333333333],[-116.98388888888888,38.27833333333333],[-116.98388888888888,38.27833333333333],[-116.98388888888888,38.27833333333333],[-116.98388888888888,38.27833333333333],[-117.35749999999999,38.200833333333335],[-117.35749999999999,38.200833333333335],[-117.35749999999999,38.200833333333335],[-117.37833333333333,38.19416666666666],[-117.44916666666667,38.12361111111111],[-117.44916666666667,38.12361111111111],[-117.50583333333333,38.01222222222222],[-117.51611111111112,37.99194444444444],[-117.57638888888889,37.88194444444444],[-117.57638888888889,37.88194444444444],[-117.57638888888889,37.88194444444444],[-117.57638888888889,37.88194444444444],[-117.69250000000001,37.83777777777778],[-117.69250000000001,37.83777777777778],[-117.69250000000001,37.83777777777778],[-117.69250000000001,37.83777777777778],[-117.69250000000001,37.83777777777778],[-118.21361111111112,37.816111111111105],[-118.21361111111112,37.816111111111105],[-118.21361111111112,37.816111111111105],[-118.21361111111112,37.816111111111105],[-118.21361111111112,37.816111111111105],[-118.45111111111112,37.805277777777775],[-118.45111111111112,37.805277777777775],[-118.45111111111112,37.805277777777775],[-118.70805555555556,37.793055555555554],[-118.70805555555556,37.793055555555554],[-118.70805555555556,37.793055555555554],[-118.70805555555556,37.793055555555554],[-118.70805555555556,37.793055555555554],[-118.84138888888889,37.78666666666666],[-118.84138888888889,37.78666666666666],[-118.84138888888889,37.78666666666666],[-118.97333333333333,37.780277777777776],[-118.97333333333333,37.780277777777776],[-118.97333333333333,37.780277777777776],[-118.97333333333333,37.780277777777776],[-118.97333333333333,37.780277777777776],[-119.10305555555556,37.77361111111111],[-119.10305555555556,37.77361111111111],[-119.23277777777778,37.766666666666666],[-119.23277777777778,37.766666666666666],[-119.23277777777778,37.766666666666666],[-119.23277777777778,37.766666666666666],[-119.75305555555556,37.738055555555555],[-119.75305555555556,37.738055555555555],[-119.75305555555556,37.738055555555555],[-119.75305555555556,37.738055555555555],[-119.75305555555556,37.738055555555555],[-120.01444444444445,37.72277777777778],[-120.01444444444445,37.72277777777778],[-120.01444444444445,37.72277777777778],[-120.01444444444445,37.72277777777778],[-120.14472222222223,37.715],[-120.14472222222223,37.715],[-120.14472222222223,37.715],[-120.14472222222223,37.715],[-120.27916666666667,37.70722222222223],[-120.41638888888889,37.69777777777777],[-120.41638888888889,37.69777777777777],[-120.41638888888889,37.69777777777777],[-120.41638888888889,37.69777777777777],[-120.41638888888889,37.69777777777777],[-120.41638888888889,37.69777777777777],[-120.7,37.666666666666664],[-120.7,37.666666666666664],[-120.7,37.666666666666664],[-120.7,37.666666666666664],[-120.7,37.666666666666664],[-120.94916666666667,37.63472222222222],[-120.94916666666667,37.63472222222222],[-120.94916666666667,37.63472222222222],[-120.94916666666667,37.63472222222222],[-120.94916666666667,37.63472222222222],[-120.94916666666667,37.63472222222222],[-121.29888888888888,37.58833333333334],[-121.29888888888888,37.58833333333334],[-121.29888888888888,37.58833333333334],[-121.29888888888888,37.58833333333334],[-121.29888888888888,37.58833333333334],[-121.40111111111112,37.577222222222225],[-121.40111111111112,37.577222222222225],[-121.40111111111112,37.577222222222225],[-121.5,37.56666666666667],[-121.5,37.56666666666667],[-121.5,37.56666666666667],[-121.5,37.56666666666667],[-121.74305555555556,37.61027777777778],[-121.74305555555556,37.61027777777778],[-121.74305555555556,37.61027777777778],[-121.74305555555556,37.61027777777778],[-121.88333333333334,37.61666666666667],[-121.88333333333334,37.61666666666667],[-121.85,37.56666666666667],[-121.85,37.56666666666667],[-121.85,37.56666666666667],[-121.80444444444444,37.51222222222222],[-121.80444444444444,37.51222222222222],[-121.80444444444444,37.51222222222222],[-122.01666666666667,37.46666666666667],[-122.01666666666667,37.46666666666667],[-122.01666666666667,37.46666666666667],[-122.01666666666667,37.46666666666667],[-122.01666666666667,37.46666666666667],[-122.08999999999999,37.50111111111111],[-122.08999999999999,37.50111111111111],[-122.16000000000001,37.53055555555555],[-122.16000000000001,37.53055555555555],[-122.16000000000001,37.53055555555555],[-122.16000000000001,37.53055555555555],[-122.16000000000001,37.53055555555555],[-122.22555555555556,37.558055555555555],[-122.22555555555556,37.558055555555555],[-122.27777777777777,37.580000000000005],[-122.27777777777777,37.580000000000005],[-122.27777777777777,37.580000000000005],[-122.32249999999999,37.598888888888894],[-122.36638888888888,37.6175],[-122.36638888888888,37.6175],[-122.36638888888888,37.6175],[-122.36638888888888,37.6175]],"type":"LineString"}
}
