{
  "id": 2031555905,
  "type": "Feature",
  "properties": {
    "geom:area": 0,
    "geom:bbox": "-122.285556,35.888333,-115.175556,37.692778",
    "geom:latitude": 37.161765854294835,
    "geom:longitude": -118.56701831684992,
    "src:alt_label": "swim-path",
    "src:geom": "swim",
    "swim:altitudes": [
      "030",
      "030",
      "073",
      "073",
      "073",
      "085",
      "085",
      "110",
      "119",
      "119",
      "135",
      "135",
      "135",
      "258",
      "258",
      "262",
      "262",
      "262",
      "271",
      "292",
      "292",
      "300C",
      "300C",
      "300C",
      "300C",
      "300C",
      "300C",
      "300C",
      "300C",
      "300C",
      "300C",
      "300C",
      "300C",
      "300C",
      "300C",
      "300C",
      "300C",
      "300C",
      "300C",
      "300C",
      "300C",
      "300C",
      "300C",
      "300C",
      "300C",
      "300",
      "300",
      "300",
      "300",
      "300",
      "300",
      "258",
      "258",
      "237",
      "224",
      "224",
      "217",
      "217",
      "174",
      "174",
      "174",
      "138",
      "138",
      "131",
      "131",
      "114",
      "107",
      "107",
      "100",
      "085",
      "074",
      "068",
      "068",
      "056",
      "056",
      "045",
      "045",
      "037",
      "033",
      "033",
      "023",
      "014",
      "014",
      "014"
    ],
    "swim:geom": "path",
    "swim:speeds": [
      195,
      195,
      276,
      276,
      276,
      275,
      275,
      299,
      339,
      339,
      390,
      390,
      390,
      467,
      467,
      471,
      471,
      471,
      477,
      484,
      484,
      482,
      482,
      479,
      480,
      480,
      482,
      482,
      482,
      489,
      489,
      489,
      496,
      496,
      496,
      496,
      496,
      496,
      496,
      496,
      496,
      496,
      498,
      498,
      500,
      500,
      500,
      500,
      497,
      497,
      497,
      459,
      459,
      443,
      429,
      429,
      430,
      430,
      394,
      394,
      394,
      354,
      354,
      324,
      324,
      312,
      314,
      314,
      311,
      307,
      290,
      267,
      267,
      263,
      263,
      235,
      235,
      219,
      207,
      207,
      191,
      178,
      178,
      178
    ],
    "swim:timestamps": [
      1781620775,
      1781620775,
      1781620896,
      1781620896,
      1781620896,
      1781620932,
      1781620932,
      1781621112,
      1781621172,
      1781621172,
      1781621232,
      1781621232,
      1781621232,
      1781621633,
      1781621633,
      1781621653,
      1781621653,
      1781621653,
      1781621693,
      1781621773,
      1781621773,
      1781621813,
      1781621813,
      1781621953,
      1781621994,
      1781621994,
      1781622054,
      1781622054,
      1781622054,
      1781622194,
      1781622194,
      1781622194,
      1781622414,
      1781622434,
      1781622434,
      1781622474,
      1781622474,
      1781622494,
      1781622594,
      1781622655,
      1781622655,
      1781622674,
      1781622775,
      1781622775,
      1781622895,
      1781622955,
      1781622955,
      1781622955,
      1781623135,
      1781623135,
      1781623135,
      1781623255,
      1781623255,
      1781623315,
      1781623348,
      1781623348,
      1781623376,
      1781623376,
      1781623496,
      1781623496,
      1781623496,
      1781623616,
      1781623616,
      1781623643,
      1781623643,
      1781623703,
      1781623736,
      1781623736,
      1781623763,
      1781623856,
      1781623916,
      1781623949,
      1781623949,
      1781624036,
      1781624036,
      1781624096,
      1781624096,
      1781624130,
      1781624157,
      1781624157,
      1781624217,
      1781624277,
      1781624277,
      1781624277
    ],
    "wof:geomhash": "39687985a09273d7bbd59d46dae480cd",
    "wof:id": 2031555905,
    "wof:repo": "sfomuseum-data-flights-2026-06"
  },
  "bbox": [
    -122.28555555555555,
    35.888333333333335,
    -115.17555555555556,
    37.69277777777778
  ],
  "geometry": {"coordinates":[[-115.17555555555556,36.077222222222225],[-115.17555555555556,36.077222222222225],[-115.28944444444444,36.005833333333335],[-115.28944444444444,36.005833333333335],[-115.28944444444444,36.005833333333335],[-115.30944444444444,35.967222222222226],[-115.30944444444444,35.967222222222226],[-115.55972222222222,35.888333333333335],[-115.66944444444445,35.89055555555556],[-115.66944444444445,35.89055555555556],[-115.79916666666666,35.900277777777774],[-115.79916666666666,35.900277777777774],[-115.79916666666666,35.900277777777774],[-116.54194444444444,36.42111111111111],[-116.54194444444444,36.42111111111111],[-116.57694444444444,36.44555555555555],[-116.57694444444444,36.44555555555555],[-116.57694444444444,36.44555555555555],[-116.66666666666667,36.50805555555556],[-116.83527777777778,36.64083333333333],[-116.83527777777778,36.64083333333333],[-116.90333333333334,36.70055555555556],[-116.90333333333334,36.70055555555556],[-117.09972222222221,36.976111111111116],[-117.14805555555556,37.05],[-117.14805555555556,37.05],[-117.22472222222223,37.16777777777777],[-117.22472222222223,37.16777777777777],[-117.22472222222223,37.16777777777777],[-117.45805555555556,37.43611111111111],[-117.45805555555556,37.43611111111111],[-117.45805555555556,37.43611111111111],[-118.05833333333334,37.53805555555555],[-118.1261111111111,37.54333333333333],[-118.1261111111111,37.54333333333333],[-118.23361111111112,37.55166666666666],[-118.23361111111112,37.55166666666666],[-118.29722222222222,37.55638888888888],[-118.57722222222222,37.5775],[-118.75083333333333,37.59027777777778],[-118.75083333333333,37.59027777777778],[-118.82222222222222,37.595555555555556],[-119.08944444444444,37.614444444444445],[-119.08944444444444,37.614444444444445],[-119.44083333333333,37.63861111111111],[-119.61444444444444,37.65],[-119.61444444444444,37.65],[-119.61444444444444,37.65],[-120.13833333333334,37.68333333333333],[-120.13833333333334,37.68333333333333],[-120.13833333333334,37.68333333333333],[-120.4625,37.69277777777778],[-120.4625,37.69277777777778],[-120.61694444444444,37.674166666666665],[-120.71666666666667,37.666666666666664],[-120.71666666666667,37.666666666666664],[-120.76666666666667,37.657222222222224],[-120.76666666666667,37.657222222222224],[-121.05055555555555,37.62111111111111],[-121.05055555555555,37.62111111111111],[-121.05055555555555,37.62111111111111],[-121.30499999999999,37.58777777777778],[-121.30499999999999,37.58777777777778],[-121.36666666666666,37.583333333333336],[-121.36666666666666,37.583333333333336],[-121.48333333333333,37.56666666666667],[-121.52916666666667,37.5625],[-121.52916666666667,37.5625],[-121.58333333333333,37.55],[-121.73472222222222,37.524166666666666],[-121.83333333333333,37.50138888888889],[-121.9,37.483333333333334],[-121.9,37.483333333333334],[-122.01916666666666,37.49916666666667],[-122.01916666666666,37.49916666666667],[-122.1036111111111,37.506388888888885],[-122.1036111111111,37.506388888888885],[-122.15,37.53333333333333],[-122.1738888888889,37.53638888888889],[-122.1738888888889,37.53638888888889],[-122.22972222222222,37.559999999999995],[-122.28555555555555,37.583333333333336],[-122.28555555555555,37.583333333333336],[-122.28555555555555,37.583333333333336]],"type":"LineString"}
}
