{
  "id": 2031658789,
  "type": "Feature",
  "properties": {
    "geom:area": 0,
    "geom:bbox": "-122.583620,37.626780,-121.253990,38.144800",
    "geom:latitude": 37.913149129285316,
    "geom:longitude": -122.00688773414201,
    "src:alt_label": "swim-takeoff",
    "src:geom": "swim",
    "swim:elevations": [
      183,
      500,
      686,
      747,
      1337,
      1924,
      2407,
      2555,
      3009,
      3412,
      3585,
      3655,
      3822,
      4047,
      4231,
      4615,
      4910,
      5129,
      5364,
      5474,
      5649,
      5984,
      6245,
      6485,
      6655,
      6862,
      7046,
      7130,
      7382,
      7520
    ],
    "swim:geom": "takeoff",
    "swim:timestamps": [
      1782626158,
      1782626187,
      1782626218,
      1782626224,
      1782626274,
      1782626307,
      1782626338,
      1782626350,
      1782626386,
      1782626428,
      1782626455,
      1782626464,
      1782626491,
      1782626515,
      1782626536,
      1782626574,
      1782626607,
      1782626634,
      1782626666,
      1782626679,
      1782626696,
      1782626728,
      1782626758,
      1782626788,
      1782626807,
      1782626839,
      1782626869,
      1782626883,
      1782626923,
      1782626946
    ],
    "wof:geomhash": "5da0d3bfd6f0c8bf67ee716c87f9405d",
    "wof:id": 2031658789,
    "wof:repo": "sfomuseum-data-flights-2026-06"
  },
  "bbox": [
    -122.58362,
    37.62678,
    -121.25399,
    38.1448
  ],
  "geometry": {"coordinates":[[-122.39375,37.62678],[-122.42106,37.63873],[-122.45555,37.65344],[-122.46345,37.65666],[-122.53024,37.68376],[-122.57331,37.70583],[-122.58362,37.74051],[-122.57741,37.7543],[-122.52904,37.77872],[-122.46106,37.79861],[-122.41258,37.81312],[-122.39544,37.81808],[-122.34165,37.83363],[-122.29153,37.84817],[-122.24659,37.86125],[-122.16306,37.88508],[-122.08934,37.90635],[-122.02745,37.9242],[-121.95155,37.94616],[-121.92245,37.95454],[-121.87983,37.96681],[-121.80381,37.98856],[-121.73278,38.00909],[-121.65948,38.03006],[-121.61251,38.04344],[-121.53206,38.06638],[-121.4566,38.0877],[-121.42064,38.0979],[-121.31364,38.128],[-121.25399,38.1448]],"type":"LineString"}
}
