{
  "id": 2031452277,
  "type": "Feature",
  "properties": {
    "geom:area": 0,
    "geom:bbox": "-122.557778,32.845278,-117.320000,37.666667",
    "geom:latitude": 35.07925279941835,
    "geom:longitude": -120.2271751940487,
    "src:alt_label": "swim-path",
    "src:geom": "swim",
    "swim:altitudes": [
      "047",
      "047",
      "064",
      "064",
      "064",
      "064",
      "093",
      "093",
      "093",
      "093",
      "093",
      "107",
      "107",
      "123",
      "123",
      "135",
      "135",
      "135",
      "135",
      "135",
      "222",
      "222",
      "222",
      "236",
      "236",
      "247",
      "247",
      "247",
      "247",
      "247",
      "271",
      "286",
      "286",
      "286",
      "286",
      "286",
      "310",
      "310",
      "310",
      "310",
      "346",
      "346",
      "346",
      "346",
      "346",
      "350C",
      "350C",
      "350C",
      "350C",
      "350C",
      "350C",
      "350C",
      "350C",
      "350C",
      "350C",
      "350C",
      "350C",
      "350C",
      "350C",
      "350C",
      "350C",
      "350C",
      "350C",
      "350C",
      "350C",
      "350C",
      "350C",
      "350C",
      "350C",
      "350C",
      "350C",
      "350C",
      "350C",
      "350C",
      "350C",
      "350C",
      "350C",
      "350C",
      "350C",
      "350C",
      "350C",
      "350C",
      "350C",
      "350C",
      "350C",
      "350C",
      "350C",
      "350C",
      "350C",
      "350C",
      "350C",
      "350C",
      "350C",
      "350C",
      "350C",
      "350C",
      "350C",
      "350C",
      "350C",
      "350C",
      "350C",
      "350C",
      "350C",
      "350C",
      "350C",
      "350C",
      "350C",
      "350C",
      "350C",
      "350C",
      "350C",
      "350C",
      "350C",
      "350C",
      "350C"
    ],
    "swim:geom": "path",
    "swim:speeds": [
      273,
      273,
      286,
      286,
      286,
      286,
      289,
      289,
      289,
      289,
      289,
      333,
      333,
      375,
      375,
      401,
      401,
      401,
      401,
      401,
      470,
      470,
      470,
      480,
      480,
      496,
      496,
      496,
      496,
      496,
      511,
      512,
      512,
      512,
      512,
      512,
      522,
      522,
      522,
      522,
      517,
      517,
      517,
      517,
      517,
      514,
      514,
      514,
      514,
      512,
      512,
      512,
      512,
      512,
      512,
      506,
      506,
      505,
      505,
      505,
      505,
      505,
      505,
      505,
      505,
      505,
      505,
      505,
      507,
      507,
      507,
      507,
      508,
      508,
      508,
      508,
      508,
      508,
      508,
      507,
      507,
      507,
      507,
      507,
      507,
      507,
      507,
      507,
      507,
      507,
      507,
      507,
      508,
      508,
      508,
      508,
      508,
      508,
      508,
      508,
      508,
      510,
      510,
      510,
      510,
      511,
      511,
      511,
      511,
      511,
      511,
      512,
      512,
      512,
      512
    ],
    "swim:timestamps": [
      1780597712,
      1780597712,
      1780597755,
      1780597755,
      1780597755,
      1780597755,
      1780597816,
      1780597816,
      1780597816,
      1780597816,
      1780597816,
      1780597876,
      1780597876,
      1780597936,
      1780597936,
      1780597991,
      1780597991,
      1780597991,
      1780597991,
      1780597991,
      1780598292,
      1780598292,
      1780598292,
      1780598352,
      1780598352,
      1780598412,
      1780598412,
      1780598412,
      1780598412,
      1780598412,
      1780598532,
      1780598592,
      1780598592,
      1780598592,
      1780598592,
      1780598592,
      1780598712,
      1780598712,
      1780598712,
      1780598712,
      1780598892,
      1780598892,
      1780598892,
      1780598892,
      1780598892,
      1780598953,
      1780598953,
      1780598953,
      1780598953,
      1780599133,
      1780599133,
      1780599133,
      1780599133,
      1780599133,
      1780599133,
      1780599313,
      1780599313,
      1780599373,
      1780599373,
      1780599373,
      1780599493,
      1780599493,
      1780599493,
      1780599493,
      1780599493,
      1780599614,
      1780599614,
      1780599614,
      1780599674,
      1780599674,
      1780599674,
      1780599674,
      1780599734,
      1780599734,
      1780599734,
      1780599854,
      1780599854,
      1780599854,
      1780599854,
      1780600094,
      1780600094,
      1780600094,
      1780600094,
      1780600094,
      1780600214,
      1780600214,
      1780600214,
      1780600214,
      1780600214,
      1780600274,
      1780600274,
      1780600274,
      1780600335,
      1780600335,
      1780600335,
      1780600335,
      1780600395,
      1780600395,
      1780600395,
      1780600395,
      1780600395,
      1780600515,
      1780600515,
      1780600515,
      1780600515,
      1780600575,
      1780600575,
      1780600575,
      1780600635,
      1780600635,
      1780600635,
      1780600695,
      1780600695,
      1780600695,
      1780600695
    ],
    "wof:geomhash": "c333bc8bd7f20907d455735e1c97a40e",
    "wof:id": 2031452277,
    "wof:repo": "sfomuseum-data-flights-2026-06"
  },
  "bbox": [
    -122.55777777777777,
    32.84527777777778,
    -117.32,
    37.666666666666664
  ],
  "geometry": {"coordinates":[[-122.53333333333333,37.666666666666664],[-122.53333333333333,37.666666666666664],[-122.54861111111111,37.618611111111115],[-122.54861111111111,37.618611111111115],[-122.54861111111111,37.618611111111115],[-122.54861111111111,37.618611111111115],[-122.55111111111111,37.5375],[-122.55111111111111,37.5375],[-122.55111111111111,37.5375],[-122.55111111111111,37.5375],[-122.55111111111111,37.5375],[-122.55305555555556,37.44916666666666],[-122.55305555555556,37.44916666666666],[-122.55555555555556,37.34777777777778],[-122.55555555555556,37.34777777777778],[-122.55777777777777,37.257777777777775],[-122.55777777777777,37.257777777777775],[-122.55777777777777,37.257777777777775],[-122.55777777777777,37.257777777777775],[-122.55777777777777,37.257777777777775],[-122.32694444444444,36.68333333333333],[-122.32694444444444,36.68333333333333],[-122.32694444444444,36.68333333333333],[-122.2425,36.56722222222223],[-122.2425,36.56722222222223],[-122.15583333333333,36.44833333333333],[-122.15583333333333,36.44833333333333],[-122.15583333333333,36.44833333333333],[-122.15583333333333,36.44833333333333],[-122.15583333333333,36.44833333333333],[-121.97916666666667,36.20388888888889],[-121.89111111111112,36.080000000000005],[-121.89111111111112,36.080000000000005],[-121.89111111111112,36.080000000000005],[-121.89111111111112,36.080000000000005],[-121.89111111111112,36.080000000000005],[-121.61361111111111,35.86138888888889],[-121.61361111111111,35.86138888888889],[-121.61361111111111,35.86138888888889],[-121.61361111111111,35.86138888888889],[-121.22444444444444,35.61555555555556],[-121.22444444444444,35.61555555555556],[-121.22444444444444,35.61555555555556],[-121.22444444444444,35.61555555555556],[-121.22444444444444,35.61555555555556],[-121.08222222222221,35.52472222222222],[-121.08222222222221,35.52472222222222],[-121.08222222222221,35.52472222222222],[-121.08222222222221,35.52472222222222],[-120.65694444444445,35.27638888888889],[-120.65694444444445,35.27638888888889],[-120.65694444444445,35.27638888888889],[-120.65694444444445,35.27638888888889],[-120.65694444444445,35.27638888888889],[-120.65694444444445,35.27638888888889],[-120.23472222222222,35.028055555555554],[-120.23472222222222,35.028055555555554],[-120.08638888888889,34.940555555555555],[-120.08638888888889,34.940555555555555],[-120.08638888888889,34.940555555555555],[-119.81166666666667,34.77611111111111],[-119.81166666666667,34.77611111111111],[-119.81166666666667,34.77611111111111],[-119.81166666666667,34.77611111111111],[-119.81166666666667,34.77611111111111],[-119.53583333333333,34.61],[-119.53583333333333,34.61],[-119.53583333333333,34.61],[-119.41277777777778,34.524166666666666],[-119.41277777777778,34.524166666666666],[-119.41277777777778,34.524166666666666],[-119.41277777777778,34.524166666666666],[-119.28694444444444,34.42583333333333],[-119.28694444444444,34.42583333333333],[-119.28694444444444,34.42583333333333],[-119.03916666666666,34.23166666666667],[-119.03916666666666,34.23166666666667],[-119.03916666666666,34.23166666666667],[-119.03916666666666,34.23166666666667],[-118.54972222222221,33.84388888888889],[-118.54972222222221,33.84388888888889],[-118.54972222222221,33.84388888888889],[-118.54972222222221,33.84388888888889],[-118.54972222222221,33.84388888888889],[-118.2911111111111,33.636944444444445],[-118.2911111111111,33.636944444444445],[-118.2911111111111,33.636944444444445],[-118.2911111111111,33.636944444444445],[-118.2911111111111,33.636944444444445],[-118.17027777777778,33.53972222222222],[-118.17027777777778,33.53972222222222],[-118.17027777777778,33.53972222222222],[-118.04805555555555,33.44083333333333],[-118.04805555555555,33.44083333333333],[-118.04805555555555,33.44083333333333],[-118.04805555555555,33.44083333333333],[-117.92750000000001,33.34305555555556],[-117.92750000000001,33.34305555555556],[-117.92750000000001,33.34305555555556],[-117.92750000000001,33.34305555555556],[-117.92750000000001,33.34305555555556],[-117.68472222222222,33.14527777777778],[-117.68472222222222,33.14527777777778],[-117.68472222222222,33.14527777777778],[-117.68472222222222,33.14527777777778],[-117.56416666666667,33.046388888888885],[-117.56416666666667,33.046388888888885],[-117.56416666666667,33.046388888888885],[-117.44166666666668,32.94583333333333],[-117.44166666666668,32.94583333333333],[-117.44166666666668,32.94583333333333],[-117.32,32.84527777777778],[-117.32,32.84527777777778],[-117.32,32.84527777777778],[-117.32,32.84527777777778]],"type":"LineString"}
}
