{
  "id": 2031564595,
  "type": "Feature",
  "properties": {
    "geom:area": 0,
    "geom:bbox": "-122.363260,37.422540,-121.283930,37.616020",
    "geom:latitude": 37.53235858228604,
    "geom:longitude": -121.83160201991724,
    "src:alt_label": "swim-approach",
    "src:geom": "swim",
    "swim:elevations": [
      4177,
      4012,
      3912,
      3781,
      3652,
      3389,
      3351,
      3155,
      3048,
      3048,
      3048,
      3048,
      2917,
      2856,
      2529,
      2373,
      2170,
      2066,
      2010,
      1830,
      1829,
      1722,
      1525,
      1340,
      1225,
      1014,
      950,
      841,
      582,
      515,
      272,
      199,
      109,
      0
    ],
    "swim:geom": "approach",
    "swim:timestamps": [
      1781728281,
      1781728306,
      1781728320,
      1781728343,
      1781728364,
      1781728406,
      1781728412,
      1781728449,
      1781728496,
      1781728524,
      1781728556,
      1781728587,
      1781728613,
      1781728622,
      1781728678,
      1781728700,
      1781728733,
      1781728764,
      1781728778,
      1781728821,
      1781728847,
      1781728865,
      1781728904,
      1781728945,
      1781728968,
      1781729007,
      1781729020,
      1781729044,
      1781729086,
      1781729102,
      1781729158,
      1781729175,
      1781729198,
      1781729229
    ],
    "wof:geomhash": "f655ba23485822349c65af2bc8f105d3",
    "wof:id": 2031564595,
    "wof:repo": "sfomuseum-data-flights-2026-06"
  },
  "bbox": [
    -122.36326,
    37.42254,
    -121.28393,
    37.61602
  ],
  "geometry": {"coordinates":[[-121.28393,37.58983],[-121.33415,37.58431],[-121.36231,37.58118],[-121.40576,37.57628],[-121.44422,37.57185],[-121.51882,37.56322],[-121.53016,37.56191],[-121.59329,37.55442],[-121.6667,37.55428],[-121.70523,37.56458],[-121.74988,37.57687],[-121.79454,37.57485],[-121.81707,37.54941],[-121.81821,37.53844],[-121.81239,37.47086],[-121.81596,37.4458],[-121.85482,37.42331],[-121.89947,37.42254],[-121.91793,37.42784],[-121.97014,37.45015],[-122.00201,37.46365],[-122.02332,37.47271],[-122.06457,37.49024],[-122.10566,37.50753],[-122.12842,37.51713],[-122.16719,37.53356],[-122.18008,37.53897],[-122.20456,37.54927],[-122.24805,37.56766],[-122.26274,37.57382],[-122.30904,37.59329],[-122.32243,37.59899],[-122.33914,37.60598],[-122.36326,37.61602]],"type":"LineString"}
}
