{
  "id": 2031628343,
  "type": "Feature",
  "properties": {
    "geom:area": 0,
    "geom:bbox": "-122.347740,37.454440,-121.257800,37.652650",
    "geom:latitude": 37.5535359789778,
    "geom:longitude": -121.81877803478474,
    "src:alt_label": "swim-approach",
    "src:geom": "swim",
    "swim:elevations": [
      4732,
      4465,
      4312,
      4083,
      4055,
      3976,
      3860,
      3668,
      3526,
      3308,
      3127,
      3051,
      3048,
      3048,
      3048,
      3048,
      2908,
      2740,
      2677,
      2550,
      2439,
      2438,
      2401,
      2224,
      2000,
      1827,
      1705,
      1586,
      1528,
      1233,
      1161,
      970,
      790,
      711,
      574,
      392,
      269,
      167,
      83
    ],
    "swim:geom": "approach",
    "swim:timestamps": [
      1782288698,
      1782288731,
      1782288751,
      1782288798,
      1782288811,
      1782288843,
      1782288865,
      1782288896,
      1782288921,
      1782288951,
      1782288981,
      1782288997,
      1782289028,
      1782289072,
      1782289088,
      1782289129,
      1782289164,
      1782289198,
      1782289227,
      1782289250,
      1782289285,
      1782289314,
      1782289329,
      1782289364,
      1782289404,
      1782289435,
      1782289461,
      1782289484,
      1782289505,
      1782289547,
      1782289568,
      1782289605,
      1782289643,
      1782289657,
      1782289689,
      1782289726,
      1782289756,
      1782289779,
      1782289805
    ],
    "wof:geomhash": "9e75e76b69fc1fabc2f5f4d995c7c523",
    "wof:id": 2031628343,
    "wof:repo": "sfomuseum-data-flights-2026-06"
  },
  "bbox": [
    -122.34774,
    37.45444,
    -121.2578,
    37.65265
  ],
  "geometry": {"coordinates":[[-121.2578,37.59346],[-121.3165,37.5864],[-121.35202,37.5825],[-121.43274,37.57321],[-121.45371,37.57084],[-121.5021,37.56517],[-121.53401,37.5615],[-121.57834,37.55635],[-121.61337,37.55205],[-121.65666,37.55348],[-121.6936,37.57462],[-121.71232,37.58564],[-121.74982,37.6076],[-121.80239,37.63871],[-121.8215,37.64994],[-121.87757,37.65265],[-121.89401,37.61824],[-121.87439,37.58272],[-121.85702,37.5535],[-121.84291,37.53026],[-121.82213,37.49606],[-121.82781,37.46544],[-121.8424,37.45503],[-121.8885,37.45444],[-121.94258,37.46101],[-121.98342,37.46643],[-122.01641,37.47128],[-122.04604,37.48261],[-122.07121,37.49304],[-122.11944,37.51333],[-122.14209,37.52296],[-122.17882,37.53842],[-122.21397,37.55328],[-122.22638,37.55851],[-122.25533,37.57073],[-122.28726,37.58419],[-122.31077,37.59402],[-122.32828,37.60147],[-122.34774,37.60957]],"type":"LineString"}
}
