{
  "id": 2031450177,
  "type": "Feature",
  "properties": {
    "geom:area": 0,
    "geom:bbox": "-122.380000,37.620000,-73.780000,42.150000",
    "geom:latitude": 40.86623051265616,
    "geom:longitude": -97.79804091400548,
    "src:alt_label": "swim-route",
    "src:geom": "swim",
    "swim:geom": "route",
    "wof:geomhash": "405644f1f52e7526c7ed2ff650d1e92b",
    "wof:id": 2031450177,
    "wof:repo": "sfomuseum-data-flights-2026-06"
  },
  "bbox": [
    -122.38,
    37.62,
    -73.78,
    42.15
  ],
  "geometry": {"coordinates":[[-122.38,37.62],[-122.28,37.68],[-122.27,37.69],[-122.27,37.69],[-122.21,37.72],[-122.2,37.72],[-122.2,37.73],[-122.18,37.74],[-122.17,37.74],[-122.16,37.75],[-122.11,37.77],[-122.1,37.78],[-122,37.83],[-121.94,37.85],[-121.77,37.92],[-121.75,37.93],[-121.6,37.99],[-121.45,38.04],[-121.41,38.06],[-121.35,38.09],[-121.24,38.13],[-121.21,38.14],[-121.14,38.16],[-121.12,38.17],[-121.04,38.21],[-120.93,38.22],[-120.84,38.23],[-120.75,38.25],[-120.66,38.26],[-120.43,38.29],[-119.22,38.45],[-118.97,38.48],[-118.23,38.57],[-118,38.6],[-117.3,38.68],[-117.29,38.68],[-116.93,38.74],[-116.05,38.89],[-115.82,38.92],[-115.59,38.96],[-115.37,38.99],[-114.68,39.1],[-114.23,39.17],[-113.32,39.31],[-112.2,39.47],[-111.74,39.57],[-111.43,39.63],[-110.86,39.77],[-110.05,39.95],[-109.16,40.1],[-109.09,40.12],[-108.37,40.25],[-105.31,40.78],[-104.58,40.89],[-103.43,41.06],[-103.16,41.1],[-101.57,41.28],[-101.3,41.34],[-99.03,41.59],[-98.79,41.61],[-97.57,41.73],[-96.78,41.77],[-96.31,41.81],[-94.31,41.86],[-94.08,41.88],[-93.89,41.89],[-93.37,41.92],[-91.9,42],[-89.76,42.06],[-88.55,42.09],[-87.61,42.13],[-87,42.15],[-85,42.15],[-83.03,42.12],[-81.17,42.05],[-79.84,42],[-77.85,41.87],[-77.55,41.79],[-77.49,41.77],[-77.15,41.68],[-76.61,41.53],[-76.6,41.53],[-76.4,41.47],[-76.03,41.37],[-76.02,41.37],[-75.69,41.27],[-75.58,41.24],[-75.52,41.22],[-75.33,41.15],[-75.33,41.15],[-74.87,41],[-74.84,40.99],[-74.63,40.97],[-74.4,40.94],[-74.18,40.91],[-74.16,40.91],[-74.13,40.91],[-74.12,40.91],[-74.1,40.9],[-74.08,40.88],[-74.06,40.88],[-74.05,40.87],[-74.01,40.85],[-73.99,40.84],[-73.97,40.83],[-73.96,40.83],[-73.95,40.82],[-73.94,40.82],[-73.92,40.81],[-73.91,40.8],[-73.9,40.8],[-73.89,40.79],[-73.88,40.79],[-73.87,40.78],[-73.87,40.78],[-73.86,40.77],[-73.85,40.76],[-73.85,40.75],[-73.84,40.74],[-73.84,40.73],[-73.83,40.71],[-73.81,40.7],[-73.81,40.69],[-73.97,40.61],[-73.96,40.61],[-73.96,40.61],[-73.95,40.61],[-73.93,40.61],[-73.92,40.61],[-73.91,40.62],[-73.91,40.62],[-73.9,40.62],[-73.89,40.62],[-73.89,40.62],[-73.88,40.62],[-73.87,40.62],[-73.87,40.62],[-73.86,40.63],[-73.85,40.63],[-73.85,40.63],[-73.84,40.63],[-73.84,40.63],[-73.97,40.58],[-73.82,40.63],[-73.81,40.63],[-73.78,40.64]],"type":"LineString"}
}
