{
  "id": 2031635235,
  "type": "Feature",
  "properties": {
    "geom:area": 0,
    "geom:bbox": "-122.848030,37.430140,-122.092560,38.498670",
    "geom:latitude": 37.81799829196573,
    "geom:longitude": -122.48965603123752,
    "src:alt_label": "swim-approach",
    "src:geom": "swim",
    "swim:elevations": [
      7590,
      7437,
      7321,
      7022,
      6817,
      6404,
      6006,
      5888,
      5522,
      5322,
      4847,
      4668,
      4495,
      4043,
      3845,
      3614,
      3459,
      3373,
      3355,
      3353,
      3353,
      3353,
      3353,
      3241,
      3156,
      2976,
      2685,
      2574,
      2244,
      2015,
      1713,
      1573,
      1322,
      968,
      914,
      835,
      698,
      621,
      476,
      302,
      263,
      300
    ],
    "swim:geom": "approach",
    "swim:timestamps": [
      1782385148,
      1782385165,
      1782385177,
      1782385208,
      1782385231,
      1782385274,
      1782385316,
      1782385328,
      1782385368,
      1782385388,
      1782385436,
      1782385457,
      1782385473,
      1782385522,
      1782385545,
      1782385569,
      1782385586,
      1782385616,
      1782385629,
      1782385669,
      1782385687,
      1782385719,
      1782385742,
      1782385798,
      1782385814,
      1782385835,
      1782385876,
      1782385891,
      1782385933,
      1782385964,
      1782386000,
      1782386020,
      1782386050,
      1782386095,
      1782386126,
      1782386157,
      1782386185,
      1782386202,
      1782386231,
      1782386278,
      1782386289,
      1782386359
    ],
    "wof:geomhash": "f7ba32aaa7ba8d86bec529c2837b21f9",
    "wof:id": 2031635235,
    "wof:repo": "sfomuseum-data-flights-2026-06"
  },
  "bbox": [
    -122.84803,
    37.43014,
    -122.09256,
    38.49867
  ],
  "geometry": {"coordinates":[[-122.84803,38.49867],[-122.83864,38.46681],[-122.83188,38.44386],[-122.81551,38.38844],[-122.80343,38.34712],[-122.78111,38.27061],[-122.75939,38.19628],[-122.75354,38.17646],[-122.73356,38.10766],[-122.72348,38.07375],[-122.70114,37.99573],[-122.69112,37.96136],[-122.68339,37.93429],[-122.63673,37.86497],[-122.60641,37.83607],[-122.57375,37.80532],[-122.55149,37.78435],[-122.51387,37.74896],[-122.49862,37.73455],[-122.45281,37.69141],[-122.43175,37.67165],[-122.39454,37.63673],[-122.36857,37.61203],[-122.33079,37.54639],[-122.32011,37.52925],[-122.3066,37.50727],[-122.27404,37.46925],[-122.25406,37.46261],[-122.19866,37.44459],[-122.15982,37.43155],[-122.11214,37.43014],[-122.09531,37.44769],[-122.09256,37.47829],[-122.12872,37.51453],[-122.16223,37.52913],[-122.19379,37.54248],[-122.2221,37.55457],[-122.23959,37.56167],[-122.26522,37.57259],[-122.30111,37.58762],[-122.31014,37.59141],[-122.36293,37.61458]],"type":"LineString"}
}
