{
  "id": 2031561121,
  "type": "Feature",
  "properties": {
    "geom:area": 0,
    "geom:bbox": "-122.380000,37.490000,-73.780000,43.200000",
    "geom:latitude": 41.29262041480111,
    "geom:longitude": -98.0581653410631,
    "src:alt_label": "swim-route",
    "src:geom": "swim",
    "swim:geom": "route",
    "wof:geomhash": "db7c69cb0d86826cde82ce742e2fa8be",
    "wof:id": 2031561121,
    "wof:repo": "sfomuseum-data-flights-2026-06"
  },
  "bbox": [
    -122.38,
    37.49,
    -73.78,
    43.2
  ],
  "geometry": {"coordinates":[[-73.78,40.64],[-73.91,40.71],[-73.94,40.73],[-74.04,40.78],[-74.06,40.79],[-74.06,40.8],[-74.1,40.82],[-74.12,40.83],[-74.16,40.85],[-74.19,40.87],[-74.23,40.88],[-74.26,40.9],[-74.29,40.92],[-74.31,40.93],[-74.35,40.95],[-74.38,40.97],[-74.4,40.98],[-74.41,40.98],[-74.47,41.02],[-74.51,41.04],[-74.6,41.09],[-74.63,41.1],[-74.67,41.12],[-74.7,41.14],[-74.74,41.15],[-74.8,41.18],[-74.86,41.21],[-74.87,41.21],[-74.95,41.25],[-75.13,41.32],[-75.31,41.4],[-75.43,41.45],[-75.48,41.48],[-75.64,41.52],[-75.65,41.53],[-75.86,41.58],[-75.92,41.6],[-76.06,41.64],[-76.22,41.69],[-76.52,41.77],[-76.54,41.77],[-76.93,41.88],[-77.04,41.91],[-77.35,41.99],[-77.41,42.01],[-77.84,42.13],[-78.27,42.24],[-78.91,42.4],[-79.62,42.57],[-79.79,42.61],[-80.5,42.64],[-80.6,42.65],[-81.27,42.67],[-82.48,42.8],[-82.55,42.81],[-82.71,42.83],[-83.3,42.91],[-84.59,43.02],[-85,43.06],[-86.27,43.2],[-87,43.17],[-88.28,43.12],[-89.86,43.13],[-91.32,43.13],[-93.33,43.09],[-94.08,43.02],[-94.35,43],[-94.71,42.96],[-96.23,42.79],[-98.69,42.47],[-99.31,42.36],[-102.03,41.82],[-102.93,41.63],[-103.4,41.53],[-104.55,41.26],[-104.77,41.21],[-105.01,41.17],[-105.71,41.04],[-106,40.99],[-109.14,40.37],[-109.57,40.27],[-110.13,40.15],[-112.51,39.3],[-113.32,39.12],[-116.2,38.42],[-116.74,38.28],[-117.27,38.14],[-117.77,38],[-118.76,37.9],[-119.1,37.86],[-119.38,37.82],[-119.72,37.78],[-119.82,37.77],[-119.92,37.76],[-120.02,37.75],[-120.31,37.71],[-120.4,37.7],[-120.4,37.7],[-120.57,37.68],[-120.69,37.67],[-120.75,37.66],[-120.79,37.65],[-120.8,37.65],[-120.96,37.63],[-121,37.63],[-121.01,37.63],[-121.07,37.62],[-121.17,37.61],[-121.26,37.59],[-121.39,37.58],[-121.41,37.58],[-121.6,37.55],[-121.61,37.55],[-121.62,37.55],[-121.72,37.53],[-121.8,37.51],[-121.88,37.49],[-121.89,37.49],[-122.01,37.53],[-122.08,37.54],[-122.18,37.57],[-122.18,37.57],[-122.28,37.59],[-122.33,37.61],[-122.36,37.61],[-122.38,37.62]],"type":"LineString"}
}
