{
  "id": 2031658157,
  "type": "Feature",
  "properties": {
    "geom:area": 0,
    "geom:bbox": "-122.398940,37.631120,-122.255460,38.508470",
    "geom:latitude": 38.059116691868496,
    "geom:longitude": -122.29743195187847,
    "src:alt_label": "swim-takeoff",
    "src:geom": "swim",
    "swim:elevations": [
      379,
      595,
      852,
      935,
      1112,
      1654,
      1978,
      2342,
      2541,
      2834,
      3126,
      3301,
      3741,
      4148,
      4401,
      4768,
      4937,
      5703,
      5939,
      6138,
      6276,
      6730,
      6855,
      6883,
      7194
    ],
    "swim:geom": "takeoff",
    "swim:timestamps": [
      1782588107,
      1782588138,
      1782588176,
      1782588182,
      1782588197,
      1782588238,
      1782588260,
      1782588290,
      1782588305,
      1782588325,
      1782588345,
      1782588370,
      1782588411,
      1782588448,
      1782588474,
      1782588506,
      1782588520,
      1782588565,
      1782588592,
      1782588611,
      1782588630,
      1782588674,
      1782588688,
      1782588691,
      1782588723
    ],
    "wof:geomhash": "913cf7002e2b8133c121e1a938d79377",
    "wof:id": 2031658157,
    "wof:repo": "sfomuseum-data-flights-2026-06"
  },
  "bbox": [
    -122.39894,
    37.63112,
    -122.25546,
    38.50847
  ],
  "geometry": {"coordinates":[[-122.39894,37.63112],[-122.39101,37.65375],[-122.35227,37.67959],[-122.35026,37.68636],[-122.34757,37.70256],[-122.34108,37.75102],[-122.33658,37.77684],[-122.33036,37.81303],[-122.32673,37.83221],[-122.32191,37.85689],[-122.31708,37.88277],[-122.31114,37.91615],[-122.30034,37.97715],[-122.29006,38.03402],[-122.28243,38.07608],[-122.27248,38.13038],[-122.26815,38.15436],[-122.25546,38.23167],[-122.25637,38.27685],[-122.25841,38.3089],[-122.26084,38.34257],[-122.26652,38.42049],[-122.26837,38.44499],[-122.2688,38.45041],[-122.27335,38.50847]],"type":"LineString"}
}
