{
  "id": 2031421629,
  "type": "Feature",
  "properties": {
    "geom:area": 0,
    "geom:bbox": "-156.150000,19.716667,-122.201944,37.586389",
    "geom:latitude": 29.529472198591158,
    "geom:longitude": -139.91599630076013,
    "src:alt_label": "swim-path",
    "src:geom": "swim",
    "swim:altitudes": [
      "001",
      "008C",
      "008C",
      "047C",
      "047C",
      "047C",
      "153C",
      "153C",
      "153C",
      "153C",
      "210C",
      "210C",
      "225C",
      "225C",
      "245C",
      "245C",
      "245C",
      "256C",
      "256C",
      "282C",
      "282C",
      "291C",
      "291C",
      "301C",
      "301C",
      "301C",
      "301C",
      "330",
      "330",
      "330",
      "330",
      "330",
      "330",
      "330",
      "330",
      "330",
      "330",
      "330",
      "330",
      "330",
      "330",
      "330",
      "330",
      "330",
      "330",
      "330",
      "330",
      "330",
      "330",
      "330",
      "330",
      "330",
      "330",
      "330",
      "330",
      "330",
      "330",
      "330",
      "330",
      "330",
      "330",
      "330",
      "350C",
      "350C",
      "350C",
      "350C",
      "350C",
      "350C",
      "350C",
      "350C",
      "350C",
      "350C",
      "350C",
      "350",
      "350",
      "350",
      "350",
      "348",
      "348",
      "347C",
      "328C",
      "328C",
      "328C",
      "305",
      "305",
      "286",
      "286",
      "232",
      "232",
      "200",
      "185",
      "185",
      "170",
      "170",
      "122",
      "122",
      "100",
      "100",
      "068",
      "068",
      "056",
      "045",
      "045",
      "012",
      "012"
    ],
    "swim:geom": "path",
    "swim:speeds": [
      100,
      170,
      170,
      260,
      260,
      260,
      410,
      410,
      410,
      410,
      450,
      450,
      450,
      450,
      460,
      460,
      460,
      460,
      460,
      470,
      470,
      480,
      480,
      470,
      470,
      470,
      470,
      460,
      460,
      460,
      460,
      460,
      460,
      460,
      460,
      460,
      460,
      460,
      450,
      450,
      450,
      450,
      450,
      450,
      450,
      450,
      450,
      450,
      450,
      450,
      460,
      460,
      460,
      460,
      460,
      450,
      450,
      450,
      460,
      460,
      460,
      460,
      469,
      469,
      469,
      468,
      468,
      468,
      468,
      467,
      468,
      468,
      468,
      472,
      474,
      480,
      480,
      475,
      475,
      480,
      460,
      460,
      460,
      464,
      464,
      466,
      466,
      424,
      424,
      386,
      371,
      371,
      366,
      366,
      344,
      344,
      289,
      289,
      236,
      236,
      233,
      235,
      235,
      158,
      158
    ],
    "swim:timestamps": [
      1780351682,
      1780351720,
      1780351720,
      1780351841,
      1780351841,
      1780351841,
      1780352202,
      1780352202,
      1780352202,
      1780352202,
      1780352443,
      1780352443,
      1780352502,
      1780352502,
      1780352623,
      1780352623,
      1780352623,
      1780352683,
      1780352683,
      1780352863,
      1780352863,
      1780352924,
      1780352924,
      1780352984,
      1780352984,
      1780352984,
      1780352984,
      1780353224,
      1780353224,
      1780353224,
      1780353224,
      1780353284,
      1780353284,
      1780353284,
      1780353345,
      1780353345,
      1780353465,
      1780353465,
      1780353525,
      1780353525,
      1780353525,
      1780353645,
      1780353645,
      1780353645,
      1780353705,
      1780353766,
      1780353766,
      1780353825,
      1780353825,
      1780353825,
      1780353946,
      1780354066,
      1780354066,
      1780354066,
      1780354066,
      1780354081,
      1780354186,
      1780354186,
      1780354202,
      1780354246,
      1780354246,
      1780354246,
      1780366377,
      1780366377,
      1780366377,
      1780366438,
      1780366498,
      1780366498,
      1780366498,
      1780366558,
      1780366738,
      1780366738,
      1780366738,
      1780366858,
      1780366918,
      1780366929,
      1780366929,
      1780366978,
      1780366978,
      1780366989,
      1780367169,
      1780367169,
      1780367169,
      1780367279,
      1780367279,
      1780367339,
      1780367339,
      1780367519,
      1780367519,
      1780367639,
      1780367699,
      1780367699,
      1780367759,
      1780367759,
      1780367957,
      1780367957,
      1780368180,
      1780368180,
      1780368378,
      1780368378,
      1780368540,
      1780368600,
      1780368600,
      1780368840,
      1780368840
    ],
    "wof:geomhash": "3793724ecb011077f57bed693eb0393a",
    "wof:id": 2031421629,
    "wof:repo": "sfomuseum-data-flights-2026-06"
  },
  "bbox": [
    -156.15,
    19.716666666666665,
    -122.20194444444445,
    37.58638888888889
  ],
  "geometry": {"coordinates":[[-156.03333333333333,19.733333333333334],[-156.03333333333333,19.716666666666665],[-156.03333333333333,19.716666666666665],[-156.15,19.766666666666666],[-156.15,19.766666666666666],[-156.15,19.766666666666666],[-155.93333333333334,20.283333333333335],[-155.93333333333334,20.283333333333335],[-155.93333333333334,20.283333333333335],[-155.93333333333334,20.283333333333335],[-155.73333333333332,20.733333333333334],[-155.73333333333332,20.733333333333334],[-155.68333333333334,20.85],[-155.68333333333334,20.85],[-155.51666666666668,21.066666666666666],[-155.51666666666668,21.066666666666666],[-155.51666666666668,21.066666666666666],[-155.45,21.166666666666668],[-155.45,21.166666666666668],[-155.2,21.483333333333334],[-155.2,21.483333333333334],[-155.11666666666667,21.6],[-155.11666666666667,21.6],[-155.01666666666668,21.7],[-155.01666666666668,21.7],[-155.01666666666668,21.7],[-155.01666666666668,21.7],[-154.68333333333334,22.116666666666667],[-154.68333333333334,22.116666666666667],[-154.68333333333334,22.116666666666667],[-154.68333333333334,22.116666666666667],[-154.61666666666667,22.216666666666665],[-154.61666666666667,22.216666666666665],[-154.61666666666667,22.216666666666665],[-154.53333333333333,22.333333333333332],[-154.53333333333333,22.333333333333332],[-154.36666666666667,22.533333333333335],[-154.36666666666667,22.533333333333335],[-154.28333333333333,22.633333333333333],[-154.28333333333333,22.633333333333333],[-154.28333333333333,22.633333333333333],[-154.11666666666667,22.833333333333332],[-154.11666666666667,22.833333333333332],[-154.11666666666667,22.833333333333332],[-154.03333333333333,22.933333333333334],[-153.95,23.033333333333335],[-153.95,23.033333333333335],[-153.88333333333333,23.133333333333333],[-153.88333333333333,23.133333333333333],[-153.88333333333333,23.133333333333333],[-153.71666666666667,23.333333333333332],[-153.55,23.55],[-153.55,23.55],[-153.55,23.55],[-153.55,23.55],[-153.53333333333333,23.55],[-153.38333333333333,23.75],[-153.38333333333333,23.75],[-153.35,23.75],[-153.26666666666668,23.816666666666666],[-153.26666666666668,23.816666666666666],[-153.26666666666668,23.816666666666666],[-126.5436111111111,35.602222222222224],[-126.5436111111111,35.602222222222224],[-126.5436111111111,35.602222222222224],[-126.40083333333334,35.64361111111111],[-126.23472222222222,35.69166666666666],[-126.23472222222222,35.69166666666666],[-126.23472222222222,35.69166666666666],[-126.09222222222222,35.733333333333334],[-125.6563888888889,35.89138888888889],[-125.6563888888889,35.89138888888889],[-125.6563888888889,35.89138888888889],[-125.38138888888888,36.02972222222222],[-125.2425,36.1],[-125.21666666666667,36.1],[-125.21666666666667,36.1],[-125.1036111111111,36.16972222222222],[-125.1036111111111,36.16972222222222],[-125.08333333333333,36.166666666666664],[-124.65,36.36666666666667],[-124.65,36.36666666666667],[-124.65,36.36666666666667],[-124.42166666666667,36.50861111111111],[-124.42166666666667,36.50861111111111],[-124.28555555555555,36.57555555555556],[-124.28555555555555,36.57555555555556],[-123.89027777777778,36.768055555555556],[-123.89027777777778,36.768055555555556],[-123.65361111111112,36.882777777777775],[-123.54305555555555,36.93611111111111],[-123.54305555555555,36.93611111111111],[-123.43027777777779,36.989444444444445],[-123.43027777777779,36.989444444444445],[-123.08333333333333,37.15],[-123.08333333333333,37.15],[-122.70944444444444,37.294444444444444],[-122.70944444444444,37.294444444444444],[-122.43333333333334,37.3],[-122.43333333333334,37.3],[-122.2575,37.388333333333335],[-122.20194444444445,37.43611111111111],[-122.20194444444445,37.43611111111111],[-122.29222222222222,37.58638888888889],[-122.29222222222222,37.58638888888889]],"type":"LineString"}
}
