{
  "id": 2031504149,
  "type": "Feature",
  "properties": {
    "geom:area": 0,
    "geom:bbox": "-122.410833,37.633333,-83.278333,42.376111",
    "geom:latitude": 39.661529461703815,
    "geom:longitude": -102.43588702287687,
    "src:alt_label": "swim-path",
    "src:geom": "swim",
    "swim:altitudes": [
      "005",
      "005",
      "015",
      "015",
      "015",
      "058",
      "084",
      "084",
      "084",
      "116",
      "116",
      "116",
      "116",
      "150",
      "150",
      "199",
      "199",
      "213",
      "213",
      "213",
      "227",
      "227",
      "250",
      "250",
      "250",
      "267",
      "267",
      "267",
      "289",
      "289",
      "293",
      "301",
      "301",
      "301",
      "321",
      "321",
      "330C",
      "330C",
      "330C",
      "330C",
      "330C",
      "330C",
      "330C",
      "330C",
      "330C",
      "330C",
      "330C",
      "330C",
      "330C",
      "330C",
      "330C",
      "330C",
      "330C",
      "330C",
      "330C",
      "330C",
      "330C",
      "330C",
      "330C",
      "330C",
      "330C",
      "330C",
      "330C",
      "330C",
      "330C",
      "330C",
      "330C",
      "330C",
      "330C",
      "330C",
      "330C",
      "330C",
      "330C",
      "330C",
      "330C",
      "330C",
      "330C",
      "330C",
      "330C",
      "330C",
      "330C",
      "330C",
      "330C",
      "330C",
      "330C",
      "330C",
      "330C",
      "330C",
      "330C",
      "330C",
      "330C",
      "330C",
      "330C",
      "330C",
      "330C",
      "330C",
      "330C",
      "330C",
      "330C",
      "330C",
      "330C",
      "330C",
      "330C",
      "330C",
      "330C",
      "330C",
      "330C",
      "330C",
      "330C",
      "330C",
      "330C",
      "330C",
      "330C",
      "330C",
      "330C",
      "330C",
      "330C",
      "330C",
      "330C",
      "330C",
      "330C",
      "330C",
      "330C",
      "330C",
      "330C",
      "330C",
      "330C",
      "330C",
      "330C",
      "330C",
      "330C",
      "330C",
      "330C",
      "330C",
      "330C",
      "330C",
      "330C",
      "330C",
      "330C",
      "330C",
      "330C",
      "330C",
      "330C",
      "330C",
      "330C",
      "330C",
      "330C",
      "330C",
      "330C",
      "330C",
      "330C",
      "330C",
      "330C",
      "330C",
      "330C",
      "330C",
      "330C",
      "330C",
      "330C",
      "330C",
      "330C",
      "330C",
      "330C",
      "330C",
      "330C",
      "330C",
      "330C",
      "330C",
      "330C",
      "330C",
      "330C",
      "330C",
      "330C",
      "330C",
      "330C",
      "330C",
      "330C",
      "330C",
      "330C",
      "330C",
      "330C",
      "330C",
      "330C",
      "330C",
      "330C",
      "330C",
      "330C",
      "330C",
      "330C",
      "330C",
      "330C",
      "330C",
      "330C",
      "330C",
      "330C",
      "330C",
      "330C",
      "330C",
      "330C",
      "330C",
      "330C",
      "330C",
      "330C",
      "330C",
      "330C",
      "330C",
      "330C",
      "330C",
      "330C",
      "330C",
      "330C",
      "330C",
      "330C",
      "330C",
      "330C",
      "330C",
      "330C",
      "330C",
      "330C",
      "330C",
      "330C",
      "330C",
      "330C",
      "330C",
      "330C",
      "330C",
      "330C",
      "330C",
      "330C",
      "330C",
      "330C",
      "330C",
      "330C",
      "330C",
      "330C",
      "330C",
      "330C",
      "330C",
      "330C",
      "330C",
      "330C",
      "330C",
      "330C",
      "330C",
      "330C",
      "330C",
      "330C",
      "330C",
      "330C",
      "330C",
      "330C",
      "330C",
      "330C",
      "330C",
      "330C",
      "330C",
      "330C",
      "330C",
      "330C",
      "330C",
      "330C",
      "330C",
      "330C",
      "330C",
      "330C",
      "330C",
      "330C",
      "330C",
      "330C",
      "330C",
      "330C",
      "330C",
      "330C",
      "330C",
      "330C",
      "330C",
      "330C",
      "330C",
      "330C",
      "330C",
      "330C",
      "330C",
      "330C",
      "330C",
      "330C",
      "330C",
      "330C",
      "330C",
      "330C",
      "330C",
      "330C",
      "330C",
      "330C",
      "330C",
      "330C",
      "330C",
      "330C",
      "330C",
      "330C",
      "330C",
      "330C",
      "330C",
      "330C",
      "330C",
      "330C",
      "330C",
      "330C",
      "330C",
      "330C",
      "330C",
      "330C",
      "330C",
      "330C",
      "330C",
      "330C",
      "330C",
      "330C",
      "330C",
      "330C",
      "330C",
      "330C",
      "330C",
      "330C",
      "330C",
      "330C",
      "330C",
      "330C",
      "330C",
      "330C",
      "330C",
      "330C",
      "330C",
      "330C",
      "330C",
      "330C",
      "330C",
      "330C",
      "330C",
      "330C",
      "330",
      "330",
      "330",
      "256",
      "256",
      "256",
      "241C",
      "241C",
      "241C",
      "231",
      "231",
      "231",
      "221",
      "215",
      "215",
      "215",
      "205",
      "205",
      "205",
      "201",
      "201",
      "201",
      "200",
      "200",
      "200",
      "193",
      "193",
      "188",
      "188",
      "173",
      "173",
      "173",
      "173",
      "161",
      "159",
      "159",
      "159",
      "159",
      "156",
      "151",
      "151",
      "151",
      "139",
      "139",
      "136",
      "120",
      "120",
      "120",
      "086",
      "086",
      "086",
      "086",
      "062",
      "062",
      "062",
      "062",
      "030",
      "030",
      "030",
      "027",
      "027",
      "018",
      "018",
      "018",
      "008",
      "008",
      "006",
      "006",
      "006",
      "006"
    ],
    "swim:geom": "path",
    "swim:speeds": [
      176,
      176,
      188,
      188,
      188,
      261,
      261,
      261,
      261,
      356,
      356,
      356,
      356,
      401,
      401,
      443,
      443,
      452,
      452,
      452,
      458,
      458,
      478,
      478,
      478,
      488,
      488,
      488,
      502,
      502,
      501,
      502,
      502,
      502,
      501,
      501,
      501,
      499,
      499,
      495,
      499,
      499,
      499,
      499,
      500,
      500,
      500,
      501,
      501,
      501,
      501,
      502,
      502,
      502,
      502,
      498,
      498,
      498,
      496,
      494,
      494,
      494,
      494,
      494,
      495,
      495,
      496,
      496,
      496,
      496,
      496,
      496,
      496,
      505,
      505,
      505,
      510,
      510,
      510,
      511,
      512,
      515,
      515,
      515,
      516,
      516,
      516,
      516,
      516,
      516,
      520,
      520,
      521,
      520,
      520,
      519,
      520,
      519,
      518,
      521,
      521,
      521,
      523,
      523,
      523,
      528,
      528,
      528,
      528,
      530,
      530,
      533,
      533,
      533,
      533,
      533,
      535,
      535,
      535,
      535,
      536,
      536,
      537,
      550,
      550,
      550,
      552,
      552,
      552,
      552,
      552,
      549,
      549,
      549,
      549,
      546,
      546,
      551,
      551,
      553,
      553,
      553,
      553,
      553,
      553,
      507,
      507,
      507,
      528,
      528,
      531,
      531,
      531,
      531,
      531,
      532,
      532,
      532,
      532,
      532,
      532,
      532,
      529,
      531,
      531,
      531,
      531,
      531,
      533,
      533,
      533,
      530,
      530,
      530,
      523,
      523,
      520,
      520,
      519,
      519,
      519,
      519,
      519,
      521,
      519,
      519,
      519,
      519,
      519,
      521,
      521,
      521,
      521,
      521,
      524,
      524,
      524,
      526,
      526,
      526,
      532,
      532,
      532,
      534,
      534,
      534,
      534,
      534,
      534,
      534,
      534,
      534,
      530,
      530,
      530,
      530,
      530,
      511,
      511,
      511,
      511,
      510,
      510,
      510,
      464,
      464,
      464,
      464,
      464,
      464,
      465,
      465,
      473,
      473,
      473,
      474,
      474,
      474,
      474,
      492,
      492,
      492,
      492,
      488,
      488,
      492,
      492,
      492,
      492,
      492,
      512,
      512,
      512,
      512,
      513,
      513,
      513,
      511,
      511,
      511,
      511,
      504,
      504,
      504,
      504,
      502,
      502,
      501,
      501,
      495,
      495,
      495,
      492,
      493,
      493,
      493,
      493,
      493,
      493,
      493,
      505,
      505,
      505,
      506,
      506,
      506,
      505,
      505,
      505,
      505,
      496,
      496,
      493,
      493,
      491,
      491,
      491,
      491,
      491,
      490,
      490,
      490,
      490,
      490,
      491,
      491,
      491,
      491,
      489,
      489,
      489,
      489,
      489,
      489,
      488,
      486,
      484,
      484,
      484,
      484,
      484,
      481,
      481,
      481,
      481,
      485,
      485,
      485,
      487,
      487,
      487,
      489,
      489,
      489,
      486,
      486,
      486,
      486,
      486,
      486,
      486,
      486,
      484,
      484,
      484,
      478,
      478,
      478,
      463,
      463,
      463,
      461,
      453,
      453,
      453,
      436,
      436,
      436,
      434,
      434,
      434,
      399,
      399,
      399,
      393,
      393,
      390,
      390,
      377,
      377,
      377,
      377,
      370,
      366,
      366,
      366,
      366,
      369,
      368,
      368,
      368,
      360,
      360,
      353,
      346,
      346,
      346,
      295,
      295,
      295,
      295,
      270,
      270,
      270,
      270,
      228,
      228,
      228,
      195,
      195,
      161,
      161,
      161,
      153,
      153,
      125,
      125,
      125,
      125
    ],
    "swim:timestamps": [
      1781095706,
      1781095706,
      1781095739,
      1781095739,
      1781095739,
      1781095859,
      1781095919,
      1781095919,
      1781095919,
      1781096039,
      1781096039,
      1781096039,
      1781096039,
      1781096159,
      1781096159,
      1781096339,
      1781096339,
      1781096400,
      1781096400,
      1781096400,
      1781096460,
      1781096460,
      1781096580,
      1781096580,
      1781096580,
      1781096678,
      1781096678,
      1781096678,
      1781096798,
      1781096798,
      1781096820,
      1781096858,
      1781096858,
      1781096858,
      1781096978,
      1781096978,
      1781097159,
      1781097180,
      1781097180,
      1781097279,
      1781097300,
      1781097339,
      1781097399,
      1781097399,
      1781097519,
      1781097519,
      1781097519,
      1781097759,
      1781097759,
      1781097759,
      1781097759,
      1781097819,
      1781097840,
      1781097880,
      1781097880,
      1781098021,
      1781098021,
      1781098021,
      1781098081,
      1781098180,
      1781098201,
      1781098201,
      1781098201,
      1781098201,
      1781098300,
      1781098300,
      1781098360,
      1781098600,
      1781098600,
      1781098600,
      1781098600,
      1781098661,
      1781098661,
      1781098901,
      1781098901,
      1781098901,
      1781099021,
      1781099021,
      1781099021,
      1781099081,
      1781099201,
      1781099322,
      1781099322,
      1781099322,
      1781099442,
      1781099442,
      1781099442,
      1781099682,
      1781099682,
      1781099682,
      1781099784,
      1781099784,
      1781099844,
      1781099862,
      1781099862,
      1781099922,
      1781099964,
      1781099982,
      1781100025,
      1781100283,
      1781100283,
      1781100283,
      1781100325,
      1781100325,
      1781100325,
      1781100505,
      1781100505,
      1781100505,
      1781100505,
      1781100583,
      1781100583,
      1781100685,
      1781100685,
      1781100703,
      1781100703,
      1781100703,
      1781100866,
      1781100866,
      1781100866,
      1781100866,
      1781100884,
      1781100884,
      1781100944,
      1781101046,
      1781101046,
      1781101046,
      1781101106,
      1781101106,
      1781101166,
      1781101166,
      1781101166,
      1781101286,
      1781101286,
      1781101286,
      1781101286,
      1781101406,
      1781101406,
      1781101467,
      1781101467,
      1781101527,
      1781101527,
      1781101527,
      1781101647,
      1781101647,
      1781101647,
      1781101707,
      1781101707,
      1781101707,
      1781101887,
      1781101887,
      1781102067,
      1781102067,
      1781102067,
      1781102067,
      1781102067,
      1781102188,
      1781102188,
      1781102188,
      1781102308,
      1781102308,
      1781102308,
      1781102308,
      1781102548,
      1781102608,
      1781102608,
      1781102608,
      1781102608,
      1781102608,
      1781102788,
      1781102788,
      1781102788,
      1781102909,
      1781102909,
      1781102909,
      1781103089,
      1781103089,
      1781103149,
      1781103149,
      1781103269,
      1781103269,
      1781103269,
      1781103269,
      1781103269,
      1781103370,
      1781103389,
      1781103389,
      1781103389,
      1781103389,
      1781103389,
      1781103426,
      1781103490,
      1781103490,
      1781103490,
      1781103490,
      1781103606,
      1781103606,
      1781103606,
      1781103630,
      1781103630,
      1781103630,
      1781103726,
      1781103726,
      1781103726,
      1781103786,
      1781103846,
      1781103870,
      1781103870,
      1781103870,
      1781103870,
      1781103906,
      1781103966,
      1781103966,
      1781104026,
      1781104026,
      1781104026,
      1781104026,
      1781104026,
      1781104267,
      1781104267,
      1781104267,
      1781104267,
      1781104327,
      1781104327,
      1781104327,
      1781104567,
      1781104567,
      1781104567,
      1781104627,
      1781104627,
      1781104627,
      1781104687,
      1781104687,
      1781104808,
      1781104808,
      1781104808,
      1781104872,
      1781104872,
      1781104872,
      1781104872,
      1781104928,
      1781104928,
      1781104928,
      1781104928,
      1781105173,
      1781105173,
      1781105293,
      1781105293,
      1781105293,
      1781105293,
      1781105293,
      1781105413,
      1781105413,
      1781105413,
      1781105413,
      1781105533,
      1781105533,
      1781105533,
      1781105593,
      1781105593,
      1781105593,
      1781105593,
      1781105714,
      1781105714,
      1781105714,
      1781105714,
      1781105774,
      1781105774,
      1781105834,
      1781105834,
      1781105954,
      1781105954,
      1781105954,
      1781106074,
      1781106134,
      1781106134,
      1781106134,
      1781106134,
      1781106194,
      1781106194,
      1781106194,
      1781106375,
      1781106375,
      1781106375,
      1781106435,
      1781106435,
      1781106435,
      1781106495,
      1781106495,
      1781106495,
      1781106495,
      1781106675,
      1781106675,
      1781106735,
      1781106735,
      1781106795,
      1781106795,
      1781106795,
      1781106795,
      1781106795,
      1781106976,
      1781106976,
      1781106976,
      1781106976,
      1781106976,
      1781107096,
      1781107096,
      1781107096,
      1781107096,
      1781107396,
      1781107396,
      1781107396,
      1781107396,
      1781107402,
      1781107402,
      1781107456,
      1781107522,
      1781107582,
      1781107582,
      1781107582,
      1781107582,
      1781107582,
      1781107817,
      1781107817,
      1781107817,
      1781107817,
      1781107877,
      1781107877,
      1781107877,
      1781107937,
      1781107937,
      1781107937,
      1781108243,
      1781108243,
      1781108243,
      1781108481,
      1781108481,
      1781108481,
      1781108481,
      1781108481,
      1781108604,
      1781108604,
      1781108604,
      1781108874,
      1781108874,
      1781108874,
      1781108904,
      1781108904,
      1781108904,
      1781108994,
      1781108994,
      1781108994,
      1781109054,
      1781109084,
      1781109084,
      1781109084,
      1781109144,
      1781109144,
      1781109144,
      1781109174,
      1781109174,
      1781109174,
      1781109234,
      1781109234,
      1781109234,
      1781109294,
      1781109294,
      1781109325,
      1781109325,
      1781109415,
      1781109415,
      1781109415,
      1781109415,
      1781109595,
      1781109601,
      1781109601,
      1781109601,
      1781109601,
      1781109625,
      1781109655,
      1781109655,
      1781109655,
      1781109715,
      1781109715,
      1781109721,
      1781109775,
      1781109775,
      1781109775,
      1781109955,
      1781109955,
      1781109955,
      1781109955,
      1781110076,
      1781110076,
      1781110076,
      1781110076,
      1781110256,
      1781110256,
      1781110256,
      1781110316,
      1781110316,
      1781110376,
      1781110376,
      1781110376,
      1781110442,
      1781110442,
      1781110496,
      1781110496,
      1781110496,
      1781110496
    ],
    "wof:geomhash": "b0d6c53f65f3e7941b0eba779114077c",
    "wof:id": 2031504149,
    "wof:repo": "sfomuseum-data-flights-2026-06"
  },
  "bbox": [
    -122.41083333333334,
    37.63333333333333,
    -83.27833333333334,
    42.376111111111115
  ],
  "geometry": {"coordinates":[[-122.4,37.63333333333333],[-122.4,37.63333333333333],[-122.41083333333334,37.64416666666666],[-122.41083333333334,37.64416666666666],[-122.41083333333334,37.64416666666666],[-122.34305555555555,37.75833333333333],[-122.37666666666667,37.82611111111112],[-122.37666666666667,37.82611111111112],[-122.37666666666667,37.82611111111112],[-122.30805555555555,37.95805555555556],[-122.30805555555555,37.95805555555556],[-122.30805555555555,37.95805555555556],[-122.30805555555555,37.95805555555556],[-122.04166666666667,38.00944444444445],[-122.04166666666667,38.00944444444445],[-121.5936111111111,38.098888888888894],[-121.5936111111111,38.098888888888894],[-121.44055555555556,38.12888888888889],[-121.44055555555556,38.12888888888889],[-121.44055555555556,38.12888888888889],[-121.28472222222221,38.15861111111111],[-121.28472222222221,38.15861111111111],[-120.96472222222222,38.22555555555556],[-120.96472222222222,38.22555555555556],[-120.96472222222222,38.22555555555556],[-120.68833333333333,38.27861111111111],[-120.68833333333333,38.27861111111111],[-120.68833333333333,38.27861111111111],[-120.34444444444443,38.346944444444446],[-120.34444444444443,38.346944444444446],[-120.28611111111111,38.35916666666667],[-120.17222222222223,38.38027777777778],[-120.17222222222223,38.38027777777778],[-120.17222222222223,38.38027777777778],[-119.82888888888888,38.44499999999999],[-119.82888888888888,38.44499999999999],[-119.31416666666667,38.5425],[-119.24638888888889,38.55694444444444],[-119.24638888888889,38.55694444444444],[-118.9725,38.60027777777778],[-118.90166666666667,38.61027777777778],[-118.79777777777778,38.62277777777778],[-118.625,38.64666666666667],[-118.625,38.64666666666667],[-118.27555555555556,38.693888888888885],[-118.27555555555556,38.693888888888885],[-118.27555555555556,38.693888888888885],[-117.57111111111111,38.784166666666664],[-117.57111111111111,38.784166666666664],[-117.57111111111111,38.784166666666664],[-117.57111111111111,38.784166666666664],[-117.39444444444445,38.80555555555555],[-117.31972222222223,38.81472222222222],[-117.21388888888889,38.8275],[-117.21388888888889,38.8275],[-116.82444444444444,38.874722222222225],[-116.82444444444444,38.874722222222225],[-116.82444444444444,38.874722222222225],[-116.65194444444445,38.894999999999996],[-116.33972222222222,38.93083333333333],[-116.30777777777777,38.93444444444444],[-116.30777777777777,38.93444444444444],[-116.30777777777777,38.93444444444444],[-116.30777777777777,38.93444444444444],[-115.9875,38.970555555555556],[-115.9875,38.970555555555556],[-115.81083333333333,38.99],[-115.12055555555555,39.06333333333333],[-115.12055555555555,39.06333333333333],[-115.12055555555555,39.06333333333333],[-115.12055555555555,39.06333333333333],[-114.94611111111111,39.08111111111111],[-114.94611111111111,39.08111111111111],[-114.23055555555555,39.151111111111106],[-114.23055555555555,39.151111111111106],[-114.23055555555555,39.151111111111106],[-113.86611111111111,39.18527777777778],[-113.86611111111111,39.18527777777778],[-113.86611111111111,39.18527777777778],[-113.6863888888889,39.20166666666667],[-113.32,39.23444444444444],[-112.95194444444445,39.26555555555556],[-112.95194444444445,39.26555555555556],[-112.95194444444445,39.26555555555556],[-112.59472222222222,39.294999999999995],[-112.59472222222222,39.294999999999995],[-112.59472222222222,39.294999999999995],[-111.87694444444443,39.41888888888889],[-111.87694444444443,39.41888888888889],[-111.87694444444443,39.41888888888889],[-111.54277777777777,39.47944444444445],[-111.54277777777777,39.47944444444445],[-111.36,39.511944444444445],[-111.3325,39.51722222222222],[-111.3325,39.51722222222222],[-111.14083333333333,39.551111111111105],[-110.99527777777777,39.57638888888889],[-110.9588888888889,39.5825],[-110.81638888888888,39.60722222222223],[-110.04472222222222,39.73777777777778],[-110.04472222222222,39.73777777777778],[-110.04472222222222,39.73777777777778],[-109.89777777777779,39.761944444444445],[-109.89777777777779,39.761944444444445],[-109.89777777777779,39.761944444444445],[-109.33694444444444,39.8525],[-109.33694444444444,39.8525],[-109.33694444444444,39.8525],[-109.33694444444444,39.8525],[-109.10944444444443,39.888333333333335],[-109.10944444444443,39.888333333333335],[-108.80277777777778,39.93611111111111],[-108.80277777777778,39.93611111111111],[-108.72611111111111,39.94777777777777],[-108.72611111111111,39.94777777777777],[-108.72611111111111,39.94777777777777],[-108.22722222222222,40.02305555555555],[-108.22722222222222,40.02305555555555],[-108.22722222222222,40.02305555555555],[-108.22722222222222,40.02305555555555],[-108.15027777777779,40.03444444444444],[-108.15027777777779,40.03444444444444],[-107.95777777777778,40.0625],[-107.63944444444445,40.07833333333333],[-107.63944444444445,40.07833333333333],[-107.63944444444445,40.07833333333333],[-107.44083333333333,40.08527777777778],[-107.44083333333333,40.08527777777778],[-107.23972222222223,40.092222222222226],[-107.23972222222223,40.092222222222226],[-107.23972222222223,40.092222222222226],[-106.84638888888888,40.10472222222222],[-106.84638888888888,40.10472222222222],[-106.84638888888888,40.10472222222222],[-106.84638888888888,40.10472222222222],[-106.4225,40.11638888888889],[-106.4225,40.11638888888889],[-106.22222222222223,40.12138888888889],[-106.22222222222223,40.12138888888889],[-106.02222222222223,40.126111111111115],[-106.02222222222223,40.126111111111115],[-106.02222222222223,40.126111111111115],[-105.62138888888889,40.134166666666665],[-105.62138888888889,40.134166666666665],[-105.62138888888889,40.134166666666665],[-105.43472222222222,40.13722222222222],[-105.43472222222222,40.13722222222222],[-105.43472222222222,40.13722222222222],[-104.85638888888889,40.14666666666667],[-104.85638888888889,40.14666666666667],[-104.3125,40.151944444444446],[-104.3125,40.151944444444446],[-104.3125,40.151944444444446],[-104.3125,40.151944444444446],[-104.3125,40.151944444444446],[-103.92611111111111,40.154444444444444],[-103.92611111111111,40.154444444444444],[-103.92611111111111,40.154444444444444],[-103.53833333333333,40.155277777777776],[-103.53833333333333,40.155277777777776],[-103.53833333333333,40.155277777777776],[-103.53833333333333,40.155277777777776],[-102.77194444444444,40.16694444444444],[-102.54805555555555,40.172777777777775],[-102.54805555555555,40.172777777777775],[-102.54805555555555,40.172777777777775],[-102.54805555555555,40.172777777777775],[-102.54805555555555,40.172777777777775],[-101.96861111111112,40.184999999999995],[-101.96861111111112,40.184999999999995],[-101.96861111111112,40.184999999999995],[-101.58694444444444,40.19222222222222],[-101.58694444444444,40.19222222222222],[-101.58694444444444,40.19222222222222],[-101.01972222222223,40.2],[-101.01972222222223,40.2],[-100.83361111111111,40.20166666666667],[-100.83361111111111,40.20166666666667],[-100.4575,40.20583333333334],[-100.4575,40.20583333333334],[-100.4575,40.20583333333334],[-100.4575,40.20583333333334],[-100.4575,40.20583333333334],[-100.1588888888889,40.21027777777778],[-100.085,40.21194444444445],[-100.085,40.21194444444445],[-100.085,40.21194444444445],[-100.085,40.21194444444445],[-100.085,40.21194444444445],[-99.9675,40.21361111111111],[-99.7825,40.215],[-99.7825,40.215],[-99.7825,40.215],[-99.7825,40.215],[-99.39888888888889,40.219166666666666],[-99.39888888888889,40.219166666666666],[-99.39888888888889,40.219166666666666],[-99.32166666666666,40.219722222222224],[-99.32166666666666,40.219722222222224],[-99.32166666666666,40.219722222222224],[-99.01194444444444,40.22166666666667],[-99.01194444444444,40.22166666666667],[-99.01194444444444,40.22166666666667],[-98.81694444444445,40.22222222222222],[-98.62472222222222,40.22277777777778],[-98.54972222222221,40.22277777777778],[-98.54972222222221,40.22277777777778],[-98.54972222222221,40.22277777777778],[-98.54972222222221,40.22277777777778],[-98.43305555555555,40.223055555555554],[-98.23861111111111,40.22277777777778],[-98.23861111111111,40.22277777777778],[-98.04833333333333,40.221944444444446],[-98.04833333333333,40.221944444444446],[-98.04833333333333,40.221944444444446],[-98.04833333333333,40.221944444444446],[-98.04833333333333,40.221944444444446],[-97.30583333333333,40.21666666666667],[-97.30583333333333,40.21666666666667],[-97.30583333333333,40.21666666666667],[-97.30583333333333,40.21666666666667],[-97.12222222222222,40.21472222222223],[-97.12222222222222,40.21472222222223],[-97.12222222222222,40.21472222222223],[-96.6325,39.876666666666665],[-96.6325,39.876666666666665],[-96.6325,39.876666666666665],[-96.52972222222222,39.775277777777774],[-96.52972222222222,39.775277777777774],[-96.52972222222222,39.775277777777774],[-96.42666666666668,39.67388888888889],[-96.42666666666668,39.67388888888889],[-96.20472222222223,39.47361111111111],[-96.20472222222223,39.47361111111111],[-96.20472222222223,39.47361111111111],[-96.07277777777777,39.365],[-96.07277777777777,39.365],[-96.07277777777777,39.365],[-96.07277777777777,39.365],[-95.93805555555556,39.31194444444444],[-95.93805555555556,39.31194444444444],[-95.93805555555556,39.31194444444444],[-95.93805555555556,39.31194444444444],[-95.36222222222221,39.00277777777778],[-95.36222222222221,39.00277777777778],[-95.08277777777778,38.83222222222223],[-95.08277777777778,38.83222222222223],[-95.08277777777778,38.83222222222223],[-95.08277777777778,38.83222222222223],[-95.08277777777778,38.83222222222223],[-94.72555555555556,38.76833333333333],[-94.72555555555556,38.76833333333333],[-94.72555555555556,38.76833333333333],[-94.72555555555556,38.76833333333333],[-94.36749999999999,38.81944444444445],[-94.36749999999999,38.81944444444445],[-94.36749999999999,38.81944444444445],[-94.1888888888889,38.84444444444445],[-94.1888888888889,38.84444444444445],[-94.1888888888889,38.84444444444445],[-94.1888888888889,38.84444444444445],[-93.83722222222222,38.893055555555556],[-93.83722222222222,38.893055555555556],[-93.83722222222222,38.893055555555556],[-93.83722222222222,38.893055555555556],[-93.67888888888889,38.91444444444444],[-93.67888888888889,38.91444444444444],[-93.50333333333333,38.93833333333333],[-93.50333333333333,38.93833333333333],[-93.15444444444445,38.98416666666667],[-93.15444444444445,38.98416666666667],[-93.15444444444445,38.98416666666667],[-92.81277777777777,39.02861111111111],[-92.63111111111111,39.05166666666666],[-92.63111111111111,39.05166666666666],[-92.63111111111111,39.05166666666666],[-92.63111111111111,39.05166666666666],[-92.45416666666667,39.07361111111111],[-92.45416666666667,39.07361111111111],[-92.45416666666667,39.07361111111111],[-91.93416666666667,39.17361111111111],[-91.93416666666667,39.17361111111111],[-91.93416666666667,39.17361111111111],[-91.76361111111112,39.225833333333334],[-91.76361111111112,39.225833333333334],[-91.76361111111112,39.225833333333334],[-91.61611111111111,39.270833333333336],[-91.61611111111111,39.270833333333336],[-91.61611111111111,39.270833333333336],[-91.61611111111111,39.270833333333336],[-91.11527777777778,39.42166666666667],[-91.11527777777778,39.42166666666667],[-90.95111111111112,39.47083333333334],[-90.95111111111112,39.47083333333334],[-90.78611111111111,39.51972222222222],[-90.78611111111111,39.51972222222222],[-90.78611111111111,39.51972222222222],[-90.78611111111111,39.51972222222222],[-90.78611111111111,39.51972222222222],[-90.29138888888889,39.663888888888884],[-90.29138888888889,39.663888888888884],[-90.29138888888889,39.663888888888884],[-90.29138888888889,39.663888888888884],[-90.29138888888889,39.663888888888884],[-89.93194444444445,39.7675],[-89.93194444444445,39.7675],[-89.93194444444445,39.7675],[-89.93194444444445,39.7675],[-89.06777777777778,39.85194444444445],[-89.06777777777778,39.85194444444445],[-89.06777777777778,39.85194444444445],[-89.06777777777778,39.85194444444445],[-89.07055555555556,39.85194444444445],[-89.07055555555556,39.85194444444445],[-88.89500000000001,39.855000000000004],[-88.71944444444445,39.8575],[-88.5461111111111,39.86],[-88.5461111111111,39.86],[-88.5461111111111,39.86],[-88.5461111111111,39.86],[-88.5461111111111,39.86],[-87.85916666666667,39.86694444444444],[-87.85916666666667,39.86694444444444],[-87.85916666666667,39.86694444444444],[-87.85916666666667,39.86694444444444],[-87.67944444444444,39.86805555555556],[-87.67944444444444,39.86805555555556],[-87.67944444444444,39.86805555555556],[-87.5,39.868611111111115],[-87.5,39.868611111111115],[-87.5,39.868611111111115],[-86.6061111111111,39.86888888888889],[-86.6061111111111,39.86888888888889],[-86.6061111111111,39.86888888888889],[-86.05722222222222,40.13916666666667],[-86.05722222222222,40.13916666666667],[-86.05722222222222,40.13916666666667],[-86.05722222222222,40.13916666666667],[-86.05722222222222,40.13916666666667],[-85.82638888888889,40.35777777777778],[-85.82638888888889,40.35777777777778],[-85.82638888888889,40.35777777777778],[-85.3286111111111,40.80888888888889],[-85.3286111111111,40.80888888888889],[-85.3286111111111,40.80888888888889],[-85.255,40.870555555555555],[-85.255,40.870555555555555],[-85.255,40.870555555555555],[-85.07805555555555,40.986666666666665],[-85.07805555555555,40.986666666666665],[-85.07805555555555,40.986666666666665],[-84.95194444444445,41.068333333333335],[-84.87666666666667,41.11694444444444],[-84.87666666666667,41.11694444444444],[-84.87666666666667,41.11694444444444],[-84.75805555555556,41.19777777777777],[-84.75805555555556,41.19777777777777],[-84.75805555555556,41.19777777777777],[-84.71055555555556,41.2325],[-84.71055555555556,41.2325],[-84.71055555555556,41.2325],[-84.60416666666666,41.31027777777778],[-84.60416666666666,41.31027777777778],[-84.60416666666666,41.31027777777778],[-84.49944444444445,41.38666666666666],[-84.49944444444445,41.38666666666666],[-84.44166666666668,41.42944444444444],[-84.44166666666668,41.42944444444444],[-84.33083333333333,41.55333333333333],[-84.33083333333333,41.55333333333333],[-84.33083333333333,41.55333333333333],[-84.33083333333333,41.55333333333333],[-84.07722222222222,41.80555555555555],[-84.06083333333333,41.81638888888889],[-84.06083333333333,41.81638888888889],[-84.06083333333333,41.81638888888889],[-84.06083333333333,41.81638888888889],[-84.03083333333333,41.83777777777778],[-83.97555555555556,41.876111111111115],[-83.97555555555556,41.876111111111115],[-83.97555555555556,41.876111111111115],[-83.87722222222222,41.943888888888885],[-83.87722222222222,41.943888888888885],[-83.86222222222221,41.9525],[-83.7786111111111,42.013888888888886],[-83.7786111111111,42.013888888888886],[-83.7786111111111,42.013888888888886],[-83.5325,42.19222222222222],[-83.5325,42.19222222222222],[-83.5325,42.19222222222222],[-83.5325,42.19222222222222],[-83.43472222222222,42.33083333333334],[-83.43472222222222,42.33083333333334],[-83.43472222222222,42.33083333333334],[-83.43472222222222,42.33083333333334],[-83.27833333333334,42.376111111111115],[-83.27833333333334,42.376111111111115],[-83.27833333333334,42.376111111111115],[-83.29583333333333,42.32166666666667],[-83.29583333333333,42.32166666666667],[-83.32638888888889,42.28055555555555],[-83.32638888888889,42.28055555555555],[-83.32638888888889,42.28055555555555],[-83.36222222222221,42.23166666666667],[-83.36222222222221,42.23166666666667],[-83.38166666666666,42.20527777777778],[-83.38166666666666,42.20527777777778],[-83.38166666666666,42.20527777777778],[-83.38166666666666,42.20527777777778]],"type":"LineString"}
}
