{
  "id": 2031683523,
  "type": "Feature",
  "properties": {
    "geom:area": 0,
    "geom:bbox": "-122.762110,37.543630,-122.115130,38.502930",
    "geom:latitude": 37.884126943075685,
    "geom:longitude": -122.49980345757264,
    "src:alt_label": "swim-approach",
    "src:geom": "swim",
    "swim:elevations": [
      7386,
      7079,
      6834,
      6530,
      6345,
      5987,
      5725,
      5405,
      5182,
      4900,
      4640,
      4558,
      4307,
      3902,
      3543,
      3442,
      3356,
      3355,
      3353,
      3353,
      3261,
      2921,
      2565,
      2228,
      1757,
      1561,
      1438,
      1331,
      1258,
      1074,
      869,
      761,
      627,
      507,
      370,
      281,
      169,
      22
    ],
    "swim:geom": "approach",
    "swim:timestamps": [
      1782845209,
      1782845242,
      1782845269,
      1782845303,
      1782845323,
      1782845361,
      1782845391,
      1782845425,
      1782845453,
      1782845487,
      1782845516,
      1782845528,
      1782845555,
      1782845596,
      1782845629,
      1782845653,
      1782845689,
      1782845719,
      1782845735,
      1782845763,
      1782845783,
      1782845816,
      1782845841,
      1782845866,
      1782845904,
      1782845929,
      1782845960,
      1782845987,
      1782846009,
      1782846044,
      1782846087,
      1782846105,
      1782846135,
      1782846167,
      1782846195,
      1782846218,
      1782846251,
      1782846287
    ],
    "wof:geomhash": "a3587be24b495255c19369d6eff52cc8",
    "wof:id": 2031683523,
    "wof:repo": "sfomuseum-data-flights-2026-06"
  },
  "bbox": [
    -122.76211,
    37.54363,
    -122.11513,
    38.50293
  ],
  "geometry": {"coordinates":[[-122.68964,38.50293],[-122.70633,38.44351],[-122.71959,38.39602],[-122.73606,38.33707],[-122.74596,38.30164],[-122.76211,38.23561],[-122.75557,38.18346],[-122.73882,38.1251],[-122.72483,38.07811],[-122.70796,38.02033],[-122.69413,37.97232],[-122.68863,37.95349],[-122.67353,37.90941],[-122.62361,37.85244],[-122.57703,37.80854],[-122.54422,37.77779],[-122.49812,37.73426],[-122.45729,37.70301],[-122.43063,37.69413],[-122.3854,37.68123],[-122.35405,37.67402],[-122.30658,37.66309],[-122.27026,37.65507],[-122.23516,37.64749],[-122.18457,37.6335],[-122.15162,37.62181],[-122.11646,37.60255],[-122.11513,37.57673],[-122.12533,37.55713],[-122.15759,37.54363],[-122.20244,37.54715],[-122.21993,37.55571],[-122.24628,37.56688],[-122.27006,37.57701],[-122.29092,37.58576],[-122.30727,37.59266],[-122.33054,37.60233],[-122.3569,37.61339]],"type":"LineString"}
}
