{
  "id": 2031461735,
  "type": "Feature",
  "properties": {
    "date:inception_lower": "2026-06-05",
    "date:inception_upper": "2026-06-05",
    "edtf:cessation": "",
    "edtf:inception": "2026-06-05",
    "flysfo:actual_timestamp": -1,
    "flysfo:airline": "UA",
    "flysfo:base_airline": "",
    "flysfo:base_flight_number": "4057",
    "flysfo:date": "2026-06-05",
    "flysfo:estimated_timestamp": 1780692540,
    "flysfo:event": "D",
    "flysfo:flight_number": "UA58",
    "flysfo:gate": "",
    "flysfo:journey": "SFO-FRA",
    "flysfo:scheduled_timestamp": 1780692900,
    "flysfo:timestamp": 1780692900,
    "geom:area": 0,
    "geom:bbox": "-122.370943,37.617990,7.267284,49.945918",
    "geom:latitude": 43.781954,
    "geom:longitude": -57.5518295,
    "iata:airline": "UA",
    "iata:base_airline": "",
    "icao:airline": "UAL",
    "icao:base_airline": "ACA",
    "lbl:latitude": 37.61799,
    "lbl:longitude": -122.370943,
    "sfomuseum:airline_id": 1159285413,
    "sfomuseum:arrival_id": 102549057,
    "sfomuseum:base_flight_id": "20260605-D-ACA-4057",
    "sfomuseum:departure_id": 102527513,
    "sfomuseum:flight_id": "20260605-D-UAL-58",
    "sfomuseum:flight_number": [
      "UAL58",
      "UA58"
    ],
    "sfomuseum:placetype": "flight",
    "src:geom": "flysfo",
    "wof:belongsto": [],
    "wof:country": "US",
    "wof:created": 1780762625,
    "wof:geomhash": "a63fc4dac3cd4064d907a0b9ef33a7bc",
    "wof:hierarchy": [
      {
        "custom_id": 2031461735,
        "flight_id": 2031461735
      }
    ],
    "wof:id": 2031461735,
    "wof:involves": [
      102549057,
      102527513,
      1159285413,
      -1,
      1159283597
    ],
    "wof:lastmodified": 1780762625,
    "wof:name": "UA58 (SFO-FRA)",
    "wof:parent_id": -1,
    "wof:placetype": "custom",
    "wof:placetype_alt": [
      "flight"
    ],
    "wof:repo": "sfomuseum-data-flights-2026-06",
    "wof:superseded_by": [],
    "wof:supersedes": []
  },
  "bbox": [
    -122.370943,
    37.61799,
    7.267284,
    49.945918
  ],
  "geometry": {"coordinates":[[-122.370943,37.61799],[7.267284,49.945918]],"type":"MultiPoint"}
}
