{
  "id": 2031646315,
  "type": "Feature",
  "properties": {
    "geom:area": 0,
    "geom:bbox": "-122.836130,37.380370,-122.078360,38.506530",
    "geom:latitude": 37.79794052923219,
    "geom:longitude": -122.47350542924369,
    "src:alt_label": "swim-approach",
    "src:geom": "swim",
    "swim:elevations": [
      6719,
      6650,
      6633,
      6580,
      6389,
      6266,
      6080,
      5632,
      5568,
      5444,
      5330,
      5300,
      5207,
      4799,
      4568,
      4440,
      4253,
      4123,
      3838,
      3493,
      3351,
      3353,
      3353,
      3353,
      3353,
      3301,
      3213,
      2866,
      2497,
      2332,
      2291,
      2135,
      2132,
      2020,
      1905,
      1885,
      1848,
      1795,
      1697,
      1527,
      1523,
      1524,
      1400,
      1249,
      1113,
      961,
      807,
      633,
      550,
      515,
      496,
      416,
      339,
      259,
      117,
      60,
      275
    ],
    "swim:geom": "approach",
    "swim:timestamps": [
      1782503111,
      1782503126,
      1782503132,
      1782503141,
      1782503181,
      1782503205,
      1782503227,
      1782503277,
      1782503285,
      1782503299,
      1782503316,
      1782503325,
      1782503349,
      1782503387,
      1782503417,
      1782503443,
      1782503479,
      1782503498,
      1782503521,
      1782503575,
      1782503604,
      1782503634,
      1782503640,
      1782503649,
      1782503697,
      1782503726,
      1782503733,
      1782503766,
      1782503800,
      1782503826,
      1782503837,
      1782503878,
      1782503906,
      1782503934,
      1782503968,
      1782503980,
      1782503997,
      1782504003,
      1782504024,
      1782504057,
      1782504086,
      1782504108,
      1782504144,
      1782504168,
      1782504187,
      1782504213,
      1782504244,
      1782504289,
      1782504312,
      1782504324,
      1782504331,
      1782504354,
      1782504377,
      1782504401,
      1782504446,
      1782504462,
      1782504480
    ],
    "wof:geomhash": "9d4c19b916b3e90ca028a643d4b84061",
    "wof:id": 2031646315,
    "wof:repo": "sfomuseum-data-flights-2026-06"
  },
  "bbox": [
    -122.83613,
    37.38037,
    -122.07836,
    38.50653
  ],
  "geometry": {"coordinates":[[-122.83613,38.50653],[-122.82886,38.47676],[-122.82592,38.46484],[-122.82161,38.44709],[-122.80272,38.36958],[-122.79125,38.32299],[-122.78086,38.28016],[-122.75768,38.18673],[-122.75325,38.17135],[-122.7455,38.14554],[-122.73599,38.11468],[-122.73089,38.09805],[-122.71863,38.05758],[-122.69979,37.99243],[-122.68497,37.9398],[-122.67151,37.90049],[-122.62986,37.85947],[-122.60893,37.83979],[-122.58397,37.81567],[-122.52354,37.75811],[-122.49161,37.72798],[-122.46015,37.69844],[-122.45336,37.692],[-122.44422,37.68346],[-122.39324,37.63554],[-122.3618,37.60557],[-122.35569,37.59826],[-122.3344,37.55887],[-122.31435,37.52025],[-122.29756,37.49203],[-122.29023,37.48027],[-122.26324,37.43611],[-122.23913,37.41099],[-122.20069,37.39716],[-122.15377,37.38189],[-122.13626,37.38037],[-122.11385,37.38721],[-122.10717,37.39209],[-122.09194,37.41251],[-122.07836,37.44836],[-122.08665,37.47778],[-122.09477,37.49705],[-122.12352,37.51463],[-122.14383,37.52351],[-122.15999,37.53058],[-122.18228,37.54],[-122.20796,37.55076],[-122.24073,37.56464],[-122.25508,37.57071],[-122.26246,37.57383],[-122.26691,37.57567],[-122.28118,37.58163],[-122.29593,37.58781],[-122.31149,37.59439],[-122.33928,37.60608],[-122.34864,37.60995],[-122.35984,37.61502]],"type":"LineString"}
}
