{
  "id": 2031425963,
  "type": "Feature",
  "properties": {
    "geom:area": 0,
    "geom:bbox": "-122.960278,37.695556,-121.142500,47.355278",
    "geom:latitude": 42.653762002862635,
    "geom:longitude": -122.12037646675677,
    "src:alt_label": "swim-path",
    "src:geom": "swim",
    "swim:altitudes": [
      "053",
      "084",
      "084",
      "124",
      "148",
      "180",
      "200",
      "204",
      "204",
      "238",
      "261",
      "264",
      "264",
      "272",
      "272",
      "289",
      "314",
      "314",
      "314",
      "320C",
      "320C",
      "320C",
      "320C",
      "326",
      "326",
      "341",
      "360C",
      "360C",
      "360C",
      "360C",
      "360C",
      "360C",
      "360C",
      "360C",
      "360C",
      "360C",
      "360C",
      "360C",
      "360C",
      "360C",
      "360C",
      "360C",
      "360C",
      "360C",
      "360C",
      "360C",
      "360C",
      "360C",
      "360C",
      "360C",
      "360C",
      "360",
      "334",
      "334",
      "315",
      "300C",
      "300C",
      "300",
      "300",
      "296",
      "241",
      "219",
      "143",
      "112",
      "112",
      "090",
      "090",
      "020",
      "020",
      "020"
    ],
    "swim:geom": "path",
    "swim:speeds": [
      262,
      293,
      293,
      343,
      362,
      388,
      400,
      411,
      411,
      427,
      435,
      440,
      440,
      445,
      445,
      454,
      451,
      451,
      451,
      444,
      449,
      450,
      448,
      448,
      448,
      438,
      417,
      417,
      419,
      419,
      418,
      418,
      417,
      416,
      416,
      401,
      390,
      390,
      448,
      443,
      371,
      371,
      372,
      374,
      374,
      389,
      389,
      426,
      429,
      432,
      432,
      427,
      442,
      442,
      437,
      434,
      434,
      432,
      432,
      431,
      394,
      383,
      346,
      311,
      311,
      280,
      280,
      152,
      157,
      157
    ],
    "swim:timestamps": [
      1780366414,
      1780366474,
      1780366474,
      1780366585,
      1780366654,
      1780366765,
      1780366826,
      1780366834,
      1780366834,
      1780366954,
      1780367066,
      1780367074,
      1780367074,
      1780367126,
      1780367126,
      1780367194,
      1780367315,
      1780367315,
      1780367315,
      1780367435,
      1780367495,
      1780367555,
      1780367615,
      1780367667,
      1780367667,
      1780367735,
      1780367907,
      1780367907,
      1780368027,
      1780368208,
      1780368276,
      1780368276,
      1780368388,
      1780368516,
      1780368516,
      1780368636,
      1780368748,
      1780368748,
      1780368929,
      1780368989,
      1780369287,
      1780369287,
      1780369407,
      1780369467,
      1780369467,
      1780369707,
      1780369707,
      1780370068,
      1780370128,
      1780370188,
      1780370188,
      1780370368,
      1780370548,
      1780370548,
      1780370669,
      1780370849,
      1780370849,
      1780370969,
      1780370969,
      1780371089,
      1780371331,
      1780371391,
      1780371631,
      1780371745,
      1780371745,
      1780371871,
      1780371871,
      1780372346,
      1780372352,
      1780372352
    ],
    "wof:geomhash": "ed3949f345807ecb06e5b2e937e03962",
    "wof:id": 2031425963,
    "wof:repo": "sfomuseum-data-flights-2026-06"
  },
  "bbox": [
    -122.96027777777778,
    37.69555555555555,
    -121.14250000000001,
    47.35527777777778
  ],
  "geometry": {"coordinates":[[-122.27055555555556,37.69555555555555],[-122.20805555555556,37.75138888888889],[-122.20805555555556,37.75138888888889],[-122.17416666666666,37.89888888888889],[-122.16611111111112,38.020833333333336],[-122.14666666666668,38.208333333333336],[-122.13027777777778,38.32138888888889],[-122.12944444444443,38.35138888888889],[-122.12944444444443,38.35138888888889],[-122.05055555555555,38.588055555555556],[-121.99111111111111,38.78666666666666],[-121.99194444444444,38.8275],[-121.99194444444444,38.8275],[-121.98333333333333,38.910555555555554],[-121.98333333333333,38.910555555555554],[-121.9725,39.081944444444446],[-121.95305555555557,39.33388888888889],[-121.95305555555557,39.33388888888889],[-121.95305555555557,39.33388888888889],[-121.93583333333333,39.55777777777777],[-121.92583333333334,39.683611111111105],[-121.91638888888889,39.808055555555555],[-121.90472222222223,39.955000000000005],[-121.89722222222223,40.052499999999995],[-121.89722222222223,40.052499999999995],[-121.88583333333334,40.197222222222216],[-121.86,40.522777777777776],[-121.86,40.522777777777776],[-121.84138888888889,40.755],[-121.81333333333333,41.10388888888889],[-121.80194444444444,41.24722222222222],[-121.80194444444444,41.24722222222222],[-121.78527777777778,41.45388888888889],[-121.76416666666667,41.70805555555556],[-121.76416666666667,41.70805555555556],[-121.74527777777777,41.93611111111111],[-121.72166666666666,42.12111111111111],[-121.72166666666666,42.12111111111111],[-121.29638888888888,42.28194444444444],[-121.14250000000001,42.32777777777778],[-121.41777777777779,42.70777777777778],[-121.41777777777779,42.70777777777778],[-121.57194444444444,42.87916666666667],[-121.65055555555556,42.96611111111111],[-121.65055555555556,42.96611111111111],[-121.98083333333334,43.33583333333333],[-121.98083333333334,43.33583333333333],[-122.15861111111111,44.00222222222222],[-122.18694444444445,44.120555555555555],[-122.21583333333334,44.23916666666667],[-122.21583333333334,44.23916666666667],[-122.55138888888888,44.45805555555556],[-122.96027777777778,44.67166666666667],[-122.96027777777778,44.67166666666667],[-122.94833333333334,44.89888888888889],[-122.78555555555555,45.238055555555555],[-122.78555555555555,45.238055555555555],[-122.69805555555556,45.469166666666666],[-122.69805555555556,45.469166666666666],[-122.61138888888888,45.69888888888889],[-122.68805555555556,46.14944444444444],[-122.71083333333334,46.263333333333335],[-122.73416666666667,46.65472222222222],[-122.68611111111112,46.82833333333333],[-122.68611111111112,46.82833333333333],[-122.52194444444444,46.94694444444444],[-122.52194444444444,46.94694444444444],[-122.31861111111111,47.355000000000004],[-122.31888888888888,47.35527777777778],[-122.31888888888888,47.35527777777778]],"type":"LineString"}
}
