{
  "id": 2031513359,
  "type": "Feature",
  "properties": {
    "geom:area": 0,
    "geom:bbox": "-122.383333,37.666667,-70.915556,45.126389",
    "geom:latitude": 42.21133412417613,
    "geom:longitude": -96.5158216647039,
    "src:alt_label": "swim-path",
    "src:geom": "swim",
    "swim:altitudes": [
      "029",
      "029",
      "029",
      "029",
      "043",
      "055",
      "076",
      "076",
      "099",
      "099",
      "099",
      "109",
      "109",
      "109",
      "109",
      "124",
      "158",
      "158",
      "158",
      "158",
      "158",
      "215",
      "215",
      "215",
      "226",
      "226",
      "226",
      "256",
      "256",
      "256",
      "256",
      "265",
      "265",
      "265",
      "283",
      "283",
      "287",
      "287",
      "287",
      "291",
      "295",
      "295",
      "301",
      "301",
      "301",
      "306",
      "306",
      "306",
      "316",
      "316",
      "325",
      "325",
      "339",
      "339",
      "349C",
      "349C",
      "349C",
      "350C",
      "350C",
      "350C",
      "350C",
      "350C",
      "350C",
      "350C",
      "350C",
      "350C",
      "350C",
      "350C",
      "350C",
      "350C",
      "350C",
      "350C",
      "350C",
      "350C",
      "350C",
      "350C",
      "350C",
      "350C",
      "350C",
      "350C",
      "350C",
      "350C",
      "350C",
      "350C",
      "350C",
      "350C",
      "350C",
      "350C",
      "351C",
      "351C",
      "350C",
      "350C",
      "350C",
      "350C",
      "350C",
      "350C",
      "350C",
      "350C",
      "350C",
      "350C",
      "350C",
      "350C",
      "350C",
      "350C",
      "350C",
      "350C",
      "350C",
      "350C",
      "350C",
      "350C",
      "350C",
      "350C",
      "350C",
      "350C",
      "350C",
      "350C",
      "350C",
      "350C",
      "350C",
      "350C",
      "350C",
      "350C",
      "350C",
      "350C",
      "350C",
      "350C",
      "350C",
      "350C",
      "350C",
      "350C",
      "350C",
      "350C",
      "350C",
      "350C",
      "350C",
      "350C",
      "350C",
      "350C",
      "343",
      "343",
      "343",
      "343",
      "330C",
      "330C",
      "330C",
      "330C",
      "330C",
      "330C",
      "330C",
      "330C",
      "330C",
      "330C",
      "330C",
      "330C",
      "330C",
      "330C",
      "330C",
      "330C",
      "330C",
      "330C",
      "330C",
      "330C",
      "330C",
      "330C",
      "330C",
      "330C",
      "330C",
      "330C",
      "330C",
      "330C",
      "330C",
      "330C",
      "330C",
      "330C",
      "330C",
      "330C",
      "330C",
      "330C",
      "330C",
      "330C",
      "330C",
      "330C",
      "330C",
      "330C",
      "330C",
      "330C",
      "330C",
      "330C",
      "330C",
      "330C",
      "330C",
      "330C",
      "330C",
      "330C",
      "330C",
      "330C",
      "330C",
      "330C",
      "330C",
      "330C",
      "330C",
      "330C",
      "330C",
      "330C",
      "330C",
      "330C",
      "330C",
      "330C",
      "330C",
      "330C",
      "330C",
      "330C",
      "330C",
      "330C",
      "330C",
      "330C",
      "330C",
      "330C",
      "330C",
      "330C",
      "330C",
      "330C",
      "330C",
      "330C",
      "330C",
      "330C",
      "330C",
      "330C",
      "330C",
      "330C",
      "330C",
      "330C",
      "330C",
      "330C",
      "330C",
      "330C",
      "330C",
      "330C",
      "330C",
      "330C",
      "330C",
      "330C",
      "330C",
      "330C",
      "330C",
      "330C",
      "330C",
      "330C",
      "330C",
      "330C",
      "330C",
      "330C",
      "330C",
      "330C",
      "330C",
      "330C",
      "330C",
      "330C",
      "330C",
      "330C",
      "330C",
      "330C",
      "330C",
      "330C",
      "330C",
      "330C",
      "330C",
      "330C",
      "330C",
      "330C",
      "330C",
      "330C",
      "330C",
      "330C",
      "330C",
      "330C",
      "330C",
      "330C",
      "330C",
      "330C",
      "330C",
      "330C",
      "330C",
      "330C",
      "330C",
      "330C",
      "330C",
      "330C",
      "330C",
      "330C",
      "330C",
      "330C",
      "330C",
      "330C",
      "330C",
      "330C",
      "330C",
      "330C",
      "330C",
      "330C",
      "330C",
      "330C",
      "330C",
      "330C",
      "330C",
      "330C",
      "330C",
      "330C",
      "330C",
      "330C",
      "330C",
      "330C",
      "330C",
      "330C",
      "330C",
      "330C",
      "330C",
      "330C",
      "330C",
      "330C",
      "330C",
      "330C",
      "330C",
      "330C",
      "330C",
      "330C",
      "330C",
      "330C",
      "330C",
      "330C",
      "330C",
      "331C",
      "331C",
      "331C",
      "331C",
      "331C",
      "330C",
      "330C",
      "330C",
      "330C",
      "330C",
      "330C",
      "330C",
      "330C",
      "330C",
      "330C",
      "330C",
      "330C",
      "330C",
      "330C",
      "330C",
      "330C",
      "330C",
      "330C",
      "330C",
      "330C",
      "330C",
      "330C",
      "330C",
      "331C",
      "331C",
      "331C",
      "331C",
      "331C",
      "330C",
      "330C",
      "330C",
      "330C",
      "330C",
      "330C",
      "330C",
      "330C",
      "331C",
      "331C",
      "331C",
      "330C",
      "330C",
      "331C",
      "331C",
      "331C",
      "330C",
      "330C",
      "330C",
      "330C",
      "330C",
      "330C",
      "330C",
      "330C",
      "330C",
      "330C",
      "330C",
      "330C",
      "330C",
      "330C",
      "330C",
      "331C",
      "331C",
      "331C",
      "331C",
      "330C",
      "330C",
      "330C",
      "330C",
      "330C",
      "330C",
      "330C",
      "330C",
      "330C",
      "330C",
      "330C",
      "330C",
      "330C",
      "330C",
      "330C",
      "330C",
      "330C",
      "330C",
      "330C",
      "330C",
      "330C",
      "330C",
      "330C",
      "330C",
      "330C",
      "330C",
      "330C",
      "330C",
      "330C",
      "330C",
      "330C",
      "330C",
      "330C",
      "330C",
      "330C",
      "330C",
      "330C",
      "330C",
      "330C",
      "330C",
      "330C",
      "330C",
      "330C",
      "330C",
      "330C",
      "330C",
      "330C",
      "330C",
      "330C",
      "330C",
      "330C",
      "330C",
      "330C",
      "330C",
      "330C",
      "330C",
      "330C",
      "330C",
      "330C",
      "330C",
      "330C",
      "330C",
      "330C",
      "330C",
      "330C",
      "330C",
      "330C",
      "330C",
      "330C",
      "330C",
      "330C",
      "330C",
      "330C",
      "330C",
      "330C",
      "330C",
      "330C",
      "330C",
      "330C",
      "330C",
      "330",
      "330",
      "330",
      "330",
      "330",
      "330",
      "184",
      "184",
      "184",
      "184",
      "144",
      "144",
      "144",
      "144",
      "085",
      "085",
      "085",
      "085",
      "069",
      "069",
      "069",
      "069",
      "045",
      "045",
      "045",
      "039",
      "039",
      "039",
      "027",
      "027",
      "027",
      "002",
      "002",
      "001",
      "001"
    ],
    "swim:geom": "path",
    "swim:speeds": [
      177,
      177,
      177,
      177,
      211,
      265,
      278,
      278,
      283,
      283,
      283,
      320,
      320,
      320,
      320,
      347,
      371,
      371,
      371,
      371,
      371,
      419,
      419,
      419,
      435,
      435,
      435,
      466,
      466,
      466,
      466,
      471,
      471,
      471,
      484,
      484,
      486,
      486,
      486,
      491,
      496,
      496,
      494,
      494,
      494,
      497,
      497,
      497,
      495,
      495,
      495,
      495,
      492,
      492,
      490,
      490,
      490,
      487,
      487,
      487,
      487,
      486,
      486,
      485,
      485,
      485,
      485,
      485,
      484,
      484,
      484,
      484,
      484,
      484,
      484,
      484,
      484,
      484,
      484,
      484,
      484,
      484,
      484,
      485,
      485,
      487,
      487,
      487,
      488,
      488,
      489,
      489,
      489,
      489,
      489,
      489,
      489,
      489,
      489,
      489,
      489,
      490,
      490,
      491,
      491,
      491,
      491,
      492,
      492,
      492,
      492,
      493,
      493,
      493,
      493,
      493,
      493,
      493,
      493,
      493,
      493,
      493,
      493,
      493,
      493,
      493,
      493,
      494,
      494,
      494,
      494,
      493,
      493,
      493,
      492,
      492,
      492,
      492,
      493,
      493,
      493,
      493,
      500,
      503,
      503,
      503,
      503,
      504,
      504,
      504,
      504,
      504,
      505,
      505,
      505,
      505,
      504,
      504,
      504,
      502,
      502,
      502,
      502,
      501,
      501,
      501,
      500,
      500,
      500,
      501,
      501,
      501,
      501,
      501,
      501,
      504,
      504,
      504,
      504,
      504,
      504,
      503,
      503,
      503,
      503,
      505,
      505,
      505,
      505,
      507,
      507,
      507,
      507,
      507,
      507,
      506,
      506,
      506,
      507,
      507,
      507,
      508,
      508,
      508,
      508,
      508,
      512,
      513,
      513,
      513,
      514,
      514,
      514,
      515,
      515,
      519,
      519,
      519,
      519,
      519,
      521,
      521,
      521,
      521,
      521,
      529,
      529,
      529,
      529,
      530,
      530,
      531,
      531,
      531,
      531,
      531,
      544,
      544,
      544,
      544,
      548,
      548,
      548,
      548,
      550,
      550,
      550,
      550,
      550,
      550,
      550,
      553,
      553,
      553,
      558,
      558,
      558,
      558,
      558,
      558,
      558,
      558,
      558,
      558,
      558,
      558,
      558,
      561,
      561,
      561,
      566,
      566,
      566,
      566,
      570,
      570,
      570,
      570,
      570,
      573,
      573,
      573,
      573,
      573,
      573,
      573,
      572,
      572,
      572,
      572,
      572,
      572,
      572,
      572,
      572,
      572,
      572,
      572,
      572,
      573,
      573,
      573,
      573,
      574,
      574,
      574,
      574,
      572,
      572,
      572,
      565,
      565,
      565,
      565,
      565,
      563,
      563,
      563,
      563,
      563,
      565,
      565,
      565,
      565,
      565,
      565,
      564,
      564,
      564,
      564,
      564,
      551,
      551,
      551,
      551,
      551,
      540,
      540,
      540,
      540,
      539,
      539,
      539,
      539,
      539,
      539,
      539,
      539,
      528,
      521,
      521,
      527,
      527,
      527,
      527,
      527,
      528,
      528,
      528,
      532,
      532,
      532,
      532,
      532,
      533,
      533,
      533,
      533,
      534,
      534,
      534,
      534,
      534,
      534,
      534,
      533,
      533,
      523,
      523,
      523,
      507,
      507,
      507,
      507,
      476,
      476,
      476,
      477,
      477,
      479,
      479,
      479,
      486,
      486,
      486,
      491,
      491,
      491,
      491,
      493,
      493,
      493,
      493,
      493,
      492,
      492,
      492,
      492,
      492,
      492,
      492,
      492,
      492,
      492,
      492,
      492,
      492,
      503,
      503,
      503,
      505,
      505,
      505,
      505,
      493,
      493,
      493,
      498,
      498,
      498,
      498,
      507,
      507,
      507,
      507,
      507,
      481,
      481,
      481,
      481,
      481,
      475,
      475,
      475,
      475,
      475,
      475,
      475,
      475,
      476,
      476,
      476,
      476,
      476,
      476,
      476,
      476,
      476,
      473,
      473,
      473,
      474,
      475,
      475,
      475,
      475,
      476,
      477,
      477,
      477,
      477,
      478,
      478,
      480,
      480,
      484,
      484,
      484,
      484,
      478,
      478,
      478,
      478,
      477,
      477,
      392,
      392,
      392,
      392,
      370,
      370,
      370,
      370,
      309,
      309,
      309,
      309,
      304,
      304,
      304,
      304,
      249,
      249,
      249,
      246,
      246,
      246,
      230,
      230,
      230,
      135,
      135,
      137,
      137
    ],
    "swim:timestamps": [
      1781206988,
      1781206988,
      1781206988,
      1781206988,
      1781207048,
      1781207111,
      1781207171,
      1781207171,
      1781207231,
      1781207231,
      1781207231,
      1781207291,
      1781207291,
      1781207291,
      1781207291,
      1781207351,
      1781207471,
      1781207471,
      1781207471,
      1781207471,
      1781207471,
      1781207712,
      1781207712,
      1781207712,
      1781207772,
      1781207772,
      1781207772,
      1781207952,
      1781207952,
      1781207952,
      1781207952,
      1781208012,
      1781208012,
      1781208012,
      1781208132,
      1781208132,
      1781208165,
      1781208165,
      1781208165,
      1781208192,
      1781208225,
      1781208225,
      1781208252,
      1781208252,
      1781208252,
      1781208285,
      1781208285,
      1781208285,
      1781208345,
      1781208345,
      1781208405,
      1781208405,
      1781208493,
      1781208493,
      1781208553,
      1781208553,
      1781208553,
      1781208586,
      1781208586,
      1781208586,
      1781208586,
      1781208706,
      1781208706,
      1781208733,
      1781208733,
      1781208733,
      1781208766,
      1781208766,
      1781208793,
      1781208793,
      1781208853,
      1781208886,
      1781208886,
      1781208886,
      1781208913,
      1781208913,
      1781208913,
      1781208946,
      1781208946,
      1781208946,
      1781209006,
      1781209006,
      1781209006,
      1781209033,
      1781209033,
      1781209093,
      1781209093,
      1781209093,
      1781209154,
      1781209154,
      1781209274,
      1781209274,
      1781209307,
      1781209307,
      1781209307,
      1781209394,
      1781209394,
      1781209454,
      1781209454,
      1781209454,
      1781209454,
      1781209487,
      1781209487,
      1781209547,
      1781209547,
      1781209547,
      1781209547,
      1781209667,
      1781209667,
      1781209667,
      1781209667,
      1781209727,
      1781209727,
      1781209727,
      1781209787,
      1781209847,
      1781209847,
      1781209847,
      1781209847,
      1781209907,
      1781209907,
      1781209907,
      1781210088,
      1781210088,
      1781210088,
      1781210088,
      1781210088,
      1781210268,
      1781210268,
      1781210268,
      1781210268,
      1781210328,
      1781210328,
      1781210328,
      1781210388,
      1781210388,
      1781210388,
      1781210388,
      1781210568,
      1781210568,
      1781210568,
      1781210568,
      1781210688,
      1781210749,
      1781210749,
      1781210749,
      1781210749,
      1781210809,
      1781210809,
      1781210809,
      1781210809,
      1781210869,
      1781210989,
      1781210989,
      1781210989,
      1781210989,
      1781211094,
      1781211094,
      1781211094,
      1781211109,
      1781211109,
      1781211214,
      1781211214,
      1781211229,
      1781211229,
      1781211229,
      1781211349,
      1781211349,
      1781211349,
      1781211469,
      1781211469,
      1781211469,
      1781211526,
      1781211526,
      1781211526,
      1781211887,
      1781211887,
      1781211887,
      1781211947,
      1781211947,
      1781211947,
      1781212067,
      1781212067,
      1781212067,
      1781212067,
      1781212187,
      1781212187,
      1781212187,
      1781212187,
      1781212367,
      1781212367,
      1781212367,
      1781212427,
      1781212427,
      1781212427,
      1781212488,
      1781212488,
      1781212488,
      1781212608,
      1781212608,
      1781212608,
      1781212668,
      1781212668,
      1781212668,
      1781212668,
      1781212668,
      1781212788,
      1781212848,
      1781212848,
      1781212848,
      1781212908,
      1781212908,
      1781212908,
      1781212968,
      1781212968,
      1781213028,
      1781213028,
      1781213028,
      1781213028,
      1781213028,
      1781213088,
      1781213088,
      1781213088,
      1781213088,
      1781213088,
      1781213389,
      1781213389,
      1781213389,
      1781213389,
      1781213449,
      1781213449,
      1781213509,
      1781213509,
      1781213509,
      1781213509,
      1781213509,
      1781213809,
      1781213809,
      1781213809,
      1781213809,
      1781213869,
      1781213869,
      1781213869,
      1781213869,
      1781214109,
      1781214109,
      1781214109,
      1781214169,
      1781214169,
      1781214169,
      1781214169,
      1781214230,
      1781214230,
      1781214230,
      1781214350,
      1781214350,
      1781214350,
      1781214350,
      1781214410,
      1781214410,
      1781214410,
      1781214470,
      1781214470,
      1781214470,
      1781214530,
      1781214530,
      1781214530,
      1781214650,
      1781214650,
      1781214650,
      1781214710,
      1781214710,
      1781214710,
      1781214710,
      1781214891,
      1781214891,
      1781214891,
      1781214891,
      1781214891,
      1781215071,
      1781215071,
      1781215071,
      1781215071,
      1781215071,
      1781215131,
      1781215131,
      1781215251,
      1781215251,
      1781215251,
      1781215251,
      1781215251,
      1781215612,
      1781215612,
      1781215612,
      1781215732,
      1781215732,
      1781215732,
      1781215732,
      1781215732,
      1781215852,
      1781215852,
      1781215852,
      1781215852,
      1781215972,
      1781215972,
      1781215972,
      1781215972,
      1781216032,
      1781216032,
      1781216032,
      1781216213,
      1781216213,
      1781216213,
      1781216213,
      1781216213,
      1781216333,
      1781216333,
      1781216333,
      1781216393,
      1781216393,
      1781216453,
      1781216453,
      1781216453,
      1781216453,
      1781216813,
      1781216813,
      1781216874,
      1781216874,
      1781216874,
      1781216874,
      1781216874,
      1781217114,
      1781217114,
      1781217114,
      1781217114,
      1781217114,
      1781217354,
      1781217354,
      1781217354,
      1781217354,
      1781217414,
      1781217414,
      1781217414,
      1781217414,
      1781217474,
      1781217474,
      1781217474,
      1781217474,
      1781217535,
      1781217595,
      1781217595,
      1781217655,
      1781217655,
      1781217655,
      1781217655,
      1781217655,
      1781217715,
      1781217715,
      1781217715,
      1781217835,
      1781217835,
      1781217835,
      1781217835,
      1781217835,
      1781217955,
      1781217955,
      1781217955,
      1781217955,
      1781218015,
      1781218015,
      1781218015,
      1781218015,
      1781218075,
      1781218075,
      1781218075,
      1781218135,
      1781218135,
      1781218196,
      1781218196,
      1781218196,
      1781218256,
      1781218256,
      1781218256,
      1781218256,
      1781218496,
      1781218496,
      1781218496,
      1781218556,
      1781218556,
      1781218616,
      1781218616,
      1781218616,
      1781218676,
      1781218676,
      1781218676,
      1781218796,
      1781218796,
      1781218796,
      1781218796,
      1781219097,
      1781219097,
      1781219097,
      1781219097,
      1781219097,
      1781219217,
      1781219217,
      1781219217,
      1781219217,
      1781219277,
      1781219277,
      1781219277,
      1781219397,
      1781219397,
      1781219397,
      1781219518,
      1781219518,
      1781219518,
      1781219578,
      1781219578,
      1781219578,
      1781219638,
      1781219638,
      1781219638,
      1781219638,
      1781219758,
      1781219758,
      1781219758,
      1781219818,
      1781219818,
      1781219818,
      1781219818,
      1781221492,
      1781221492,
      1781221492,
      1781221492,
      1781221492,
      1781221553,
      1781221553,
      1781221553,
      1781221553,
      1781221553,
      1781221925,
      1781221925,
      1781221925,
      1781221925,
      1781221925,
      1781221985,
      1781221985,
      1781221985,
      1781222105,
      1781222105,
      1781222105,
      1781222105,
      1781222286,
      1781222286,
      1781222286,
      1781222286,
      1781222286,
      1781222466,
      1781222466,
      1781222466,
      1781222526,
      1781222586,
      1781222586,
      1781222586,
      1781222586,
      1781222646,
      1781222766,
      1781222766,
      1781222766,
      1781222766,
      1781222886,
      1781222886,
      1781222947,
      1781222947,
      1781223067,
      1781223067,
      1781223067,
      1781223067,
      1781223307,
      1781223307,
      1781223307,
      1781223307,
      1781223367,
      1781223367,
      1781223848,
      1781223848,
      1781223848,
      1781223848,
      1781223968,
      1781223968,
      1781223968,
      1781223968,
      1781224208,
      1781224208,
      1781224208,
      1781224208,
      1781224268,
      1781224268,
      1781224268,
      1781224268,
      1781224388,
      1781224388,
      1781224388,
      1781224448,
      1781224448,
      1781224448,
      1781224509,
      1781224509,
      1781224509,
      1781224685,
      1781224685,
      1781224749,
      1781224749
    ],
    "wof:geomhash": "5618626a47f6198f496baef4bb9af692",
    "wof:id": 2031513359,
    "wof:repo": "sfomuseum-data-flights-2026-06"
  },
  "bbox": [
    -122.38333333333334,
    37.666666666666664,
    -70.91555555555556,
    45.12638888888889
  ],
  "geometry": {"coordinates":[[-122.38333333333334,37.666666666666664],[-122.38333333333334,37.666666666666664],[-122.38333333333334,37.666666666666664],[-122.38333333333334,37.666666666666664],[-122.33333333333333,37.68333333333333],[-122.2461111111111,37.706944444444446],[-122.16083333333334,37.74583333333334],[-122.16083333333334,37.74583333333334],[-122.0761111111111,37.78944444444444],[-122.0761111111111,37.78944444444444],[-122.0761111111111,37.78944444444444],[-121.98694444444445,37.83361111111111],[-121.98694444444445,37.83361111111111],[-121.98694444444445,37.83361111111111],[-121.98694444444445,37.83361111111111],[-121.87694444444443,37.87694444444445],[-121.64805555555556,37.9675],[-121.64805555555556,37.9675],[-121.64805555555556,37.9675],[-121.64805555555556,37.9675],[-121.64805555555556,37.9675],[-121.1413888888889,38.165277777777774],[-121.1413888888889,38.165277777777774],[-121.1413888888889,38.165277777777774],[-121.0025,38.21055555555556],[-121.0025,38.21055555555556],[-121.0025,38.21055555555556],[-120.5275,38.277499999999996],[-120.5275,38.277499999999996],[-120.5275,38.277499999999996],[-120.5275,38.277499999999996],[-120.36361111111111,38.30027777777777],[-120.36361111111111,38.30027777777777],[-120.36361111111111,38.30027777777777],[-120.0275,38.34583333333334],[-120.0275,38.34583333333334],[-119.94527777777778,38.355555555555554],[-119.94527777777778,38.355555555555554],[-119.94527777777778,38.355555555555554],[-119.85583333333332,38.36888888888889],[-119.77222222222223,38.379444444444445],[-119.77222222222223,38.379444444444445],[-119.68111111111112,38.39194444444444],[-119.68111111111112,38.39194444444444],[-119.68111111111112,38.39194444444444],[-119.6,38.40138888888889],[-119.6,38.40138888888889],[-119.6,38.40138888888889],[-119.42916666666667,38.42305555555555],[-119.42916666666667,38.42305555555555],[-119.25861111111111,38.445277777777775],[-119.25861111111111,38.445277777777775],[-118.98361111111112,38.48111111111111],[-118.98361111111112,38.48111111111111],[-118.81277777777777,38.50222222222222],[-118.81277777777777,38.50222222222222],[-118.81277777777777,38.50222222222222],[-118.74805555555555,38.50944444444445],[-118.74805555555555,38.50944444444445],[-118.74805555555555,38.50944444444445],[-118.74805555555555,38.50944444444445],[-118.37666666666667,38.555277777777775],[-118.37666666666667,38.555277777777775],[-118.30833333333334,38.56333333333333],[-118.30833333333334,38.56333333333333],[-118.30833333333334,38.56333333333333],[-118.21972222222223,38.573888888888895],[-118.21972222222223,38.573888888888895],[-118.1388888888889,38.583333333333336],[-118.1388888888889,38.583333333333336],[-117.98027777777779,38.60194444444445],[-117.88,38.61361111111111],[-117.88,38.61361111111111],[-117.88,38.61361111111111],[-117.80916666666667,38.62166666666667],[-117.80916666666667,38.62166666666667],[-117.80916666666667,38.62166666666667],[-117.7125,38.632777777777775],[-117.7125,38.632777777777775],[-117.7125,38.632777777777775],[-117.53583333333333,38.65277777777778],[-117.53583333333333,38.65277777777778],[-117.53583333333333,38.65277777777778],[-117.46611111111112,38.660555555555554],[-117.46611111111112,38.660555555555554],[-117.29222222222222,38.68],[-117.29222222222222,38.68],[-117.29222222222222,38.68],[-117.12138888888889,38.70583333333334],[-117.12138888888889,38.70583333333334],[-116.77444444444444,38.7575],[-116.77444444444444,38.7575],[-116.67305555555556,38.77222222222222],[-116.67305555555556,38.77222222222222],[-116.67305555555556,38.77222222222222],[-116.4325,38.80722222222222],[-116.4325,38.80722222222222],[-116.25777777777778,38.83222222222223],[-116.25777777777778,38.83222222222223],[-116.25777777777778,38.83222222222223],[-116.25777777777778,38.83222222222223],[-116.1588888888889,38.846111111111114],[-116.1588888888889,38.846111111111114],[-115.98472222222222,38.870555555555555],[-115.98472222222222,38.870555555555555],[-115.98472222222222,38.870555555555555],[-115.98472222222222,38.870555555555555],[-115.63694444444445,38.91861111111111],[-115.63694444444445,38.91861111111111],[-115.63694444444445,38.91861111111111],[-115.63694444444445,38.91861111111111],[-115.46611111111112,38.94194444444444],[-115.46611111111112,38.94194444444444],[-115.46611111111112,38.94194444444444],[-115.28888888888889,38.965833333333336],[-115.115,38.98888888888889],[-115.115,38.98888888888889],[-115.115,38.98888888888889],[-115.115,38.98888888888889],[-114.94277777777778,39.01138888888889],[-114.94277777777778,39.01138888888889],[-114.94277777777778,39.01138888888889],[-114.4225,39.07805555555556],[-114.4225,39.07805555555556],[-114.4225,39.07805555555556],[-114.4225,39.07805555555556],[-114.4225,39.07805555555556],[-113.89805555555556,39.1425],[-113.89805555555556,39.1425],[-113.89805555555556,39.1425],[-113.89805555555556,39.1425],[-113.72500000000001,39.163333333333334],[-113.72500000000001,39.163333333333334],[-113.72500000000001,39.163333333333334],[-113.54888888888888,39.18444444444444],[-113.54888888888888,39.18444444444444],[-113.54888888888888,39.18444444444444],[-113.54888888888888,39.18444444444444],[-113.02694444444444,39.24444444444445],[-113.02694444444444,39.24444444444445],[-113.02694444444444,39.24444444444445],[-113.02694444444444,39.24444444444445],[-112.67,39.284166666666664],[-112.50361111111111,39.309444444444445],[-112.50361111111111,39.309444444444445],[-112.50361111111111,39.309444444444445],[-112.50361111111111,39.309444444444445],[-112.33694444444444,39.35944444444445],[-112.33694444444444,39.35944444444445],[-112.33694444444444,39.35944444444445],[-112.33694444444444,39.35944444444445],[-112.16972222222223,39.415277777777774],[-111.83972222222222,39.525],[-111.83972222222222,39.525],[-111.83972222222222,39.525],[-111.83972222222222,39.525],[-111.56777777777778,39.61472222222223],[-111.56777777777778,39.61472222222223],[-111.56777777777778,39.61472222222223],[-111.50888888888889,39.63361111111111],[-111.50888888888889,39.63361111111111],[-111.23277777777778,39.72361111111111],[-111.23277777777778,39.72361111111111],[-111.16666666666667,39.745],[-111.16666666666667,39.745],[-111.16666666666667,39.745],[-110.83444444444444,39.85138888888889],[-110.83444444444444,39.85138888888889],[-110.83444444444444,39.85138888888889],[-110.49805555555555,39.95805555555556],[-110.49805555555555,39.95805555555556],[-110.49805555555555,39.95805555555556],[-110.39916666666667,39.98916666666667],[-110.39916666666667,39.98916666666667],[-110.39916666666667,39.98916666666667],[-109.34555555555555,40.31361111111111],[-109.34555555555555,40.31361111111111],[-109.34555555555555,40.31361111111111],[-109.1725,40.365833333333335],[-109.1725,40.365833333333335],[-109.1725,40.365833333333335],[-108.8325,40.467222222222226],[-108.8325,40.467222222222226],[-108.8325,40.467222222222226],[-108.8325,40.467222222222226],[-108.48444444444445,40.56944444444445],[-108.48444444444445,40.56944444444445],[-108.48444444444445,40.56944444444445],[-108.48444444444445,40.56944444444445],[-107.94944444444445,40.72416666666667],[-107.94944444444445,40.72416666666667],[-107.94944444444445,40.72416666666667],[-107.7911111111111,40.769444444444446],[-107.7911111111111,40.769444444444446],[-107.7911111111111,40.769444444444446],[-107.61694444444444,40.81861111111112],[-107.61694444444444,40.81861111111112],[-107.61694444444444,40.81861111111112],[-107.26972222222223,40.91611111111111],[-107.26972222222223,40.91611111111111],[-107.26972222222223,40.91611111111111],[-107.0961111111111,40.96416666666667],[-107.0961111111111,40.96416666666667],[-107.0961111111111,40.96416666666667],[-107.0961111111111,40.96416666666667],[-107.0961111111111,40.96416666666667],[-106.74055555555556,41.06194444444444],[-106.56361111111111,41.11],[-106.56361111111111,41.11],[-106.56361111111111,41.11],[-106.38472222222222,41.15833333333333],[-106.38472222222222,41.15833333333333],[-106.38472222222222,41.15833333333333],[-106.2063888888889,41.20638888888889],[-106.2063888888889,41.20638888888889],[-106.01888888888888,41.25611111111111],[-106.01888888888888,41.25611111111111],[-106.01888888888888,41.25611111111111],[-106.01888888888888,41.25611111111111],[-106.01888888888888,41.25611111111111],[-105.83555555555554,41.30444444444444],[-105.83555555555554,41.30444444444444],[-105.83555555555554,41.30444444444444],[-105.83555555555554,41.30444444444444],[-105.83555555555554,41.30444444444444],[-104.91388888888889,41.5425],[-104.91388888888889,41.5425],[-104.91388888888889,41.5425],[-104.91388888888889,41.5425],[-104.73027777777779,41.58888888888889],[-104.73027777777779,41.58888888888889],[-104.54194444444444,41.63611111111111],[-104.54194444444444,41.63611111111111],[-104.54194444444444,41.63611111111111],[-104.54194444444444,41.63611111111111],[-104.54194444444444,41.63611111111111],[-103.55694444444444,41.87638888888889],[-103.55694444444444,41.87638888888889],[-103.55694444444444,41.87638888888889],[-103.55694444444444,41.87638888888889],[-103.35972222222222,41.91138888888889],[-103.35972222222222,41.91138888888889],[-103.35972222222222,41.91138888888889],[-103.35972222222222,41.91138888888889],[-102.56361111111111,42.02388888888889],[-102.56361111111111,42.02388888888889],[-102.56361111111111,42.02388888888889],[-102.36166666666666,42.04611111111111],[-102.36166666666666,42.04611111111111],[-102.36166666666666,42.04611111111111],[-102.36166666666666,42.04611111111111],[-102.15444444444445,42.075833333333335],[-102.15444444444445,42.075833333333335],[-102.15444444444445,42.075833333333335],[-101.74222222222222,42.12833333333333],[-101.74222222222222,42.12833333333333],[-101.74222222222222,42.12833333333333],[-101.74222222222222,42.12833333333333],[-101.53583333333333,42.154444444444444],[-101.53583333333333,42.154444444444444],[-101.53583333333333,42.154444444444444],[-101.32805555555555,42.18],[-101.32805555555555,42.18],[-101.32805555555555,42.18],[-101.12249999999999,42.20444444444445],[-101.12249999999999,42.20444444444445],[-101.12249999999999,42.20444444444445],[-100.70027777777779,42.25416666666667],[-100.70027777777779,42.25416666666667],[-100.70027777777779,42.25416666666667],[-100.4888888888889,42.27861111111111],[-100.4888888888889,42.27861111111111],[-100.4888888888889,42.27861111111111],[-100.4888888888889,42.27861111111111],[-99.85027777777778,42.35],[-99.85027777777778,42.35],[-99.85027777777778,42.35],[-99.85027777777778,42.35],[-99.85027777777778,42.35],[-99.20861111111111,42.418055555555554],[-99.20861111111111,42.418055555555554],[-99.20861111111111,42.418055555555554],[-99.20861111111111,42.418055555555554],[-99.20861111111111,42.418055555555554],[-98.99305555555556,42.44],[-98.99305555555556,42.44],[-98.56944444444444,42.500277777777775],[-98.56944444444444,42.500277777777775],[-98.56944444444444,42.500277777777775],[-98.56944444444444,42.500277777777775],[-98.56944444444444,42.500277777777775],[-97.3536111111111,42.797777777777775],[-97.3536111111111,42.797777777777775],[-97.3536111111111,42.797777777777775],[-96.94277777777778,42.894999999999996],[-96.94277777777778,42.894999999999996],[-96.94277777777778,42.894999999999996],[-96.94277777777778,42.894999999999996],[-96.94277777777778,42.894999999999996],[-96.53277777777778,42.99],[-96.53277777777778,42.99],[-96.53277777777778,42.99],[-96.53277777777778,42.99],[-96.11888888888888,43.08444444444444],[-96.11888888888888,43.08444444444444],[-96.11888888888888,43.08444444444444],[-96.11888888888888,43.08444444444444],[-95.91194444444444,43.13055555555555],[-95.91194444444444,43.13055555555555],[-95.91194444444444,43.13055555555555],[-95.29777777777778,43.26583333333333],[-95.29777777777778,43.26583333333333],[-95.29777777777778,43.26583333333333],[-95.29777777777778,43.26583333333333],[-95.29777777777778,43.26583333333333],[-94.885,43.35444444444445],[-94.885,43.35444444444445],[-94.885,43.35444444444445],[-94.68027777777779,43.397777777777776],[-94.68027777777779,43.397777777777776],[-94.47055555555556,43.44194444444444],[-94.47055555555556,43.44194444444444],[-94.47055555555556,43.44194444444444],[-94.47055555555556,43.44194444444444],[-93.21166666666667,43.69638888888888],[-93.21166666666667,43.69638888888888],[-93.01972222222223,43.73388888888889],[-93.01972222222223,43.73388888888889],[-93.01972222222223,43.73388888888889],[-93.01972222222223,43.73388888888889],[-93.01972222222223,43.73388888888889],[-92.18694444444445,43.891666666666666],[-92.18694444444445,43.891666666666666],[-92.18694444444445,43.891666666666666],[-92.18694444444445,43.891666666666666],[-92.18694444444445,43.891666666666666],[-91.3888888888889,44.03666666666666],[-91.3888888888889,44.03666666666666],[-91.3888888888889,44.03666666666666],[-91.3888888888889,44.03666666666666],[-91.1888888888889,44.080000000000005],[-91.1888888888889,44.080000000000005],[-91.1888888888889,44.080000000000005],[-91.1888888888889,44.080000000000005],[-90.995,44.130833333333335],[-90.995,44.130833333333335],[-90.995,44.130833333333335],[-90.995,44.130833333333335],[-90.81055555555555,44.19694444444444],[-90.63361111111112,44.26833333333333],[-90.63361111111112,44.26833333333333],[-90.45138888888889,44.35638888888889],[-90.45138888888889,44.35638888888889],[-90.45138888888889,44.35638888888889],[-90.45138888888889,44.35638888888889],[-90.45138888888889,44.35638888888889],[-90.27972222222222,44.439722222222215],[-90.27972222222222,44.439722222222215],[-90.27972222222222,44.439722222222215],[-89.94583333333334,44.61888888888889],[-89.94583333333334,44.61888888888889],[-89.94583333333334,44.61888888888889],[-89.94583333333334,44.61888888888889],[-89.94583333333334,44.61888888888889],[-89.615,44.799166666666665],[-89.615,44.799166666666665],[-89.615,44.799166666666665],[-89.615,44.799166666666665],[-89.44694444444445,44.88805555555555],[-89.44694444444445,44.88805555555555],[-89.44694444444445,44.88805555555555],[-89.44694444444445,44.88805555555555],[-89.26666666666667,44.96611111111111],[-89.26666666666667,44.96611111111111],[-89.26666666666667,44.96611111111111],[-89.08222222222221,45.03444444444444],[-89.08222222222221,45.03444444444444],[-88.90444444444445,45.08111111111111],[-88.90444444444445,45.08111111111111],[-88.90444444444445,45.08111111111111],[-88.71527777777779,45.12638888888889],[-88.71527777777779,45.12638888888889],[-88.71527777777779,45.12638888888889],[-88.71527777777779,45.12638888888889],[-87.97500000000001,45.12277777777778],[-87.97500000000001,45.12277777777778],[-87.97500000000001,45.12277777777778],[-87.78805555555556,45.11416666666667],[-87.78805555555556,45.11416666666667],[-87.60111111111111,45.10527777777778],[-87.60111111111111,45.10527777777778],[-87.60111111111111,45.10527777777778],[-87.40972222222223,45.096111111111114],[-87.40972222222223,45.096111111111114],[-87.40972222222223,45.096111111111114],[-87.02083333333333,45.07611111111112],[-87.02083333333333,45.07611111111112],[-87.02083333333333,45.07611111111112],[-87.02083333333333,45.07611111111112],[-86.03777777777778,45.01916666666666],[-86.03777777777778,45.01916666666666],[-86.03777777777778,45.01916666666666],[-86.03777777777778,45.01916666666666],[-86.03777777777778,45.01916666666666],[-85.65138888888889,44.99444444444445],[-85.65138888888889,44.99444444444445],[-85.65138888888889,44.99444444444445],[-85.65138888888889,44.99444444444445],[-85.46944444444445,44.9825],[-85.46944444444445,44.9825],[-85.46944444444445,44.9825],[-85.08666666666666,44.95638888888889],[-85.08666666666666,44.95638888888889],[-85.08666666666666,44.95638888888889],[-84.70305555555557,44.92861111111111],[-84.70305555555557,44.92861111111111],[-84.70305555555557,44.92861111111111],[-84.50777777777778,44.913888888888884],[-84.50777777777778,44.913888888888884],[-84.50777777777778,44.913888888888884],[-84.31277777777777,44.899166666666666],[-84.31277777777777,44.899166666666666],[-84.31277777777777,44.899166666666666],[-84.31277777777777,44.899166666666666],[-83.93083333333334,44.86888888888889],[-83.93083333333334,44.86888888888889],[-83.93083333333334,44.86888888888889],[-83.735,44.85305555555556],[-83.735,44.85305555555556],[-83.735,44.85305555555556],[-83.735,44.85305555555556],[-78.52277777777778,44.30083333333333],[-78.52277777777778,44.30083333333333],[-78.52277777777778,44.30083333333333],[-78.52277777777778,44.30083333333333],[-78.52277777777778,44.30083333333333],[-78.36666666666666,44.28055555555555],[-78.36666666666666,44.28055555555555],[-78.36666666666666,44.28055555555555],[-78.36666666666666,44.28055555555555],[-78.36666666666666,44.28055555555555],[-77.21361111111112,44.121944444444445],[-77.21361111111112,44.121944444444445],[-77.21361111111112,44.121944444444445],[-77.21361111111112,44.121944444444445],[-77.21361111111112,44.121944444444445],[-77.04305555555555,44.097500000000004],[-77.04305555555555,44.097500000000004],[-77.04305555555555,44.097500000000004],[-76.68055555555556,44.04472222222222],[-76.68055555555556,44.04472222222222],[-76.68055555555556,44.04472222222222],[-76.68055555555556,44.04472222222222],[-76.14194444444445,43.96027777777778],[-76.14194444444445,43.96027777777778],[-76.14194444444445,43.96027777777778],[-76.14194444444445,43.96027777777778],[-76.14194444444445,43.96027777777778],[-75.68222222222222,43.75388888888889],[-75.68222222222222,43.75388888888889],[-75.68222222222222,43.75388888888889],[-75.53361111111111,43.67611111111111],[-75.38472222222222,43.59777777777778],[-75.38472222222222,43.59777777777778],[-75.38472222222222,43.59777777777778],[-75.38472222222222,43.59777777777778],[-75.23722222222223,43.51972222222222],[-74.965,43.375],[-74.965,43.375],[-74.965,43.375],[-74.965,43.375],[-74.66944444444445,43.21611111111111],[-74.66944444444445,43.21611111111111],[-74.52361111111111,43.13722222222222],[-74.52361111111111,43.13722222222222],[-74.22611111111111,42.974722222222226],[-74.22611111111111,42.974722222222226],[-74.22611111111111,42.974722222222226],[-74.22611111111111,42.974722222222226],[-73.58416666666666,42.74583333333334],[-73.58416666666666,42.74583333333334],[-73.58416666666666,42.74583333333334],[-73.58416666666666,42.74583333333334],[-73.40333333333334,42.74388888888889],[-73.40333333333334,42.74388888888889],[-72.05638888888889,42.61555555555556],[-72.05638888888889,42.61555555555556],[-72.05638888888889,42.61555555555556],[-72.05638888888889,42.61555555555556],[-71.77944444444444,42.580000000000005],[-71.77944444444444,42.580000000000005],[-71.77944444444444,42.580000000000005],[-71.77944444444444,42.580000000000005],[-71.28583333333333,42.57277777777778],[-71.28583333333333,42.57277777777778],[-71.28583333333333,42.57277777777778],[-71.28583333333333,42.57277777777778],[-71.17472222222223,42.58777777777778],[-71.17472222222223,42.58777777777778],[-71.17472222222223,42.58777777777778],[-71.17472222222223,42.58777777777778],[-70.96972222222223,42.615833333333335],[-70.96972222222223,42.615833333333335],[-70.96972222222223,42.615833333333335],[-70.91555555555556,42.56777777777778],[-70.91555555555556,42.56777777777778],[-70.91555555555556,42.56777777777778],[-70.93666666666667,42.505833333333335],[-70.93666666666667,42.505833333333335],[-70.93666666666667,42.505833333333335],[-71,42.38333333333333],[-71,42.38333333333333],[-71.01194444444444,42.350833333333334],[-71.01194444444444,42.350833333333334]],"type":"LineString"}
}
