{
  "id": 2031466805,
  "type": "Feature",
  "properties": {
    "geom:area": 0,
    "geom:bbox": "-122.559820,36.720450,-121.440720,37.668190",
    "geom:latitude": 37.21662092046791,
    "geom:longitude": -122.07544489322441,
    "src:alt_label": "swim-takeoff",
    "src:geom": "swim",
    "swim:elevations": [
      183,
      445,
      505,
      703,
      1036,
      1309,
      1813,
      2102,
      2357,
      2594,
      2848,
      3294,
      3501,
      4236,
      4426,
      4820,
      5057,
      5442,
      5843,
      6059,
      6335,
      6660,
      6995,
      7146,
      7274,
      7696,
      7949,
      8282,
      8485,
      8634,
      8866,
      8980,
      9148,
      9590,
      9718
    ],
    "swim:geom": "takeoff",
    "swim:timestamps": [
      1780778749,
      1780778770,
      1780778779,
      1780778812,
      1780778837,
      1780778856,
      1780778902,
      1780778923,
      1780778943,
      1780778958,
      1780778975,
      1780779013,
      1780779042,
      1780779088,
      1780779101,
      1780779128,
      1780779145,
      1780779171,
      1780779201,
      1780779218,
      1780779240,
      1780779265,
      1780779293,
      1780779305,
      1780779319,
      1780779358,
      1780779382,
      1780779415,
      1780779439,
      1780779460,
      1780779493,
      1780779504,
      1780779521,
      1780779567,
      1780779582
    ],
    "wof:geomhash": "f37a7ce513d2113efed831bd641752f4",
    "wof:id": 2031466805,
    "wof:repo": "sfomuseum-data-flights-2026-06"
  },
  "bbox": [
    -122.55982,
    36.72045,
    -121.44072,
    37.66819
  ],
  "geometry": {"coordinates":[[-122.38597,37.62358],[-122.40197,37.63026],[-122.40955,37.6334],[-122.44088,37.64725],[-122.46927,37.65975],[-122.49181,37.66819],[-122.5504,37.65087],[-122.55982,37.62512],[-122.54823,37.59801],[-122.53547,37.57912],[-122.52032,37.55764],[-122.48663,37.50897],[-122.45005,37.47131],[-122.37517,37.41675],[-122.35471,37.40176],[-122.309,37.36802],[-122.28078,37.34711],[-122.23678,37.31394],[-122.18263,37.27368],[-122.15163,37.25088],[-122.11337,37.22275],[-122.06578,37.18774],[-122.01314,37.14893],[-121.99077,37.13229],[-121.9656,37.11369],[-121.89077,37.0579],[-121.84416,37.02287],[-121.77927,36.97436],[-121.73192,36.94009],[-121.68973,36.90882],[-121.62201,36.858],[-121.59961,36.84015],[-121.56694,36.81453],[-121.47079,36.74353],[-121.44072,36.72045]],"type":"LineString"}
}
