{
  "id": 2031430669,
  "type": "Feature",
  "properties": {
    "geom:area": 0,
    "geom:bbox": "-122.283333,30.210833,-97.658889,37.583333",
    "geom:latitude": 33.143779375014255,
    "geom:longitude": -110.20548506725716,
    "src:alt_label": "swim-path",
    "src:geom": "swim",
    "swim:altitudes": [
      "014",
      "021",
      "034",
      "062",
      "062",
      "092",
      "144",
      "144",
      "144",
      "231",
      "241",
      "267",
      "267",
      "320C",
      "320C",
      "319C",
      "319C",
      "320C",
      "320C",
      "336",
      "340C",
      "340C",
      "340C",
      "340C",
      "340C",
      "339C",
      "339C",
      "340C",
      "340C",
      "339C",
      "340C",
      "339C",
      "339C",
      "340C",
      "340C",
      "340C",
      "339C",
      "339C",
      "340C",
      "340C",
      "340C",
      "340C",
      "340C",
      "340C",
      "340C",
      "339C",
      "340C",
      "340C",
      "340C",
      "340C",
      "340C",
      "340C",
      "340C",
      "340C",
      "340C",
      "340C",
      "340C",
      "340C",
      "340C",
      "340C",
      "340C",
      "340C",
      "340C",
      "340C",
      "340C",
      "340C",
      "340C",
      "340C",
      "340C",
      "340C",
      "340C",
      "340C",
      "340C",
      "340C",
      "340C",
      "340C",
      "340C",
      "340C",
      "340C",
      "340C",
      "340C",
      "340C",
      "339C",
      "339C",
      "339C",
      "340C",
      "340C",
      "340C",
      "340C",
      "340C",
      "340C",
      "340C",
      "339C",
      "339C",
      "340C",
      "339C",
      "340C",
      "340C",
      "340C",
      "340C",
      "340C",
      "340C",
      "340C",
      "340C",
      "340C",
      "340C",
      "340C",
      "340C",
      "340C",
      "340C",
      "340C",
      "340C",
      "340C",
      "340C",
      "340C",
      "340C",
      "340C",
      "340C",
      "340C",
      "340C",
      "340C",
      "340C",
      "340C",
      "340C",
      "340C",
      "340C",
      "340C",
      "339C",
      "340C",
      "340C",
      "340C",
      "340C",
      "340C",
      "340C",
      "340C",
      "340C",
      "340C",
      "340C",
      "340C",
      "340C",
      "339C",
      "340C",
      "339C",
      "340C",
      "340C",
      "340C",
      "340C",
      "340C",
      "340C",
      "340C",
      "340C",
      "340C",
      "340C",
      "340C",
      "340C",
      "340C",
      "340C",
      "340C",
      "340C",
      "340C",
      "340",
      "340",
      "340",
      "340",
      "340",
      "292",
      "281",
      "240",
      "195",
      "195",
      "164",
      "128",
      "128",
      "102",
      "090",
      "090",
      "080",
      "080",
      "065",
      "050",
      "050",
      "036",
      "036",
      "022",
      "021",
      "014"
    ],
    "swim:geom": "path",
    "swim:speeds": [
      168,
      190,
      260,
      285,
      285,
      288,
      365,
      365,
      365,
      425,
      433,
      458,
      458,
      459,
      463,
      470,
      470,
      467,
      467,
      463,
      448,
      448,
      448,
      452,
      452,
      452,
      452,
      455,
      455,
      455,
      460,
      460,
      460,
      461,
      461,
      461,
      460,
      460,
      460,
      460,
      459,
      458,
      458,
      456,
      451,
      450,
      450,
      450,
      448,
      448,
      447,
      447,
      447,
      453,
      453,
      453,
      454,
      455,
      457,
      457,
      459,
      459,
      461,
      457,
      456,
      456,
      456,
      457,
      457,
      457,
      457,
      457,
      461,
      461,
      458,
      461,
      461,
      458,
      458,
      458,
      460,
      459,
      456,
      456,
      456,
      456,
      452,
      451,
      450,
      449,
      449,
      449,
      449,
      449,
      448,
      446,
      448,
      448,
      448,
      446,
      444,
      444,
      444,
      444,
      444,
      444,
      444,
      444,
      444,
      445,
      445,
      446,
      446,
      447,
      450,
      450,
      450,
      450,
      451,
      450,
      450,
      450,
      449,
      448,
      449,
      449,
      449,
      449,
      450,
      450,
      450,
      452,
      457,
      462,
      472,
      472,
      468,
      456,
      455,
      455,
      452,
      454,
      451,
      450,
      449,
      448,
      446,
      444,
      444,
      443,
      442,
      442,
      441,
      441,
      439,
      439,
      436,
      436,
      436,
      437,
      437,
      437,
      437,
      437,
      437,
      413,
      408,
      410,
      396,
      396,
      372,
      347,
      347,
      321,
      297,
      297,
      291,
      291,
      247,
      226,
      226,
      217,
      217,
      176,
      177,
      158
    ],
    "swim:timestamps": [
      1780457979,
      1780458003,
      1780458066,
      1780458138,
      1780458138,
      1780458195,
      1780458376,
      1780458376,
      1780458376,
      1780458733,
      1780458799,
      1780458979,
      1780458979,
      1780459334,
      1780459580,
      1780459700,
      1780459700,
      1780459940,
      1780459940,
      1780460060,
      1780460121,
      1780460121,
      1780460241,
      1780460415,
      1780460421,
      1780460541,
      1780460601,
      1780460775,
      1780460775,
      1780460781,
      1780460895,
      1780461142,
      1780461142,
      1780461253,
      1780461262,
      1780461262,
      1780461322,
      1780461322,
      1780461442,
      1780461442,
      1780461494,
      1780461555,
      1780461555,
      1780461615,
      1780461675,
      1780461735,
      1780461795,
      1780461795,
      1780461855,
      1780461915,
      1780461975,
      1780461975,
      1780461975,
      1780462335,
      1780462335,
      1780462335,
      1780462395,
      1780462455,
      1780462515,
      1780462515,
      1780462575,
      1780462575,
      1780462634,
      1780462815,
      1780462875,
      1780462875,
      1780462875,
      1780463174,
      1780463234,
      1780463234,
      1780463355,
      1780463355,
      1780463490,
      1780463490,
      1780463535,
      1780463550,
      1780463550,
      1780463595,
      1780463595,
      1780463656,
      1780463670,
      1780463731,
      1780463851,
      1780463851,
      1780463851,
      1780463971,
      1780464077,
      1780464151,
      1780464211,
      1780464271,
      1780464271,
      1780464377,
      1780464391,
      1780464391,
      1780464556,
      1780464571,
      1780464616,
      1780464616,
      1780464616,
      1780464812,
      1780464856,
      1780464872,
      1780464916,
      1780464916,
      1780464992,
      1780464992,
      1780465036,
      1780465036,
      1780465052,
      1780465172,
      1780465172,
      1780465232,
      1780465277,
      1780465292,
      1780465397,
      1780465457,
      1780465457,
      1780465472,
      1780465652,
      1780465712,
      1780465712,
      1780465712,
      1780465772,
      1780465833,
      1780466013,
      1780466013,
      1780466013,
      1780466193,
      1780466253,
      1780466253,
      1780466253,
      1780466373,
      1780466493,
      1780466613,
      1780466853,
      1780466853,
      1780466913,
      1780467034,
      1780467094,
      1780467094,
      1780467116,
      1780467154,
      1780467236,
      1780467334,
      1780467356,
      1780467416,
      1780467476,
      1780467514,
      1780467536,
      1780467574,
      1780467596,
      1780467596,
      1780467634,
      1780467656,
      1780467754,
      1780467814,
      1780467934,
      1780467934,
      1780467994,
      1780468054,
      1780468136,
      1780468175,
      1780468175,
      1780468196,
      1780468235,
      1780468437,
      1780468462,
      1780468553,
      1780468673,
      1780468673,
      1780468797,
      1780468917,
      1780468917,
      1780469037,
      1780469093,
      1780469093,
      1780469157,
      1780469157,
      1780469273,
      1780469333,
      1780469333,
      1780469397,
      1780469397,
      1780469507,
      1780469517,
      1780469567
    ],
    "wof:geomhash": "138a7dd492b9d4d0497149852ab65e4a",
    "wof:id": 2031430669,
    "wof:repo": "sfomuseum-data-flights-2026-06"
  },
  "bbox": [
    -122.28333333333333,
    30.210833333333333,
    -97.6588888888889,
    37.583333333333336
  ],
  "geometry": {"coordinates":[[-97.6588888888889,30.210833333333333],[-97.6588888888889,30.231944444444444],[-97.67555555555556,30.294444444444448],[-97.70944444444444,30.378333333333334],[-97.70944444444444,30.378333333333334],[-97.74,30.454722222222223],[-97.82694444444444,30.728888888888886],[-97.82694444444444,30.728888888888886],[-97.82694444444444,30.728888888888886],[-98.25555555555556,31.255555555555556],[-98.40722222222223,31.271666666666665],[-98.8275,31.313333333333333],[-98.8275,31.313333333333333],[-99.70305555555557,31.392777777777777],[-100.32916666666667,31.413055555555555],[-100.63333333333334,31.421666666666667],[-100.63333333333334,31.421666666666667],[-101.24166666666667,31.43722222222222],[-101.24166666666667,31.43722222222222],[-101.5425,31.44388888888889],[-101.68861111111111,31.446666666666665],[-101.68861111111111,31.446666666666665],[-101.9786111111111,31.451944444444443],[-102.39027777777778,31.458333333333332],[-102.41083333333334,31.45861111111111],[-102.70166666666667,31.46222222222222],[-102.84833333333333,31.46388888888889],[-103.26194444444444,31.467499999999998],[-103.26194444444444,31.467499999999998],[-103.28999999999999,31.467777777777776],[-103.56166666666667,31.470277777777778],[-104.18083333333334,31.552222222222223],[-104.18083333333334,31.552222222222223],[-104.45861111111111,31.589166666666664],[-104.47805555555556,31.591666666666665],[-104.47805555555556,31.591666666666665],[-104.62638888888888,31.611111111111114],[-104.62638888888888,31.611111111111114],[-104.92333333333333,31.649444444444445],[-104.92333333333333,31.649444444444445],[-105.0475,31.665277777777778],[-105.19472222222223,31.683888888888887],[-105.19472222222223,31.683888888888887],[-105.33833333333332,31.701944444444443],[-105.48277777777778,31.72],[-105.6275,31.73777777777778],[-105.78583333333333,31.756944444444443],[-105.78583333333333,31.756944444444443],[-105.92972222222222,31.774444444444445],[-106.07527777777777,31.791666666666668],[-106.21833333333333,31.808611111111112],[-106.21833333333333,31.808611111111112],[-106.21833333333333,31.808611111111112],[-107.04638888888888,32.028055555555554],[-107.04638888888888,32.028055555555554],[-107.04638888888888,32.028055555555554],[-107.18916666666667,32.06722222222223],[-107.33305555555555,32.10638888888889],[-107.47833333333334,32.14555555555555],[-107.47833333333334,32.14555555555555],[-107.62416666666665,32.18472222222222],[-107.62416666666665,32.18472222222222],[-107.76916666666666,32.223333333333336],[-108.20138888888889,32.338055555555556],[-108.34333333333333,32.375277777777775],[-108.34333333333333,32.375277777777775],[-108.34333333333333,32.375277777777775],[-109.05916666666667,32.559999999999995],[-109.20444444444445,32.596944444444446],[-109.20444444444445,32.596944444444446],[-109.49444444444444,32.669999999999995],[-109.49444444444444,32.669999999999995],[-109.80666666666666,32.743611111111115],[-109.80666666666666,32.743611111111115],[-109.93111111111112,32.77861111111111],[-109.95138888888889,32.77972222222222],[-109.95138888888889,32.77972222222222],[-110.075,32.814166666666665],[-110.075,32.814166666666665],[-110.22222222222223,32.85],[-110.24166666666667,32.8525],[-110.38611111111112,32.886944444444445],[-110.67416666666666,32.95722222222223],[-110.67416666666666,32.95722222222223],[-110.67416666666666,32.95722222222223],[-110.96361111111112,33.027499999999996],[-111.22583333333334,33.09027777777778],[-111.39555555555556,33.12833333333333],[-111.53888888888889,33.16277777777778],[-111.68305555555555,33.195277777777775],[-111.68305555555555,33.195277777777775],[-111.94694444444445,33.25694444444444],[-111.98277777777778,33.26555555555556],[-111.98277777777778,33.26555555555556],[-112.37944444444443,33.35472222222222],[-112.41111111111111,33.36194444444445],[-112.5225,33.38666666666666],[-112.5225,33.38666666666666],[-112.5225,33.38666666666666],[-112.98194444444445,33.49138888888889],[-113.09333333333333,33.51777777777777],[-113.12444444444444,33.525277777777774],[-113.23444444444445,33.55138888888889],[-113.23444444444445,33.55138888888889],[-113.39777777777779,33.58972222222222],[-113.39777777777779,33.58972222222222],[-113.51888888888888,33.61833333333333],[-113.51888888888888,33.61833333333333],[-113.53833333333333,33.62277777777778],[-113.82444444444444,33.689166666666665],[-113.82444444444444,33.689166666666665],[-113.96777777777778,33.72222222222222],[-114.09416666666667,33.75111111111111],[-114.11166666666666,33.75527777777778],[-114.38138888888888,33.81638888888889],[-114.52416666666666,33.84861111111111],[-114.52416666666666,33.84861111111111],[-114.54694444444445,33.853611111111114],[-114.98305555555555,33.95055555555556],[-115.155,33.98833333333334],[-115.155,33.98833333333334],[-115.155,33.98833333333334],[-115.30111111111111,34.02027777777778],[-115.44444444444444,34.051111111111105],[-115.88166666666666,34.14472222222222],[-115.88166666666666,34.14472222222222],[-115.88166666666666,34.14472222222222],[-116.30361111111111,34.233333333333334],[-116.45083333333334,34.263888888888886],[-116.45083333333334,34.263888888888886],[-116.45083333333334,34.263888888888886],[-116.74388888888889,34.32416666666667],[-117.04277777777777,34.38472222222222],[-117.34777777777778,34.44583333333333],[-117.96583333333334,34.566944444444445],[-117.96583333333334,34.566944444444445],[-118.11833333333333,34.60722222222223],[-118.3825,34.737500000000004],[-118.5175,34.80416666666667],[-118.5175,34.80416666666667],[-118.56027777777777,34.82611111111112],[-118.64750000000001,34.86833333333333],[-118.82555555555555,34.95583333333334],[-119.03138888888888,35.05611111111111],[-119.08777777777777,35.083333333333336],[-119.21722222222222,35.14611111111111],[-119.34666666666666,35.20861111111111],[-119.42166666666667,35.245],[-119.47638888888889,35.271388888888886],[-119.54944444444445,35.30638888888888],[-119.60388888888889,35.3325],[-119.60388888888889,35.3325],[-119.67722222222223,35.3675],[-119.73361111111112,35.394444444444446],[-119.93416666666667,35.48972222222222],[-120.06166666666667,35.55],[-120.31388888888888,35.66861111111111],[-120.31388888888888,35.66861111111111],[-120.44861111111112,35.723055555555554],[-120.58277777777778,35.774166666666666],[-120.77333333333333,35.84666666666667],[-120.87805555555555,35.88611111111111],[-120.87805555555555,35.88611111111111],[-120.91000000000001,35.89833333333333],[-121.015,35.937777777777775],[-121.41444444444446,36.13388888888889],[-121.45,36.18333333333333],[-121.56666666666666,36.333333333333336],[-121.71666666666667,36.516666666666666],[-121.71666666666667,36.516666666666666],[-121.86638888888888,36.70666666666667],[-121.93583333333333,36.89083333333333],[-121.93583333333333,36.89083333333333],[-121.99944444444445,37.07055555555556],[-122.03333333333333,37.15],[-122.03333333333333,37.15],[-122.06083333333333,37.2275],[-122.06083333333333,37.2275],[-122.11666666666666,37.36666666666667],[-122.13333333333334,37.43333333333333],[-122.13333333333334,37.43333333333333],[-122.1588888888889,37.49305555555556],[-122.1588888888889,37.49305555555556],[-122.23333333333333,37.56666666666667],[-122.23777777777778,37.56333333333333],[-122.28333333333333,37.583333333333336]],"type":"LineString"}
}
