{
  "id": 2031532095,
  "type": "Feature",
  "properties": {
    "geom:area": 0,
    "geom:bbox": "-122.407222,37.637778,-73.883333,42.413333",
    "geom:latitude": 40.84264821877935,
    "geom:longitude": -98.12745632792554,
    "src:alt_label": "swim-path",
    "src:geom": "swim",
    "swim:altitudes": [
      "013",
      "022",
      "022",
      "031",
      "031",
      "040",
      "040",
      "054",
      "086",
      "086",
      "102",
      "111",
      "141",
      "141",
      "141",
      "188",
      "204",
      "214",
      "214",
      "226",
      "237",
      "237",
      "266",
      "266",
      "291",
      "301",
      "311",
      "311",
      "322",
      "322",
      "330C",
      "330C",
      "330C",
      "330C",
      "330C",
      "330C",
      "330C",
      "330C",
      "330C",
      "330C",
      "330C",
      "330C",
      "330C",
      "330C",
      "330C",
      "330C",
      "330C",
      "330C",
      "330C",
      "330C",
      "330C",
      "330C",
      "330C",
      "330C",
      "331C",
      "331C",
      "330C",
      "330C",
      "330C",
      "330C",
      "331C",
      "330C",
      "330C",
      "330C",
      "330C",
      "331C",
      "331C",
      "331C",
      "330C",
      "330C",
      "330C",
      "330C",
      "330C",
      "330C",
      "330C",
      "330C",
      "330C",
      "330C",
      "330C",
      "330C",
      "330C",
      "330C",
      "330C",
      "330C",
      "330C",
      "330C",
      "330C",
      "330C",
      "330C",
      "330C",
      "330C",
      "330C",
      "330C",
      "330C",
      "330C",
      "330C",
      "330C",
      "330C",
      "330C",
      "330C",
      "330C",
      "330C",
      "330C",
      "330C",
      "331",
      "331",
      "331",
      "343",
      "350C",
      "350C",
      "350C",
      "350C",
      "350C",
      "350C",
      "351C",
      "351C",
      "350C",
      "350C",
      "350C",
      "350C",
      "350C",
      "350C",
      "350C",
      "350C",
      "350C",
      "350C",
      "350C",
      "350C",
      "350C",
      "350C",
      "350C",
      "350C",
      "351C",
      "351C",
      "351C",
      "350C",
      "350C",
      "350C",
      "350C",
      "350C",
      "350C",
      "350C",
      "350C",
      "350C",
      "351C",
      "351C",
      "350C",
      "350C",
      "350C",
      "350C",
      "350C",
      "350C",
      "351C",
      "350C",
      "350C",
      "350C",
      "351C",
      "351C",
      "351C",
      "350C",
      "350C",
      "350C",
      "350C",
      "350C",
      "350C",
      "350C",
      "350C",
      "350C",
      "350C",
      "350C",
      "351C",
      "351",
      "353",
      "355",
      "363",
      "368C",
      "369C",
      "369C",
      "370C",
      "370C",
      "370C",
      "370C",
      "370C",
      "370C",
      "370C",
      "370C",
      "370C",
      "370C",
      "370C",
      "370C",
      "370C",
      "370C",
      "370C",
      "370C",
      "370C",
      "370C",
      "370C",
      "370C",
      "370C",
      "370C",
      "370C",
      "370C",
      "370C",
      "370C",
      "370C",
      "370C",
      "370C",
      "371C",
      "371C",
      "370C",
      "370C",
      "370C",
      "370C",
      "370",
      "370",
      "370",
      "370",
      "370",
      "300",
      "107"
    ],
    "swim:geom": "path",
    "swim:speeds": [
      174,
      232,
      232,
      271,
      271,
      270,
      270,
      278,
      280,
      280,
      277,
      324,
      374,
      374,
      374,
      405,
      421,
      437,
      437,
      443,
      453,
      453,
      478,
      478,
      491,
      493,
      493,
      493,
      482,
      482,
      478,
      478,
      478,
      480,
      480,
      480,
      486,
      486,
      486,
      486,
      489,
      489,
      492,
      492,
      490,
      490,
      490,
      485,
      484,
      484,
      484,
      483,
      484,
      484,
      486,
      486,
      485,
      485,
      485,
      486,
      487,
      488,
      488,
      488,
      488,
      489,
      489,
      489,
      489,
      489,
      491,
      491,
      491,
      496,
      496,
      497,
      498,
      498,
      497,
      498,
      498,
      498,
      498,
      498,
      498,
      499,
      500,
      500,
      501,
      504,
      504,
      507,
      507,
      506,
      506,
      506,
      505,
      504,
      504,
      504,
      503,
      503,
      503,
      503,
      503,
      503,
      503,
      508,
      509,
      509,
      512,
      513,
      515,
      515,
      521,
      521,
      522,
      522,
      522,
      519,
      518,
      518,
      518,
      520,
      520,
      521,
      521,
      521,
      522,
      521,
      520,
      520,
      523,
      523,
      523,
      524,
      525,
      525,
      527,
      529,
      531,
      533,
      534,
      538,
      547,
      550,
      546,
      551,
      554,
      555,
      554,
      545,
      558,
      540,
      534,
      534,
      536,
      536,
      538,
      541,
      541,
      541,
      540,
      538,
      537,
      537,
      537,
      536,
      536,
      536,
      536,
      535,
      535,
      538,
      548,
      549,
      549,
      549,
      556,
      558,
      560,
      560,
      562,
      562,
      561,
      560,
      559,
      557,
      556,
      556,
      557,
      556,
      567,
      566,
      569,
      567,
      565,
      566,
      561,
      554,
      552,
      549,
      547,
      547,
      545,
      545,
      545,
      545,
      545,
      539,
      535,
      535,
      530,
      529,
      528,
      528,
      528,
      528,
      482,
      336
    ],
    "swim:timestamps": [
      1781409097,
      1781409157,
      1781409157,
      1781409195,
      1781409195,
      1781409217,
      1781409217,
      1781409255,
      1781409337,
      1781409337,
      1781409376,
      1781409435,
      1781409578,
      1781409578,
      1781409578,
      1781409758,
      1781409818,
      1781409878,
      1781409878,
      1781409938,
      1781409998,
      1781409998,
      1781410178,
      1781410178,
      1781410358,
      1781410418,
      1781410478,
      1781410478,
      1781410538,
      1781410538,
      1781410719,
      1781410719,
      1781410779,
      1781410899,
      1781410899,
      1781410899,
      1781411079,
      1781411079,
      1781411079,
      1781411139,
      1781411199,
      1781411199,
      1781411319,
      1781411319,
      1781411619,
      1781411619,
      1781411619,
      1781411804,
      1781411864,
      1781411864,
      1781411864,
      1781412044,
      1781412164,
      1781412164,
      1781412284,
      1781412284,
      1781412404,
      1781412404,
      1781412404,
      1781412464,
      1781412524,
      1781412644,
      1781412644,
      1781412644,
      1781412704,
      1781412764,
      1781412764,
      1781412824,
      1781412885,
      1781412885,
      1781413005,
      1781413005,
      1781413005,
      1781413245,
      1781413245,
      1781413289,
      1781413349,
      1781413349,
      1781413365,
      1781413409,
      1781413425,
      1781413425,
      1781413485,
      1781413589,
      1781413605,
      1781413649,
      1781413665,
      1781413665,
      1781413725,
      1781413785,
      1781413785,
      1781413905,
      1781413905,
      1781414070,
      1781414085,
      1781414130,
      1781414146,
      1781414206,
      1781414250,
      1781414266,
      1781414310,
      1781414310,
      1781414326,
      1781414326,
      1781414490,
      1781414490,
      1781414490,
      1781414610,
      1781414670,
      1781414670,
      1781414790,
      1781414850,
      1781414910,
      1781414910,
      1781415030,
      1781415030,
      1781415150,
      1781415150,
      1781415150,
      1781415331,
      1781415511,
      1781415511,
      1781415511,
      1781415811,
      1781415811,
      1781415871,
      1781415931,
      1781415931,
      1781416051,
      1781416111,
      1781416171,
      1781416171,
      1781416351,
      1781416351,
      1781416351,
      1781416411,
      1781416531,
      1781416711,
      1781416832,
      1781417192,
      1781417252,
      1781417312,
      1781417820,
      1781417940,
      1781418601,
      1781418617,
      1781418918,
      1781419111,
      1781419589,
      1781419741,
      1781419801,
      1781420069,
      1781420309,
      1781420491,
      1781420609,
      1781420670,
      1781420730,
      1781420730,
      1781420791,
      1781420911,
      1781421090,
      1781421122,
      1781421150,
      1781421242,
      1781421270,
      1781421270,
      1781421302,
      1781421330,
      1781421362,
      1781421422,
      1781421482,
      1781421542,
      1781421573,
      1781421602,
      1781421690,
      1781421722,
      1781421751,
      1781421751,
      1781421810,
      1781421842,
      1781421902,
      1781421902,
      1781422082,
      1781422142,
      1781422202,
      1781422262,
      1781422322,
      1781422442,
      1781422524,
      1781422524,
      1781422562,
      1781422584,
      1781422802,
      1781422824,
      1781422884,
      1781422982,
      1781423042,
      1781423064,
      1781423102,
      1781423162,
      1781423184,
      1781423222,
      1781423282,
      1781423282,
      1781423402,
      1781423424,
      1781423484,
      1781423522,
      1781423544,
      1781423604,
      1781423642,
      1781423642,
      1781423724,
      1781423784,
      1781423822,
      1781423844,
      1781423844,
      1781423882,
      1781424205,
      1781425255
    ],
    "wof:geomhash": "09df5a678158c3e603989904ce911d9c",
    "wof:id": 2031532095,
    "wof:repo": "sfomuseum-data-flights-2026-06"
  },
  "bbox": [
    -122.40722222222223,
    37.63777777777778,
    -73.88333333333334,
    42.413333333333334
  ],
  "geometry": {"coordinates":[[-122.40722222222223,37.63777777777778],[-122.35972222222222,37.67527777777777],[-122.35972222222222,37.67527777777777],[-122.3,37.68333333333333],[-122.3,37.68333333333333],[-122.27194444444444,37.698055555555555],[-122.27194444444444,37.698055555555555],[-122.21666666666667,37.71666666666667],[-122.10222222222221,37.77611111111111],[-122.10222222222221,37.77611111111111],[-122.05,37.8],[-121.95,37.85],[-121.70583333333333,37.94499999999999],[-121.70583333333333,37.94499999999999],[-121.70583333333333,37.94499999999999],[-121.33222222222221,38.09138888888889],[-121.17333333333333,38.153055555555554],[-121.0363888888889,38.20444444444445],[-121.0363888888889,38.20444444444445],[-120.88333333333334,38.22694444444445],[-120.72666666666667,38.249722222222225],[-120.72666666666667,38.249722222222225],[-120.23555555555555,38.31805555555556],[-120.23555555555555,38.31805555555556],[-119.72444444444444,38.38611111111111],[-119.55194444444444,38.40861111111111],[-119.39250000000001,38.42916666666667],[-119.39250000000001,38.42916666666667],[-119.22194444444445,38.450833333333335],[-119.22194444444445,38.450833333333335],[-118.72333333333333,38.51361111111111],[-118.72333333333333,38.51361111111111],[-118.55749999999999,38.53361111111111],[-118.22305555555556,38.57361111111111],[-118.22305555555556,38.57361111111111],[-118.22305555555556,38.57361111111111],[-117.69833333333334,38.63444444444444],[-117.69833333333334,38.63444444444444],[-117.69833333333334,38.63444444444444],[-117.52722222222222,38.65361111111111],[-117.35166666666666,38.67333333333333],[-117.35166666666666,38.67333333333333],[-117.00555555555556,38.72916666666667],[-117.00555555555556,38.72916666666667],[-116.16388888888889,38.868611111111115],[-116.16388888888889,38.868611111111115],[-116.16388888888889,38.868611111111115],[-115.64444444444445,38.95138888888889],[-115.47361111111111,38.97777777777778],[-115.47361111111111,38.97777777777778],[-115.47361111111111,38.97777777777778],[-114.9863888888889,39.05222222222222],[-114.6463888888889,39.10305555555556],[-114.6463888888889,39.10305555555556],[-114.30444444444444,39.15277777777778],[-114.30444444444444,39.15277777777778],[-113.96055555555556,39.20194444444445],[-113.96055555555556,39.20194444444445],[-113.96055555555556,39.20194444444445],[-113.79083333333332,39.225833333333334],[-113.61638888888888,39.25],[-113.27416666666666,39.29694444444444],[-113.27416666666666,39.29694444444444],[-113.27416666666666,39.29694444444444],[-113.10166666666666,39.324444444444445],[-112.92777777777778,39.35416666666667],[-112.92777777777778,39.35416666666667],[-112.75777777777778,39.382222222222225],[-112.56388888888888,39.413888888888884],[-112.56388888888888,39.413888888888884],[-112.2175,39.46944444444445],[-112.2175,39.46944444444445],[-112.2175,39.46944444444445],[-111.52222222222223,39.57777777777778],[-111.52222222222223,39.57777777777778],[-111.40861111111111,39.595],[-111.23138888888889,39.62166666666667],[-111.23138888888889,39.62166666666667],[-111.19611111111111,39.62694444444445],[-111.05611111111111,39.64805555555556],[-111.02083333333333,39.65333333333333],[-111.02083333333333,39.65333333333333],[-110.84305555555555,39.67944444444444],[-110.52777777777777,39.72527777777778],[-110.4925,39.73027777777778],[-110.34833333333333,39.75083333333333],[-110.31222222222222,39.755833333333335],[-110.31222222222222,39.755833333333335],[-110.13527777777779,39.780833333333334],[-109.95444444444445,39.80611111111111],[-109.95444444444445,39.80611111111111],[-109.59138888888889,39.855555555555554],[-109.59138888888889,39.855555555555554],[-109.06555555555555,39.925],[-109.05027777777778,39.926944444444445],[-108.90583333333333,39.94555555555555],[-108.86638888888888,39.95055555555556],[-108.68583333333333,39.97361111111111],[-108.53916666666666,39.992222222222225],[-108.50472222222223,39.99638888888889],[-108.35972222222222,40.01444444444444],[-108.35972222222222,40.01444444444444],[-108.32444444444444,40.01888888888889],[-108.32444444444444,40.01888888888889],[-107.82138888888889,40.081388888888895],[-107.82138888888889,40.081388888888895],[-107.82138888888889,40.081388888888895],[-107.45805555555556,40.13444444444444],[-107.27416666666666,40.16],[-107.27416666666666,40.16],[-106.90111111111112,40.21138888888889],[-106.71972222222223,40.23583333333333],[-106.53388888888888,40.26],[-106.53388888888888,40.26],[-106.165,40.30833333333333],[-106.165,40.30833333333333],[-105.80166666666666,40.35444444444445],[-105.80166666666666,40.35444444444445],[-105.80166666666666,40.35444444444445],[-105.23972222222223,40.42361111111111],[-104.68055555555556,40.489444444444445],[-104.68055555555556,40.489444444444445],[-104.68055555555556,40.489444444444445],[-103.74944444444445,40.63722222222222],[-103.74944444444445,40.63722222222222],[-103.56416666666667,40.66694444444444],[-103.37583333333333,40.69694444444444],[-103.37583333333333,40.69694444444444],[-103.00166666666667,40.755833333333335],[-102.81861111111111,40.78388888888889],[-102.63083333333333,40.8125],[-102.63083333333333,40.8125],[-102.06638888888888,40.896388888888886],[-102.06638888888888,40.896388888888886],[-102.06638888888888,40.896388888888886],[-101.87888888888888,40.92361111111111],[-101.49805555555555,40.97833333333333],[-100.92527777777778,41.05722222222222],[-100.53472222222221,41.10944444444445],[-99.39750000000001,41.25388888888889],[-99.20083333333334,41.27722222222222],[-98.99083333333333,41.30277777777778],[-97.34833333333333,41.5125],[-96.95694444444445,41.56361111111111],[-94.80694444444444,41.86888888888889],[-94.71888888888888,41.880833333333335],[-93.71833333333333,42.01222222222222],[-93.10944444444443,42.087500000000006],[-91.44555555555556,42.309444444444445],[-90.91583333333334,42.37638888888889],[-90.71166666666667,42.39361111111111],[-89.82249999999999,42.35888888888889],[-88.98722222222223,42.38138888888889],[-88.375,42.394444444444446],[-87.97833333333334,42.400555555555556],[-87.77888888888889,42.40333333333333],[-87.57777777777777,42.405833333333334],[-87.57777777777777,42.405833333333334],[-87.37638888888888,42.408055555555556],[-86.96916666666667,42.41111111111111],[-86.34722222222221,42.413333333333334],[-86.2286111111111,42.413333333333334],[-86.14500000000001,42.41305555555555],[-85.82777777777777,42.41222222222222],[-85.7461111111111,42.41166666666666],[-85.7461111111111,42.41166666666666],[-85.62833333333333,42.41111111111111],[-85.54777777777778,42.410555555555554],[-85.42888888888889,42.41],[-85.22888888888889,42.40833333333333],[-85.02916666666667,42.406388888888884],[-84.83055555555555,42.40361111111111],[-84.7475,42.40277777777778],[-84.62694444444443,42.401111111111106],[-84.33916666666666,42.396388888888886],[-84.2075,42.39416666666666],[-84.13333333333334,42.39],[-84.13333333333334,42.39],[-83.9225,42.3725],[-83.79083333333332,42.36277777777778],[-83.57722222222222,42.34722222222222],[-83.57722222222222,42.34722222222222],[-82.97694444444444,42.30027777777777],[-82.76472222222222,42.28666666666666],[-82.55361111111111,42.28861111111111],[-82.345,42.29111111111111],[-82.13833333333334,42.280833333333334],[-81.70416666666667,42.23722222222222],[-81.44194444444445,42.20861111111111],[-81.44194444444445,42.20861111111111],[-81.28888888888889,42.19416666666666],[-81.23527777777778,42.18722222222222],[-80.4475,42.102222222222224],[-80.39722222222223,42.094166666666666],[-80.18583333333333,42.071111111111115],[-79.85222222222221,42.033055555555556],[-79.64277777777778,42.00805555555556],[-79.5611111111111,41.998333333333335],[-79.44,41.983333333333334],[-79.23416666666667,41.95805555555556],[-79.1538888888889,41.948055555555555],[-79.03416666666666,41.933055555555555],[-78.83222222222221,41.907222222222224],[-78.83222222222221,41.907222222222224],[-78.43361111111112,41.85527777777778],[-78.34194444444444,41.843333333333334],[-78.14333333333335,41.816944444444445],[-78.03166666666667,41.80166666666666],[-77.94583333333334,41.79],[-77.75055555555555,41.763333333333335],[-77.63861111111112,41.74777777777778],[-77.63861111111112,41.74777777777778],[-77.36694444444444,41.709722222222226],[-77.17666666666668,41.681666666666665],[-77.06305555555555,41.65472222222222],[-76.99138888888889,41.635],[-76.99138888888889,41.635],[-76.88083333333333,41.60527777777778],[-75.91527777777779,41.33694444444445],[-73.88333333333334,40.45]],"type":"LineString"}
}
