{
  "id": 2031487809,
  "type": "Feature",
  "properties": {
    "geom:area": 0,
    "geom:bbox": "-122.480000,31.750000,-97.040000,37.660000",
    "geom:latitude": 33.36827750762396,
    "geom:longitude": -109.91179713045746,
    "src:alt_label": "swim-route",
    "src:geom": "swim",
    "swim:geom": "route",
    "wof:geomhash": "c2ff663d1c9ae4bad370824fd2e0666f",
    "wof:id": 2031487809,
    "wof:repo": "sfomuseum-data-flights-2026-06"
  },
  "bbox": [
    -122.48,
    31.75,
    -97.04,
    37.66
  ],
  "geometry": {"coordinates":[[-122.38,37.62],[-122.48,37.66],[-122.48,37.66],[-122.48,37.65],[-122.48,37.59],[-122.48,37.58],[-122.48,37.56],[-122.48,37.5],[-122.47,37.49],[-122.47,37.49],[-122.43,37.46],[-122.33,37.4],[-122.17,37.29],[-122.14,37.27],[-122.1,37.25],[-122.04,37.21],[-121.91,37.13],[-121.9,37.12],[-121.82,37.07],[-121.71,36.99],[-121.65,36.95],[-121.63,36.94],[-121.53,36.88],[-121.48,36.84],[-121.41,36.79],[-121.27,36.7],[-120.95,36.49],[-120.93,36.47],[-120,35.85],[-119.96,35.82],[-119.82,35.72],[-119.4,35.42],[-118.42,34.71],[-118.04,34.43],[-118.03,34.42],[-117.35,34.26],[-116.89,34.15],[-116.34,34.01],[-115.14,33.7],[-114.76,33.6],[-114,33.46],[-113.73,33.41],[-113.46,33.37],[-113.2,33.32],[-112.66,33.22],[-110.54,32.79],[-108.2,32.28],[-106.28,31.82],[-106.23,31.81],[-105.64,31.79],[-105.04,31.75],[-103.58,31.85],[-103.24,31.87],[-102.79,31.93],[-101.66,32.08],[-99.89,32.28],[-99.88,32.28],[-99.66,32.29],[-98.97,32.33],[-98.79,32.33],[-98.6,32.34],[-98.37,32.35],[-98.31,32.36],[-98.31,32.36],[-98.11,32.36],[-98.09,32.36],[-97.96,32.37],[-97.91,32.37],[-97.62,32.38],[-97.62,32.39],[-97.57,32.43],[-97.53,32.47],[-97.5,32.49],[-97.41,32.57],[-97.31,32.66],[-97.3,32.67],[-97.2,32.75],[-97.17,32.78],[-97.17,32.91],[-97.17,33],[-97.16,33.12],[-97.16,33.2],[-97.13,33.11],[-97.11,33.06],[-97.09,33.03],[-97.06,32.95],[-97.04,32.9]],"type":"LineString"}
}
