{
  "id": 2031514813,
  "type": "Feature",
  "properties": {
    "geom:area": 0,
    "geom:bbox": "-122.413960,37.647820,-121.755300,38.073790",
    "geom:latitude": 37.8441883836079,
    "geom:longitude": -122.07754078791119,
    "src:alt_label": "swim-takeoff",
    "src:geom": "swim",
    "swim:elevations": [
      582,
      773,
      908,
      1128,
      1656,
      2035,
      2298,
      2397,
      3343,
      3602,
      3669,
      3831,
      4206,
      4532,
      4640
    ],
    "swim:geom": "takeoff",
    "swim:timestamps": [
      1781175657,
      1781175684,
      1781175702,
      1781175726,
      1781175786,
      1781175826,
      1781175848,
      1781175859,
      1781175964,
      1781176018,
      1781176035,
      1781176055,
      1781176098,
      1781176136,
      1781176151
    ],
    "wof:geomhash": "28f6437069b1d23baccf80a92eef61c5",
    "wof:id": 2031514813,
    "wof:repo": "sfomuseum-data-flights-2026-06"
  },
  "bbox": [
    -122.41396,
    37.64782,
    -121.7553,
    38.07379
  ],
  "geometry": {"coordinates":[[-122.41396,37.64782],[-122.39663,37.66547],[-122.37683,37.67145],[-122.34763,37.67916],[-122.26423,37.70323],[-122.20879,37.72515],[-122.18854,37.74668],[-122.17787,37.75854],[-122.05236,37.85821],[-121.97411,37.91579],[-121.94758,37.93498],[-121.91528,37.95827],[-121.84603,38.00827],[-121.78132,38.05499],[-121.7553,38.07379]],"type":"LineString"}
}
