{
  "id": 2031474589,
  "type": "Feature",
  "properties": {
    "geom:area": 0,
    "geom:bbox": "-122.322222,33.433333,-111.841389,37.694167",
    "geom:latitude": 36.30078052899972,
    "geom:longitude": -116.7640740250059,
    "src:alt_label": "swim-path",
    "src:geom": "swim",
    "swim:altitudes": [
      "016",
      "016",
      "047",
      "047",
      "047",
      "047",
      "047",
      "089",
      "089",
      "089",
      "089",
      "089",
      "089",
      "089",
      "132",
      "132",
      "132",
      "132",
      "132",
      "132",
      "132",
      "245",
      "245",
      "245",
      "245",
      "245",
      "245",
      "245",
      "312",
      "312",
      "312",
      "320C",
      "320C",
      "320C",
      "320C",
      "320C",
      "320C",
      "320C",
      "320C",
      "320C",
      "320C",
      "320C",
      "320C",
      "320C",
      "320C",
      "320C",
      "320C",
      "320C",
      "320C",
      "320C",
      "320C",
      "320C",
      "320C",
      "320C",
      "320C",
      "320C",
      "320C",
      "320C",
      "320C",
      "320C",
      "320C",
      "320C",
      "320C",
      "320C",
      "320C",
      "320C",
      "320C",
      "320C",
      "320C",
      "320C",
      "320C",
      "320C",
      "320C",
      "320C",
      "320C",
      "320C",
      "320C",
      "320C",
      "320C",
      "320C",
      "320C",
      "320C",
      "320C",
      "320C",
      "320C",
      "320C",
      "320C",
      "320C",
      "320C",
      "320C",
      "320C",
      "320C",
      "320C",
      "320C",
      "320C",
      "320C",
      "320C",
      "320C",
      "320C",
      "320C",
      "320C",
      "320C",
      "320C",
      "320C",
      "320C",
      "320C",
      "320C",
      "320C",
      "320C",
      "320C",
      "320C",
      "320C",
      "320C",
      "320C",
      "320C",
      "320C",
      "320C",
      "320C",
      "320C",
      "320C",
      "320C",
      "320C",
      "320C",
      "320C",
      "320C",
      "320C",
      "320C",
      "320C",
      "320C",
      "320C",
      "320C",
      "320C",
      "320C",
      "320C",
      "320C",
      "320C",
      "320C",
      "320C",
      "320C",
      "320C",
      "320C",
      "320C",
      "320C",
      "320C",
      "320C",
      "320C",
      "320C",
      "320C",
      "320C",
      "320C",
      "320C",
      "320C",
      "320C",
      "320C",
      "320C",
      "320C",
      "320C",
      "320C",
      "320C",
      "320C",
      "320C",
      "320C",
      "320C",
      "320C",
      "320C",
      "320C",
      "320C",
      "320C",
      "320C",
      "320",
      "320",
      "320",
      "320",
      "320",
      "286",
      "286",
      "286",
      "286",
      "286",
      "286",
      "286",
      "255",
      "255",
      "255",
      "255",
      "255",
      "244",
      "244",
      "244",
      "201",
      "192",
      "192",
      "178",
      "178",
      "178",
      "178",
      "178",
      "178",
      "120",
      "120",
      "120",
      "120",
      "120",
      "108",
      "108",
      "108",
      "100",
      "088",
      "088",
      "088",
      "088",
      "088",
      "088",
      "082",
      "082",
      "082",
      "060",
      "060",
      "060",
      "051",
      "051",
      "051",
      "037",
      "037",
      "037",
      "037",
      "026",
      "026",
      "026",
      "026",
      "019",
      "019",
      "007",
      "007"
    ],
    "swim:geom": "path",
    "swim:speeds": [
      176,
      176,
      231,
      231,
      231,
      231,
      231,
      312,
      312,
      312,
      312,
      312,
      312,
      312,
      363,
      363,
      363,
      363,
      363,
      363,
      363,
      441,
      441,
      441,
      441,
      441,
      441,
      441,
      454,
      454,
      454,
      453,
      453,
      453,
      453,
      453,
      453,
      447,
      447,
      447,
      447,
      447,
      447,
      447,
      441,
      441,
      441,
      441,
      441,
      441,
      441,
      441,
      441,
      445,
      445,
      445,
      445,
      445,
      445,
      445,
      446,
      446,
      446,
      446,
      446,
      446,
      446,
      444,
      444,
      444,
      444,
      444,
      444,
      440,
      440,
      440,
      440,
      440,
      438,
      438,
      438,
      438,
      438,
      430,
      430,
      430,
      430,
      445,
      445,
      445,
      449,
      452,
      452,
      452,
      452,
      454,
      454,
      455,
      455,
      455,
      438,
      438,
      438,
      438,
      431,
      431,
      431,
      422,
      422,
      422,
      422,
      417,
      417,
      417,
      415,
      415,
      415,
      412,
      412,
      408,
      408,
      408,
      408,
      407,
      407,
      407,
      407,
      407,
      407,
      407,
      407,
      409,
      409,
      409,
      409,
      411,
      411,
      411,
      411,
      413,
      413,
      413,
      413,
      413,
      413,
      413,
      413,
      413,
      413,
      413,
      414,
      414,
      414,
      416,
      416,
      416,
      416,
      420,
      420,
      420,
      420,
      422,
      422,
      422,
      422,
      422,
      423,
      423,
      423,
      422,
      422,
      422,
      422,
      422,
      418,
      418,
      418,
      418,
      418,
      418,
      418,
      404,
      404,
      404,
      404,
      404,
      402,
      402,
      402,
      384,
      376,
      376,
      372,
      372,
      372,
      372,
      372,
      372,
      273,
      273,
      273,
      273,
      273,
      239,
      239,
      239,
      234,
      245,
      245,
      245,
      245,
      245,
      245,
      247,
      247,
      247,
      226,
      226,
      226,
      222,
      222,
      222,
      225,
      225,
      225,
      225,
      206,
      206,
      206,
      206,
      196,
      196,
      158,
      158
    ],
    "swim:timestamps": [
      1780845565,
      1780845565,
      1780845675,
      1780845675,
      1780845675,
      1780845675,
      1780845675,
      1780845855,
      1780845855,
      1780845855,
      1780845855,
      1780845855,
      1780845855,
      1780845855,
      1780846036,
      1780846036,
      1780846036,
      1780846036,
      1780846036,
      1780846036,
      1780846036,
      1780846396,
      1780846396,
      1780846396,
      1780846396,
      1780846396,
      1780846396,
      1780846396,
      1780846697,
      1780846697,
      1780846697,
      1780846755,
      1780846755,
      1780846755,
      1780846755,
      1780846755,
      1780846755,
      1780846997,
      1780846997,
      1780846997,
      1780846997,
      1780846997,
      1780846997,
      1780846997,
      1780847237,
      1780847237,
      1780847237,
      1780847237,
      1780847298,
      1780847298,
      1780847298,
      1780847298,
      1780847298,
      1780847478,
      1780847478,
      1780847478,
      1780847478,
      1780847538,
      1780847538,
      1780847538,
      1780847658,
      1780847658,
      1780847658,
      1780847658,
      1780847658,
      1780847658,
      1780847658,
      1780847838,
      1780847838,
      1780847838,
      1780847838,
      1780847838,
      1780847838,
      1780848079,
      1780848079,
      1780848079,
      1780848079,
      1780848079,
      1780848139,
      1780848139,
      1780848139,
      1780848139,
      1780848139,
      1780848220,
      1780848220,
      1780848220,
      1780848280,
      1780848319,
      1780848319,
      1780848319,
      1780848340,
      1780848379,
      1780848379,
      1780848379,
      1780848379,
      1780848499,
      1780848499,
      1780848520,
      1780848520,
      1780848520,
      1780848680,
      1780848680,
      1780848680,
      1780848680,
      1780848700,
      1780848700,
      1780848700,
      1780848760,
      1780848760,
      1780848760,
      1780848760,
      1780848800,
      1780848800,
      1780848800,
      1780848860,
      1780848860,
      1780848860,
      1780848881,
      1780848881,
      1780848941,
      1780848941,
      1780848941,
      1780848941,
      1780849001,
      1780849001,
      1780849001,
      1780849061,
      1780849061,
      1780849061,
      1780849100,
      1780849100,
      1780849181,
      1780849181,
      1780849181,
      1780849181,
      1780849241,
      1780849241,
      1780849241,
      1780849241,
      1780849301,
      1780849301,
      1780849301,
      1780849301,
      1780849301,
      1780849401,
      1780849401,
      1780849401,
      1780849421,
      1780849421,
      1780849421,
      1780849481,
      1780849481,
      1780849481,
      1780849542,
      1780849542,
      1780849542,
      1780849542,
      1780849662,
      1780849662,
      1780849662,
      1780849662,
      1780849722,
      1780849722,
      1780849722,
      1780849722,
      1780849722,
      1780849842,
      1780849842,
      1780849842,
      1780849902,
      1780849902,
      1780849902,
      1780849902,
      1780849902,
      1780850082,
      1780850082,
      1780850082,
      1780850082,
      1780850082,
      1780850082,
      1780850082,
      1780850170,
      1780850170,
      1780850170,
      1780850170,
      1780850170,
      1780850202,
      1780850202,
      1780850202,
      1780850323,
      1780850345,
      1780850345,
      1780850383,
      1780850383,
      1780850383,
      1780850383,
      1780850383,
      1780850383,
      1780850591,
      1780850591,
      1780850591,
      1780850591,
      1780850591,
      1780850651,
      1780850651,
      1780850651,
      1780850772,
      1780850863,
      1780850863,
      1780850863,
      1780850863,
      1780850863,
      1780850863,
      1780850891,
      1780850891,
      1780850891,
      1780851044,
      1780851044,
      1780851044,
      1780851072,
      1780851072,
      1780851072,
      1780851164,
      1780851164,
      1780851164,
      1780851164,
      1780851224,
      1780851224,
      1780851224,
      1780851224,
      1780851252,
      1780851252,
      1780851344,
      1780851344
    ],
    "wof:geomhash": "c255ebe9c094c4a51af3fdecc934dd7b",
    "wof:id": 2031474589,
    "wof:repo": "sfomuseum-data-flights-2026-06"
  },
  "bbox": [
    -122.32222222222222,
    33.43333333333333,
    -111.84138888888889,
    37.69416666666666
  ],
  "geometry": {"coordinates":[[-111.98333333333333,33.43333333333333],[-111.98333333333333,33.43333333333333],[-111.86694444444444,33.43888888888888],[-111.86694444444444,33.43888888888888],[-111.86694444444444,33.43888888888888],[-111.86694444444444,33.43888888888888],[-111.86694444444444,33.43888888888888],[-111.84138888888889,33.695277777777775],[-111.84138888888889,33.695277777777775],[-111.84138888888889,33.695277777777775],[-111.84138888888889,33.695277777777775],[-111.84138888888889,33.695277777777775],[-111.84138888888889,33.695277777777775],[-111.84138888888889,33.695277777777775],[-112.08083333333333,33.87361111111111],[-112.08083333333333,33.87361111111111],[-112.08083333333333,33.87361111111111],[-112.08083333333333,33.87361111111111],[-112.08083333333333,33.87361111111111],[-112.08083333333333,33.87361111111111],[-112.08083333333333,33.87361111111111],[-112.76,34.27916666666667],[-112.76,34.27916666666667],[-112.76,34.27916666666667],[-112.76,34.27916666666667],[-112.76,34.27916666666667],[-112.76,34.27916666666667],[-112.76,34.27916666666667],[-113.38166666666666,34.64222222222222],[-113.38166666666666,34.64222222222222],[-113.38166666666666,34.64222222222222],[-113.5025,34.71222222222222],[-113.5025,34.71222222222222],[-113.5025,34.71222222222222],[-113.5025,34.71222222222222],[-113.5025,34.71222222222222],[-113.5025,34.71222222222222],[-113.97166666666666,35.009166666666665],[-113.97166666666666,35.009166666666665],[-113.97166666666666,35.009166666666665],[-113.97166666666666,35.009166666666665],[-113.97166666666666,35.009166666666665],[-113.97166666666666,35.009166666666665],[-113.97166666666666,35.009166666666665],[-114.4475,35.30722222222222],[-114.4475,35.30722222222222],[-114.4475,35.30722222222222],[-114.4475,35.30722222222222],[-114.56861111111111,35.3825],[-114.56861111111111,35.3825],[-114.56861111111111,35.3825],[-114.56861111111111,35.3825],[-114.56861111111111,35.3825],[-114.94277777777778,35.61333333333334],[-114.94277777777778,35.61333333333334],[-114.94277777777778,35.61333333333334],[-114.94277777777778,35.61333333333334],[-115.06472222222222,35.68805555555555],[-115.06472222222222,35.68805555555555],[-115.06472222222222,35.68805555555555],[-115.2961111111111,35.82916666666667],[-115.2961111111111,35.82916666666667],[-115.2961111111111,35.82916666666667],[-115.2961111111111,35.82916666666667],[-115.2961111111111,35.82916666666667],[-115.2961111111111,35.82916666666667],[-115.2961111111111,35.82916666666667],[-115.66527777777779,36.05222222222222],[-115.66527777777779,36.05222222222222],[-115.66527777777779,36.05222222222222],[-115.66527777777779,36.05222222222222],[-115.66527777777779,36.05222222222222],[-115.66527777777779,36.05222222222222],[-116.16972222222223,36.35305555555556],[-116.16972222222223,36.35305555555556],[-116.16972222222223,36.35305555555556],[-116.16972222222223,36.35305555555556],[-116.16972222222223,36.35305555555556],[-116.26972222222223,36.411944444444444],[-116.26972222222223,36.411944444444444],[-116.26972222222223,36.411944444444444],[-116.26972222222223,36.411944444444444],[-116.26972222222223,36.411944444444444],[-116.43555555555555,36.50972222222222],[-116.43555555555555,36.50972222222222],[-116.43555555555555,36.50972222222222],[-116.55611111111111,36.58027777777778],[-116.64166666666668,36.65],[-116.64166666666668,36.65],[-116.64166666666668,36.65],[-116.6588888888889,36.670833333333334],[-116.72888888888889,36.754444444444445],[-116.72888888888889,36.754444444444445],[-116.72888888888889,36.754444444444445],[-116.72888888888889,36.754444444444445],[-116.90472222222223,36.96555555555556],[-116.90472222222223,36.96555555555556],[-116.92361111111111,36.988055555555555],[-116.92361111111111,36.988055555555555],[-116.92361111111111,36.988055555555555],[-117.16888888888889,37.279444444444444],[-117.16888888888889,37.279444444444444],[-117.16888888888889,37.279444444444444],[-117.16888888888889,37.279444444444444],[-117.18833333333333,37.3],[-117.18833333333333,37.3],[-117.18833333333333,37.3],[-117.28527777777778,37.388333333333335],[-117.28527777777778,37.388333333333335],[-117.28527777777778,37.388333333333335],[-117.28527777777778,37.388333333333335],[-117.35916666666667,37.422777777777775],[-117.35916666666667,37.422777777777775],[-117.35916666666667,37.422777777777775],[-117.48444444444445,37.47833333333333],[-117.48444444444445,37.47833333333333],[-117.48444444444445,37.47833333333333],[-117.53888888888889,37.49388888888889],[-117.53888888888889,37.49388888888889],[-117.68277777777779,37.507777777777775],[-117.68277777777779,37.507777777777775],[-117.68277777777779,37.507777777777775],[-117.68277777777779,37.507777777777775],[-117.82249999999999,37.51888888888889],[-117.82249999999999,37.51888888888889],[-117.82249999999999,37.51888888888889],[-117.96555555555555,37.53055555555555],[-117.96555555555555,37.53055555555555],[-117.96555555555555,37.53055555555555],[-118.05083333333333,37.53722222222222],[-118.05083333333333,37.53722222222222],[-118.25222222222222,37.55305555555555],[-118.25222222222222,37.55305555555555],[-118.25222222222222,37.55305555555555],[-118.25222222222222,37.55305555555555],[-118.39666666666668,37.56388888888888],[-118.39666666666668,37.56388888888888],[-118.39666666666668,37.56388888888888],[-118.39666666666668,37.56388888888888],[-118.54055555555556,37.575],[-118.54055555555556,37.575],[-118.54055555555556,37.575],[-118.54055555555556,37.575],[-118.54055555555556,37.575],[-118.77277777777778,37.591944444444444],[-118.77277777777778,37.591944444444444],[-118.77277777777778,37.591944444444444],[-118.83,37.596111111111114],[-118.83,37.596111111111114],[-118.83,37.596111111111114],[-118.97555555555556,37.60638888888889],[-118.97555555555556,37.60638888888889],[-118.97555555555556,37.60638888888889],[-119.12166666666666,37.61666666666667],[-119.12166666666666,37.61666666666667],[-119.12166666666666,37.61666666666667],[-119.12166666666666,37.61666666666667],[-119.41777777777779,37.636944444444445],[-119.41777777777779,37.636944444444445],[-119.41777777777779,37.636944444444445],[-119.41777777777779,37.636944444444445],[-119.56388888888888,37.64666666666667],[-119.56388888888888,37.64666666666667],[-119.56388888888888,37.64666666666667],[-119.56388888888888,37.64666666666667],[-119.56388888888888,37.64666666666667],[-119.86138888888888,37.66611111111111],[-119.86138888888888,37.66611111111111],[-119.86138888888888,37.66611111111111],[-120.00777777777778,37.675],[-120.00777777777778,37.675],[-120.00777777777778,37.675],[-120.00777777777778,37.675],[-120.00777777777778,37.675],[-120.4475,37.69416666666666],[-120.4475,37.69416666666666],[-120.4475,37.69416666666666],[-120.4475,37.69416666666666],[-120.4475,37.69416666666666],[-120.4475,37.69416666666666],[-120.4475,37.69416666666666],[-120.65,37.666666666666664],[-120.65,37.666666666666664],[-120.65,37.666666666666664],[-120.65,37.666666666666664],[-120.65,37.666666666666664],[-120.72944444444444,37.66111111111111],[-120.72944444444444,37.66111111111111],[-120.72944444444444,37.66111111111111],[-120.99833333333333,37.62861111111111],[-121.05,37.61666666666667],[-121.05,37.61666666666667],[-121.12777777777777,37.61083333333333],[-121.12777777777777,37.61083333333333],[-121.12777777777777,37.61083333333333],[-121.12777777777777,37.61083333333333],[-121.12777777777777,37.61083333333333],[-121.12777777777777,37.61083333333333],[-121.53333333333333,37.56666666666667],[-121.53333333333333,37.56666666666667],[-121.53333333333333,37.56666666666667],[-121.53333333333333,37.56666666666667],[-121.53333333333333,37.56666666666667],[-121.61666666666666,37.55],[-121.61666666666666,37.55],[-121.61666666666666,37.55],[-121.76666666666667,37.6],[-121.8275,37.54472222222222],[-121.8275,37.54472222222222],[-121.8275,37.54472222222222],[-121.8275,37.54472222222222],[-121.8275,37.54472222222222],[-121.8275,37.54472222222222],[-121.83333333333333,37.5],[-121.83333333333333,37.5],[-121.83333333333333,37.5],[-122.01444444444445,37.469166666666666],[-122.01444444444445,37.469166666666666],[-122.01444444444445,37.469166666666666],[-122.05,37.483333333333334],[-122.05,37.483333333333334],[-122.05,37.483333333333334],[-122.15194444444445,37.52722222222222],[-122.15194444444445,37.52722222222222],[-122.15194444444445,37.52722222222222],[-122.15194444444445,37.52722222222222],[-122.21416666666667,37.55333333333333],[-122.21416666666667,37.55333333333333],[-122.21416666666667,37.55333333333333],[-122.21416666666667,37.55333333333333],[-122.25,37.56666666666667],[-122.25,37.56666666666667],[-122.32222222222222,37.598888888888894],[-122.32222222222222,37.598888888888894]],"type":"LineString"}
}
