{
  "id": 2031651437,
  "type": "Feature",
  "properties": {
    "geom:area": 0,
    "geom:bbox": "-122.547600,36.718150,-121.438650,37.668040",
    "geom:latitude": 37.21005332801642,
    "geom:longitude": -122.06669779373388,
    "src:alt_label": "swim-takeoff",
    "src:geom": "swim",
    "swim:elevations": [
      122,
      335,
      915,
      1096,
      1464,
      1695,
      2400,
      2942,
      3324,
      3620,
      4057,
      4317,
      4369,
      4782,
      4928,
      5173,
      5448,
      5716,
      6377,
      6409,
      6676,
      6780,
      7270,
      7526,
      7908,
      8115,
      8320,
      8490,
      8805,
      8894,
      9011
    ],
    "swim:geom": "takeoff",
    "swim:timestamps": [
      1782540566,
      1782540580,
      1782540621,
      1782540637,
      1782540675,
      1782540693,
      1782540741,
      1782540770,
      1782540800,
      1782540833,
      1782540868,
      1782540886,
      1782540891,
      1782540924,
      1782540939,
      1782540962,
      1782540996,
      1782541023,
      1782541077,
      1782541080,
      1782541104,
      1782541113,
      1782541159,
      1782541183,
      1782541228,
      1782541256,
      1782541283,
      1782541304,
      1782541346,
      1782541359,
      1782541381
    ],
    "wof:geomhash": "5af8962ffb31b626ddec7bb0d09e3c83",
    "wof:id": 2031651437,
    "wof:repo": "sfomuseum-data-flights-2026-06"
  },
  "bbox": [
    -122.5476,
    36.71815,
    -121.43865,
    37.66804
  ],
  "geometry": {"coordinates":[[-122.38936,37.62469],[-122.40006,37.62919],[-122.43375,37.64379],[-122.44699,37.64948],[-122.4881,37.66659],[-122.51251,37.66804],[-122.5476,37.62089],[-122.52798,37.58245],[-122.50417,37.54281],[-122.47339,37.49448],[-122.42104,37.45075],[-122.3904,37.42815],[-122.38295,37.42255],[-122.32729,37.38104],[-122.30115,37.36175],[-122.25855,37.33047],[-122.19713,37.28539],[-122.1455,37.24731],[-122.04178,37.17051],[-122.03602,37.16625],[-121.98992,37.13202],[-121.97259,37.11907],[-121.88337,37.05256],[-121.83685,37.01773],[-121.74855,36.95204],[-121.6939,36.91202],[-121.63958,36.87147],[-121.59702,36.8396],[-121.50959,36.77372],[-121.48467,36.75371],[-121.43865,36.71815]],"type":"LineString"}
}
