{
  "id": 2031474109,
  "type": "Feature",
  "properties": {
    "date:cessation_lower": "2026-06-08",
    "date:cessation_upper": "2026-06-08",
    "date:inception_lower": "2026-06-08",
    "date:inception_upper": "2026-06-08",
    "edtf:cessation": "2026-06-07T17:06:12-07:00",
    "edtf:inception": "2026-06-08T06:11:00Z",
    "flysfo:actual_timestamp": -1,
    "flysfo:airline": "WN",
    "flysfo:date": "2026-06-07",
    "flysfo:estimated_timestamp": -1,
    "flysfo:event": "A",
    "flysfo:flight_number": "WN2932",
    "flysfo:gate": "",
    "flysfo:journey": "BUR-SFO",
    "flysfo:scheduled_timestamp": 1780895400,
    "flysfo:timestamp": 1780895400,
    "geom:area": 0,
    "geom:bbox": "-122.370943,34.196704,-118.353322,37.617990",
    "geom:latitude": 35.907347,
    "geom:longitude": -120.3621325,
    "iata:airline": "WN",
    "icao:aircraft": "B737",
    "icao:airline": "SWA",
    "lbl:latitude": 37.61799,
    "lbl:longitude": -122.370943,
    "sfomuseum:aircraft_id": 1159289869,
    "sfomuseum:airline_id": 1159285591,
    "sfomuseum:arrival_id": 102527513,
    "sfomuseum:departure_id": 1746879083,
    "sfomuseum:flight_id": "20260607-A-SWA-2932",
    "sfomuseum:flight_number": [
      "SWA2932",
      "WN2932"
    ],
    "sfomuseum:placetype": "flight",
    "src:geom": "flysfo",
    "src:geom_alt": [
      "swim-route",
      "swim-path",
      "swim-approach"
    ],
    "swim:tail_number": "N7862A",
    "wof:belongsto": [],
    "wof:concordances": {
      "swim:gufi": "KL1096427o"
    },
    "wof:country": "US",
    "wof:created": 1780934875,
    "wof:geomhash": "579cc6c0d5668ba584a946b357aa3191",
    "wof:hierarchy": [
      {
        "custom_id": 2031474109,
        "flight_id": 2031474109
      }
    ],
    "wof:id": 2031474109,
    "wof:involves": [
      1159289869,
      102527513,
      1746879083,
      1159285591
    ],
    "wof:lastmodified": 1780935568,
    "wof:name": "WN2932 (BUR-SFO)",
    "wof:parent_id": -1,
    "wof:placetype": "custom",
    "wof:placetype_alt": [
      "flight"
    ],
    "wof:repo": "sfomuseum-data-flights-2026-06",
    "wof:superseded_by": [],
    "wof:supersedes": []
  },
  "bbox": [
    -122.370943,
    34.196704,
    -118.353322,
    37.61799
  ],
  "geometry": {"coordinates":[[-118.353322,34.196704],[-122.370943,37.61799]],"type":"MultiPoint"}
}
