{
  "id": 2031474109,
  "type": "Feature",
  "properties": {
    "geom:area": 0,
    "geom:bbox": "-122.357270,36.735950,-121.887320,37.613570",
    "geom:latitude": 37.21707497218017,
    "geom:longitude": -122.10415192333012,
    "src:alt_label": "swim-approach",
    "src:geom": "swim",
    "swim:elevations": [
      5806,
      5408,
      5207,
      5171,
      4617,
      4169,
      3963,
      3964,
      3901,
      3749,
      3593,
      3442,
      3274,
      3122,
      2885,
      2573,
      2510,
      2293,
      2102,
      2088,
      2038,
      1922,
      1888,
      1826,
      1789,
      1523,
      1458,
      1291,
      1031,
      914,
      913,
      914,
      914,
      837,
      687,
      604,
      420,
      363,
      334,
      259,
      92,
      60
    ],
    "swim:geom": "approach",
    "swim:timestamps": [
      1780876117,
      1780876150,
      1780876168,
      1780876171,
      1780876219,
      1780876258,
      1780876285,
      1780876291,
      1780876340,
      1780876376,
      1780876397,
      1780876435,
      1780876468,
      1780876495,
      1780876524,
      1780876556,
      1780876564,
      1780876606,
      1780876648,
      1780876651,
      1780876672,
      1780876693,
      1780876702,
      1780876711,
      1780876717,
      1780876765,
      1780876774,
      1780876804,
      1780876852,
      1780876885,
      1780876890,
      1780876913,
      1780876942,
      1780876958,
      1780876991,
      1780877011,
      1780877059,
      1780877070,
      1780877083,
      1780877100,
      1780877149,
      1780877172
    ],
    "wof:geomhash": "09e60e325cea549794318fe09b5f8945",
    "wof:id": 2031474109,
    "wof:repo": "sfomuseum-data-flights-2026-06"
  },
  "bbox": [
    -122.35727,
    36.73595,
    -121.88732,
    37.61357
  ],
  "geometry": {"coordinates":[[-121.88732,36.73595],[-121.90722,36.78896],[-121.91561,36.81868],[-121.91702,36.82361],[-121.93864,36.90079],[-121.95775,36.96375],[-121.97365,37.00473],[-121.97701,37.01345],[-122.00208,37.07821],[-122.0231,37.11894],[-122.04629,37.13614],[-122.09708,37.15458],[-122.13843,37.1693],[-122.17194,37.18128],[-122.20806,37.19412],[-122.23438,37.21849],[-122.23515,37.22729],[-122.2221,37.27101],[-122.19574,37.31103],[-122.19394,37.31368],[-122.18193,37.33177],[-122.17042,37.34866],[-122.1655,37.3558],[-122.16056,37.36295],[-122.15731,37.36778],[-122.13117,37.40615],[-122.12674,37.41356],[-122.13091,37.43934],[-122.1411,37.47936],[-122.14906,37.5065],[-122.15189,37.5103],[-122.16449,37.52558],[-122.18641,37.54206],[-122.20105,37.54809],[-122.23076,37.56044],[-122.2483,37.56782],[-122.28426,37.58282],[-122.29219,37.58607],[-122.30093,37.58981],[-122.31283,37.5949],[-122.34301,37.60759],[-122.35727,37.61357]],"type":"LineString"}
}
