{
  "id": 2031679769,
  "type": "Feature",
  "properties": {
    "geom:area": 0,
    "geom:bbox": "-122.358800,37.491810,-121.261450,37.614230",
    "geom:latitude": 37.542298067698724,
    "geom:longitude": -121.8171650287839,
    "src:alt_label": "swim-approach",
    "src:geom": "swim",
    "swim:elevations": [
      4578,
      4425,
      3961,
      3613,
      3596,
      3481,
      3434,
      3293,
      3133,
      2876,
      2661,
      2466,
      2438,
      2360,
      2110,
      1990,
      1950,
      1736,
      1645,
      1402,
      1248,
      1154,
      1005,
      970,
      876,
      789,
      549,
      427,
      311,
      263,
      4,
      0
    ],
    "swim:geom": "approach",
    "swim:timestamps": [
      1782864528,
      1782864543,
      1782864590,
      1782864626,
      1782864632,
      1782864653,
      1782864667,
      1782864705,
      1782864747,
      1782864778,
      1782864804,
      1782864825,
      1782864851,
      1782864879,
      1782864928,
      1782864955,
      1782864967,
      1782865012,
      1782865027,
      1782865076,
      1782865107,
      1782865125,
      1782865157,
      1782865195,
      1782865217,
      1782865234,
      1782865279,
      1782865307,
      1782865335,
      1782865350,
      1782865408,
      1782865411
    ],
    "wof:geomhash": "e75f40ea71eb2042fe7e08a3325e38e2",
    "wof:id": 2031679769,
    "wof:repo": "sfomuseum-data-flights-2026-06"
  },
  "bbox": [
    -122.3588,
    37.49181,
    -121.26145,
    37.61423
  ],
  "geometry": {"coordinates":[[-121.26145,37.59278],[-121.29081,37.58888],[-121.38229,37.57877],[-121.4511,37.57077],[-121.46239,37.56944],[-121.50045,37.56507],[-121.52417,37.56235],[-121.58376,37.55522],[-121.64434,37.54574],[-121.68722,37.53547],[-121.72113,37.5274],[-121.74872,37.52087],[-121.784,37.51245],[-121.82095,37.50362],[-121.8857,37.49181],[-121.92128,37.49359],[-121.93602,37.49439],[-121.98779,37.49724],[-122.00379,37.49819],[-122.05704,37.5012],[-122.09062,37.50362],[-122.10942,37.50962],[-122.13999,37.5221],[-122.17684,37.5376],[-122.19761,37.54637],[-122.21274,37.55272],[-122.25534,37.57079],[-122.28017,37.5812],[-122.30161,37.5902],[-122.31276,37.59489],[-122.35646,37.61323],[-122.3588,37.61423]],"type":"LineString"}
}
