{
  "id": 2031482005,
  "type": "Feature",
  "properties": {
    "geom:area": 0,
    "geom:bbox": "-123.395556,37.383333,-122.088611,47.426667",
    "geom:latitude": 42.23045820636007,
    "geom:longitude": -123.05901098346305,
    "src:alt_label": "swim-path",
    "src:geom": "swim",
    "swim:altitudes": [
      "021",
      "040",
      "040",
      "040",
      "072",
      "072",
      "072",
      "072",
      "115",
      "244",
      "244",
      "244",
      "263",
      "263",
      "263",
      "263",
      "297",
      "297",
      "310",
      "322",
      "322",
      "322",
      "333",
      "340",
      "340",
      "347",
      "347",
      "347",
      "350C",
      "350C",
      "350C",
      "350C",
      "350C",
      "350C",
      "350C",
      "350C",
      "350C",
      "350C",
      "350C",
      "350C",
      "350C",
      "350C",
      "350C",
      "350C",
      "350C",
      "350C",
      "350C",
      "350C",
      "350C",
      "350C",
      "350C",
      "350C",
      "350C",
      "350C",
      "350C",
      "350C",
      "350C",
      "350C",
      "350C",
      "350C",
      "350C",
      "350C",
      "350C",
      "350C",
      "350C",
      "350C",
      "350C",
      "350C",
      "350C",
      "350C",
      "350C",
      "350C",
      "350C",
      "350C",
      "350C",
      "350C",
      "350C",
      "350C",
      "350C",
      "350C",
      "350C",
      "350C",
      "350C",
      "350C",
      "350C",
      "350C",
      "350C",
      "350C",
      "350C",
      "350C",
      "350C",
      "350C",
      "350C",
      "350C",
      "350C",
      "345",
      "339",
      "325",
      "325",
      "325",
      "325",
      "266",
      "266",
      "248",
      "248",
      "225",
      "225",
      "225",
      "206",
      "195",
      "183",
      "183",
      "173",
      "173",
      "173",
      "163",
      "163",
      "134",
      "134",
      "134",
      "124",
      "124",
      "116",
      "110C",
      "110C",
      "110",
      "110C",
      "110",
      "110",
      "110",
      "105",
      "105",
      "089",
      "070",
      "070",
      "070",
      "070",
      "070",
      "068",
      "064",
      "064",
      "060",
      "060",
      "060",
      "060",
      "060",
      "060",
      "060",
      "059",
      "055",
      "055",
      "055",
      "050",
      "043",
      "043",
      "040",
      "039",
      "039",
      "029",
      "029",
      "029",
      "014",
      "014",
      "014",
      "008"
    ],
    "swim:geom": "path",
    "swim:speeds": [
      159,
      203,
      203,
      203,
      277,
      277,
      277,
      277,
      312,
      381,
      381,
      381,
      394,
      394,
      394,
      394,
      410,
      410,
      411,
      410,
      410,
      410,
      406,
      406,
      406,
      406,
      406,
      406,
      434,
      434,
      434,
      436,
      436,
      442,
      442,
      443,
      443,
      447,
      447,
      447,
      447,
      450,
      450,
      450,
      450,
      458,
      458,
      458,
      458,
      469,
      469,
      476,
      475,
      475,
      475,
      476,
      476,
      476,
      476,
      476,
      476,
      476,
      479,
      494,
      494,
      494,
      495,
      500,
      503,
      503,
      503,
      503,
      505,
      506,
      506,
      479,
      479,
      471,
      483,
      483,
      481,
      481,
      481,
      481,
      481,
      484,
      485,
      485,
      485,
      487,
      488,
      488,
      472,
      472,
      492,
      511,
      510,
      509,
      509,
      509,
      509,
      484,
      484,
      459,
      459,
      427,
      427,
      427,
      406,
      384,
      367,
      367,
      323,
      323,
      323,
      295,
      295,
      287,
      287,
      287,
      288,
      288,
      281,
      281,
      281,
      273,
      271,
      273,
      273,
      273,
      269,
      269,
      261,
      223,
      223,
      223,
      223,
      223,
      222,
      223,
      223,
      247,
      247,
      247,
      236,
      249,
      249,
      249,
      231,
      227,
      227,
      227,
      230,
      204,
      204,
      193,
      186,
      186,
      171,
      171,
      171,
      126,
      126,
      126,
      124
    ],
    "swim:timestamps": [
      1780944402,
      1780944462,
      1780944462,
      1780944462,
      1780944642,
      1780944642,
      1780944642,
      1780944642,
      1780944762,
      1780945243,
      1780945243,
      1780945243,
      1780945363,
      1780945363,
      1780945363,
      1780945363,
      1780945543,
      1780945543,
      1780945603,
      1780945663,
      1780945663,
      1780945663,
      1780945723,
      1780945783,
      1780945783,
      1780945844,
      1780945844,
      1780945844,
      1780946024,
      1780946024,
      1780946024,
      1780946084,
      1780946084,
      1780946204,
      1780946204,
      1780946264,
      1780946264,
      1780946324,
      1780946324,
      1780946384,
      1780946384,
      1780946505,
      1780946505,
      1780946505,
      1780946505,
      1780946685,
      1780946685,
      1780946685,
      1780946685,
      1780946925,
      1780946925,
      1780946948,
      1780947008,
      1780947008,
      1780947008,
      1780947068,
      1780947068,
      1780947105,
      1780947128,
      1780947188,
      1780947188,
      1780947188,
      1780947248,
      1780947428,
      1780947428,
      1780947428,
      1780947526,
      1780947548,
      1780947586,
      1780947608,
      1780947608,
      1780947608,
      1780947646,
      1780947706,
      1780947706,
      1780947729,
      1780947729,
      1780947766,
      1780947849,
      1780947849,
      1780947969,
      1780947969,
      1780948007,
      1780948007,
      1780948007,
      1780948089,
      1780948127,
      1780948127,
      1780948127,
      1780948187,
      1780948247,
      1780948269,
      1780948427,
      1780948427,
      1780948450,
      1780948570,
      1780948608,
      1780948690,
      1780948690,
      1780948690,
      1780948690,
      1780949050,
      1780949050,
      1780949111,
      1780949111,
      1780949171,
      1780949171,
      1780949171,
      1780949221,
      1780949252,
      1780949291,
      1780949291,
      1780949351,
      1780949351,
      1780949351,
      1780949411,
      1780949411,
      1780949492,
      1780949492,
      1780949492,
      1780949531,
      1780949531,
      1780949552,
      1780949591,
      1780949591,
      1780949612,
      1780949651,
      1780949672,
      1780949672,
      1780949672,
      1780949711,
      1780949711,
      1780949772,
      1780949852,
      1780949852,
      1780949852,
      1780949852,
      1780949912,
      1780949952,
      1780949972,
      1780949972,
      1780950033,
      1780950033,
      1780950033,
      1780950092,
      1780950192,
      1780950192,
      1780950192,
      1780950252,
      1780950272,
      1780950272,
      1780950272,
      1780950312,
      1780950372,
      1780950372,
      1780950432,
      1780950447,
      1780950447,
      1780950513,
      1780950513,
      1780950513,
      1780950673,
      1780950673,
      1780950673,
      1780950733
    ],
    "wof:geomhash": "1f02f48eebc6dd349848937664d37d07",
    "wof:id": 2031482005,
    "wof:repo": "sfomuseum-data-flights-2026-06"
  },
  "bbox": [
    -123.39555555555556,
    37.38333333333333,
    -122.0886111111111,
    47.42666666666666
  ],
  "geometry": {"coordinates":[[-122.30722222222222,47.42666666666666],[-122.30833333333334,47.374722222222225],[-122.30833333333334,47.374722222222225],[-122.30833333333334,47.374722222222225],[-122.56861111111111,47.31055555555555],[-122.56861111111111,47.31055555555555],[-122.56861111111111,47.31055555555555],[-122.56861111111111,47.31055555555555],[-122.80694444444444,47.30555555555555],[-123.39555555555556,46.71805555555556],[-123.39555555555556,46.71805555555556],[-123.39555555555556,46.71805555555556],[-123.3888888888889,46.50083333333333],[-123.3888888888889,46.50083333333333],[-123.3888888888889,46.50083333333333],[-123.3888888888889,46.50083333333333],[-123.3786111111111,46.16222222222222],[-123.3786111111111,46.16222222222222],[-123.375,46.04833333333333],[-123.37166666666666,45.93611111111111],[-123.37166666666666,45.93611111111111],[-123.37166666666666,45.93611111111111],[-123.36805555555554,45.82055555555556],[-123.36472222222221,45.70888888888889],[-123.36472222222221,45.70888888888889],[-123.36138888888888,45.594166666666666],[-123.36138888888888,45.594166666666666],[-123.36138888888888,45.594166666666666],[-123.35083333333333,45.24138888888889],[-123.35083333333333,45.24138888888889],[-123.35083333333333,45.24138888888889],[-123.34722222222221,45.118611111111115],[-123.34722222222221,45.118611111111115],[-123.33999999999999,44.873333333333335],[-123.33999999999999,44.873333333333335],[-123.33638888888889,44.748333333333335],[-123.33638888888889,44.748333333333335],[-123.3325,44.62416666666667],[-123.3325,44.62416666666667],[-123.32916666666667,44.5],[-123.32916666666667,44.5],[-123.31861111111111,44.24194444444444],[-123.31861111111111,44.24194444444444],[-123.31861111111111,44.24194444444444],[-123.31861111111111,44.24194444444444],[-123.30333333333333,43.85388888888889],[-123.30333333333333,43.85388888888889],[-123.30333333333333,43.85388888888889],[-123.30333333333333,43.85388888888889],[-123.28277777777778,43.330555555555556],[-123.28277777777778,43.330555555555556],[-123.28,43.291666666666664],[-123.27305555555556,43.16027777777778],[-123.27305555555556,43.16027777777778],[-123.27305555555556,43.16027777777778],[-123.27,43.026666666666664],[-123.27,43.026666666666664],[-123.2675,42.93194444444444],[-123.265,42.89416666666666],[-123.25972222222222,42.76111111111111],[-123.25972222222222,42.76111111111111],[-123.25972222222222,42.76111111111111],[-123.25583333333333,42.62694444444445],[-123.24055555555556,42.217222222222226],[-123.24055555555556,42.217222222222226],[-123.24055555555556,42.217222222222226],[-123.23277777777778,42.000277777777775],[-123.22972222222222,41.91583333333333],[-123.22638888888889,41.831944444444446],[-123.22444444444444,41.77611111111111],[-123.22444444444444,41.77611111111111],[-123.22444444444444,41.77611111111111],[-123.2213888888889,41.692499999999995],[-123.21638888888889,41.55333333333333],[-123.21638888888889,41.55333333333333],[-123.21444444444445,41.49861111111111],[-123.21444444444445,41.49861111111111],[-123.21194444444444,41.42194444444444],[-123.20666666666666,41.24638888888889],[-123.20666666666666,41.24638888888889],[-123.19972222222222,40.973055555555554],[-123.19972222222222,40.973055555555554],[-123.19777777777779,40.8925],[-123.19777777777779,40.8925],[-123.19777777777779,40.8925],[-123.19333333333334,40.71083333333333],[-123.19083333333333,40.618611111111115],[-123.19083333333333,40.618611111111115],[-123.19083333333333,40.618611111111115],[-123.1875,40.48277777777778],[-123.18416666666667,40.345555555555556],[-123.18305555555555,40.30416666666667],[-123.2575,39.95472222222222],[-123.2575,39.95472222222222],[-123.25611111111111,39.901111111111106],[-123.17305555555556,39.61527777777778],[-123.15055555555556,39.53944444444444],[-123.09138888888889,39.33861111111111],[-123.09138888888889,39.33861111111111],[-123.09138888888889,39.33861111111111],[-123.09138888888889,39.33861111111111],[-122.85527777777777,38.529444444444444],[-122.85527777777777,38.529444444444444],[-122.81888888888888,38.403055555555554],[-122.81888888888888,38.403055555555554],[-122.78527777777778,38.28638888888889],[-122.78527777777778,38.28638888888889],[-122.78527777777778,38.28638888888889],[-122.75,38.18333333333333],[-122.73333333333333,38.13333333333333],[-122.7238888888889,38.073888888888895],[-122.7238888888889,38.073888888888895],[-122.69777777777779,37.98444444444444],[-122.69777777777779,37.98444444444444],[-122.69777777777779,37.98444444444444],[-122.67333333333333,37.905277777777776],[-122.67333333333333,37.905277777777776],[-122.58333333333333,37.81666666666667],[-122.58333333333333,37.81666666666667],[-122.58333333333333,37.81666666666667],[-122.55,37.783055555555556],[-122.55,37.783055555555556],[-122.51666666666667,37.75],[-122.4875,37.723888888888894],[-122.4875,37.723888888888894],[-122.46666666666667,37.7],[-122.42583333333334,37.66611111111111],[-122.4,37.63333333333333],[-122.4,37.63333333333333],[-122.4,37.63333333333333],[-122.36611111111111,37.60916666666667],[-122.36611111111111,37.60916666666667],[-122.32777777777777,37.54361111111111],[-122.3,37.45],[-122.3,37.45],[-122.3,37.45],[-122.3,37.45],[-122.38333333333334,37.43333333333333],[-122.42277777777778,37.43472222222222],[-122.46666666666667,37.43333333333333],[-122.46666666666667,37.43333333333333],[-122.5,37.38333333333333],[-122.5,37.38333333333333],[-122.5,37.38333333333333],[-122.41666666666667,37.38333333333333],[-122.31472222222222,37.41972222222222],[-122.31472222222222,37.41972222222222],[-122.31472222222222,37.41972222222222],[-122.23777777777778,37.403055555555554],[-122.2,37.4],[-122.2,37.4],[-122.2,37.4],[-122.16055555555556,37.38611111111111],[-122.10916666666667,37.42722222222222],[-122.10916666666667,37.42722222222222],[-122.0886111111111,37.47277777777778],[-122.1,37.483333333333334],[-122.1,37.483333333333334],[-122.15,37.516666666666666],[-122.15,37.516666666666666],[-122.15,37.516666666666666],[-122.27055555555556,37.575],[-122.27055555555556,37.575],[-122.27055555555556,37.575],[-122.30833333333334,37.59055555555556]],"type":"LineString"}
}
