{
  "id": 2031549101,
  "type": "Feature",
  "properties": {
    "geom:area": 0,
    "geom:bbox": "-122.741111,37.633333,-122.124722,45.568889",
    "geom:latitude": 41.55001379730217,
    "geom:longitude": -122.44237341333718,
    "src:alt_label": "swim-path",
    "src:geom": "swim",
    "swim:altitudes": [
      "006",
      "020",
      "020",
      "020",
      "044",
      "044",
      "070",
      "070",
      "087",
      "087",
      "092",
      "109",
      "109",
      "109",
      "120",
      "120",
      "142",
      "142",
      "209",
      "209",
      "209",
      "224",
      "224",
      "224",
      "307",
      "307",
      "307",
      "307",
      "325",
      "325",
      "340C",
      "340C",
      "340C",
      "340C",
      "340C",
      "340C",
      "340C",
      "340C",
      "340C",
      "340C",
      "340C",
      "340C",
      "340C",
      "340C",
      "340C",
      "340C",
      "340C",
      "340C",
      "340C",
      "340C",
      "340C",
      "340C",
      "340C",
      "340C",
      "340C",
      "340C",
      "340C",
      "340C",
      "340C",
      "340C",
      "340C",
      "340C",
      "340C",
      "340C",
      "340C",
      "340C",
      "340C",
      "340C",
      "340C",
      "340C",
      "340C",
      "340C",
      "340C",
      "340C",
      "340",
      "340",
      "340",
      "340",
      "340",
      "340",
      "340",
      "315",
      "315",
      "315",
      "296",
      "232",
      "232",
      "232",
      "232",
      "176",
      "176",
      "176",
      "144",
      "144",
      "129",
      "129",
      "116",
      "106",
      "106",
      "106",
      "104",
      "104",
      "089",
      "069",
      "069",
      "056",
      "053",
      "053",
      "011",
      "011",
      "005",
      "005",
      "005",
      "005"
    ],
    "swim:geom": "path",
    "swim:speeds": [
      162,
      229,
      229,
      229,
      266,
      266,
      270,
      270,
      275,
      275,
      276,
      301,
      301,
      301,
      337,
      337,
      368,
      368,
      394,
      394,
      394,
      410,
      410,
      410,
      450,
      450,
      450,
      450,
      440,
      440,
      432,
      432,
      433,
      433,
      432,
      432,
      432,
      432,
      432,
      428,
      428,
      428,
      428,
      427,
      427,
      427,
      425,
      425,
      424,
      424,
      423,
      423,
      424,
      424,
      424,
      425,
      426,
      428,
      428,
      428,
      428,
      429,
      429,
      429,
      429,
      427,
      427,
      427,
      427,
      422,
      422,
      421,
      421,
      422,
      424,
      424,
      424,
      424,
      424,
      424,
      424,
      422,
      422,
      422,
      425,
      398,
      398,
      398,
      398,
      356,
      356,
      356,
      338,
      338,
      310,
      310,
      306,
      296,
      296,
      296,
      291,
      291,
      287,
      284,
      284,
      276,
      270,
      270,
      146,
      146,
      149,
      149,
      149,
      149
    ],
    "swim:timestamps": [
      1781552699,
      1781552763,
      1781552763,
      1781552763,
      1781552823,
      1781552823,
      1781552883,
      1781552883,
      1781552928,
      1781552928,
      1781552943,
      1781553003,
      1781553003,
      1781553003,
      1781553069,
      1781553069,
      1781553123,
      1781553123,
      1781553309,
      1781553309,
      1781553309,
      1781553363,
      1781553363,
      1781553363,
      1781553664,
      1781553664,
      1781553664,
      1781553664,
      1781553724,
      1781553724,
      1781553844,
      1781553844,
      1781553904,
      1781553904,
      1781553967,
      1781553967,
      1781553967,
      1781554027,
      1781554027,
      1781554325,
      1781554325,
      1781554325,
      1781554325,
      1781554385,
      1781554385,
      1781554385,
      1781554505,
      1781554505,
      1781554565,
      1781554565,
      1781554625,
      1781554625,
      1781554685,
      1781554685,
      1781554685,
      1781554745,
      1781554806,
      1781554868,
      1781554868,
      1781554868,
      1781554868,
      1781555049,
      1781555049,
      1781555049,
      1781555049,
      1781555226,
      1781555226,
      1781555226,
      1781555226,
      1781555589,
      1781555589,
      1781555770,
      1781555770,
      1781555830,
      1781555890,
      1781555890,
      1781555890,
      1781555890,
      1781555950,
      1781555950,
      1781555950,
      1781556130,
      1781556130,
      1781556130,
      1781556190,
      1781556370,
      1781556370,
      1781556370,
      1781556370,
      1781556551,
      1781556551,
      1781556551,
      1781556671,
      1781556671,
      1781556740,
      1781556740,
      1781556800,
      1781556851,
      1781556851,
      1781556851,
      1781556860,
      1781556860,
      1781556920,
      1781556980,
      1781556980,
      1781557031,
      1781557040,
      1781557040,
      1781557281,
      1781557281,
      1781557332,
      1781557332,
      1781557332,
      1781557332
    ],
    "wof:geomhash": "9706d5a489f37c39fa403eefaf4b0c30",
    "wof:id": 2031549101,
    "wof:repo": "sfomuseum-data-flights-2026-06"
  },
  "bbox": [
    -122.74111111111111,
    37.63333333333333,
    -122.12472222222222,
    45.56888888888889
  ],
  "geometry": {"coordinates":[[-122.4,37.63333333333333],[-122.45666666666666,37.65361111111111],[-122.45666666666666,37.65361111111111],[-122.45666666666666,37.65361111111111],[-122.52388888888889,37.7],[-122.52388888888889,37.7],[-122.52694444444444,37.77583333333333],[-122.52694444444444,37.77583333333333],[-122.48333333333333,37.81666666666667],[-122.48333333333333,37.81666666666667],[-122.46583333333334,37.82777777777778],[-122.41305555555556,37.891666666666666],[-122.41305555555556,37.891666666666666],[-122.41305555555556,37.891666666666666],[-122.37416666666665,37.98305555555556],[-122.37416666666665,37.98305555555556],[-122.32416666666666,38.07694444444445],[-122.32416666666666,38.07694444444445],[-122.16833333333334,38.380833333333335],[-122.16833333333334,38.380833333333335],[-122.16833333333334,38.380833333333335],[-122.12472222222222,38.473888888888894],[-122.12472222222222,38.473888888888894],[-122.12472222222222,38.473888888888894],[-122.14805555555556,39.087500000000006],[-122.14805555555556,39.087500000000006],[-122.14805555555556,39.087500000000006],[-122.14805555555556,39.087500000000006],[-122.16111111111111,39.20916666666667],[-122.16111111111111,39.20916666666667],[-122.18805555555556,39.44972222222222],[-122.18805555555556,39.44972222222222],[-122.20194444444445,39.5775],[-122.20194444444445,39.5775],[-122.21472222222222,39.69694444444444],[-122.21472222222222,39.69694444444444],[-122.21472222222222,39.69694444444444],[-122.22833333333334,39.81638888888889],[-122.22833333333334,39.81638888888889],[-122.29583333333333,40.400277777777774],[-122.29583333333333,40.400277777777774],[-122.29583333333333,40.400277777777774],[-122.29583333333333,40.400277777777774],[-122.30944444444444,40.51833333333333],[-122.30944444444444,40.51833333333333],[-122.30944444444444,40.51833333333333],[-122.33638888888889,40.751666666666665],[-122.33638888888889,40.751666666666665],[-122.35,40.86833333333333],[-122.35,40.86833333333333],[-122.36361111111111,40.98527777777778],[-122.36361111111111,40.98527777777778],[-122.3775,41.10388888888889],[-122.3775,41.10388888888889],[-122.3775,41.10388888888889],[-122.39166666666668,41.222500000000004],[-122.40527777777778,41.33861111111111],[-122.42055555555557,41.46666666666667],[-122.42055555555557,41.46666666666667],[-122.42055555555557,41.46666666666667],[-122.42055555555557,41.46666666666667],[-122.46333333333334,41.82555555555556],[-122.46333333333334,41.82555555555556],[-122.46333333333334,41.82555555555556],[-122.46333333333334,41.82555555555556],[-122.50666666666666,42.18388888888889],[-122.50666666666666,42.18388888888889],[-122.50666666666666,42.18388888888889],[-122.50666666666666,42.18388888888889],[-122.59333333333333,42.88972222222222],[-122.59333333333333,42.88972222222222],[-122.63666666666667,43.23694444444445],[-122.63666666666667,43.23694444444445],[-122.65166666666667,43.35583333333334],[-122.66666666666667,43.473055555555554],[-122.66666666666667,43.473055555555554],[-122.66666666666667,43.473055555555554],[-122.66666666666667,43.473055555555554],[-122.68166666666667,43.59138888888889],[-122.68166666666667,43.59138888888889],[-122.68166666666667,43.59138888888889],[-122.72611111111111,43.94083333333333],[-122.72611111111111,43.94083333333333],[-122.72611111111111,43.94083333333333],[-122.74111111111111,44.058611111111105],[-122.7286111111111,44.395833333333336],[-122.7286111111111,44.395833333333336],[-122.7286111111111,44.395833333333336],[-122.7286111111111,44.395833333333336],[-122.69722222222222,44.71416666666667],[-122.69722222222222,44.71416666666667],[-122.69722222222222,44.71416666666667],[-122.68,44.88861111111111],[-122.68,44.88861111111111],[-122.64694444444446,44.99722222222222],[-122.64694444444446,44.99722222222222],[-122.5911111111111,45.07472222222223],[-122.55722222222222,45.14083333333333],[-122.55722222222222,45.14083333333333],[-122.55722222222222,45.14083333333333],[-122.55388888888889,45.151666666666664],[-122.55388888888889,45.151666666666664],[-122.52277777777778,45.22777777777778],[-122.50583333333333,45.306666666666665],[-122.50583333333333,45.306666666666665],[-122.49333333333334,45.37222222222222],[-122.485,45.38055555555555],[-122.485,45.38055555555555],[-122.51277777777777,45.55305555555555],[-122.51277777777777,45.55305555555555],[-122.55416666666666,45.56888888888889],[-122.55416666666666,45.56888888888889],[-122.55416666666666,45.56888888888889],[-122.55416666666666,45.56888888888889]],"type":"LineString"}
}
