{
  "id": 2031619623,
  "type": "Feature",
  "properties": {
    "geom:area": 0,
    "geom:bbox": "-122.522020,36.740700,-121.890730,37.622850",
    "geom:latitude": 37.35811793978852,
    "geom:longitude": -122.20011939301826,
    "src:alt_label": "swim-approach",
    "src:geom": "swim",
    "swim:elevations": [
      5201,
      4928,
      4732,
      4475,
      4204,
      4076,
      3722,
      3563,
      3529,
      3409,
      3388,
      3135,
      3047,
      3049,
      2833,
      2591,
      2385,
      2194,
      2025,
      1931,
      1766,
      1432,
      1365,
      1267,
      1126,
      971,
      792,
      792,
      745,
      539,
      408,
      367,
      207,
      250,
      612,
      862,
      946,
      1468,
      1544,
      1525,
      1524,
      1524,
      1524,
      1524,
      1459,
      1401,
      1276,
      1238,
      1219,
      1124,
      1015,
      914,
      822,
      792,
      718,
      701,
      463,
      355,
      259,
      187,
      61,
      10
    ],
    "swim:geom": "approach",
    "swim:timestamps": [
      1782245960,
      1782245993,
      1782246018,
      1782246052,
      1782246087,
      1782246104,
      1782246148,
      1782246176,
      1782246186,
      1782246220,
      1782246224,
      1782246269,
      1782246297,
      1782246300,
      1782246349,
      1782246389,
      1782246417,
      1782246444,
      1782246466,
      1782246485,
      1782246512,
      1782246560,
      1782246578,
      1782246612,
      1782246644,
      1782246677,
      1782246708,
      1782246746,
      1782246758,
      1782246808,
      1782246836,
      1782246848,
      1782246893,
      1782246920,
      1782246958,
      1782246981,
      1782246996,
      1782247043,
      1782247077,
      1782247092,
      1782247120,
      1782247161,
      1782247186,
      1782247210,
      1782247255,
      1782247262,
      1782247284,
      1782247290,
      1782247333,
      1782247374,
      1782247391,
      1782247439,
      1782247463,
      1782247496,
      1782247528,
      1782247531,
      1782247582,
      1782247610,
      1782247638,
      1782247659,
      1782247690,
      1782247710
    ],
    "wof:geomhash": "25660e4593679b03b0f28ecd5c237be3",
    "wof:id": 2031619623,
    "wof:repo": "sfomuseum-data-flights-2026-06"
  },
  "bbox": [
    -122.52202,
    36.7407,
    -121.89073,
    37.62285
  ],
  "geometry": {"coordinates":[[-121.89073,36.7407],[-121.90829,36.79195],[-121.91883,36.82977],[-121.93294,36.8805],[-121.94759,36.93275],[-121.95513,36.95723],[-121.97992,37.0207],[-121.99467,37.05876],[-121.9999,37.07213],[-122.01695,37.11568],[-122.01879,37.11962],[-122.06772,37.15614],[-122.10147,37.17593],[-122.10585,37.17849],[-122.1629,37.2122],[-122.2097,37.23997],[-122.2375,37.26319],[-122.23338,37.29271],[-122.21279,37.3108],[-122.19429,37.32668],[-122.16984,37.35035],[-122.1424,37.39852],[-122.13844,37.41708],[-122.13732,37.44934],[-122.14493,37.47671],[-122.15568,37.50318],[-122.17771,37.5224],[-122.20378,37.54505],[-122.21357,37.55118],[-122.25629,37.56874],[-122.279,37.57835],[-122.28853,37.58246],[-122.32248,37.59663],[-122.34279,37.60483],[-122.37852,37.61491],[-122.40659,37.61726],[-122.42519,37.61875],[-122.48684,37.62285],[-122.52076,37.60182],[-122.52202,37.5861],[-122.49862,37.56456],[-122.44769,37.54701],[-122.41624,37.53633],[-122.38682,37.52651],[-122.33453,37.5051],[-122.3256,37.50122],[-122.29985,37.49038],[-122.29265,37.48741],[-122.24227,37.46605],[-122.18979,37.45733],[-122.1716,37.46813],[-122.14989,37.50492],[-122.16597,37.52051],[-122.18964,37.54086],[-122.21781,37.55263],[-122.22054,37.55373],[-122.26671,37.57326],[-122.29011,37.58305],[-122.31141,37.59197],[-122.32663,37.59841],[-122.34891,37.60778],[-122.36305,37.61399]],"type":"LineString"}
}
