{
  "id": 2031429111,
  "type": "Feature",
  "properties": {
    "geom:area": 0,
    "geom:bbox": "-122.283333,37.400000,-93.233333,44.866667",
    "geom:latitude": 40.431742330218505,
    "geom:longitude": -107.70479600609468,
    "src:alt_label": "swim-path",
    "src:geom": "swim",
    "swim:altitudes": [
      "017",
      "071",
      "071",
      "071",
      "107",
      "130",
      "130",
      "130",
      "130",
      "178",
      "190",
      "190",
      "190",
      "221",
      "270",
      "280",
      "280",
      "280",
      "288",
      "288",
      "314",
      "325",
      "325",
      "325",
      "340C",
      "340C",
      "340C",
      "340C",
      "340C",
      "340C",
      "340C",
      "340C",
      "340C",
      "340C",
      "340C",
      "340C",
      "340C",
      "340C",
      "340C",
      "340C",
      "340C",
      "340C",
      "340C",
      "340C",
      "341C",
      "341C",
      "341C",
      "340C",
      "340C",
      "340C",
      "340C",
      "340C",
      "340C",
      "340C",
      "340C",
      "340C",
      "341C",
      "341C",
      "340C",
      "340C",
      "340C",
      "340C",
      "340C",
      "340C",
      "340C",
      "340C",
      "340C",
      "340C",
      "340C",
      "340C",
      "340C",
      "340C",
      "340C",
      "340C",
      "340C",
      "340C",
      "340C",
      "340C",
      "340C",
      "340C",
      "340C",
      "340C",
      "340C",
      "340C",
      "340C",
      "340C",
      "340C",
      "340C",
      "340C",
      "340C",
      "340C",
      "340C",
      "340C",
      "340C",
      "340C",
      "340C",
      "340C",
      "340C",
      "340",
      "340",
      "342",
      "348",
      "349",
      "349",
      "355",
      "360C",
      "360C",
      "360C",
      "360C",
      "360C",
      "360C",
      "360C",
      "360C",
      "360C",
      "360C",
      "360C",
      "360C",
      "360C",
      "360C",
      "360C",
      "360C",
      "360C",
      "360C",
      "360C",
      "360C",
      "360C",
      "360C",
      "360C",
      "360C",
      "360C",
      "361C",
      "361C",
      "360C",
      "361C",
      "361C",
      "361C",
      "360C",
      "360C",
      "360C",
      "360C",
      "360C",
      "360C",
      "360C",
      "360C",
      "360C",
      "360C",
      "360C",
      "360C",
      "360C",
      "360C",
      "360C",
      "360C",
      "360C",
      "360C",
      "361C",
      "361C",
      "361C",
      "360C",
      "360C",
      "360C",
      "360C",
      "360C",
      "360C",
      "360C",
      "360C",
      "360C",
      "360C",
      "360C",
      "360C",
      "360C",
      "360C",
      "360C",
      "360C",
      "360C",
      "360C",
      "360C",
      "360C",
      "360C",
      "360C",
      "360C",
      "360C",
      "360C",
      "360C",
      "360C",
      "360C",
      "360C",
      "360C",
      "360C",
      "360C",
      "360C",
      "360C",
      "360C",
      "360C",
      "360C",
      "360C",
      "360C",
      "360C",
      "360C",
      "360C",
      "360C",
      "360C",
      "360C",
      "360C",
      "360C",
      "360C",
      "361C",
      "361C",
      "361C",
      "361C",
      "360C",
      "360C",
      "360C",
      "360C",
      "360C",
      "360C",
      "360C",
      "360C",
      "360C",
      "359C",
      "359C",
      "359C",
      "360C",
      "360C",
      "360C",
      "360C",
      "360C",
      "360C",
      "360C",
      "360C",
      "360C",
      "360C",
      "360C",
      "360C",
      "360C",
      "360C",
      "360C",
      "360C",
      "360C",
      "360C",
      "360C",
      "360C",
      "360C",
      "360C",
      "360C",
      "360C",
      "360C",
      "353",
      "353",
      "353",
      "344",
      "344",
      "340C",
      "340C",
      "340C",
      "340C",
      "340C",
      "340C",
      "340C",
      "340C",
      "335",
      "335",
      "268",
      "202",
      "182",
      "171",
      "162",
      "133",
      "102",
      "097",
      "097",
      "070",
      "060",
      "042",
      "033",
      "015"
    ],
    "swim:geom": "path",
    "swim:speeds": [
      159,
      274,
      274,
      274,
      308,
      378,
      378,
      378,
      378,
      403,
      406,
      406,
      406,
      406,
      435,
      437,
      437,
      437,
      438,
      438,
      436,
      429,
      429,
      429,
      420,
      420,
      418,
      418,
      414,
      414,
      414,
      414,
      414,
      414,
      414,
      407,
      405,
      405,
      404,
      404,
      405,
      405,
      402,
      402,
      402,
      402,
      402,
      402,
      401,
      401,
      393,
      393,
      391,
      387,
      387,
      390,
      393,
      395,
      396,
      396,
      395,
      395,
      395,
      395,
      395,
      395,
      395,
      395,
      395,
      392,
      392,
      395,
      395,
      389,
      389,
      389,
      388,
      392,
      392,
      392,
      391,
      388,
      388,
      391,
      391,
      389,
      391,
      391,
      390,
      391,
      390,
      390,
      390,
      391,
      388,
      388,
      391,
      391,
      389,
      389,
      391,
      391,
      397,
      397,
      400,
      397,
      397,
      397,
      403,
      403,
      402,
      402,
      402,
      402,
      402,
      403,
      403,
      405,
      405,
      405,
      405,
      404,
      403,
      403,
      401,
      401,
      400,
      400,
      399,
      399,
      400,
      400,
      405,
      405,
      405,
      405,
      407,
      407,
      406,
      406,
      406,
      406,
      406,
      405,
      405,
      403,
      403,
      403,
      403,
      403,
      403,
      406,
      406,
      406,
      410,
      410,
      410,
      411,
      410,
      410,
      410,
      410,
      410,
      410,
      410,
      409,
      408,
      408,
      408,
      408,
      407,
      407,
      408,
      411,
      411,
      413,
      413,
      414,
      414,
      415,
      416,
      416,
      416,
      416,
      419,
      419,
      418,
      418,
      418,
      418,
      416,
      416,
      416,
      420,
      420,
      420,
      422,
      422,
      422,
      426,
      426,
      426,
      429,
      432,
      432,
      434,
      434,
      434,
      434,
      432,
      432,
      432,
      432,
      432,
      430,
      430,
      431,
      431,
      439,
      439,
      439,
      431,
      431,
      426,
      425,
      425,
      425,
      425,
      425,
      425,
      425,
      425,
      425,
      426,
      426,
      426,
      426,
      426,
      426,
      461,
      461,
      461,
      467,
      467,
      467,
      422,
      427,
      427,
      427,
      428,
      428,
      430,
      430,
      431,
      431,
      429,
      429,
      429,
      425,
      424,
      424,
      434,
      382,
      372,
      373,
      365,
      341,
      259,
      250,
      250,
      239,
      232,
      191,
      167,
      138
    ],
    "swim:timestamps": [
      1780445487,
      1780445707,
      1780445707,
      1780445707,
      1780445827,
      1780445947,
      1780445947,
      1780445947,
      1780445947,
      1780446127,
      1780446187,
      1780446187,
      1780446187,
      1780446308,
      1780446608,
      1780446668,
      1780446668,
      1780446668,
      1780446728,
      1780446728,
      1780446908,
      1780446969,
      1780446969,
      1780446969,
      1780447089,
      1780447089,
      1780447149,
      1780447149,
      1780447389,
      1780447449,
      1780447449,
      1780447509,
      1780447509,
      1780447629,
      1780447629,
      1780447750,
      1780447810,
      1780447810,
      1780447887,
      1780447887,
      1780447930,
      1780448068,
      1780448170,
      1780448170,
      1780448290,
      1780448290,
      1780448290,
      1780448350,
      1780448411,
      1780448411,
      1780448548,
      1780448548,
      1780448591,
      1780448697,
      1780448697,
      1780448771,
      1780448831,
      1780448891,
      1780448969,
      1780448969,
      1780449058,
      1780449298,
      1780449298,
      1780449358,
      1780449358,
      1780449418,
      1780449418,
      1780449418,
      1780449418,
      1780449570,
      1780449570,
      1780449658,
      1780449658,
      1780449750,
      1780449750,
      1780449750,
      1780449990,
      1780450019,
      1780450019,
      1780450019,
      1780450079,
      1780450110,
      1780450110,
      1780450139,
      1780450139,
      1780450171,
      1780450199,
      1780450199,
      1780450231,
      1780450259,
      1780450291,
      1780450291,
      1780450291,
      1780450379,
      1780450411,
      1780450411,
      1780450440,
      1780450440,
      1780450471,
      1780450471,
      1780450500,
      1780450560,
      1780450591,
      1780450591,
      1780450651,
      1780450740,
      1780450740,
      1780450740,
      1780450920,
      1780450920,
      1780450952,
      1780451012,
      1780451012,
      1780451040,
      1780451040,
      1780451072,
      1780451072,
      1780451192,
      1780451192,
      1780451221,
      1780451221,
      1780451341,
      1780451372,
      1780451372,
      1780451432,
      1780451432,
      1780451492,
      1780451492,
      1780451613,
      1780451613,
      1780451713,
      1780451713,
      1780451733,
      1780451773,
      1780451773,
      1780451773,
      1780451853,
      1780451853,
      1780451893,
      1780451893,
      1780451954,
      1780452074,
      1780452074,
      1780452134,
      1780452194,
      1780452254,
      1780452273,
      1780452273,
      1780452273,
      1780452273,
      1780452314,
      1780452394,
      1780452394,
      1780452394,
      1780452514,
      1780452514,
      1780452514,
      1780452634,
      1780452674,
      1780452674,
      1780452754,
      1780452814,
      1780452855,
      1780452855,
      1780452855,
      1780452874,
      1780452934,
      1780452934,
      1780452934,
      1780452975,
      1780453035,
      1780453035,
      1780453054,
      1780453175,
      1780453175,
      1780453275,
      1780453275,
      1780453295,
      1780453295,
      1780453516,
      1780453576,
      1780453576,
      1780453576,
      1780453576,
      1780453816,
      1780453816,
      1780453936,
      1780453936,
      1780453936,
      1780453936,
      1780454056,
      1780454056,
      1780454116,
      1780454297,
      1780454297,
      1780454297,
      1780454357,
      1780454357,
      1780454357,
      1780454537,
      1780454537,
      1780454537,
      1780454657,
      1780454717,
      1780454717,
      1780454837,
      1780454837,
      1780454837,
      1780454837,
      1780454897,
      1780454962,
      1780454962,
      1780455022,
      1780455022,
      1780455078,
      1780455078,
      1780455142,
      1780455142,
      1780455322,
      1780455322,
      1780455322,
      1780455382,
      1780455382,
      1780455438,
      1780455562,
      1780455562,
      1780455562,
      1780455618,
      1780455682,
      1780455682,
      1780455742,
      1780455742,
      1780455742,
      1780455799,
      1780455799,
      1780455859,
      1780455859,
      1780455923,
      1780455923,
      1780456103,
      1780456103,
      1780456103,
      1780456279,
      1780456279,
      1780456279,
      1780456460,
      1780456583,
      1780456583,
      1780456583,
      1780456643,
      1780456643,
      1780456763,
      1780456763,
      1780456884,
      1780456884,
      1780457064,
      1780457064,
      1780457064,
      1780457304,
      1780457364,
      1780457364,
      1780457476,
      1780457621,
      1780457681,
      1780457724,
      1780457741,
      1780457845,
      1780458025,
      1780458041,
      1780458041,
      1780458221,
      1780458341,
      1780458445,
      1780458505,
      1780458641
    ],
    "wof:geomhash": "f68362923921ead3d8c25c01fa96f534",
    "wof:id": 2031429111,
    "wof:repo": "sfomuseum-data-flights-2026-06"
  },
  "bbox": [
    -122.28333333333333,
    37.4,
    -93.23333333333333,
    44.86666666666667
  ],
  "geometry": {"coordinates":[[-93.23333333333333,44.86666666666667],[-93.44527777777778,44.712500000000006],[-93.44527777777778,44.712500000000006],[-93.44527777777778,44.712500000000006],[-93.64222222222223,44.632222222222225],[-93.88472222222222,44.532777777777774],[-93.88472222222222,44.532777777777774],[-93.88472222222222,44.532777777777774],[-93.88472222222222,44.532777777777774],[-94.27388888888889,44.35638888888889],[-94.40027777777779,44.28916666666667],[-94.40027777777779,44.28916666666667],[-94.40027777777779,44.28916666666667],[-94.66277777777778,44.14888888888889],[-95.32555555555555,43.79805555555556],[-95.46305555555556,43.72555555555556],[-95.46305555555556,43.72555555555556],[-95.46305555555556,43.72555555555556],[-95.59972222222221,43.65333333333333],[-95.59972222222221,43.65333333333333],[-96.005,43.43694444444444],[-96.13583333333334,43.36638888888889],[-96.13583333333334,43.36638888888889],[-96.13583333333334,43.36638888888889],[-96.42111111111112,43.26833333333333],[-96.42111111111112,43.26833333333333],[-96.57833333333333,43.2425],[-96.57833333333333,43.2425],[-97.19305555555556,43.14],[-97.345,43.11416666666667],[-97.345,43.11416666666667],[-97.49861111111112,43.08777777777778],[-97.49861111111112,43.08777777777778],[-97.80361111111111,43.03472222222222],[-97.80361111111111,43.03472222222222],[-98.09805555555555,42.965833333333336],[-98.23472222222222,42.91777777777777],[-98.23472222222222,42.91777777777777],[-98.41111111111111,42.85527777777778],[-98.41111111111111,42.85527777777778],[-98.51361111111112,42.81888888888889],[-98.81444444444445,42.71138888888889],[-99.05833333333334,42.623333333333335],[-99.05833333333334,42.623333333333335],[-99.32944444444443,42.52444444444444],[-99.32944444444443,42.52444444444444],[-99.32944444444443,42.52444444444444],[-99.46361111111112,42.475],[-99.59805555555555,42.42527777777777],[-99.59805555555555,42.42527777777777],[-99.89833333333334,42.31388888888888],[-99.89833333333334,42.31388888888888],[-99.99055555555556,42.279444444444444],[-100.22,42.19083333333333],[-100.22,42.19083333333333],[-100.37638888888888,42.13361111111111],[-100.50777777777778,42.08361111111111],[-100.63944444444445,42.03333333333333],[-100.81222222222222,41.96666666666667],[-100.81222222222222,41.96666666666667],[-101.0075,41.888888888888886],[-101.52638888888889,41.68805555555555],[-101.52638888888889,41.68805555555555],[-101.65444444444445,41.63666666666666],[-101.65444444444445,41.63666666666666],[-101.78388888888888,41.58888888888889],[-101.78388888888888,41.58888888888889],[-101.78388888888888,41.58888888888889],[-101.78388888888888,41.58888888888889],[-102.12638888888888,41.509166666666665],[-102.12638888888888,41.509166666666665],[-102.33666666666666,41.45861111111111],[-102.33666666666666,41.45861111111111],[-102.53583333333333,41.40888888888889],[-102.53583333333333,41.40888888888889],[-102.53583333333333,41.40888888888889],[-103.07111111111111,41.275555555555556],[-103.1538888888889,41.25333333333333],[-103.1538888888889,41.25333333333333],[-103.1538888888889,41.25333333333333],[-103.28861111111111,41.219166666666666],[-103.3436111111111,41.20638888888889],[-103.3436111111111,41.20638888888889],[-103.42583333333334,41.18444444444444],[-103.42583333333334,41.18444444444444],[-103.47916666666667,41.17166666666667],[-103.56083333333333,41.14972222222222],[-103.56083333333333,41.14972222222222],[-103.61555555555555,41.13638888888889],[-103.69666666666667,41.11472222222223],[-103.75083333333333,41.10138888888889],[-103.75083333333333,41.10138888888889],[-103.75083333333333,41.10138888888889],[-103.96861111111112,41.04388888888889],[-104.02222222222223,41.03055555555555],[-104.02222222222223,41.03055555555555],[-104.10444444444444,41.007777777777775],[-104.10444444444444,41.007777777777775],[-104.15805555555556,40.995],[-104.15805555555556,40.995],[-104.24055555555556,40.973333333333336],[-104.37805555555555,40.93666666666666],[-104.43138888888889,40.9225],[-104.43138888888889,40.9225],[-104.56972222222223,40.88527777777778],[-104.79138888888889,40.82527777777778],[-104.79138888888889,40.82527777777778],[-104.79138888888889,40.82527777777778],[-105.20722222222223,40.71138888888889],[-105.20722222222223,40.71138888888889],[-105.28972222222222,40.68944444444444],[-105.42611111111111,40.651666666666664],[-105.42611111111111,40.651666666666664],[-105.48388888888888,40.635],[-105.48388888888888,40.635],[-105.56472222222222,40.61277777777778],[-105.56472222222222,40.61277777777778],[-105.8411111111111,40.53527777777778],[-105.8411111111111,40.53527777777778],[-105.90138888888889,40.518055555555556],[-105.90138888888889,40.518055555555556],[-106.18527777777778,40.45583333333334],[-106.24388888888889,40.445277777777775],[-106.24388888888889,40.445277777777775],[-106.38444444444445,40.415],[-106.38444444444445,40.415],[-106.5375,40.38166666666667],[-106.5375,40.38166666666667],[-106.81722222222221,40.319722222222225],[-106.81722222222221,40.319722222222225],[-107.0525,40.2675],[-107.0525,40.2675],[-107.10111111111111,40.25611111111111],[-107.19805555555556,40.23444444444444],[-107.19805555555556,40.23444444444444],[-107.19805555555556,40.23444444444444],[-107.36722222222221,40.19611111111111],[-107.36722222222221,40.19611111111111],[-107.48027777777779,40.169999999999995],[-107.48027777777779,40.169999999999995],[-107.6211111111111,40.1375],[-107.9038888888889,40.072500000000005],[-107.9038888888889,40.072500000000005],[-108.0461111111111,40.04805555555556],[-108.18861111111111,40.02472222222222],[-108.33138888888888,40.00111111111111],[-108.38722222222223,39.99166666666667],[-108.38722222222223,39.99166666666667],[-108.38722222222223,39.99166666666667],[-108.38722222222223,39.99166666666667],[-108.47305555555556,39.9775],[-108.67277777777778,39.94361111111111],[-108.67277777777778,39.94361111111111],[-108.67277777777778,39.94361111111111],[-108.96111111111111,39.894444444444446],[-108.96111111111111,39.894444444444446],[-108.96111111111111,39.894444444444446],[-109.24777777777778,39.845],[-109.33333333333333,39.830000000000005],[-109.33333333333333,39.830000000000005],[-109.53583333333333,39.79416666666666],[-109.67861111111111,39.76888888888889],[-109.76472222222222,39.75361111111111],[-109.76472222222222,39.75361111111111],[-109.76472222222222,39.75361111111111],[-109.81972222222223,39.743611111111115],[-109.96388888888889,39.7175],[-109.96388888888889,39.7175],[-109.96388888888889,39.7175],[-110.04944444444445,39.70194444444445],[-110.19277777777778,39.675555555555555],[-110.19277777777778,39.675555555555555],[-110.24888888888889,39.665277777777774],[-110.53666666666666,39.61194444444445],[-110.53666666666666,39.61194444444445],[-110.76888888888888,39.568333333333335],[-110.76888888888888,39.568333333333335],[-110.82638888888889,39.5575],[-110.82638888888889,39.5575],[-111.36833333333333,39.45333333333333],[-111.51222222222222,39.425],[-111.51222222222222,39.425],[-111.51222222222222,39.425],[-111.51222222222222,39.425],[-112.09638888888888,39.30888888888889],[-112.09638888888888,39.30888888888889],[-112.38555555555556,39.25],[-112.38555555555556,39.25],[-112.38555555555556,39.25],[-112.38555555555556,39.25],[-112.65333333333334,39.19472222222222],[-112.65333333333334,39.19472222222222],[-112.79805555555555,39.164722222222224],[-113.23055555555555,39.07361111111111],[-113.23055555555555,39.07361111111111],[-113.23055555555555,39.07361111111111],[-113.37777777777777,39.04194444444444],[-113.37777777777777,39.04194444444444],[-113.37777777777777,39.04194444444444],[-113.81555555555555,38.947222222222216],[-113.81555555555555,38.947222222222216],[-113.81555555555555,38.947222222222216],[-114.13944444444445,38.87583333333333],[-114.28722222222223,38.84277777777778],[-114.28722222222223,38.84277777777778],[-114.58694444444444,38.784166666666664],[-114.58694444444444,38.784166666666664],[-114.58694444444444,38.784166666666664],[-114.58694444444444,38.784166666666664],[-114.73527777777778,38.75555555555555],[-114.88305555555554,38.725833333333334],[-114.88305555555554,38.725833333333334],[-115.03055555555555,38.697222222222216],[-115.03055555555555,38.697222222222216],[-115.17833333333334,38.66888888888889],[-115.17833333333334,38.66888888888889],[-115.32833333333333,38.63916666666667],[-115.32833333333333,38.63916666666667],[-115.78666666666666,38.54694444444444],[-115.78666666666666,38.54694444444444],[-115.78666666666666,38.54694444444444],[-115.93611111111112,38.51583333333333],[-115.93611111111112,38.51583333333333],[-116.07972222222222,38.48638888888889],[-116.37305555555555,38.42527777777777],[-116.37305555555555,38.42527777777777],[-116.37305555555555,38.42527777777777],[-116.51583333333333,38.39527777777778],[-116.66333333333334,38.36388888888889],[-116.66333333333334,38.36388888888889],[-116.80944444444444,38.33277777777778],[-116.80944444444444,38.33277777777778],[-116.80944444444444,38.33277777777778],[-116.95166666666667,38.30222222222222],[-116.95166666666667,38.30222222222222],[-117.09416666666667,38.27166666666667],[-117.09416666666667,38.27166666666667],[-117.2325,38.24138888888889],[-117.2325,38.24138888888889],[-117.58027777777778,38.03722222222222],[-117.58027777777778,38.03722222222222],[-117.58027777777778,38.03722222222222],[-117.73611111111111,37.671388888888885],[-117.73611111111111,37.671388888888885],[-117.73611111111111,37.671388888888885],[-118.0461111111111,37.44277777777778],[-118.34277777777777,37.4775],[-118.34277777777777,37.4775],[-118.34277777777777,37.4775],[-118.49055555555556,37.49444444444445],[-118.49055555555556,37.49444444444445],[-118.7911111111111,37.52861111111111],[-118.7911111111111,37.52861111111111],[-119.08611111111111,37.561388888888885],[-119.08611111111111,37.561388888888885],[-119.55305555555556,37.61222222222222],[-119.55305555555556,37.61222222222222],[-119.55305555555556,37.61222222222222],[-120.14416666666668,37.67333333333333],[-120.29222222222222,37.68833333333333],[-120.29222222222222,37.68833333333333],[-120.56666666666666,37.68333333333333],[-120.91666666666667,37.63333333333333],[-121.05,37.61666666666667],[-121.11305555555555,37.61333333333334],[-121.16666666666667,37.6],[-121.36861111111111,37.580555555555556],[-121.67750000000001,37.538333333333334],[-121.71666666666667,37.53333333333333],[-121.71666666666667,37.53333333333333],[-121.86666666666666,37.4],[-122.01666666666667,37.46666666666667],[-122.11583333333333,37.511944444444445],[-122.16861111111112,37.534166666666664],[-122.28333333333333,37.583333333333336]],"type":"LineString"}
}
