{
  "id": 2031532577,
  "type": "Feature",
  "properties": {
    "geom:area": 0,
    "geom:bbox": "-122.428333,33.950833,-118.225833,37.633333",
    "geom:latitude": 35.68735100911632,
    "geom:longitude": -120.28900996063156,
    "src:alt_label": "swim-path",
    "src:geom": "swim",
    "swim:altitudes": [
      "017",
      "112",
      "228",
      "319",
      "340",
      "350C",
      "350C",
      "350C",
      "350",
      "321",
      "310",
      "292",
      "272",
      "205",
      "185",
      "100",
      "058",
      "023",
      "001"
    ],
    "swim:geom": "path",
    "swim:speeds": [
      175,
      332,
      401,
      451,
      444,
      449,
      451,
      452,
      448,
      449,
      453,
      454,
      462,
      406,
      389,
      264,
      240,
      191,
      141
    ],
    "swim:timestamps": [
      1781360483,
      1781360714,
      1781360954,
      1781361195,
      1781361255,
      1781361495,
      1781361615,
      1781361742,
      1781362035,
      1781362222,
      1781362403,
      1781362463,
      1781362516,
      1781362703,
      1781362763,
      1781363103,
      1781363304,
      1781363665,
      1781363905
    ],
    "wof:geomhash": "f60de13d17bed10c1523050d2ec610b4",
    "wof:id": 2031532577,
    "wof:repo": "sfomuseum-data-flights-2026-06"
  },
  "bbox": [
    -122.42833333333334,
    33.950833333333335,
    -118.22583333333334,
    37.63333333333333
  ],
  "geometry": {"coordinates":[[-122.41666666666667,37.63333333333333],[-122.42833333333334,37.52111111111111],[-122.05888888888889,37.23111111111111],[-121.62638888888888,36.8875],[-121.5261111111111,36.80694444444444],[-121.08805555555556,36.45277777777778],[-120.85444444444444,36.28722222222222],[-120.59972222222221,36.10861111111111],[-120.10444444444444,35.66138888888889],[-119.84777777777778,35.319722222222225],[-119.57027777777778,35.016666666666666],[-119.47611111111111,34.915],[-119.39972222222222,34.82972222222222],[-119.13194444444444,34.52361111111111],[-119.05361111111111,34.43611111111111],[-118.66666666666667,34.03333333333333],[-118.38666666666667,34.0225],[-118.22583333333334,33.97],[-118.41277777777778,33.950833333333335]],"type":"LineString"}
}
