{
  "id": 2031426589,
  "type": "Feature",
  "properties": {
    "geom:area": 0,
    "geom:bbox": "-122.430833,37.633333,-110.390000,48.316111",
    "geom:latitude": 42.89727002798031,
    "geom:longitude": -116.41532177410089,
    "src:alt_label": "swim-path",
    "src:geom": "swim",
    "swim:altitudes": [
      "007",
      "007",
      "007",
      "007",
      "018",
      "018",
      "018",
      "018",
      "105",
      "105",
      "105",
      "105",
      "157",
      "157",
      "175",
      "175",
      "175",
      "175",
      "234",
      "234",
      "234",
      "234",
      "260",
      "260",
      "260",
      "270",
      "281",
      "281",
      "281",
      "281",
      "307",
      "307",
      "307",
      "310C",
      "310C",
      "310C",
      "310C",
      "310C",
      "310C",
      "310C",
      "310C",
      "310C",
      "310C",
      "310C",
      "310C",
      "310C",
      "310C",
      "310C",
      "310C",
      "310C",
      "310C",
      "310C",
      "310C",
      "310C",
      "310C",
      "310C",
      "310C",
      "310C",
      "310C",
      "310C",
      "310C",
      "310C",
      "310C",
      "310C",
      "310C",
      "310C",
      "310C",
      "310C",
      "310C",
      "310C",
      "310C",
      "310C",
      "310C",
      "310C",
      "310C",
      "310C",
      "310C",
      "310C",
      "310C",
      "310C",
      "310C",
      "310C",
      "310C",
      "310C",
      "310C",
      "310C",
      "310C",
      "310C",
      "310C",
      "310C",
      "310C",
      "310C",
      "310C",
      "310C",
      "310C",
      "310C",
      "310C",
      "310C",
      "310C",
      "310C",
      "310C",
      "310C",
      "310C",
      "310C",
      "310C",
      "310C",
      "310C",
      "310C",
      "310C",
      "310C",
      "310C",
      "310C",
      "310C",
      "310C",
      "310C",
      "310C",
      "310C",
      "310C",
      "310C",
      "310C",
      "310C",
      "310C",
      "310C",
      "310C",
      "310C",
      "310C",
      "310C",
      "310C",
      "310C",
      "310C",
      "310C",
      "310C",
      "310C",
      "310C",
      "310C",
      "310C",
      "310C",
      "310C",
      "310C",
      "310C",
      "310C",
      "310C",
      "310C",
      "310C",
      "310C",
      "310C",
      "310C",
      "310C"
    ],
    "swim:geom": "path",
    "swim:speeds": [
      169,
      169,
      169,
      169,
      181,
      181,
      181,
      181,
      329,
      329,
      329,
      329,
      405,
      405,
      415,
      415,
      415,
      415,
      460,
      460,
      460,
      460,
      476,
      476,
      476,
      485,
      493,
      493,
      493,
      493,
      511,
      511,
      511,
      511,
      511,
      511,
      515,
      515,
      514,
      514,
      514,
      511,
      511,
      510,
      510,
      510,
      510,
      510,
      510,
      510,
      510,
      509,
      510,
      511,
      510,
      510,
      510,
      512,
      512,
      512,
      512,
      512,
      512,
      512,
      512,
      511,
      512,
      512,
      512,
      512,
      512,
      512,
      512,
      512,
      512,
      512,
      511,
      511,
      514,
      514,
      514,
      517,
      517,
      517,
      517,
      517,
      517,
      517,
      515,
      515,
      495,
      495,
      495,
      495,
      490,
      490,
      485,
      485,
      478,
      478,
      478,
      466,
      466,
      466,
      465,
      465,
      465,
      464,
      464,
      464,
      464,
      464,
      464,
      470,
      470,
      470,
      470,
      471,
      472,
      472,
      472,
      472,
      472,
      477,
      477,
      480,
      480,
      481,
      481,
      481,
      483,
      483,
      484,
      484,
      487,
      487,
      487,
      487,
      492,
      492,
      494,
      496,
      497,
      497,
      497,
      486,
      485,
      485
    ],
    "swim:timestamps": [
      1780353722,
      1780353722,
      1780353722,
      1780353722,
      1780353763,
      1780353763,
      1780353763,
      1780353763,
      1780354063,
      1780354063,
      1780354063,
      1780354063,
      1780354243,
      1780354243,
      1780354303,
      1780354303,
      1780354303,
      1780354303,
      1780354544,
      1780354544,
      1780354544,
      1780354544,
      1780354664,
      1780354664,
      1780354664,
      1780354724,
      1780354784,
      1780354784,
      1780354784,
      1780354784,
      1780354964,
      1780354964,
      1780354964,
      1780355129,
      1780355129,
      1780355129,
      1780355265,
      1780355265,
      1780355309,
      1780355309,
      1780355309,
      1780355489,
      1780355489,
      1780355505,
      1780355505,
      1780355505,
      1780355609,
      1780355609,
      1780355609,
      1780355625,
      1780355625,
      1780355685,
      1780355730,
      1780355790,
      1780355805,
      1780355805,
      1780355805,
      1780355910,
      1780355910,
      1780355910,
      1780355970,
      1780355970,
      1780355970,
      1780355970,
      1780355986,
      1780356046,
      1780356090,
      1780356106,
      1780356106,
      1780356150,
      1780356150,
      1780356166,
      1780356166,
      1780356210,
      1780356226,
      1780356226,
      1780356330,
      1780356330,
      1780356451,
      1780356451,
      1780356451,
      1780356751,
      1780356751,
      1780356751,
      1780356871,
      1780356871,
      1780356871,
      1780356871,
      1780356931,
      1780356931,
      1780357171,
      1780357171,
      1780357171,
      1780357171,
      1780357292,
      1780357292,
      1780357352,
      1780357352,
      1780357412,
      1780357412,
      1780357412,
      1780357532,
      1780357532,
      1780357532,
      1780357592,
      1780357592,
      1780357592,
      1780357772,
      1780357772,
      1780357832,
      1780357832,
      1780357832,
      1780357832,
      1780358085,
      1780358085,
      1780358085,
      1780358085,
      1780358205,
      1780358265,
      1780358265,
      1780358265,
      1780358325,
      1780358325,
      1780358505,
      1780358505,
      1780358625,
      1780358625,
      1780358746,
      1780358746,
      1780358746,
      1780359046,
      1780359046,
      1780359166,
      1780359166,
      1780359346,
      1780359346,
      1780359346,
      1780359406,
      1780359527,
      1780359527,
      1780359587,
      1780359707,
      1780359827,
      1780359887,
      1780359887,
      1780360067,
      1780360127,
      1780360127
    ],
    "wof:geomhash": "4fc85c260db52accb8569cf18523c351",
    "wof:id": 2031426589,
    "wof:repo": "sfomuseum-data-flights-2026-06"
  },
  "bbox": [
    -122.43083333333334,
    37.63333333333333,
    -110.39,
    48.316111111111105
  ],
  "geometry": {"coordinates":[[-122.4,37.63333333333333],[-122.4,37.63333333333333],[-122.4,37.63333333333333],[-122.4,37.63333333333333],[-122.43083333333334,37.64222222222222],[-122.43083333333334,37.64222222222222],[-122.43083333333334,37.64222222222222],[-122.43083333333334,37.64222222222222],[-122.35222222222221,37.90333333333333],[-122.35222222222221,37.90333333333333],[-122.35222222222221,37.90333333333333],[-122.35222222222221,37.90333333333333],[-122.04666666666667,38.11138888888889],[-122.04666666666667,38.11138888888889],[-121.93444444444445,38.18694444444444],[-121.93444444444445,38.18694444444444],[-121.93444444444445,38.18694444444444],[-121.93444444444445,38.18694444444444],[-121.46138888888889,38.496944444444445],[-121.46138888888889,38.496944444444445],[-121.46138888888889,38.496944444444445],[-121.46138888888889,38.496944444444445],[-121.18111111111112,38.66111111111111],[-121.18111111111112,38.66111111111111],[-121.18111111111112,38.66111111111111],[-121.04083333333332,38.74305555555556],[-120.89944444444446,38.825],[-120.89944444444446,38.825],[-120.89944444444446,38.825],[-120.89944444444446,38.825],[-120.46277777777777,39.07611111111112],[-120.46277777777777,39.07611111111112],[-120.46277777777777,39.07611111111112],[-120.07027777777778,39.29805555555556],[-120.07027777777778,39.29805555555556],[-120.07027777777778,39.29805555555556],[-119.70777777777778,39.5025],[-119.70777777777778,39.5025],[-119.61833333333333,39.551111111111105],[-119.61833333333333,39.551111111111105],[-119.61833333333333,39.551111111111105],[-119.28166666666667,39.88722222222222],[-119.28166666666667,39.88722222222222],[-119.25833333333334,39.91361111111111],[-119.25833333333334,39.91361111111111],[-119.25833333333334,39.91361111111111],[-119.07055555555556,40.12388888888889],[-119.07055555555556,40.12388888888889],[-119.07055555555556,40.12388888888889],[-119.04805555555555,40.14888888888889],[-119.04805555555555,40.14888888888889],[-118.94305555555556,40.26555555555556],[-118.85888888888888,40.35888888888889],[-118.75333333333333,40.47555555555556],[-118.73166666666667,40.49916666666667],[-118.73166666666667,40.49916666666667],[-118.73166666666667,40.49916666666667],[-118.53861111111111,40.71083333333333],[-118.53861111111111,40.71083333333333],[-118.53861111111111,40.71083333333333],[-118.43194444444445,40.827222222222225],[-118.43194444444445,40.827222222222225],[-118.43194444444445,40.827222222222225],[-118.43194444444445,40.827222222222225],[-118.40861111111111,40.8525],[-118.30111111111111,40.96888888888889],[-118.21555555555555,41.06083333333333],[-118.19388888888889,41.08416666666667],[-118.19388888888889,41.08416666666667],[-118.10722222222222,41.177499999999995],[-118.10722222222222,41.177499999999995],[-118.08472222222221,41.20166666666667],[-118.08472222222221,41.20166666666667],[-117.99805555555555,41.29416666666666],[-117.97472222222223,41.31916666666667],[-117.97472222222223,41.31916666666667],[-117.7786111111111,41.527499999999996],[-117.7786111111111,41.527499999999996],[-117.55666666666666,41.76111111111111],[-117.55666666666666,41.76111111111111],[-117.55666666666666,41.76111111111111],[-116.99111111111111,42.347500000000004],[-116.99111111111111,42.347500000000004],[-116.99111111111111,42.347500000000004],[-116.7625,42.580555555555556],[-116.7625,42.580555555555556],[-116.7625,42.580555555555556],[-116.7625,42.580555555555556],[-116.65,42.69444444444444],[-116.65,42.69444444444444],[-116.20138888888889,43.14333333333333],[-116.20138888888889,43.14333333333333],[-116.20138888888889,43.14333333333333],[-116.20138888888889,43.14333333333333],[-115.98138888888889,43.36055555555556],[-115.98138888888889,43.36055555555556],[-115.8711111111111,43.46888888888889],[-115.8711111111111,43.46888888888889],[-115.76222222222222,43.575],[-115.76222222222222,43.575],[-115.76222222222222,43.575],[-115.55027777777778,43.780277777777776],[-115.55027777777778,43.780277777777776],[-115.55027777777778,43.780277777777776],[-115.44361111111111,43.88305555555556],[-115.44361111111111,43.88305555555556],[-115.44361111111111,43.88305555555556],[-115.12388888888889,44.18833333333333],[-115.12388888888889,44.18833333333333],[-115.01416666666667,44.29194444444444],[-115.01416666666667,44.29194444444444],[-115.01416666666667,44.29194444444444],[-115.01416666666667,44.29194444444444],[-114.55138888888888,44.724722222222226],[-114.55138888888888,44.724722222222226],[-114.55138888888888,44.724722222222226],[-114.55138888888888,44.724722222222226],[-114.32638888888889,44.93222222222222],[-114.21444444444445,45.03472222222222],[-114.21444444444445,45.03472222222222],[-114.21444444444445,45.03472222222222],[-114.09972222222221,45.13916666666667],[-114.09972222222221,45.13916666666667],[-113.73,45.47277777777778],[-113.73,45.47277777777778],[-113.49722222222222,45.68111111111111],[-113.49722222222222,45.68111111111111],[-113.2675,45.888333333333335],[-113.2675,45.888333333333335],[-113.2675,45.888333333333335],[-112.66944444444445,46.4175],[-112.66944444444445,46.4175],[-112.44333333333334,46.61416666666667],[-112.44333333333334,46.61416666666667],[-112.04888888888888,46.9525],[-112.04888888888888,46.9525],[-112.04888888888888,46.9525],[-111.95138888888889,47.035555555555554],[-111.67166666666667,47.270833333333336],[-111.67166666666667,47.270833333333336],[-111.54472222222222,47.37722222222222],[-111.29138888888889,47.58722222222222],[-111.03888888888889,47.79388888888889],[-110.90916666666668,47.89972222222222],[-110.90916666666668,47.89972222222222],[-110.51805555555555,48.21416666666667],[-110.39,48.316111111111105],[-110.39,48.316111111111105]],"type":"LineString"}
}
