{
  "id": 2031490423,
  "type": "Feature",
  "properties": {
    "geom:area": 0,
    "geom:bbox": "-122.380000,37.490000,-73.780000,41.170000",
    "geom:latitude": 40.08156931395232,
    "geom:longitude": -98.12564741584178,
    "src:alt_label": "swim-route",
    "src:geom": "swim",
    "swim:geom": "route",
    "wof:geomhash": "3ed1514d5c9990793f0b87d8769c06b3",
    "wof:id": 2031490423,
    "wof:repo": "sfomuseum-data-flights-2026-06"
  },
  "bbox": [
    -122.38,
    37.49,
    -73.78,
    41.17
  ],
  "geometry": {"coordinates":[[-73.78,40.64],[-73.86,40.59],[-73.88,40.58],[-73.9,40.56],[-73.94,40.54],[-73.96,40.53],[-73.98,40.52],[-74,40.51],[-74.02,40.49],[-74.04,40.48],[-74.06,40.47],[-74.08,40.45],[-74.1,40.44],[-74.12,40.43],[-74.14,40.42],[-74.16,40.41],[-74.18,40.4],[-74.18,40.39],[-74.22,40.37],[-74.25,40.37],[-74.29,40.36],[-74.33,40.36],[-74.37,40.35],[-74.37,40.35],[-74.46,40.34],[-74.54,40.33],[-74.55,40.33],[-74.77,40.29],[-74.8,40.29],[-75,40.26],[-75.09,40.25],[-75.13,40.24],[-75.28,40.22],[-75.34,40.19],[-75.37,40.18],[-75.44,40.14],[-75.45,40.14],[-75.64,40.14],[-75.76,40.14],[-75.99,40.14],[-76.37,40.14],[-77.66,40.14],[-77.86,40.15],[-80.04,40.22],[-80.84,40.24],[-81.6,40.25],[-81.65,40.25],[-83.22,40.26],[-83.83,40.26],[-85.29,40.24],[-85.39,40.24],[-85.45,40.23],[-85.68,40.26],[-85.72,40.26],[-85.93,40.31],[-86.14,40.35],[-86.56,40.45],[-87.1,40.56],[-87.63,40.68],[-88.06,40.72],[-89.04,40.8],[-90.93,40.95],[-90.99,40.95],[-91.17,40.96],[-92.07,41.02],[-92.22,41.02],[-92.26,41.03],[-93.59,41.09],[-95.74,41.17],[-95.89,41.16],[-97.45,41.12],[-97.69,41.11],[-98.59,41.07],[-99.04,41.05],[-100,41],[-101.29,40.93],[-101.94,40.88],[-102.06,40.87],[-103.88,40.73],[-104.61,40.67],[-105.18,40.61],[-106.35,40.49],[-108.39,40.25],[-109.16,40.15],[-109.36,40.13],[-110,40],[-110.04,39.99],[-110.58,39.86],[-111.65,39.59],[-112,39.5],[-112.43,39.33],[-112.51,39.3],[-113.32,39.14],[-113.89,39.02],[-117.28,38.27],[-118.76,37.9],[-119.1,37.86],[-119.63,37.8],[-119.99,37.75],[-120.04,37.74],[-120.26,37.72],[-120.28,37.72],[-120.38,37.7],[-120.4,37.7],[-120.75,37.66],[-120.78,37.66],[-120.83,37.65],[-120.96,37.63],[-121,37.63],[-121.08,37.62],[-121.18,37.6],[-121.26,37.59],[-121.39,37.58],[-121.41,37.58],[-121.6,37.55],[-121.61,37.55],[-121.62,37.55],[-121.7,37.53],[-121.8,37.51],[-121.83,37.5],[-121.88,37.49],[-122.08,37.54],[-122.14,37.56],[-122.18,37.57],[-122.28,37.59],[-122.33,37.61],[-122.36,37.61],[-122.38,37.62]],"type":"LineString"}
}
