{
  "id": 2031623729,
  "type": "Feature",
  "properties": {
    "geom:area": 0,
    "geom:bbox": "-122.544000,36.719110,-121.439920,37.667860",
    "geom:latitude": 37.209301012870306,
    "geom:longitude": -122.06575100635271,
    "src:alt_label": "swim-takeoff",
    "src:geom": "swim",
    "swim:elevations": [
      122,
      501,
      814,
      1085,
      1274,
      1917,
      2486,
      2762,
      3082,
      3180,
      3652,
      3736,
      4063,
      4521,
      4870,
      5145,
      5413,
      5781,
      5903,
      6091,
      6265,
      6665,
      6951,
      7181,
      7396,
      7556,
      7698,
      8063,
      8229,
      8498
    ],
    "swim:geom": "takeoff",
    "swim:timestamps": [
      1782207858,
      1782207890,
      1782207912,
      1782207934,
      1782207963,
      1782208010,
      1782208048,
      1782208069,
      1782208100,
      1782208115,
      1782208163,
      1782208174,
      1782208210,
      1782208247,
      1782208284,
      1782208309,
      1782208337,
      1782208368,
      1782208377,
      1782208395,
      1782208414,
      1782208464,
      1782208496,
      1782208525,
      1782208552,
      1782208570,
      1782208595,
      1782208636,
      1782208660,
      1782208690
    ],
    "wof:geomhash": "1192908bb0a92936fee65d35f4e4e633",
    "wof:id": 2031623729,
    "wof:repo": "sfomuseum-data-flights-2026-06"
  },
  "bbox": [
    -122.544,
    36.71911,
    -121.43992,
    37.66786
  ],
  "geometry": {"coordinates":[[-122.38778,37.62414],[-122.41643,37.63676],[-122.43783,37.64571],[-122.45904,37.65479],[-122.49387,37.66786],[-122.544,37.63695],[-122.52683,37.59068],[-122.51363,37.56651],[-122.49319,37.52687],[-122.48182,37.50643],[-122.416,37.44674],[-122.39903,37.43449],[-122.33858,37.39005],[-122.27609,37.34379],[-122.21139,37.29606],[-122.1674,37.26359],[-122.11728,37.22647],[-122.06122,37.18488],[-122.04482,37.17268],[-122.01295,37.14904],[-121.97791,37.12302],[-121.88648,37.05491],[-121.82438,37.00848],[-121.76774,36.96607],[-121.71652,36.92764],[-121.6796,36.89999],[-121.63074,36.86258],[-121.54874,36.80089],[-121.50047,36.76486],[-121.43992,36.71911]],"type":"LineString"}
}
