{
  "id": 2031435093,
  "type": "Feature",
  "properties": {
    "geom:area": 0,
    "geom:bbox": "-122.530000,37.620000,8.570000,65.080000",
    "geom:latitude": 59.778632166750114,
    "geom:longitude": -60.33016807925454,
    "src:alt_label": "swim-route",
    "src:geom": "swim",
    "swim:geom": "route",
    "wof:geomhash": "e0b0e0746131e577e439a795334228b8",
    "wof:id": 2031435093,
    "wof:repo": "sfomuseum-data-flights-2026-06"
  },
  "bbox": [
    -122.53,
    37.62,
    8.57,
    65.08
  ],
  "geometry": {"coordinates":[[-122.38,37.62],[-122.5,37.67],[-122.51,37.68],[-122.52,37.68],[-122.53,37.75],[-122.53,37.76],[-122.53,37.79],[-122.53,37.8],[-122.47,37.83],[-122.46,37.83],[-122.43,37.84],[-122.39,37.91],[-122.29,38.06],[-122.27,38.09],[-122.24,38.13],[-122.2,38.21],[-122.11,38.34],[-122.11,38.35],[-122.1,38.36],[-122.02,38.55],[-121.95,38.71],[-121.92,38.79],[-121.86,38.94],[-121.85,38.94],[-121.83,39.01],[-121.8,39.07],[-121.77,39.13],[-121.73,39.23],[-121.68,39.36],[-121.65,39.42],[-121.54,39.67],[-121.37,40.05],[-121.3,40.38],[-121.29,40.47],[-121.25,40.63],[-121.07,41],[-121.04,41.06],[-120.96,41.21],[-120.81,41.49],[-120.68,42.07],[-120.24,42.93],[-119.63,44.07],[-119.56,44.25],[-119.4,44.62],[-119.33,44.8],[-119.23,45.06],[-119.16,45.25],[-119.13,45.32],[-119.12,45.35],[-119,45.52],[-118.66,46.08],[-118.38,46.46],[-117.79,47.3],[-117.34,47.92],[-116.57,48.95],[-116.53,49],[-116.53,49.02],[-116.33,49.42],[-116.09,50.34],[-115.91,50.88],[-115.32,52.5],[-114.67,53.21],[-114.55,53.34],[-114.37,53.45],[-114.39,53.51],[-114.27,53.64],[-114.02,53.9],[-112.91,55],[-112.42,55.4],[-111.65,56.07],[-111.15,56.53],[-111.12,56.65],[-110.13,56.92],[-110,57],[-107.8,58.04],[-106.6,58.5],[-103,60],[-102.82,60.04],[-100.67,60.43],[-100,60.6],[-97.28,61.07],[-94.48,61.48],[-91.61,61.83],[-90.69,61.93],[-90,62],[-84.87,62.61],[-80,63],[-77.96,63.23],[-75.59,63.46],[-75.17,63.53],[-70,63.83],[-68.5,63.86],[-67,63.87],[-64.12,64],[-63,64],[-62.15,64.1],[-59.47,64.23],[-59,64.23],[-58.58,64.3],[-57.37,64.47],[-56.79,64.48],[-56.31,64.52],[-52.73,64.68],[-52.45,64.9],[-46.67,65.07],[-45,65.08],[-43.33,65.07],[-40,65],[-35.85,65.02],[-31.79,64.92],[-28.35,64.76],[-20,64],[-13.25,63.41],[-10,63],[-9.07,62.53],[-6.44,61.08],[-5.02,60.22],[-1.11,57.49],[0.62,56.1],[1.77,55.1],[2.38,54.54],[2.41,54.51],[3.56,53.4],[3.57,53.4],[4.21,52.62],[6.29,51.44],[6.46,51.34],[6.53,51.3],[6.83,51.12],[7.08,50.97],[7.32,50.82],[7.68,50.6],[7.87,50.48],[8.11,50.33],[8.16,50.3],[8.3,50.21],[8.39,50.15],[8.48,50.09],[8.57,50.03]],"type":"LineString"}
}
