{
  "id": 2031488521,
  "type": "Feature",
  "properties": {
    "geom:area": 0,
    "geom:bbox": "-125.240833,35.909167,-122.433333,37.650000",
    "geom:latitude": 36.79137183414319,
    "geom:longitude": -123.84352796047227,
    "src:alt_label": "swim-path",
    "src:geom": "swim",
    "swim:altitudes": [
      "025",
      "125",
      "157",
      "180",
      "191",
      "213C",
      "216",
      "216",
      "223C",
      "233C",
      "241C",
      "244",
      "248C",
      "268",
      "278",
      "287",
      "287",
      "300C",
      "300C",
      "300C"
    ],
    "swim:geom": "path",
    "swim:speeds": [
      191,
      371,
      392,
      413,
      425,
      430,
      429,
      429,
      440,
      450,
      450,
      452,
      460,
      474,
      481,
      481,
      481,
      487,
      487,
      487
    ],
    "swim:timestamps": [
      1780989404,
      1780989788,
      1780989908,
      1780990028,
      1780990088,
      1780990197,
      1780990208,
      1780990208,
      1780990257,
      1780990317,
      1780990377,
      1780990388,
      1780990437,
      1780990568,
      1780990628,
      1780990688,
      1780990688,
      1780990868,
      1780990868,
      1780990928
    ],
    "wof:geomhash": "1d1711d1ef55b5d080ea8da3ad347994",
    "wof:id": 2031488521,
    "wof:repo": "sfomuseum-data-flights-2026-06"
  },
  "bbox": [
    -125.24083333333333,
    35.909166666666664,
    -122.43333333333334,
    37.65
  ],
  "geometry": {"coordinates":[[-122.43333333333334,37.65],[-122.9413888888889,37.39277777777778],[-123.15277777777779,37.25555555555555],[-123.37277777777777,37.111666666666665],[-123.485,37.03777777777778],[-123.68333333333334,36.9],[-123.715,36.88583333333333],[-123.715,36.88583333333333],[-123.8,36.81666666666667],[-123.91666666666667,36.733333333333334],[-124.03333333333333,36.666666666666664],[-124.07111111111111,36.64833333333333],[-124.16666666666667,36.583333333333336],[-124.44333333333334,36.39722222222222],[-124.57222222222222,36.30972222222222],[-124.69833333333334,36.223888888888894],[-124.69833333333334,36.223888888888894],[-125.10472222222222,35.986666666666665],[-125.10472222222222,35.986666666666665],[-125.24083333333333,35.909166666666664]],"type":"LineString"}
}
