{
  "id": 2031457359,
  "type": "Feature",
  "properties": {
    "geom:area": 0,
    "geom:bbox": "-122.732222,37.471667,-120.988056,44.259167",
    "geom:latitude": 40.68476588998941,
    "geom:longitude": -121.99897398441578,
    "src:alt_label": "swim-path",
    "src:geom": "swim",
    "swim:altitudes": [
      "037",
      "037",
      "037",
      "105",
      "105",
      "105",
      "186",
      "186",
      "186",
      "186",
      "265",
      "265",
      "298",
      "298",
      "298",
      "324",
      "324",
      "324",
      "339",
      "339",
      "342",
      "367",
      "376",
      "379",
      "390C",
      "390C",
      "390C",
      "390C",
      "390C",
      "390C",
      "390C",
      "390C",
      "390C",
      "390C",
      "390C",
      "390C",
      "390C",
      "390C",
      "390C",
      "391C",
      "391C",
      "391C",
      "391C",
      "390C",
      "390C",
      "390C",
      "390C",
      "390C",
      "390C",
      "390C",
      "390C",
      "390C",
      "390C",
      "390C",
      "390C",
      "390C",
      "390C",
      "390C",
      "390C",
      "390C",
      "390C",
      "390C",
      "390C",
      "390",
      "390",
      "390",
      "390",
      "390",
      "390",
      "388",
      "388",
      "388",
      "251",
      "251",
      "231",
      "174",
      "174",
      "141",
      "136",
      "127",
      "111C",
      "088",
      "088",
      "088",
      "041",
      "041",
      "030",
      "030",
      "028",
      "019",
      "002",
      "002"
    ],
    "swim:geom": "path",
    "swim:speeds": [
      143,
      143,
      143,
      281,
      281,
      281,
      341,
      341,
      341,
      341,
      394,
      394,
      423,
      423,
      423,
      432,
      432,
      432,
      432,
      432,
      432,
      426,
      423,
      424,
      422,
      422,
      422,
      422,
      419,
      419,
      418,
      418,
      418,
      420,
      421,
      421,
      421,
      420,
      421,
      421,
      421,
      421,
      421,
      423,
      423,
      423,
      427,
      428,
      428,
      428,
      427,
      427,
      428,
      430,
      430,
      430,
      430,
      431,
      431,
      431,
      431,
      431,
      431,
      434,
      434,
      434,
      434,
      435,
      435,
      436,
      436,
      436,
      409,
      409,
      401,
      376,
      376,
      352,
      313,
      292,
      264,
      251,
      251,
      251,
      215,
      215,
      188,
      188,
      191,
      180,
      124,
      124
    ],
    "swim:timestamps": [
      1780665398,
      1780665398,
      1780665398,
      1780665579,
      1780665579,
      1780665579,
      1780665758,
      1780665758,
      1780665758,
      1780665758,
      1780665999,
      1780665999,
      1780666119,
      1780666119,
      1780666119,
      1780666240,
      1780666240,
      1780666240,
      1780666293,
      1780666293,
      1780666300,
      1780666420,
      1780666473,
      1780666480,
      1780666593,
      1780666593,
      1780666593,
      1780666593,
      1780666660,
      1780666660,
      1780666720,
      1780666720,
      1780666720,
      1780666841,
      1780666893,
      1780666893,
      1780666893,
      1780666901,
      1780666953,
      1780667021,
      1780667021,
      1780667021,
      1780667021,
      1780667314,
      1780667314,
      1780667314,
      1780667434,
      1780667494,
      1780667494,
      1780667494,
      1780667502,
      1780667502,
      1780667554,
      1780667680,
      1780667680,
      1780667740,
      1780667740,
      1780667854,
      1780667862,
      1780667862,
      1780667914,
      1780667914,
      1780667914,
      1780668094,
      1780668094,
      1780668094,
      1780668094,
      1780668214,
      1780668214,
      1780668275,
      1780668275,
      1780668275,
      1780668635,
      1780668635,
      1780668695,
      1780668875,
      1780668875,
      1780668995,
      1780669017,
      1780669055,
      1780669175,
      1780669317,
      1780669317,
      1780669317,
      1780669656,
      1780669656,
      1780669743,
      1780669743,
      1780669776,
      1780669836,
      1780669977,
      1780669977
    ],
    "wof:geomhash": "591c18746e1df99c36c47b4fdf4bdd4d",
    "wof:id": 2031457359,
    "wof:repo": "sfomuseum-data-flights-2026-06"
  },
  "bbox": [
    -122.73222222222222,
    37.47166666666667,
    -120.98805555555556,
    44.259166666666665
  ],
  "geometry": {"coordinates":[[-121.13805555555557,44.259166666666665],[-121.13805555555557,44.259166666666665],[-121.13805555555557,44.259166666666665],[-120.98805555555556,44.217777777777776],[-120.98805555555556,44.217777777777776],[-120.98805555555556,44.217777777777776],[-121.08722222222222,43.95305555555556],[-121.08722222222222,43.95305555555556],[-121.08722222222222,43.95305555555556],[-121.08722222222222,43.95305555555556],[-121.22944444444444,43.5625],[-121.22944444444444,43.5625],[-121.31861111111111,43.315555555555555],[-121.31861111111111,43.315555555555555],[-121.31861111111111,43.315555555555555],[-121.39305555555556,43.106944444444444],[-121.39305555555556,43.106944444444444],[-121.39305555555556,43.106944444444444],[-121.43472222222222,42.99027777777778],[-121.43472222222222,42.99027777777778],[-121.44305555555556,42.96638888888889],[-121.51527777777778,42.761944444444445],[-121.55333333333333,42.6475],[-121.56388888888888,42.62416666666667],[-121.63444444444445,42.42111111111111],[-121.63444444444445,42.42111111111111],[-121.63444444444445,42.42111111111111],[-121.63444444444445,42.42111111111111],[-121.67416666666666,42.3075],[-121.67416666666666,42.3075],[-121.71333333333334,42.19416666666666],[-121.71333333333334,42.19416666666666],[-121.71333333333334,42.19416666666666],[-121.77638888888889,41.96138888888889],[-121.80611111111111,41.844166666666666],[-121.80611111111111,41.844166666666666],[-121.80611111111111,41.844166666666666],[-121.80555555555556,41.84638888888889],[-121.835,41.730000000000004],[-121.86444444444444,41.613055555555555],[-121.86444444444444,41.613055555555555],[-121.86444444444444,41.613055555555555],[-121.86444444444444,41.613055555555555],[-122.00722222222223,41.03972222222222],[-122.00722222222223,41.03972222222222],[-122.00722222222223,41.03972222222222],[-122.06472222222222,40.80694444444444],[-122.09333333333333,40.689722222222215],[-122.09333333333333,40.689722222222215],[-122.09333333333333,40.689722222222215],[-122.09333333333333,40.689722222222215],[-122.09333333333333,40.689722222222215],[-122.12222222222222,40.57083333333334],[-122.17944444444444,40.33527777777778],[-122.17944444444444,40.33527777777778],[-122.20833333333334,40.21555555555556],[-122.20833333333334,40.21555555555556],[-122.27305555555556,39.97222222222222],[-122.2725,39.973888888888894],[-122.2725,39.973888888888894],[-122.3,39.87833333333333],[-122.3,39.87833333333333],[-122.3,39.87833333333333],[-122.40111111111112,39.52472222222222],[-122.40111111111112,39.52472222222222],[-122.40111111111112,39.52472222222222],[-122.40111111111112,39.52472222222222],[-122.4725,39.27361111111111],[-122.4725,39.27361111111111],[-122.50611111111111,39.155277777777776],[-122.50611111111111,39.155277777777776],[-122.50611111111111,39.155277777777776],[-122.70166666666667,38.45916666666667],[-122.70166666666667,38.45916666666667],[-122.73222222222222,38.35],[-122.71361111111112,38.03972222222222],[-122.71361111111112,38.03972222222222],[-122.63194444444444,37.86083333333333],[-122.6,37.81666666666667],[-122.55,37.78333333333333],[-122.4263888888889,37.66694444444444],[-122.31666666666666,37.516666666666666],[-122.31666666666666,37.516666666666666],[-122.31666666666666,37.516666666666666],[-122.10277777777777,37.47166666666667],[-122.10277777777777,37.47166666666667],[-122.16666666666667,37.53333333333333],[-122.16666666666667,37.53333333333333],[-122.19250000000001,37.54416666666666],[-122.24777777777778,37.5675],[-122.35,37.61666666666667],[-122.35,37.61666666666667]],"type":"LineString"}
}
