{
  "id": 2031450779,
  "type": "Feature",
  "properties": {
    "geom:area": 0,
    "geom:bbox": "-122.400000,37.633333,-73.633333,41.861667",
    "geom:latitude": 39.14823518137286,
    "geom:longitude": -97.48575995514818,
    "src:alt_label": "swim-path",
    "src:geom": "swim",
    "swim:altitudes": [
      "006",
      "030",
      "049",
      "210",
      "210",
      "276",
      "322",
      "322",
      "336",
      "336",
      "350C",
      "350C",
      "350C",
      "350C",
      "350C",
      "350C",
      "350C",
      "350C",
      "350C",
      "350C",
      "350C",
      "350C",
      "350C",
      "350C",
      "350C",
      "350C",
      "350C",
      "350C",
      "350C",
      "350C",
      "350C",
      "350C",
      "350C",
      "350C",
      "350C",
      "350C",
      "350C",
      "350C",
      "350C",
      "350C",
      "350C",
      "350C",
      "350C",
      "350C",
      "350C",
      "350C",
      "350C",
      "350C",
      "350C",
      "350C",
      "350C",
      "350C",
      "350C",
      "350C",
      "350C",
      "350C",
      "350C",
      "350C",
      "350C",
      "350C",
      "350C",
      "350C",
      "350C",
      "350C",
      "350C",
      "350C",
      "350C",
      "350C",
      "350C",
      "350C",
      "350C",
      "350C",
      "350C",
      "350C",
      "350C",
      "350C",
      "350C",
      "350C",
      "350C",
      "350C",
      "350C",
      "350C",
      "350C",
      "350C",
      "350C",
      "350C",
      "350C",
      "350C",
      "350C",
      "350C",
      "350C",
      "350C",
      "350C",
      "350C",
      "350C",
      "350C",
      "350C",
      "350C",
      "350C",
      "350C",
      "370C",
      "370C",
      "370C",
      "370C",
      "370C",
      "370C",
      "370C",
      "370C",
      "370C",
      "370C",
      "370C",
      "370C",
      "370C",
      "370C",
      "370C",
      "370C",
      "370C",
      "370C",
      "370C",
      "370C",
      "370C",
      "370C",
      "370C",
      "370C",
      "370C",
      "370C",
      "370C",
      "370C",
      "370C",
      "370C",
      "370C",
      "370C",
      "370C",
      "370C",
      "370C",
      "370C",
      "370C",
      "370C",
      "370C",
      "370C",
      "370C",
      "370C",
      "370C",
      "370C",
      "370C",
      "370C",
      "370C",
      "370C",
      "370C",
      "370C",
      "370C",
      "370C",
      "370C",
      "370C",
      "370C",
      "370C",
      "370C",
      "370C",
      "370C",
      "370C",
      "370C",
      "370C",
      "370C",
      "370C",
      "370C",
      "370C",
      "370C",
      "370C",
      "370C",
      "370C",
      "370C",
      "370C",
      "370C",
      "370C",
      "370C",
      "370C",
      "370C",
      "370C",
      "370C",
      "370C",
      "370C",
      "370C",
      "370C",
      "370C",
      "370C",
      "370C",
      "370C",
      "370C",
      "370C",
      "370C",
      "370C",
      "370C",
      "370C",
      "370C",
      "370C",
      "370C",
      "370C",
      "370C",
      "370C",
      "370C",
      "370C",
      "370C",
      "370C",
      "370C",
      "370C",
      "370C",
      "370C",
      "370C",
      "370C",
      "370C",
      "370C",
      "370C",
      "370C",
      "370C",
      "370C",
      "370C",
      "370C",
      "370C",
      "370C",
      "370C",
      "370C",
      "370C",
      "370C",
      "370C",
      "370C",
      "370C",
      "370C",
      "370C",
      "370C",
      "370C",
      "370C",
      "370C",
      "370C",
      "370C",
      "370C",
      "370C",
      "370C",
      "370C",
      "370C",
      "370C",
      "370C",
      "370C",
      "370C",
      "370C",
      "370C",
      "370C",
      "370C",
      "370C",
      "370C",
      "370C",
      "370C",
      "370C",
      "370C",
      "370",
      "370",
      "370",
      "370",
      "370",
      "370",
      "355",
      "325",
      "296",
      "274",
      "249",
      "249",
      "230C",
      "230C",
      "190C",
      "190C",
      "190C",
      "190",
      "179",
      "179",
      "179",
      "178",
      "165",
      "130",
      "107",
      "107",
      "082",
      "082",
      "020",
      "020",
      "014",
      "007"
    ],
    "swim:geom": "path",
    "swim:speeds": [
      164,
      184,
      235,
      442,
      442,
      495,
      509,
      509,
      506,
      506,
      507,
      495,
      495,
      497,
      497,
      497,
      499,
      497,
      497,
      497,
      497,
      492,
      492,
      488,
      488,
      486,
      486,
      483,
      481,
      480,
      480,
      479,
      478,
      477,
      476,
      476,
      474,
      474,
      473,
      473,
      474,
      474,
      474,
      478,
      478,
      478,
      478,
      478,
      479,
      479,
      479,
      479,
      479,
      482,
      484,
      483,
      483,
      483,
      482,
      482,
      482,
      482,
      482,
      482,
      481,
      480,
      480,
      480,
      480,
      479,
      478,
      477,
      477,
      477,
      477,
      476,
      476,
      476,
      476,
      476,
      476,
      476,
      476,
      476,
      476,
      476,
      477,
      477,
      477,
      477,
      477,
      477,
      478,
      478,
      479,
      479,
      479,
      479,
      479,
      479,
      469,
      469,
      469,
      469,
      479,
      479,
      479,
      493,
      496,
      496,
      497,
      497,
      496,
      495,
      495,
      493,
      493,
      490,
      491,
      490,
      490,
      493,
      493,
      492,
      497,
      492,
      492,
      500,
      497,
      497,
      499,
      499,
      503,
      503,
      504,
      504,
      503,
      503,
      502,
      502,
      495,
      492,
      490,
      486,
      485,
      483,
      483,
      483,
      483,
      483,
      492,
      492,
      486,
      486,
      485,
      481,
      483,
      483,
      483,
      483,
      481,
      475,
      475,
      473,
      475,
      478,
      479,
      480,
      483,
      486,
      487,
      487,
      488,
      488,
      489,
      488,
      488,
      484,
      484,
      481,
      481,
      482,
      482,
      482,
      483,
      484,
      486,
      486,
      487,
      487,
      487,
      489,
      489,
      490,
      491,
      491,
      491,
      491,
      494,
      494,
      493,
      492,
      492,
      492,
      492,
      494,
      494,
      494,
      495,
      496,
      503,
      504,
      504,
      505,
      505,
      505,
      505,
      508,
      505,
      505,
      504,
      504,
      505,
      504,
      505,
      504,
      505,
      505,
      506,
      506,
      505,
      508,
      505,
      504,
      503,
      489,
      489,
      490,
      497,
      499,
      499,
      499,
      498,
      499,
      499,
      499,
      501,
      501,
      503,
      504,
      504,
      505,
      506,
      507,
      507,
      507,
      506,
      506,
      506,
      505,
      504,
      503,
      492,
      475,
      475,
      456,
      456,
      368,
      368,
      356,
      368,
      352,
      352,
      352,
      356,
      346,
      325,
      314,
      314,
      301,
      301,
      231,
      197,
      155,
      148
    ],
    "swim:timestamps": [
      1780638744,
      1780638812,
      1780638872,
      1780639293,
      1780639293,
      1780639533,
      1780639712,
      1780639712,
      1780639773,
      1780639773,
      1780639892,
      1780640192,
      1780640192,
      1780640253,
      1780640253,
      1780640253,
      1780640313,
      1780640613,
      1780640613,
      1780640613,
      1780640613,
      1780640820,
      1780640820,
      1780640939,
      1780640939,
      1780641001,
      1780641001,
      1780641033,
      1780641093,
      1780641118,
      1780641118,
      1780641153,
      1780641178,
      1780641213,
      1780641240,
      1780641240,
      1780641333,
      1780641333,
      1780641513,
      1780641574,
      1780641754,
      1780641754,
      1780641754,
      1780641934,
      1780641934,
      1780642114,
      1780642114,
      1780642114,
      1780642354,
      1780642354,
      1780642414,
      1780642414,
      1780642414,
      1780642774,
      1780642873,
      1780642894,
      1780642894,
      1780642894,
      1780643015,
      1780643053,
      1780643053,
      1780643075,
      1780643113,
      1780643174,
      1780643195,
      1780643255,
      1780643294,
      1780643294,
      1780643294,
      1780643315,
      1780643354,
      1780643414,
      1780643435,
      1780643435,
      1780643495,
      1780643534,
      1780643555,
      1780643594,
      1780643594,
      1780643615,
      1780643654,
      1780643654,
      1780643675,
      1780643714,
      1780643714,
      1780643774,
      1780643834,
      1780643834,
      1780643855,
      1780643894,
      1780643954,
      1780643954,
      1780644014,
      1780644014,
      1780644074,
      1780644374,
      1780644374,
      1780644434,
      1780644434,
      1780644434,
      1780644674,
      1780644674,
      1780644674,
      1780644735,
      1780644795,
      1780644795,
      1780644795,
      1780644975,
      1780645095,
      1780645095,
      1780645155,
      1780645155,
      1780645215,
      1780645275,
      1780645275,
      1780645335,
      1780645335,
      1780645418,
      1780645455,
      1780645480,
      1780645480,
      1780645575,
      1780645575,
      1780645659,
      1780645695,
      1780645719,
      1780645719,
      1780645755,
      1780645841,
      1780645841,
      1780645901,
      1780645901,
      1780645935,
      1780645995,
      1780646175,
      1780646175,
      1780646199,
      1780646261,
      1780646355,
      1780646442,
      1780646800,
      1780646896,
      1780646956,
      1780647100,
      1780647196,
      1780647461,
      1780647521,
      1780647823,
      1780647823,
      1780647823,
      1780648301,
      1780648301,
      1780648601,
      1780648601,
      1780648662,
      1780648963,
      1780649203,
      1780649264,
      1780649384,
      1780649622,
      1780649745,
      1780649983,
      1780649983,
      1780650103,
      1780650222,
      1780650405,
      1780650522,
      1780650643,
      1780650798,
      1780650944,
      1780650976,
      1780651004,
      1780651097,
      1780651097,
      1780651157,
      1780651186,
      1780651245,
      1780651396,
      1780651396,
      1780651638,
      1780651638,
      1780651878,
      1780651878,
      1780651878,
      1780651938,
      1780651997,
      1780652119,
      1780652119,
      1780652179,
      1780652179,
      1780652239,
      1780652299,
      1780652299,
      1780652359,
      1780652477,
      1780652537,
      1780652537,
      1780652657,
      1780652714,
      1780652714,
      1780652833,
      1780652839,
      1780652899,
      1780652959,
      1780653020,
      1780653140,
      1780653140,
      1780653140,
      1780653198,
      1780653251,
      1780653378,
      1780653492,
      1780653492,
      1780653558,
      1780653612,
      1780653681,
      1780653738,
      1780653746,
      1780653793,
      1780653793,
      1780653860,
      1780653860,
      1780653867,
      1780653913,
      1780653927,
      1780653973,
      1780653987,
      1780653987,
      1780654047,
      1780654047,
      1780654153,
      1780654167,
      1780654274,
      1780654334,
      1780654394,
      1780654467,
      1780654514,
      1780654634,
      1780654694,
      1780654707,
      1780654707,
      1780654707,
      1780654754,
      1780654828,
      1780655008,
      1780655068,
      1780655115,
      1780655128,
      1780655188,
      1780655248,
      1780655248,
      1780655308,
      1780655415,
      1780655488,
      1780655535,
      1780655549,
      1780655596,
      1780655596,
      1780655609,
      1780655656,
      1780655729,
      1780655789,
      1780655849,
      1780655909,
      1780655909,
      1780656089,
      1780656089,
      1780656330,
      1780656330,
      1780656390,
      1780656443,
      1780656503,
      1780656503,
      1780656503,
      1780656510,
      1780656570,
      1780656750,
      1780656810,
      1780656810,
      1780656870,
      1780656870,
      1780657049,
      1780657111,
      1780657171,
      1780657231
    ],
    "wof:geomhash": "9329001cec145fd576883304470d77cd",
    "wof:id": 2031450779,
    "wof:repo": "sfomuseum-data-flights-2026-06"
  },
  "bbox": [
    -122.4,
    37.63333333333333,
    -73.63333333333334,
    41.861666666666665
  ],
  "geometry": {"coordinates":[[-122.38333333333334,37.63333333333333],[-122.4,37.663333333333334],[-122.35194444444444,37.70944444444445],[-121.77722222222222,37.99],[-121.77722222222222,37.99],[-121.11194444444443,37.99333333333333],[-120.59305555555555,38.06861111111112],[-120.59305555555555,38.06861111111112],[-120.41777777777779,38.09583333333334],[-120.41777777777779,38.09583333333334],[-120.06972222222223,38.14666666666667],[-119.2063888888889,38.26972222222222],[-119.2063888888889,38.26972222222222],[-119.03277777777778,38.29361111111111],[-119.03277777777778,38.29361111111111],[-119.03277777777778,38.29361111111111],[-118.86166666666666,38.31805555555556],[-118.00527777777778,38.43083333333333],[-118.00527777777778,38.43083333333333],[-118.00527777777778,38.43083333333333],[-118.00527777777778,38.43083333333333],[-117.41388888888889,38.505],[-117.41388888888889,38.505],[-117.06833333333333,38.53194444444444],[-117.06833333333333,38.53194444444444],[-116.89500000000001,38.54055555555556],[-116.89500000000001,38.54055555555556],[-116.79388888888889,38.54555555555555],[-116.6236111111111,38.55361111111111],[-116.55527777777777,38.55694444444444],[-116.55527777777777,38.55694444444444],[-116.45583333333333,38.561388888888885],[-116.38583333333334,38.56472222222222],[-116.2863888888889,38.56916666666667],[-116.21638888888889,38.57222222222222],[-116.21638888888889,38.57222222222222],[-115.95083333333334,38.58361111111111],[-115.95083333333334,38.58361111111111],[-115.4475,38.60333333333333],[-115.28222222222222,38.60944444444445],[-114.78,38.626111111111115],[-114.78,38.626111111111115],[-114.78,38.626111111111115],[-114.26805555555555,38.64111111111111],[-114.26805555555555,38.64111111111111],[-113.75944444444444,38.653888888888886],[-113.75944444444444,38.653888888888886],[-113.75944444444444,38.653888888888886],[-113.07833333333333,38.66722222222222],[-113.07833333333333,38.66722222222222],[-112.90833333333335,38.669999999999995],[-112.90833333333335,38.669999999999995],[-112.90833333333335,38.669999999999995],[-111.88027777777778,38.68138888888889],[-111.59916666666666,38.6825],[-111.5363888888889,38.683055555555555],[-111.5363888888889,38.683055555555555],[-111.5363888888889,38.683055555555555],[-111.19361111111111,38.683611111111105],[-111.08444444444444,38.683611111111105],[-111.08444444444444,38.683611111111105],[-111.02305555555556,38.683611111111105],[-110.91555555555556,38.683611111111105],[-110.76138888888889,38.683055555555555],[-110.69472222222223,38.68277777777777],[-110.525,38.68222222222222],[-110.4238888888889,38.681666666666665],[-110.4238888888889,38.681666666666665],[-110.4238888888889,38.681666666666665],[-110.3561111111111,38.68111111111111],[-110.25638888888889,38.68055555555555],[-110.05111111111111,38.678888888888885],[-110.01805555555555,38.67861111111111],[-110.01805555555555,38.67861111111111],[-109.84888888888888,38.68194444444444],[-109.71527777777779,38.68833333333333],[-109.68055555555556,38.69],[-109.54833333333333,38.69638888888888],[-109.54833333333333,38.69638888888888],[-109.51222222222222,38.698055555555555],[-109.38166666666666,38.70388888888889],[-109.38166666666666,38.70388888888889],[-109.34472222222222,38.705555555555556],[-109.21333333333334,38.711111111111116],[-109.21333333333334,38.711111111111116],[-109.0436111111111,38.718333333333334],[-108.875,38.72527777777778],[-108.875,38.72527777777778],[-108.84166666666667,38.72666666666667],[-108.70666666666666,38.731944444444444],[-108.53833333333333,38.73833333333334],[-108.53833333333333,38.73833333333334],[-108.36944444444444,38.74444444444445],[-108.36944444444444,38.74444444444445],[-108.2,38.75055555555556],[-107.35472222222222,38.77638888888889],[-107.35472222222222,38.77638888888889],[-107.1825,38.780833333333334],[-107.1825,38.780833333333334],[-107.1825,38.780833333333334],[-106.51861111111111,38.795833333333334],[-106.51861111111111,38.795833333333334],[-106.51861111111111,38.795833333333334],[-106.35277777777777,38.799166666666665],[-106.1825,38.801944444444445],[-106.1825,38.801944444444445],[-106.1825,38.801944444444445],[-105.62972222222221,38.81027777777778],[-105.27777777777777,38.81388888888888],[-105.27777777777777,38.81388888888888],[-105.10111111111111,38.815555555555555],[-105.10111111111111,38.815555555555555],[-104.92694444444444,38.81666666666667],[-104.75305555555556,38.8175],[-104.75305555555556,38.8175],[-104.57694444444444,38.818333333333335],[-104.57694444444444,38.818333333333335],[-104.35222222222221,38.82055555555556],[-104.23277777777778,38.81888888888889],[-104.17944444444444,38.82027777777778],[-104.17944444444444,38.82027777777778],[-103.89583333333334,38.81861111111112],[-103.89583333333334,38.81861111111112],[-103.65055555555556,38.816944444444445],[-103.54194444444444,38.818333333333335],[-103.4738888888889,38.81805555555556],[-103.4738888888889,38.81805555555556],[-103.35111111111111,38.82416666666667],[-103.11611111111111,38.82972222222222],[-103.11611111111111,38.82972222222222],[-102.93694444444445,38.83361111111111],[-102.93694444444445,38.83361111111111],[-102.81416666666667,38.83527777777778],[-102.64916666666667,38.83833333333334],[-102.11138888888888,38.846111111111114],[-102.11138888888888,38.846111111111114],[-102.0425,38.846944444444446],[-101.86361111111111,38.84916666666667],[-101.57333333333332,38.85166666666667],[-101.32555555555555,38.853611111111114],[-100.26138888888889,38.855000000000004],[-99.98138888888889,38.853611111111114],[-99.80916666666667,38.85277777777778],[-99.37833333333333,38.848888888888894],[-99.11833333333333,38.83222222222223],[-98.35277777777777,38.7525],[-98.18416666666667,38.73444444444444],[-97.32944444444443,38.638333333333335],[-97.32944444444443,38.638333333333335],[-97.32944444444443,38.638333333333335],[-95.98583333333333,38.47416666666667],[-95.98583333333333,38.47416666666667],[-95.1375,38.36222222222222],[-95.1375,38.36222222222222],[-94.97333333333333,38.33972222222222],[-94.10583333333332,38.22527777777778],[-93.44638888888889,38.14055555555556],[-93.27722222222222,38.11833333333333],[-92.94055555555556,38.07333333333334],[-92.25833333333334,37.978611111111114],[-91.95611111111111,37.93555555555555],[-91.29694444444445,37.83833333333334],[-91.29694444444445,37.83833333333334],[-90.94888888888889,37.785555555555554],[-90.6236111111111,37.73527777777778],[-90.13055555555555,37.68444444444444],[-89.80083333333333,37.72222222222222],[-89.46583333333334,37.75861111111111],[-89.03416666666666,37.803888888888885],[-88.62166666666666,37.84583333333334],[-88.52,37.85583333333334],[-88.44944444444445,37.863055555555555],[-88.17916666666667,37.88916666666667],[-88.17916666666667,37.88916666666667],[-88.00861111111111,37.90555555555555],[-87.93833333333333,37.911944444444444],[-87.7713888888889,37.93555555555555],[-87.42555555555556,38.15333333333333],[-87.42555555555556,38.15333333333333],[-86.91583333333334,38.48972222222222],[-86.91583333333334,38.48972222222222],[-86.38777777777779,38.83277777777778],[-86.38777777777779,38.83277777777778],[-86.38777777777779,38.83277777777778],[-86.24194444444444,38.92638888888889],[-86.10722222222222,39.0125],[-85.83944444444444,39.18277777777777],[-85.83944444444444,39.18277777777777],[-85.70444444444445,39.268055555555556],[-85.70444444444445,39.268055555555556],[-85.56916666666666,39.35305555555556],[-85.43166666666667,39.439166666666665],[-85.43166666666667,39.439166666666665],[-85.29416666666667,39.52472222222222],[-85.035,39.68527777777778],[-84.89777777777779,39.76972222222222],[-84.89777777777779,39.76972222222222],[-84.61222222222221,39.94444444444444],[-84.50166666666667,40.01166666666666],[-84.50166666666667,40.01166666666666],[-84.22027777777778,40.18138888888889],[-84.19027777777778,40.19944444444444],[-84.04861111111111,40.28444444444444],[-83.90305555555557,40.367222222222225],[-83.75444444444445,40.45055555555556],[-83.46333333333334,40.61416666666667],[-83.46333333333334,40.61416666666667],[-83.46333333333334,40.61416666666667],[-83.31833333333333,40.69499999999999],[-83.2063888888889,40.76],[-82.83444444444444,40.87722222222222],[-82.51472222222222,40.94277777777778],[-82.51472222222222,40.94277777777778],[-82.29861111111111,40.98916666666667],[-82.1575,41.02055555555555],[-81.94500000000001,41.06638888888889],[-81.76944444444445,41.10416666666667],[-81.74138888888889,41.10944444444445],[-81.62194444444444,41.135555555555555],[-81.62194444444444,41.135555555555555],[-81.415,41.17916666666667],[-81.415,41.17916666666667],[-81.38444444444445,41.18333333333333],[-81.24027777777778,41.21555555555556],[-81.20666666666666,41.220555555555556],[-81.06222222222222,41.25277777777778],[-81.02722222222222,41.257222222222225],[-81.02722222222222,41.257222222222225],[-80.84666666666666,41.295833333333334],[-80.84666666666666,41.295833333333334],[-80.52277777777778,41.36277777777778],[-80.48694444444445,41.37083333333334],[-80.18166666666667,41.43083333333333],[-80.00277777777778,41.46611111111111],[-79.80416666666666,41.50472222222222],[-79.61361111111111,41.581944444444446],[-79.50777777777778,41.65611111111111],[-79.23583333333333,41.81388888888888],[-79.05277777777778,41.82777777777778],[-79.01694444444445,41.828611111111115],[-79.01694444444445,41.828611111111115],[-79.01694444444445,41.828611111111115],[-78.84666666666666,41.835],[-78.65027777777779,41.84166666666667],[-78.05944444444444,41.85944444444445],[-77.87472222222222,41.861666666666665],[-77.76833333333333,41.84305555555556],[-77.69500000000001,41.82472222222223],[-77.51944444444445,41.777499999999996],[-77.34083333333332,41.72944444444445],[-77.34083333333332,41.72944444444445],[-77.16638888888889,41.6825],[-76.88194444444444,41.605555555555554],[-76.63,41.53666666666666],[-76.52888888888889,41.50861111111111],[-76.455,41.48833333333334],[-76.33999999999999,41.45638888888889],[-76.33999999999999,41.45638888888889],[-76.31055555555555,41.44833333333333],[-76.16611111111112,41.408055555555556],[-75.94111111111111,41.34444444444445],[-75.76583333333333,41.29472222222222],[-75.61027777777777,41.24638888888889],[-75.45055555555555,41.19333333333333],[-75.45055555555555,41.19333333333333],[-74.97361111111111,41.031666666666666],[-74.97361111111111,41.031666666666666],[-74.3711111111111,40.97805555555556],[-74.3711111111111,40.97805555555556],[-74.24777777777778,41.00138888888889],[-74.16666666666667,40.93333333333333],[-74.11666666666666,40.833333333333336],[-74.11666666666666,40.833333333333336],[-74.11666666666666,40.833333333333336],[-74.1236111111111,40.83555555555556],[-74.0886111111111,40.73722222222222],[-73.99972222222222,40.47166666666667],[-73.94194444444445,40.40083333333333],[-73.94194444444445,40.40083333333333],[-73.84166666666667,40.36666666666667],[-73.84166666666667,40.36666666666667],[-73.63333333333334,40.516666666666666],[-73.6538888888889,40.56861111111112],[-73.70138888888889,40.59583333333334],[-73.74722222222222,40.61694444444444]],"type":"LineString"}
}
