{
  "id": 2031456981,
  "type": "Feature",
  "properties": {
    "geom:area": 0,
    "geom:bbox": "-123.080000,37.550000,-121.150000,44.280000",
    "geom:latitude": 40.86250193325095,
    "geom:longitude": -122.26527406389432,
    "src:alt_label": "swim-route",
    "src:geom": "swim",
    "swim:geom": "route",
    "wof:geomhash": "e3cc2bc7bfa925b68d1d142f31e82bf6",
    "wof:id": 2031456981,
    "wof:repo": "sfomuseum-data-flights-2026-06"
  },
  "bbox": [
    -123.08,
    37.55,
    -121.15,
    44.28
  ],
  "geometry": {"coordinates":[[-121.15,44.25],[-121.18,44.27],[-121.21,44.28],[-121.27,44.26],[-121.3,44.25],[-121.32,44.2],[-121.36,44.05],[-121.4,43.89],[-121.44,43.74],[-121.45,43.69],[-121.5,43.5],[-121.51,43.43],[-121.55,43.3],[-121.59,43.12],[-121.61,43.03],[-121.62,43.02],[-121.69,42.73],[-121.72,42.62],[-121.77,42.39],[-121.83,42.15],[-121.83,42.13],[-122.05,41.23],[-122.05,41.22],[-122.09,41.07],[-122.65,40.44],[-122.66,40.43],[-122.81,40.37],[-123.07,40.22],[-123.08,39.99],[-123.02,39.65],[-123,39.56],[-122.9,38.97],[-122.86,38.78],[-122.86,38.74],[-122.79,38.33],[-122.78,38.32],[-122.77,38.22],[-122.75,38.16],[-122.71,38.02],[-122.69,37.95],[-122.67,37.9],[-122.65,37.87],[-122.59,37.82],[-122.58,37.81],[-122.58,37.81],[-122.54,37.78],[-122.51,37.74],[-122.5,37.73],[-122.44,37.68],[-122.33,37.55],[-122.37,37.62],[-122.38,37.62]],"type":"LineString"}
}
