{
  "id": 2031524085,
  "type": "Feature",
  "properties": {
    "geom:area": 0,
    "geom:bbox": "-122.356020,37.668630,-121.263240,37.962330",
    "geom:latitude": 37.84242866520083,
    "geom:longitude": -121.81794493642198,
    "src:alt_label": "swim-takeoff",
    "src:geom": "swim",
    "swim:elevations": [
      1060,
      1356,
      1664,
      1713,
      2121,
      2226,
      2432,
      2967,
      3164,
      3319,
      3613,
      3706,
      3790,
      3956,
      4354,
      4460,
      5042,
      5420,
      5731,
      5911,
      6038,
      6289,
      6405,
      6438
    ],
    "swim:geom": "takeoff",
    "swim:timestamps": [
      1781284448,
      1781284492,
      1781284526,
      1781284530,
      1781284565,
      1781284576,
      1781284592,
      1781284640,
      1781284671,
      1781284694,
      1781284723,
      1781284733,
      1781284742,
      1781284756,
      1781284794,
      1781284805,
      1781284876,
      1781284914,
      1781284946,
      1781284971,
      1781284989,
      1781285021,
      1781285037,
      1781285043
    ],
    "wof:geomhash": "a80a73296c017fd300311161b9ef7bca",
    "wof:id": 2031524085,
    "wof:repo": "sfomuseum-data-flights-2026-06"
  },
  "bbox": [
    -122.35602,
    37.66863,
    -121.26324,
    37.96233
  ],
  "geometry": {"coordinates":[[-122.35602,37.66863],[-122.30008,37.68599],[-122.25327,37.70357],[-122.24741,37.70575],[-122.19644,37.72726],[-122.18107,37.73514],[-122.15822,37.74665],[-122.0888,37.7825],[-122.04208,37.8064],[-122.00267,37.82423],[-121.94569,37.83688],[-121.92555,37.84051],[-121.90698,37.84398],[-121.87948,37.8491],[-121.80143,37.86399],[-121.7802,37.86785],[-121.62978,37.89548],[-121.54934,37.91],[-121.48117,37.92248],[-121.42662,37.93248],[-121.38584,37.93995],[-121.31301,37.9533],[-121.27703,37.95987],[-121.26324,37.96233]],"type":"LineString"}
}
