{
  "id": 2031556827,
  "type": "Feature",
  "properties": {
    "geom:area": 0,
    "geom:bbox": "-122.480000,25.800000,-80.290000,37.660000",
    "geom:latitude": 31.316226903969103,
    "geom:longitude": -101.7001564074075,
    "src:alt_label": "swim-route",
    "src:geom": "swim",
    "swim:geom": "route",
    "wof:geomhash": "6034b92b98a3e17bb1c0e3fb224c391b",
    "wof:id": 2031556827,
    "wof:repo": "sfomuseum-data-flights-2026-06"
  },
  "bbox": [
    -122.48,
    25.8,
    -80.29,
    37.66
  ],
  "geometry": {"coordinates":[[-122.38,37.62],[-122.48,37.66],[-122.48,37.66],[-122.48,37.65],[-122.48,37.59],[-122.48,37.59],[-122.48,37.56],[-122.48,37.51],[-122.47,37.5],[-122.47,37.49],[-122.43,37.46],[-122.33,37.4],[-122.17,37.29],[-122.14,37.27],[-122.11,37.25],[-122.05,37.21],[-121.93,37.14],[-121.92,37.13],[-121.85,37.08],[-121.72,37],[-121.72,36.99],[-121.71,36.98],[-121.71,36.97],[-121.68,36.92],[-121.66,36.91],[-121.53,36.83],[-121.47,36.8],[-121.33,36.72],[-121.26,36.68],[-121.19,36.63],[-121.06,36.56],[-121.03,36.54],[-120.95,36.49],[-120.7,36.32],[-120.7,36.32],[-120,35.85],[-119.95,35.82],[-119.43,35.5],[-118.06,34.63],[-117.96,34.6],[-117.21,34.38],[-116.67,34.21],[-116.11,34.03],[-115.75,33.92],[-115.09,33.74],[-114.08,33.46],[-114,33.44],[-112.9,33.19],[-110.77,32.05],[-110.49,31.89],[-110.02,31.89],[-108.2,31.85],[-107.84,31.91],[-106.85,32.05],[-106.23,31.98],[-105.69,31.97],[-103.45,31.74],[-103.04,31.7],[-101.33,31.49],[-100.5,31.38],[-100.45,31.37],[-99.66,31.31],[-98.14,31.19],[-97.63,31.19],[-97,31.2],[-96.68,31.2],[-96.07,31.02],[-94.73,30.64],[-94.69,30.62],[-93.48,30.26],[-93.11,30.14],[-92.38,29.92],[-91.6,29.67],[-91.45,29.61],[-91.12,29.73],[-90.97,29.44],[-90.5,29.29],[-90.17,29.06],[-89.44,28.7],[-89.19,28.61],[-89.03,28.58],[-88.43,28.46],[-88.03,28.38],[-88,28.37],[-87.59,28.25],[-87.18,28.13],[-86.76,28.01],[-85.34,27.59],[-85.22,27.55],[-83.07,26.74],[-82.41,26.48],[-81.95,26.31],[-81.87,26.27],[-81.79,26.24],[-81.78,26.24],[-81.5,26.12],[-81.4,26.07],[-81.12,25.95],[-81.07,25.93],[-81.04,25.91],[-80.94,25.85],[-80.93,25.85],[-80.92,25.84],[-80.75,25.82],[-80.58,25.81],[-80.57,25.81],[-80.47,25.81],[-80.46,25.81],[-80.42,25.8],[-80.38,25.8],[-80.29,25.8]],"type":"LineString"}
}
