{
  "id": 2031475645,
  "type": "Feature",
  "properties": {
    "geom:area": 0,
    "geom:bbox": "-122.380000,37.620000,-87.510000,45.330000",
    "geom:latitude": 42.80797905358952,
    "geom:longitude": -104.81527700348151,
    "src:alt_label": "swim-route",
    "src:geom": "swim",
    "swim:geom": "route",
    "wof:geomhash": "76f600e6eb17948b788a969d77dd4380",
    "wof:id": 2031475645,
    "wof:repo": "sfomuseum-data-flights-2026-06"
  },
  "bbox": [
    -122.38,
    37.62,
    -87.51,
    45.33
  ],
  "geometry": {"coordinates":[[-122.38,37.62],[-122.32,37.69],[-122.3,37.7],[-122.3,37.7],[-122.25,37.75],[-122.25,37.76],[-122.22,37.78],[-122.19,37.82],[-122.17,37.83],[-122.05,37.95],[-121.92,38.08],[-121.92,38.08],[-121.87,38.13],[-121.82,38.17],[-121.82,38.18],[-121.71,38.24],[-121.7,38.25],[-121.61,38.3],[-121.57,38.33],[-121.51,38.36],[-121.49,38.38],[-121.42,38.42],[-121.22,38.54],[-121.14,38.59],[-121.06,38.64],[-121.02,38.66],[-120.98,38.69],[-120.64,38.89],[-120.27,39.1],[-120.13,39.2],[-118.8,39.95],[-118.14,40.31],[-118.12,40.32],[-117.61,40.5],[-115.89,41.1],[-114.49,41.57],[-113.34,41.93],[-112.45,42.2],[-112.04,42.33],[-111.48,42.51],[-111.24,42.59],[-110.14,42.93],[-109.85,43.01],[-109.09,43.24],[-108.81,43.32],[-108.3,43.46],[-107.78,43.62],[-107.55,43.69],[-107.26,43.77],[-106.59,43.96],[-106.44,44],[-105.61,44],[-103.01,43.98],[-102.74,43.97],[-101.63,43.97],[-101.43,44],[-98.11,44.56],[-97.53,44.63],[-95.03,45.22],[-94.52,45.33],[-94.2,45.22],[-93.9,45.12],[-93.25,44.89],[-93.22,44.88],[-92.9,44.76],[-92.8,44.73],[-92.21,44.44],[-91.4,44.16],[-91.37,44.19],[-91.32,44.17],[-91.28,44.15],[-91.2,44.12],[-90.9,43.98],[-90.58,43.88],[-89.76,43.55],[-89.34,43.14],[-89.15,42.95],[-89.07,42.87],[-89.05,42.84],[-88.89,42.66],[-88.79,42.53],[-88.71,42.43],[-88.67,42.38],[-88.66,42.38],[-88.57,42.37],[-88.52,42.36],[-88.5,42.36],[-88.43,42.35],[-88.39,42.34],[-88.31,42.3],[-88.15,42.2],[-88.07,42.13],[-88.03,42.09],[-87.79,42.09],[-87.54,42.09],[-87.51,42.09],[-87.55,42.08],[-87.69,42.04],[-87.8,42.01],[-87.9,41.98],[-87.91,41.98]],"type":"LineString"}
}
