{
  "id": 2031637493,
  "type": "Feature",
  "properties": {
    "geom:area": 0,
    "geom:bbox": "-122.867000,37.778860,-122.546230,38.399860",
    "geom:latitude": 38.07836584773799,
    "geom:longitude": -122.720604958653,
    "src:alt_label": "swim-approach",
    "src:geom": "swim",
    "swim:elevations": [
      7529,
      7234,
      7017,
      6748,
      6563,
      6436,
      6108,
      5943,
      5088,
      4761,
      4542,
      4251,
      4116,
      3834,
      3609
    ],
    "swim:geom": "approach",
    "swim:timestamps": [
      1782401488,
      1782401513,
      1782401534,
      1782401559,
      1782401575,
      1782401588,
      1782401627,
      1782401647,
      1782401727,
      1782401756,
      1782401781,
      1782401818,
      1782401833,
      1782401868,
      1782401897
    ],
    "wof:geomhash": "50c097dd667b6471e4b3ed63e3032a7a",
    "wof:id": 2031637493,
    "wof:repo": "sfomuseum-data-flights-2026-06"
  },
  "bbox": [
    -122.867,
    37.77886,
    -122.54623,
    38.39986
  ],
  "geometry": {"coordinates":[[-122.867,38.39986],[-122.84147,38.35465],[-122.82069,38.31815],[-122.79676,38.2759],[-122.78138,38.24859],[-122.77033,38.22668],[-122.74842,38.15827],[-122.73803,38.1251],[-122.70193,37.99971],[-122.69017,37.95524],[-122.67852,37.9182],[-122.64424,37.87111],[-122.62492,37.85291],[-122.58123,37.81132],[-122.54623,37.77886]],"type":"LineString"}
}
