{
  "id": 2031575411,
  "type": "Feature",
  "properties": {
    "geom:area": 0,
    "geom:bbox": "-122.526610,37.650200,-121.251800,38.078430",
    "geom:latitude": 37.93913598917456,
    "geom:longitude": -121.97078195784219,
    "src:alt_label": "swim-takeoff",
    "src:geom": "swim",
    "swim:elevations": [
      823,
      1087,
      1291,
      1730,
      2041,
      2390,
      2862,
      3009,
      3136,
      3171,
      3295,
      3501,
      3923,
      3953,
      4380,
      4585,
      5000,
      5053,
      5379,
      5624,
      5777,
      6129,
      6301,
      6400,
      6500,
      6736,
      6951,
      7132,
      7149
    ],
    "swim:geom": "takeoff",
    "swim:timestamps": [
      1781803701,
      1781803738,
      1781803755,
      1781803789,
      1781803815,
      1781803845,
      1781803886,
      1781803899,
      1781803917,
      1781803923,
      1781803950,
      1781803992,
      1781804037,
      1781804041,
      1781804085,
      1781804109,
      1781804156,
      1781804163,
      1781804209,
      1781804233,
      1781804253,
      1781804302,
      1781804326,
      1781804341,
      1781804355,
      1781804397,
      1781804429,
      1781804457,
      1781804461
    ],
    "wof:geomhash": "8876e695742c9a27085f5bcdc864f81b",
    "wof:id": 2031575411,
    "wof:repo": "sfomuseum-data-flights-2026-06"
  },
  "bbox": [
    -122.52661,
    37.6502,
    -121.2518,
    38.07843
  ],
  "geometry": {"coordinates":[[-122.44684,37.6502],[-122.49247,37.66955],[-122.51282,37.68287],[-122.52547,37.72532],[-122.52661,37.7585],[-122.51916,37.79697],[-122.46454,37.82715],[-122.44479,37.83409],[-122.417,37.84231],[-122.40718,37.84489],[-122.3604,37.85726],[-122.28198,37.87862],[-122.19184,37.90304],[-122.18433,37.90506],[-122.09649,37.92861],[-122.04744,37.94175],[-121.95033,37.96754],[-121.93565,37.97145],[-121.83706,37.99759],[-121.78496,38.01133],[-121.74143,38.02281],[-121.63301,38.05128],[-121.57648,38.06369],[-121.54285,38.0666],[-121.50826,38.06836],[-121.40833,38.07241],[-121.33184,38.07539],[-121.26185,38.07802],[-121.2518,38.07843]],"type":"LineString"}
}
