{
  "id": 2031425945,
  "type": "Feature",
  "properties": {
    "geom:area": 0,
    "geom:bbox": "-122.526980,37.631180,-121.274430,38.407980",
    "geom:latitude": 38.03899896004442,
    "geom:longitude": -121.98223052242984,
    "src:alt_label": "swim-takeoff",
    "src:geom": "swim",
    "swim:elevations": [
      413,
      975,
      1458,
      1954,
      2419,
      2667,
      2958,
      3225,
      3442,
      3554,
      3835,
      3974,
      4192,
      4640,
      4857,
      5190,
      5395,
      5515,
      5803,
      6173,
      6303,
      6523,
      6834,
      6965,
      7191,
      7253,
      7423,
      7607
    ],
    "swim:geom": "takeoff",
    "swim:timestamps": [
      1780376877,
      1780376926,
      1780377011,
      1780377051,
      1780377088,
      1780377110,
      1780377135,
      1780377160,
      1780377204,
      1780377219,
      1780377249,
      1780377264,
      1780377285,
      1780377329,
      1780377350,
      1780377389,
      1780377410,
      1780377425,
      1780377458,
      1780377505,
      1780377523,
      1780377554,
      1780377598,
      1780377622,
      1780377658,
      1780377670,
      1780377698,
      1780377731
    ],
    "wof:geomhash": "22d4763bebcb07f371181d74ee5b3df1",
    "wof:id": 2031425945,
    "wof:repo": "sfomuseum-data-flights-2026-06"
  },
  "bbox": [
    -122.52698,
    37.63118,
    -121.27443,
    38.40798
  ],
  "geometry": {"coordinates":[[-122.40431,37.63118],[-122.44641,37.64929],[-122.52569,37.69844],[-122.52698,37.74985],[-122.5202,37.79725],[-122.49329,37.81685],[-122.45389,37.83049],[-122.41537,37.84674],[-122.3428,37.88221],[-122.31644,37.89496],[-122.2621,37.92117],[-122.23449,37.93455],[-122.1953,37.95341],[-122.11308,37.99296],[-122.07276,38.0123],[-121.9963,38.04892],[-121.95437,38.06894],[-121.92418,38.08335],[-121.85721,38.11529],[-121.75881,38.16208],[-121.72223,38.17939],[-121.65532,38.21111],[-121.56161,38.25547],[-121.50904,38.2802],[-121.42938,38.31769],[-121.40281,38.33061],[-121.3441,38.36471],[-121.27443,38.40798]],"type":"LineString"}
}
