{
  "id": 2031559651,
  "type": "Feature",
  "properties": {
    "geom:area": 0,
    "geom:bbox": "-122.380000,37.620000,-90.290000,40.020000",
    "geom:latitude": 39.31604717154134,
    "geom:longitude": -106.29945541757814,
    "src:alt_label": "swim-route",
    "src:geom": "swim",
    "swim:geom": "route",
    "wof:geomhash": "1a6d2bcb0d18c198716b42316a9daa05",
    "wof:id": 2031559651,
    "wof:repo": "sfomuseum-data-flights-2026-06"
  },
  "bbox": [
    -122.38,
    37.62,
    -90.29,
    40.02
  ],
  "geometry": {"coordinates":[[-122.38,37.62],[-122.28,37.68],[-122.27,37.69],[-122.27,37.69],[-122.21,37.72],[-122.21,37.72],[-122.2,37.72],[-122.18,37.73],[-122.18,37.74],[-122.16,37.75],[-122.12,37.76],[-122.11,37.77],[-122,37.83],[-121.94,37.85],[-121.77,37.92],[-121.75,37.93],[-121.61,37.98],[-121.48,38.04],[-121.41,38.06],[-121.38,38.07],[-121.26,38.12],[-121.23,38.13],[-121.16,38.16],[-121.04,38.21],[-120.92,38.22],[-120.82,38.24],[-120.72,38.25],[-120.67,38.26],[-120.62,38.26],[-120.2,38.32],[-119.96,38.36],[-119.22,38.45],[-118.23,38.57],[-117.99,38.6],[-117.54,38.65],[-117.3,38.68],[-117.29,38.68],[-116.05,38.89],[-115.59,38.96],[-114.68,39.1],[-113.89,39.23],[-113.32,39.32],[-111.14,39.64],[-110.08,39.79],[-109.55,39.86],[-109.23,39.9],[-109.01,39.93],[-108.29,39.97],[-107.03,40.02],[-106.88,40.02],[-106.44,40],[-106.33,40],[-105.1,39.93],[-104.62,39.89],[-103.2,39.91],[-101.05,39.89],[-100.8,39.88],[-100.02,39.87],[-98.98,39.83],[-98.26,39.81],[-97.63,39.72],[-96.21,39.52],[-94.74,39.29],[-94.23,39.13],[-94.13,39.1],[-93.54,39],[-93.26,38.95],[-93.07,38.92],[-92.51,38.83],[-92.42,38.81],[-92.23,38.78],[-92.04,38.75],[-91.96,38.73],[-91.94,38.73],[-91.74,38.69],[-91.68,38.69],[-91.42,38.69],[-91.37,38.69],[-91.21,38.69],[-91.2,38.69],[-91.1,38.7],[-91.03,38.7],[-90.99,38.7],[-90.82,38.7],[-90.72,38.71],[-90.54,38.71],[-90.53,38.71],[-90.5,38.7],[-90.44,38.67],[-90.38,38.64],[-90.36,38.63],[-90.3,38.6],[-90.29,38.6],[-90.3,38.62],[-90.34,38.69],[-90.37,38.75]],"type":"LineString"}
}
