{
  "id": 2031559651,
  "type": "Feature",
  "properties": {
    "geom:area": 0,
    "geom:bbox": "-122.395250,37.640480,-121.258250,38.131260",
    "geom:latitude": 37.90148019291344,
    "geom:longitude": -121.83480734494074,
    "src:alt_label": "swim-takeoff",
    "src:geom": "swim",
    "swim:elevations": [
      403,
      485,
      836,
      900,
      1089,
      1357,
      2049,
      2420,
      2973,
      3270,
      3359,
      3632,
      4229,
      4540,
      4909,
      5383,
      5481,
      5885,
      5985,
      6467,
      6652,
      7385,
      7675,
      7770
    ],
    "swim:geom": "takeoff",
    "swim:timestamps": [
      1781623347,
      1781623362,
      1781623407,
      1781623413,
      1781623425,
      1781623458,
      1781623522,
      1781623546,
      1781623582,
      1781623617,
      1781623634,
      1781623658,
      1781623701,
      1781623727,
      1781623755,
      1781623793,
      1781623801,
      1781623833,
      1781623841,
      1781623884,
      1781623902,
      1781623973,
      1781624006,
      1781624015
    ],
    "wof:geomhash": "795e29dfd7c2dd3f338c54e0ca776201",
    "wof:id": 2031559651,
    "wof:repo": "sfomuseum-data-flights-2026-06"
  },
  "bbox": [
    -122.39525,
    37.64048,
    -121.25825,
    38.13126
  ],
  "geometry": {"coordinates":[[-122.39525,37.64048],[-122.38837,37.65298],[-122.33676,37.67138],[-122.32875,37.67394],[-122.31317,37.67947],[-122.27124,37.6957],[-122.18106,37.73474],[-122.14825,37.75186],[-122.09853,37.7776],[-122.04807,37.80414],[-122.01993,37.81911],[-121.97864,37.84085],[-121.90352,37.88021],[-121.85699,37.90465],[-121.80587,37.93158],[-121.73542,37.96944],[-121.71969,37.97589],[-121.65429,37.99786],[-121.63749,38.0035],[-121.54566,38.03456],[-121.50667,38.04792],[-121.35091,38.10079],[-121.27752,38.12519],[-121.25825,38.13126]],"type":"LineString"}
}
