{
  "id": 2031433703,
  "type": "Feature",
  "properties": {
    "geom:area": 0,
    "geom:bbox": "-122.441944,37.616667,-100.784722,48.539444",
    "geom:latitude": 43.06496058694895,
    "geom:longitude": -111.66450362399428,
    "src:alt_label": "swim-path",
    "src:geom": "swim",
    "swim:altitudes": [
      "007",
      "007",
      "007",
      "015",
      "015",
      "140",
      "140",
      "140",
      "140",
      "180",
      "180",
      "193",
      "193",
      "205",
      "205",
      "216",
      "216",
      "226",
      "226",
      "226",
      "226",
      "261",
      "268",
      "271",
      "271",
      "271",
      "279",
      "281",
      "281",
      "281",
      "285",
      "285",
      "285",
      "292",
      "292",
      "292",
      "302",
      "302",
      "306",
      "306",
      "306",
      "310",
      "310",
      "316",
      "323",
      "345",
      "345",
      "345",
      "350C",
      "350C",
      "350C",
      "350C",
      "350C",
      "350C",
      "350C",
      "350C",
      "350C",
      "350C",
      "350C",
      "350C",
      "350C",
      "350C",
      "350C",
      "350C",
      "350C",
      "350C",
      "350C",
      "350C",
      "350C",
      "350C",
      "350C",
      "350C",
      "350C",
      "350C",
      "350C",
      "350C",
      "350C",
      "350C",
      "350C",
      "350C",
      "350C",
      "350C",
      "350C",
      "350C",
      "350C",
      "350C",
      "350C",
      "350C",
      "350C",
      "350C",
      "350C",
      "350C",
      "350C",
      "350C",
      "350C",
      "350C",
      "350C",
      "350C",
      "350C",
      "350C",
      "350C",
      "350C",
      "350C",
      "350C",
      "350C",
      "350C",
      "350C",
      "350C",
      "350C",
      "350C",
      "350C",
      "350C",
      "350C",
      "350C",
      "350C",
      "350C",
      "350C",
      "350C",
      "350C",
      "350C",
      "350C",
      "350C",
      "350C",
      "350C",
      "350C",
      "350C",
      "350C",
      "350C",
      "350C",
      "350C",
      "350C",
      "350C",
      "350C",
      "350C",
      "350C",
      "350C",
      "350C",
      "350C",
      "350C",
      "350C",
      "350C",
      "350C",
      "350C",
      "350C",
      "350C",
      "350C",
      "350C",
      "350C",
      "350C",
      "350C",
      "350C",
      "350C",
      "350C",
      "350C",
      "350C",
      "350C",
      "350C",
      "350C",
      "350C",
      "350C",
      "350C",
      "350C"
    ],
    "swim:geom": "path",
    "swim:speeds": [
      156,
      156,
      156,
      208,
      208,
      371,
      371,
      371,
      371,
      398,
      398,
      402,
      402,
      409,
      409,
      416,
      416,
      425,
      425,
      425,
      425,
      453,
      460,
      461,
      461,
      461,
      464,
      472,
      472,
      472,
      472,
      472,
      472,
      476,
      476,
      476,
      476,
      476,
      478,
      478,
      478,
      486,
      486,
      488,
      490,
      487,
      487,
      487,
      483,
      483,
      483,
      483,
      482,
      480,
      480,
      480,
      477,
      477,
      477,
      481,
      481,
      481,
      481,
      486,
      486,
      486,
      486,
      491,
      491,
      491,
      490,
      488,
      488,
      484,
      484,
      484,
      484,
      490,
      490,
      490,
      493,
      493,
      498,
      499,
      499,
      499,
      499,
      500,
      500,
      500,
      506,
      506,
      511,
      511,
      523,
      523,
      523,
      516,
      517,
      517,
      517,
      517,
      516,
      516,
      516,
      503,
      503,
      503,
      498,
      498,
      489,
      489,
      486,
      486,
      484,
      484,
      484,
      484,
      484,
      484,
      489,
      489,
      487,
      487,
      487,
      487,
      502,
      504,
      504,
      508,
      508,
      508,
      517,
      522,
      522,
      522,
      523,
      526,
      526,
      526,
      526,
      546,
      546,
      546,
      552,
      552,
      550,
      550,
      549,
      549,
      544,
      544,
      544,
      544,
      546,
      546,
      546,
      549,
      557,
      557,
      557,
      557
    ],
    "swim:timestamps": [
      1780439795,
      1780439795,
      1780439795,
      1780439860,
      1780439860,
      1780440340,
      1780440340,
      1780440340,
      1780440340,
      1780440521,
      1780440521,
      1780440581,
      1780440581,
      1780440641,
      1780440641,
      1780440701,
      1780440701,
      1780440761,
      1780440761,
      1780440761,
      1780440761,
      1780441043,
      1780441103,
      1780441121,
      1780441121,
      1780441121,
      1780441223,
      1780441241,
      1780441241,
      1780441241,
      1780441283,
      1780441283,
      1780441283,
      1780441362,
      1780441362,
      1780441362,
      1780441464,
      1780441464,
      1780441524,
      1780441524,
      1780441524,
      1780441602,
      1780441602,
      1780441662,
      1780441704,
      1780441884,
      1780441884,
      1780441884,
      1780442004,
      1780442004,
      1780442064,
      1780442064,
      1780442124,
      1780442245,
      1780442245,
      1780442245,
      1780442365,
      1780442365,
      1780442425,
      1780442563,
      1780442563,
      1780442563,
      1780442563,
      1780442725,
      1780442725,
      1780442725,
      1780442725,
      1780442966,
      1780442966,
      1780442966,
      1780443086,
      1780443146,
      1780443146,
      1780443266,
      1780443326,
      1780443326,
      1780443326,
      1780443446,
      1780443446,
      1780443446,
      1780443566,
      1780443566,
      1780443747,
      1780443807,
      1780443807,
      1780443807,
      1780443987,
      1780444047,
      1780444047,
      1780444047,
      1780444167,
      1780444167,
      1780444227,
      1780444227,
      1780444468,
      1780444468,
      1780444468,
      1780444588,
      1780444648,
      1780444648,
      1780444708,
      1780444708,
      1780444768,
      1780444768,
      1780444768,
      1780444948,
      1780444948,
      1780444948,
      1780445189,
      1780445189,
      1780445309,
      1780445309,
      1780445429,
      1780445429,
      1780445489,
      1780445489,
      1780445489,
      1780445910,
      1780445910,
      1780445910,
      1780445982,
      1780445982,
      1780446222,
      1780446222,
      1780446222,
      1780446222,
      1780446522,
      1780446582,
      1780446582,
      1780446703,
      1780446703,
      1780446703,
      1780446883,
      1780446943,
      1780446943,
      1780446943,
      1780447003,
      1780447123,
      1780447123,
      1780447123,
      1780447123,
      1780447545,
      1780447545,
      1780447545,
      1780447726,
      1780447726,
      1780447784,
      1780447784,
      1780447846,
      1780447846,
      1780448086,
      1780448086,
      1780448086,
      1780448086,
      1780448278,
      1780448278,
      1780448278,
      1780448338,
      1780448519,
      1780448519,
      1780448519,
      1780448519
    ],
    "wof:geomhash": "a7a5732a163a62aca27c10500c852f3f",
    "wof:id": 2031433703,
    "wof:repo": "sfomuseum-data-flights-2026-06"
  },
  "bbox": [
    -122.44194444444445,
    37.61666666666667,
    -100.78472222222221,
    48.53944444444444
  ],
  "geometry": {"coordinates":[[-122.38333333333334,37.61666666666667],[-122.38333333333334,37.61666666666667],[-122.38333333333334,37.61666666666667],[-122.44194444444445,37.647777777777776],[-122.44194444444445,37.647777777777776],[-122.06638888888888,38.11],[-122.06638888888888,38.11],[-122.06638888888888,38.11],[-122.06638888888888,38.11],[-121.74361111111111,38.32],[-121.74361111111111,38.32],[-121.63305555555554,38.39138888888889],[-121.63305555555554,38.39138888888889],[-121.52,38.46416666666667],[-121.52,38.46416666666667],[-121.40083333333334,38.53638888888889],[-121.40083333333334,38.53638888888889],[-121.275,38.61277777777778],[-121.275,38.61277777777778],[-121.275,38.61277777777778],[-121.275,38.61277777777778],[-120.6913888888889,38.96194444444445],[-120.55972222222222,39.04138888888889],[-120.50805555555556,39.07361111111111],[-120.50805555555556,39.07361111111111],[-120.50805555555556,39.07361111111111],[-120.29388888888889,39.19777777777777],[-120.24166666666667,39.23083333333334],[-120.24166666666667,39.23083333333334],[-120.24166666666667,39.23083333333334],[-120.15694444444445,39.27833333333333],[-120.15694444444445,39.27833333333333],[-120.15694444444445,39.27833333333333],[-119.99083333333333,39.378055555555555],[-119.99083333333333,39.378055555555555],[-119.99083333333333,39.378055555555555],[-119.74527777777777,39.519444444444446],[-119.74527777777777,39.519444444444446],[-119.60555555555555,39.6],[-119.60555555555555,39.6],[-119.60555555555555,39.6],[-119.43361111111112,39.70055555555556],[-119.43361111111112,39.70055555555556],[-119.28972222222222,39.783055555555556],[-119.17777777777778,39.84666666666667],[-118.72972222222222,40.06361111111111],[-118.72972222222222,40.06361111111111],[-118.72972222222222,40.06361111111111],[-118.42527777777778,40.192499999999995],[-118.42527777777778,40.192499999999995],[-118.27083333333333,40.25833333333333],[-118.27083333333333,40.25833333333333],[-118.12166666666666,40.32638888888889],[-117.81888888888888,40.461111111111116],[-117.81888888888888,40.461111111111116],[-117.81888888888888,40.461111111111116],[-117.5175,40.59388888888889],[-117.5175,40.59388888888889],[-117.36694444444444,40.65972222222222],[-117.02361111111111,40.808611111111105],[-117.02361111111111,40.808611111111105],[-117.02361111111111,40.808611111111105],[-117.02361111111111,40.808611111111105],[-116.58722222222222,40.99527777777778],[-116.58722222222222,40.99527777777778],[-116.58722222222222,40.99527777777778],[-116.58722222222222,40.99527777777778],[-115.95305555555557,41.26222222222222],[-115.95305555555557,41.26222222222222],[-115.95305555555557,41.26222222222222],[-115.63527777777779,41.39361111111111],[-115.47833333333334,41.45805555555556],[-115.47833333333334,41.45805555555556],[-115.16527777777779,41.58555555555556],[-115.005,41.650555555555556],[-115.005,41.650555555555556],[-115.005,41.650555555555556],[-114.68361111111112,41.77916666666667],[-114.68361111111112,41.77916666666667],[-114.68361111111112,41.77916666666667],[-114.38222222222221,41.89861111111111],[-114.38222222222221,41.89861111111111],[-113.88583333333334,42.09277777777778],[-113.72027777777778,42.156666666666666],[-113.72027777777778,42.156666666666666],[-113.72027777777778,42.156666666666666],[-113.22222222222223,42.34722222222222],[-113.05222222222221,42.41138888888889],[-113.05222222222221,42.41138888888889],[-113.05222222222221,42.41138888888889],[-112.7125,42.53861111111111],[-112.7125,42.53861111111111],[-112.53999999999999,42.6025],[-112.53999999999999,42.6025],[-111.83277777777778,42.86083333333333],[-111.83277777777778,42.86083333333333],[-111.83277777777778,42.86083333333333],[-111.47555555555556,42.98861111111111],[-111.30527777777777,43.049166666666665],[-111.30527777777777,43.049166666666665],[-111.12305555555555,43.11333333333334],[-111.12305555555555,43.11333333333334],[-110.94861111111112,43.17444444444444],[-110.94861111111112,43.17444444444444],[-110.94861111111112,43.17444444444444],[-110.40861111111111,43.36138888888889],[-110.40861111111111,43.36138888888889],[-110.40861111111111,43.36138888888889],[-109.75555555555556,43.630833333333335],[-109.75555555555556,43.630833333333335],[-109.45222222222222,43.79083333333333],[-109.45222222222222,43.79083333333333],[-109.15027777777779,43.948611111111106],[-109.15027777777779,43.948611111111106],[-109,44.02638888888889],[-109,44.02638888888889],[-109,44.02638888888889],[-107.94027777777778,44.56472222222222],[-107.94027777777778,44.56472222222222],[-107.94027777777778,44.56472222222222],[-107.78416666666666,44.6425],[-107.78416666666666,44.6425],[-107.13333333333334,44.96138888888889],[-107.13333333333334,44.96138888888889],[-107.13333333333334,44.96138888888889],[-107.13333333333334,44.96138888888889],[-106.32055555555556,45.35027777777778],[-106.15555555555557,45.427499999999995],[-106.15555555555557,45.427499999999995],[-105.825,45.59027777777778],[-105.825,45.59027777777778],[-105.825,45.59027777777778],[-105.33305555555555,45.84166666666667],[-105.16111111111111,45.92583333333333],[-105.16111111111111,45.92583333333333],[-105.16111111111111,45.92583333333333],[-104.95916666666668,46.029444444444444],[-104.61638888888888,46.19972222222222],[-104.61638888888888,46.19972222222222],[-104.61638888888888,46.19972222222222],[-104.61638888888888,46.19972222222222],[-103.46277777777777,46.85861111111111],[-103.46277777777777,46.85861111111111],[-103.46277777777777,46.85861111111111],[-102.9725,47.17944444444444],[-102.9725,47.17944444444444],[-102.81222222222222,47.282777777777774],[-102.81222222222222,47.282777777777774],[-102.64944444444446,47.38722222222222],[-102.64944444444446,47.38722222222222],[-101.9975,47.79944444444444],[-101.9975,47.79944444444444],[-101.9975,47.79944444444444],[-101.9975,47.79944444444444],[-101.46416666666667,48.12916666666667],[-101.46416666666667,48.12916666666667],[-101.46416666666667,48.12916666666667],[-101.295,48.23222222222223],[-100.78472222222221,48.53944444444444],[-100.78472222222221,48.53944444444444],[-100.78472222222221,48.53944444444444],[-100.78472222222221,48.53944444444444]],"type":"LineString"}
}
