{
  "id": 2031453437,
  "type": "Feature",
  "properties": {
    "geom:area": 0,
    "geom:bbox": "-122.300000,33.920278,-118.786667,37.583333",
    "geom:latitude": 35.69813489510107,
    "geom:longitude": -120.76219274526147,
    "src:alt_label": "swim-path",
    "src:geom": "swim",
    "swim:altitudes": [
      "108",
      "108",
      "161",
      "161",
      "240",
      "265",
      "265",
      "284",
      "285",
      "340",
      "360C",
      "360C",
      "360C",
      "360C",
      "360C",
      "360C",
      "360C",
      "360C",
      "360C",
      "360C",
      "360C",
      "360C",
      "360C",
      "360C",
      "360C",
      "360C",
      "360C",
      "360C",
      "360C",
      "360C",
      "360C",
      "360",
      "360",
      "360",
      "345",
      "345",
      "271",
      "221",
      "221",
      "202",
      "202",
      "192",
      "178",
      "142",
      "138",
      "138",
      "132",
      "113",
      "101",
      "100",
      "100",
      "090",
      "069",
      "061",
      "060",
      "053",
      "053",
      "046",
      "040",
      "040",
      "032",
      "032",
      "024",
      "010"
    ],
    "swim:geom": "path",
    "swim:speeds": [
      296,
      296,
      360,
      360,
      405,
      412,
      412,
      429,
      424,
      401,
      388,
      388,
      389,
      389,
      389,
      390,
      390,
      390,
      391,
      391,
      392,
      392,
      392,
      392,
      392,
      392,
      393,
      393,
      394,
      394,
      394,
      393,
      393,
      391,
      390,
      390,
      428,
      410,
      410,
      384,
      384,
      369,
      362,
      328,
      307,
      307,
      276,
      253,
      245,
      244,
      244,
      244,
      233,
      234,
      224,
      244,
      244,
      199,
      185,
      185,
      162,
      162,
      158,
      114
    ],
    "swim:timestamps": [
      1780708222,
      1780708222,
      1780708342,
      1780708342,
      1780708522,
      1780708589,
      1780708589,
      1780708642,
      1780708649,
      1780708763,
      1780708830,
      1780708830,
      1780708883,
      1780708943,
      1780708950,
      1780709003,
      1780709003,
      1780709063,
      1780709130,
      1780709130,
      1780709190,
      1780709243,
      1780709250,
      1780709250,
      1780709364,
      1780709370,
      1780709430,
      1780709430,
      1780709490,
      1780709550,
      1780709550,
      1780709731,
      1780709731,
      1780709911,
      1780709971,
      1780709971,
      1780710091,
      1780710211,
      1780710211,
      1780710271,
      1780710271,
      1780710286,
      1780710331,
      1780710451,
      1780710466,
      1780710466,
      1780710512,
      1780710572,
      1780710632,
      1780710646,
      1780710646,
      1780710692,
      1780710766,
      1780710812,
      1780710826,
      1780710932,
      1780710932,
      1780710992,
      1780711061,
      1780711061,
      1780711181,
      1780711181,
      1780711245,
      1780711366
    ],
    "wof:geomhash": "fe5524a8da6b90f7cd6efd831133b16c",
    "wof:id": 2031453437,
    "wof:repo": "sfomuseum-data-flights-2026-06"
  },
  "bbox": [
    -122.3,
    33.92027777777778,
    -118.78666666666666,
    37.583333333333336
  ],
  "geometry": {"coordinates":[[-118.78666666666666,33.92027777777778],[-118.78666666666666,33.92027777777778],[-118.98611111111111,33.989444444444445],[-118.98611111111111,33.989444444444445],[-119.25194444444445,34.227222222222224],[-119.35388888888889,34.321111111111115],[-119.35388888888889,34.321111111111115],[-119.44472222222223,34.400277777777774],[-119.45222222222222,34.40833333333333],[-119.63722222222223,34.57194444444445],[-119.73722222222223,34.660555555555554],[-119.73722222222223,34.660555555555554],[-119.825,34.73861111111111],[-119.91472222222222,34.81777777777778],[-119.91638888888889,34.81916666666667],[-120.00444444444445,34.89666666666667],[-120.00444444444445,34.89666666666667],[-120.09555555555555,34.97694444444445],[-120.18777777777778,35.05777777777777],[-120.18777777777778,35.05777777777777],[-120.28083333333333,35.138888888888886],[-120.35916666666667,35.206944444444446],[-120.37888888888888,35.22416666666667],[-120.37888888888888,35.22416666666667],[-120.54277777777777,35.36638888888889],[-120.55888888888889,35.38027777777778],[-120.64666666666668,35.46472222222223],[-120.64666666666668,35.46472222222223],[-120.7325,35.55027777777777],[-120.81888888888888,35.63583333333333],[-120.81888888888888,35.63583333333333],[-121.075,35.888333333333335],[-121.075,35.888333333333335],[-121.33222222222221,36.14],[-121.41694444444445,36.222500000000004],[-121.41694444444445,36.222500000000004],[-121.60249999999999,36.40222222222222],[-121.77277777777778,36.58861111111111],[-121.77277777777778,36.58861111111111],[-121.83888888888889,36.671388888888885],[-121.83888888888889,36.671388888888885],[-121.86666666666666,36.7],[-121.89861111111112,36.75944444444445],[-121.95194444444445,36.94833333333333],[-121.96666666666667,36.983333333333334],[-121.96666666666667,36.983333333333334],[-121.98222222222222,37.02611111111111],[-122.00861111111111,37.09444444444445],[-122.065,37.14388888888889],[-122.08333333333333,37.166666666666664],[-122.08333333333333,37.166666666666664],[-122.11583333333333,37.19833333333333],[-122.18333333333334,37.266666666666666],[-122.20944444444444,37.30416666666667],[-122.23333333333333,37.31666666666667],[-122.14722222222223,37.38916666666667],[-122.14722222222223,37.38916666666667],[-122.09194444444444,37.416666666666664],[-122.06666666666666,37.483333333333334],[-122.06666666666666,37.483333333333334],[-122.16666666666667,37.53333333333333],[-122.16666666666667,37.53333333333333],[-122.21111111111111,37.55],[-122.3,37.583333333333336]],"type":"LineString"}
}
