{
  "id": 2031628303,
  "type": "Feature",
  "properties": {
    "geom:area": 0,
    "geom:bbox": "-122.353710,37.452270,-121.289680,37.648970",
    "geom:latitude": 37.55249269474661,
    "geom:longitude": -121.83530710242823,
    "src:alt_label": "swim-approach",
    "src:geom": "swim",
    "swim:elevations": [
      4779,
      4758,
      4396,
      4025,
      3662,
      3474,
      3414,
      3353,
      3353,
      3179,
      3048,
      3048,
      3048,
      3029,
      3048,
      2872,
      2739,
      2744,
      2743,
      2743,
      2744,
      2743,
      2740,
      2694,
      2588,
      2442,
      2341,
      2235,
      2139,
      1984,
      1858,
      1830,
      1666,
      1464,
      1293,
      1156,
      965,
      727,
      638,
      576,
      464,
      305,
      209,
      173,
      26
    ],
    "swim:geom": "approach",
    "swim:timestamps": [
      1782339327,
      1782339330,
      1782339365,
      1782339407,
      1782339440,
      1782339469,
      1782339487,
      1782339532,
      1782339542,
      1782339590,
      1782339614,
      1782339626,
      1782339638,
      1782339666,
      1782339694,
      1782339740,
      1782339772,
      1782339778,
      1782339793,
      1782339802,
      1782339829,
      1782339865,
      1782339896,
      1782339927,
      1782339942,
      1782339960,
      1782339978,
      1782339993,
      1782340011,
      1782340037,
      1782340059,
      1782340085,
      1782340124,
      1782340153,
      1782340183,
      1782340217,
      1782340248,
      1782340287,
      1782340302,
      1782340317,
      1782340339,
      1782340377,
      1782340404,
      1782340413,
      1782340450
    ],
    "wof:geomhash": "691fee320cc6a6c3edc42cafdbc7c55e",
    "wof:id": 2031628303,
    "wof:repo": "sfomuseum-data-flights-2026-06"
  },
  "bbox": [
    -122.35371,
    37.45227,
    -121.28968,
    37.64897
  ],
  "geometry": {"coordinates":[[-121.28968,37.58914],[-121.29529,37.58845],[-121.35792,37.58151],[-121.43035,37.57331],[-121.48789,37.56665],[-121.53715,37.561],[-121.56626,37.55769],[-121.63643,37.55101],[-121.64919,37.55411],[-121.70791,37.58388],[-121.73602,37.59861],[-121.75108,37.60657],[-121.76504,37.61389],[-121.79848,37.6315],[-121.8317,37.64897],[-121.89215,37.64835],[-121.91245,37.6162],[-121.91392,37.60946],[-121.91018,37.59277],[-121.90342,37.58396],[-121.877,37.56108],[-121.8286,37.54443],[-121.79678,37.52088],[-121.80441,37.48779],[-121.81856,37.47538],[-121.83812,37.46299],[-121.86268,37.45873],[-121.88331,37.45711],[-121.90796,37.45516],[-121.94202,37.45227],[-121.97171,37.45294],[-122.00448,37.46465],[-122.05068,37.48433],[-122.08453,37.49865],[-122.11839,37.51294],[-122.15542,37.52866],[-122.18601,37.54147],[-122.22318,37.5572],[-122.23756,37.56321],[-122.25205,37.56938],[-122.27304,37.57823],[-122.30322,37.5909],[-122.32221,37.59885],[-122.3289,37.60168],[-122.35371,37.61216]],"type":"LineString"}
}
