{
  "id": 2031501225,
  "type": "Feature",
  "properties": {
    "geom:area": 0,
    "geom:bbox": "-122.751430,37.313920,-122.163770,38.420580",
    "geom:latitude": 37.740084123189234,
    "geom:longitude": -122.46067467682093,
    "src:alt_label": "swim-approach",
    "src:geom": "swim",
    "swim:elevations": [
      7425,
      7235,
      6967,
      6600,
      6286,
      5805,
      5625,
      5149,
      4839,
      4598,
      4271,
      4194,
      3798,
      3590,
      3480,
      3414,
      3353,
      3353,
      3353,
      3247,
      3035,
      2876,
      2703,
      2651,
      2491,
      2438,
      2398,
      2160,
      2134,
      2037,
      1928,
      1850,
      1829,
      1829,
      1736,
      1525,
      1497,
      1380,
      1309,
      1046,
      913,
      914,
      761,
      735,
      555,
      404,
      364,
      272,
      217,
      93,
      395
    ],
    "swim:geom": "approach",
    "swim:timestamps": [
      1781094503,
      1781094521,
      1781094545,
      1781094579,
      1781094608,
      1781094653,
      1781094669,
      1781094716,
      1781094748,
      1781094772,
      1781094806,
      1781094813,
      1781094855,
      1781094877,
      1781094890,
      1781094904,
      1781094948,
      1781094963,
      1781095007,
      1781095041,
      1781095078,
      1781095104,
      1781095133,
      1781095144,
      1781095177,
      1781095213,
      1781095235,
      1781095275,
      1781095315,
      1781095334,
      1781095354,
      1781095377,
      1781095389,
      1781095433,
      1781095461,
      1781095498,
      1781095501,
      1781095526,
      1781095543,
      1781095582,
      1781095617,
      1781095630,
      1781095678,
      1781095682,
      1781095727,
      1781095763,
      1781095770,
      1781095797,
      1781095813,
      1781095845,
      1781095876
    ],
    "wof:geomhash": "2ad57082d754c860ac8ad69ac380118c",
    "wof:id": 2031501225,
    "wof:repo": "sfomuseum-data-flights-2026-06"
  },
  "bbox": [
    -122.75143,
    37.31392,
    -122.16377,
    38.42058
  ],
  "geometry": {"coordinates":[[-122.6349,38.42058],[-122.65534,38.39044],[-122.68155,38.35179],[-122.71859,38.29715],[-122.74901,38.25151],[-122.75143,38.17032],[-122.74315,38.14098],[-122.71877,38.05594],[-122.70245,38.00005],[-122.69005,37.95724],[-122.66834,37.90051],[-122.66106,37.8903],[-122.60327,37.83338],[-122.57313,37.80487],[-122.55551,37.7882],[-122.53651,37.77039],[-122.48138,37.71828],[-122.46382,37.70186],[-122.41768,37.65844],[-122.38396,37.62646],[-122.3496,37.58904],[-122.33366,37.56014],[-122.31823,37.52604],[-122.31115,37.5142],[-122.28935,37.47863],[-122.26997,37.43842],[-122.28193,37.41493],[-122.33243,37.39037],[-122.36647,37.35589],[-122.36125,37.33294],[-122.34139,37.317],[-122.31099,37.31392],[-122.29681,37.3198],[-122.25636,37.35088],[-122.23038,37.36937],[-122.19671,37.39572],[-122.1945,37.399],[-122.18162,37.42111],[-122.176,37.43682],[-122.16377,37.47297],[-122.16729,37.50528],[-122.16936,37.51602],[-122.19941,37.54517],[-122.20355,37.54681],[-122.24744,37.56507],[-122.27954,37.57856],[-122.28559,37.58103],[-122.30572,37.58968],[-122.3178,37.59487],[-122.3422,37.60493],[-122.36497,37.61478]],"type":"LineString"}
}
