{
  "id": 2031459833,
  "type": "Feature",
  "properties": {
    "geom:area": 0,
    "geom:bbox": "-122.380000,37.620000,-93.110000,46.500000",
    "geom:latitude": 43.50681905376608,
    "geom:longitude": -107.97818888147974,
    "src:alt_label": "swim-route",
    "src:geom": "swim",
    "swim:geom": "route",
    "wof:geomhash": "9e60fb2804a98aac3a301e0d763c0dd2",
    "wof:id": 2031459833,
    "wof:repo": "sfomuseum-data-flights-2026-06"
  },
  "bbox": [
    -122.38,
    37.62,
    -93.11,
    46.5
  ],
  "geometry": {"coordinates":[[-122.38,37.62],[-122.28,37.68],[-122.27,37.69],[-122.27,37.69],[-122.21,37.72],[-122.21,37.73],[-122.2,37.73],[-122.18,37.75],[-122.14,37.79],[-122.13,37.81],[-122.07,37.88],[-122.03,37.92],[-121.9,38.06],[-121.9,38.06],[-121.85,38.12],[-121.81,38.17],[-121.73,38.25],[-121.71,38.27],[-121.64,38.35],[-121.55,38.44],[-121.55,38.45],[-121.49,38.48],[-121.47,38.49],[-121.31,38.59],[-121.23,38.63],[-121.16,38.68],[-121.08,38.72],[-120.9,38.83],[-120.33,39.15],[-120.08,39.3],[-120.03,39.32],[-119.66,39.53],[-118.58,40.13],[-118.23,40.38],[-117.82,40.67],[-117.75,40.72],[-117.24,40.94],[-116.98,41.05],[-115.54,41.66],[-114.6,42],[-113.6,42.38],[-113.58,42.41],[-113.1,42.56],[-112.57,42.75],[-112.3,42.85],[-112.03,42.94],[-110.96,43.31],[-108.92,43.97],[-108.4,44.13],[-107.84,44.3],[-106.7,44.63],[-106.13,44.79],[-105.91,44.85],[-105.47,44.97],[-104.81,45.15],[-103.17,45.57],[-101.99,45.85],[-101.69,45.91],[-101.38,45.96],[-100.77,46.07],[-100.49,46.11],[-99.07,46.34],[-98.91,46.37],[-98,46.5],[-97.95,46.49],[-97.75,46.45],[-97.14,46.33],[-96.58,46.22],[-95.18,45.93],[-94.89,45.87],[-94.82,45.86],[-94.59,45.81],[-94.57,45.8],[-94.46,45.78],[-94.02,45.68],[-93.79,45.63],[-93.61,45.58],[-93.57,45.51],[-93.55,45.48],[-93.5,45.38],[-93.48,45.35],[-93.46,45.32],[-93.37,45.15],[-93.36,45.13],[-93.31,45.05],[-93.21,45.01],[-93.11,44.96],[-93.19,44.9],[-93.22,44.88]],"type":"LineString"}
}
