{
  "id": 2031555673,
  "type": "Feature",
  "properties": {
    "geom:area": 0,
    "geom:bbox": "-122.333333,26.025278,-80.535278,38.333611",
    "geom:latitude": 34.77470647512764,
    "geom:longitude": -100.37724102851514,
    "src:alt_label": "swim-path",
    "src:geom": "swim",
    "swim:altitudes": [
      "102",
      "102",
      "114",
      "126",
      "175",
      "218",
      "218",
      "218",
      "266",
      "266",
      "274",
      "274",
      "293",
      "299",
      "299",
      "308",
      "308",
      "308",
      "316",
      "325",
      "335",
      "335",
      "340C",
      "340C",
      "340C",
      "340C",
      "340C",
      "340C",
      "340C",
      "340C",
      "340C",
      "340C",
      "340C",
      "340C",
      "340C",
      "340C",
      "340C",
      "340C",
      "340C",
      "340C",
      "340C",
      "340C",
      "340C",
      "340C",
      "340C",
      "340C",
      "340C",
      "340C",
      "340C",
      "340C",
      "340C",
      "340C",
      "340C",
      "340C",
      "340C",
      "340C",
      "340C",
      "340C",
      "340C",
      "340C",
      "340C",
      "340C",
      "340C",
      "340C",
      "340C",
      "340C",
      "340C",
      "340C",
      "340C",
      "340C",
      "340C",
      "340C",
      "340C",
      "340C",
      "340C",
      "340C",
      "340C",
      "340C",
      "340C",
      "340C",
      "340C",
      "340C",
      "340C",
      "340C",
      "340C",
      "340C",
      "340C",
      "340C",
      "340C",
      "340C",
      "340C",
      "340C",
      "340C",
      "340C",
      "340C",
      "340C",
      "340C",
      "340C",
      "340C",
      "340",
      "349",
      "349",
      "360C",
      "360C",
      "360C",
      "360C",
      "360C",
      "360C",
      "360C",
      "360C",
      "360C",
      "360C",
      "360C",
      "360C",
      "360C",
      "360C",
      "360C",
      "360C",
      "360C",
      "360C",
      "360C",
      "360C",
      "360C",
      "360C",
      "360C",
      "360C",
      "360C",
      "360C",
      "360C",
      "360C",
      "360C",
      "360C",
      "360C",
      "360C",
      "360C",
      "360C",
      "360C",
      "360C",
      "360C",
      "360C",
      "360C",
      "360C",
      "360C",
      "360C",
      "360C",
      "360C",
      "360C",
      "360C",
      "360C",
      "360C",
      "360C",
      "360C",
      "360C",
      "360C",
      "360C",
      "360C",
      "360C",
      "360C",
      "360C",
      "360C",
      "360C",
      "360C",
      "360C",
      "360C",
      "360C",
      "360C",
      "360C",
      "360C",
      "360C",
      "360C",
      "360C",
      "360C",
      "360C",
      "360C",
      "360C",
      "360C",
      "360C",
      "360C",
      "360C",
      "360C",
      "360C",
      "360C",
      "360C",
      "360C",
      "360C",
      "360C",
      "360C",
      "360C",
      "360C",
      "360C",
      "360C",
      "360C",
      "360C",
      "360C",
      "360C",
      "360C",
      "360C",
      "360C",
      "360C",
      "360C",
      "360C",
      "360C",
      "360C",
      "360C",
      "360C",
      "360C",
      "360C",
      "360C",
      "360C",
      "360C",
      "360C",
      "360C",
      "360C",
      "360C",
      "360C",
      "360C",
      "360C",
      "360C",
      "360C",
      "360C",
      "360C",
      "360C",
      "360C",
      "360C",
      "360C",
      "360C",
      "360C",
      "360C",
      "360C",
      "360C",
      "360C",
      "360C",
      "360C",
      "360C",
      "360C",
      "360C",
      "360C",
      "360C",
      "360C",
      "360C",
      "360C",
      "360C",
      "360C",
      "360C",
      "360C",
      "360C",
      "360C",
      "360C",
      "360C",
      "360C",
      "360C",
      "360C",
      "360C",
      "360C",
      "360C",
      "360C",
      "360C",
      "360C",
      "360C",
      "360C",
      "360C",
      "360C",
      "360C",
      "360C",
      "360C",
      "360C",
      "360C",
      "360C",
      "360C",
      "360C",
      "360C",
      "360C",
      "360C",
      "360C",
      "360C",
      "360C",
      "360C",
      "360C",
      "360C",
      "360C",
      "360C",
      "360C",
      "360C",
      "360C",
      "360C",
      "360C",
      "360C",
      "360C",
      "360C",
      "360C",
      "360C",
      "360C",
      "360C",
      "360C",
      "360C",
      "360C",
      "360C",
      "360C",
      "360C",
      "360C",
      "360C",
      "360C",
      "360C",
      "360C",
      "360C",
      "360C",
      "360C",
      "360C",
      "360C",
      "360C",
      "360C",
      "360C",
      "360C",
      "360C",
      "360C",
      "360C",
      "360C",
      "360C",
      "360C",
      "360C",
      "360C",
      "360C",
      "360C",
      "360C",
      "360C",
      "360C",
      "360C",
      "360C",
      "360C",
      "360C",
      "360C",
      "360C",
      "360C",
      "360C",
      "360C",
      "360C",
      "360C",
      "360C",
      "360C",
      "360C",
      "360C",
      "360C",
      "360C",
      "360C",
      "360C",
      "360C",
      "360C",
      "360C",
      "360C",
      "360C",
      "360C",
      "360C",
      "360C",
      "360C",
      "360C",
      "360C",
      "360C",
      "360C",
      "360C",
      "360C",
      "360C",
      "360C",
      "360C",
      "360C",
      "360C",
      "360C",
      "360C",
      "360C",
      "360C",
      "360C",
      "360C",
      "360C",
      "360C",
      "360C",
      "360C",
      "360C",
      "360C",
      "360C",
      "360C",
      "360",
      "357",
      "357",
      "357",
      "353",
      "340C",
      "340C",
      "340C",
      "340C",
      "340C",
      "340C",
      "340C",
      "340C",
      "340C",
      "340C",
      "340C",
      "340",
      "340",
      "299",
      "299",
      "279",
      "257",
      "257",
      "234",
      "180",
      "180",
      "180",
      "160",
      "127",
      "127",
      "108",
      "108",
      "100",
      "085",
      "076",
      "076",
      "057",
      "057",
      "044",
      "044",
      "032",
      "032",
      "022",
      "022",
      "013",
      "004",
      "004"
    ],
    "swim:geom": "path",
    "swim:speeds": [
      292,
      292,
      340,
      383,
      371,
      394,
      394,
      394,
      440,
      440,
      446,
      446,
      467,
      474,
      474,
      479,
      479,
      479,
      479,
      481,
      482,
      482,
      480,
      474,
      463,
      463,
      455,
      455,
      457,
      454,
      456,
      456,
      455,
      454,
      454,
      453,
      453,
      453,
      445,
      445,
      444,
      444,
      442,
      442,
      442,
      441,
      441,
      439,
      434,
      432,
      432,
      431,
      431,
      431,
      431,
      431,
      431,
      427,
      427,
      426,
      426,
      426,
      427,
      425,
      426,
      426,
      424,
      424,
      424,
      424,
      425,
      425,
      425,
      425,
      425,
      425,
      425,
      425,
      423,
      423,
      418,
      411,
      408,
      408,
      408,
      408,
      406,
      406,
      404,
      404,
      400,
      400,
      399,
      399,
      399,
      399,
      398,
      398,
      398,
      398,
      395,
      395,
      388,
      396,
      396,
      400,
      400,
      400,
      401,
      401,
      401,
      401,
      399,
      396,
      395,
      392,
      389,
      389,
      388,
      388,
      385,
      385,
      385,
      385,
      385,
      386,
      386,
      386,
      386,
      386,
      383,
      381,
      381,
      381,
      381,
      381,
      381,
      380,
      380,
      381,
      381,
      381,
      382,
      382,
      382,
      383,
      383,
      384,
      383,
      383,
      383,
      383,
      383,
      382,
      382,
      381,
      382,
      382,
      382,
      385,
      385,
      385,
      385,
      385,
      385,
      384,
      381,
      378,
      378,
      376,
      374,
      369,
      372,
      372,
      370,
      369,
      367,
      367,
      367,
      366,
      366,
      366,
      366,
      366,
      366,
      368,
      368,
      368,
      369,
      369,
      369,
      369,
      370,
      371,
      371,
      374,
      374,
      376,
      376,
      378,
      380,
      381,
      383,
      383,
      383,
      386,
      386,
      385,
      384,
      384,
      384,
      383,
      383,
      383,
      399,
      399,
      399,
      401,
      403,
      403,
      403,
      403,
      407,
      412,
      412,
      412,
      414,
      415,
      415,
      416,
      416,
      419,
      419,
      419,
      423,
      423,
      423,
      429,
      433,
      436,
      436,
      436,
      439,
      439,
      442,
      442,
      444,
      444,
      444,
      447,
      448,
      448,
      448,
      448,
      448,
      447,
      447,
      448,
      447,
      447,
      447,
      447,
      449,
      449,
      450,
      450,
      452,
      452,
      452,
      453,
      453,
      455,
      455,
      456,
      454,
      454,
      455,
      453,
      453,
      454,
      454,
      455,
      455,
      455,
      458,
      460,
      461,
      461,
      466,
      463,
      463,
      463,
      466,
      466,
      465,
      465,
      465,
      464,
      464,
      463,
      463,
      465,
      465,
      465,
      465,
      466,
      466,
      466,
      470,
      470,
      472,
      474,
      474,
      475,
      475,
      476,
      476,
      476,
      476,
      472,
      476,
      476,
      477,
      476,
      473,
      473,
      477,
      477,
      477,
      475,
      475,
      475,
      473,
      472,
      472,
      472,
      472,
      472,
      475,
      475,
      475,
      478,
      478,
      478,
      478,
      478,
      481,
      481,
      481,
      482,
      482,
      482,
      483,
      483,
      483,
      483,
      483,
      480,
      485,
      486,
      485,
      485,
      485,
      487,
      487,
      490,
      490,
      492,
      492,
      493,
      493,
      483,
      483,
      483,
      470,
      469,
      469,
      468,
      468,
      466,
      466,
      466,
      466,
      466,
      465,
      465,
      465,
      464,
      464,
      464,
      464,
      469,
      469,
      469,
      470,
      471,
      471,
      473,
      473,
      467,
      454,
      454,
      420,
      384,
      384,
      384,
      377,
      320,
      320,
      308,
      313,
      305,
      307,
      283,
      283,
      241,
      241,
      236,
      236,
      219,
      219,
      187,
      187,
      166,
      146,
      146
    ],
    "swim:timestamps": [
      1781612099,
      1781612099,
      1781612159,
      1781612220,
      1781612340,
      1781612519,
      1781612519,
      1781612519,
      1781612880,
      1781612880,
      1781612940,
      1781612940,
      1781613120,
      1781613181,
      1781613181,
      1781613240,
      1781613240,
      1781613240,
      1781613301,
      1781613361,
      1781613422,
      1781613422,
      1781613482,
      1781613782,
      1781614022,
      1781614022,
      1781614183,
      1781614183,
      1781614262,
      1781614303,
      1781614322,
      1781614322,
      1781614382,
      1781614423,
      1781614454,
      1781614483,
      1781614483,
      1781614544,
      1781614634,
      1781614634,
      1781614695,
      1781614695,
      1781614856,
      1781614916,
      1781614916,
      1781614995,
      1781614995,
      1781615055,
      1781615096,
      1781615175,
      1781615175,
      1781615235,
      1781615337,
      1781615337,
      1781615355,
      1781615397,
      1781615585,
      1781615596,
      1781615645,
      1781615656,
      1781615697,
      1781615697,
      1781615705,
      1781615716,
      1781615757,
      1781615757,
      1781615836,
      1781615885,
      1781615885,
      1781615896,
      1781615945,
      1781615945,
      1781616058,
      1781616088,
      1781616088,
      1781616088,
      1781616118,
      1781616125,
      1781616209,
      1781616245,
      1781616269,
      1781616306,
      1781616358,
      1781616389,
      1781616389,
      1781616389,
      1781616418,
      1781616449,
      1781616478,
      1781616486,
      1781616606,
      1781616606,
      1781616659,
      1781616786,
      1781616786,
      1781616839,
      1781616966,
      1781616966,
      1781616966,
      1781617027,
      1781617087,
      1781617087,
      1781617147,
      1781617327,
      1781617327,
      1781617447,
      1781617447,
      1781617447,
      1781617567,
      1781617567,
      1781617687,
      1781617687,
      1781617868,
      1781617894,
      1781617954,
      1781618014,
      1781618074,
      1781618074,
      1781618108,
      1781618108,
      1781618315,
      1781618315,
      1781618375,
      1781618375,
      1781618375,
      1781618435,
      1781618555,
      1781618589,
      1781618615,
      1781618615,
      1781618856,
      1781618877,
      1781618877,
      1781618937,
      1781618997,
      1781618997,
      1781618997,
      1781619177,
      1781619238,
      1781619264,
      1781619298,
      1781619298,
      1781619324,
      1781619358,
      1781619358,
      1781619384,
      1781619418,
      1781619444,
      1781619478,
      1781619538,
      1781619538,
      1781619565,
      1781619565,
      1781619625,
      1781619625,
      1781619685,
      1781619778,
      1781619805,
      1781619838,
      1781619925,
      1781619925,
      1781619925,
      1781620019,
      1781620019,
      1781620019,
      1781620079,
      1781620165,
      1781620259,
      1781620259,
      1781620286,
      1781620319,
      1781620328,
      1781620346,
      1781620346,
      1781620406,
      1781620466,
      1781620509,
      1781620526,
      1781620526,
      1781620569,
      1781620569,
      1781620586,
      1781620629,
      1781620646,
      1781620646,
      1781620766,
      1781620766,
      1781620826,
      1781620886,
      1781620886,
      1781620929,
      1781620929,
      1781620947,
      1781621049,
      1781621049,
      1781621109,
      1781621109,
      1781621169,
      1781621169,
      1781621230,
      1781621247,
      1781621290,
      1781621307,
      1781621307,
      1781621350,
      1781621487,
      1781621487,
      1781621530,
      1781621590,
      1781621590,
      1781621650,
      1781621668,
      1781621668,
      1781621668,
      1781621848,
      1781621848,
      1781621891,
      1781621908,
      1781621951,
      1781621968,
      1781621968,
      1781621968,
      1781622028,
      1781622184,
      1781622184,
      1781622184,
      1781622241,
      1781622365,
      1781622365,
      1781622600,
      1781622600,
      1781622782,
      1781622782,
      1781622782,
      1781622900,
      1781622900,
      1781622900,
      1781622960,
      1781623026,
      1781623082,
      1781623082,
      1781623082,
      1781623200,
      1781623200,
      1781623323,
      1781623323,
      1781623443,
      1781623443,
      1781623443,
      1781623563,
      1781623623,
      1781623623,
      1781623623,
      1781623683,
      1781623743,
      1781623864,
      1781623864,
      1781623918,
      1781623984,
      1781624044,
      1781624044,
      1781624044,
      1781624164,
      1781624164,
      1781624218,
      1781624218,
      1781624284,
      1781624284,
      1781624284,
      1781624398,
      1781624398,
      1781624464,
      1781624464,
      1781624585,
      1781624639,
      1781624639,
      1781624645,
      1781624699,
      1781624699,
      1781624885,
      1781624945,
      1781625005,
      1781625005,
      1781625005,
      1781625059,
      1781625119,
      1781625179,
      1781625179,
      1781625233,
      1781625300,
      1781625360,
      1781625360,
      1781625413,
      1781625413,
      1781625540,
      1781625660,
      1781625660,
      1781625720,
      1781625720,
      1781625780,
      1781625780,
      1781625960,
      1781626021,
      1781626021,
      1781626021,
      1781626074,
      1781626074,
      1781626081,
      1781626261,
      1781626261,
      1781626321,
      1781626381,
      1781626381,
      1781626453,
      1781626453,
      1781626495,
      1781626555,
      1781626573,
      1781626573,
      1781626604,
      1781626633,
      1781626633,
      1781626675,
      1781626693,
      1781626724,
      1781626724,
      1781626735,
      1781626814,
      1781626814,
      1781626975,
      1781626975,
      1781626975,
      1781627114,
      1781627156,
      1781627174,
      1781627174,
      1781627234,
      1781627234,
      1781627396,
      1781627396,
      1781627396,
      1781627696,
      1781627696,
      1781627696,
      1781627756,
      1781627756,
      1781627937,
      1781627997,
      1781627997,
      1781628057,
      1781628057,
      1781628057,
      1781628117,
      1781628117,
      1781628297,
      1781628297,
      1781628297,
      1781628374,
      1781628435,
      1781628477,
      1781628495,
      1781628495,
      1781628495,
      1781628537,
      1781628537,
      1781628658,
      1781628658,
      1781628795,
      1781628795,
      1781628898,
      1781628975,
      1781629018,
      1781629018,
      1781629018,
      1781629095,
      1781629138,
      1781629138,
      1781629198,
      1781629198,
      1781629276,
      1781629318,
      1781629318,
      1781629318,
      1781629336,
      1781629439,
      1781629456,
      1781629456,
      1781629499,
      1781629499,
      1781629516,
      1781629516,
      1781629816,
      1781629877,
      1781629877,
      1781629997,
      1781630057,
      1781630057,
      1781630177,
      1781630177,
      1781630237,
      1781630284,
      1781630284,
      1781630350,
      1781630538,
      1781630538,
      1781630538,
      1781630598,
      1781630718,
      1781630718,
      1781630770,
      1781630778,
      1781630830,
      1781630898,
      1781630958,
      1781630958,
      1781631078,
      1781631078,
      1781631138,
      1781631138,
      1781631198,
      1781631198,
      1781631259,
      1781631259,
      1781631319,
      1781631376,
      1781631376
    ],
    "wof:geomhash": "a5c57b6b9d527169d86ceb137f042281",
    "wof:id": 2031555673,
    "wof:repo": "sfomuseum-data-flights-2026-06"
  },
  "bbox": [
    -122.33333333333333,
    26.025277777777777,
    -80.53527777777778,
    38.33361111111111
  ],
  "geometry": {"coordinates":[[-80.53527777777778,26.025277777777777],[-80.53527777777778,26.025277777777777],[-80.5775,26.107222222222223],[-80.62416666666665,26.202777777777776],[-80.75611111111111,26.379444444444445],[-80.96083333333334,26.641944444444444],[-80.96083333333334,26.641944444444444],[-80.96083333333334,26.641944444444444],[-81.4175,27.21972222222222],[-81.4175,27.21972222222222],[-81.49722222222222,27.320555555555554],[-81.49722222222222,27.320555555555554],[-81.73166666666667,27.613611111111112],[-81.83555555555554,27.743333333333336],[-81.83555555555554,27.743333333333336],[-81.91888888888889,27.84722222222222],[-81.91888888888889,27.84722222222222],[-81.91888888888889,27.84722222222222],[-82.00555555555556,27.954722222222223],[-82.11055555555555,28.083888888888886],[-82.19777777777779,28.193333333333335],[-82.19777777777779,28.193333333333335],[-82.28361111111111,28.300833333333333],[-82.71833333333333,28.840833333333332],[-83.05333333333333,29.252222222222223],[-83.05333333333333,29.252222222222223],[-83.2786111111111,29.536944444444448],[-83.2786111111111,29.536944444444448],[-83.39555555555556,29.668055555555558],[-83.44666666666667,29.742222222222225],[-83.48138888888889,29.771666666666665],[-83.48138888888889,29.771666666666665],[-83.56722222222221,29.875],[-83.62249999999999,29.946666666666665],[-83.67,29.998611111111114],[-83.7075,30.048611111111114],[-83.7075,30.048611111111114],[-83.79583333333333,30.149444444444445],[-83.9675,30.263333333333332],[-83.9675,30.263333333333332],[-84.085,30.333055555555557],[-84.085,30.333055555555557],[-84.4,30.519166666666667],[-84.51944444444445,30.587777777777777],[-84.51944444444445,30.587777777777777],[-84.66361111111112,30.672222222222224],[-84.66361111111112,30.672222222222224],[-84.77833333333334,30.73888888888889],[-84.87388888888889,30.78888888888889],[-85.02333333333333,30.852777777777778],[-85.02333333333333,30.852777777777778],[-85.14722222222223,30.905277777777776],[-85.37416666666665,31.00111111111111],[-85.37416666666665,31.00111111111111],[-85.39527777777778,31.01],[-85.49,31.05],[-85.8825,31.215555555555554],[-85.91694444444445,31.228055555555553],[-86.00638888888889,31.26361111111111],[-86.03999999999999,31.278888888888886],[-86.11611111111111,31.310555555555556],[-86.11611111111111,31.310555555555556],[-86.13027777777778,31.31638888888889],[-86.165,31.330555555555556],[-86.23861111111111,31.360833333333336],[-86.23861111111111,31.360833333333336],[-86.38916666666667,31.422777777777778],[-86.50194444444445,31.46833333333333],[-86.50194444444445,31.46833333333333],[-86.51388888888889,31.473611111111108],[-86.62583333333333,31.519166666666667],[-86.62583333333333,31.519166666666667],[-86.86472222222221,31.616111111111113],[-86.91305555555556,31.635555555555555],[-86.91305555555556,31.635555555555555],[-86.91305555555556,31.635555555555555],[-86.99111111111111,31.666944444444447],[-87.00055555555555,31.670555555555556],[-87.16555555555556,31.737222222222222],[-87.24861111111112,31.77],[-87.28888888888889,31.785555555555558],[-87.36972222222222,31.8175],[-87.48777777777778,31.863333333333333],[-87.53527777777778,31.881944444444446],[-87.53527777777778,31.881944444444446],[-87.53527777777778,31.881944444444446],[-87.60777777777777,31.910277777777775],[-87.65472222222223,31.928333333333335],[-87.72583333333334,31.95611111111111],[-87.72777777777777,31.956944444444442],[-87.96361111111112,32.047777777777775],[-87.96361111111112,32.047777777777775],[-88.08166666666666,32.09305555555556],[-88.32,32.18416666666666],[-88.32,32.18416666666666],[-88.43805555555556,32.22916666666667],[-88.69277777777778,32.32527777777778],[-88.69277777777778,32.32527777777778],[-88.69277777777778,32.32527777777778],[-88.81277777777777,32.370555555555555],[-88.93222222222222,32.415277777777774],[-88.93222222222222,32.415277777777774],[-89.04722222222222,32.45805555555556],[-89.4038888888889,32.59027777777778],[-89.4038888888889,32.59027777777778],[-89.64944444444446,32.680277777777775],[-89.64944444444446,32.680277777777775],[-89.64944444444446,32.680277777777775],[-89.89500000000001,32.769999999999996],[-89.89500000000001,32.769999999999996],[-90.11777777777777,32.850833333333334],[-90.11777777777777,32.850833333333334],[-90.48222222222222,32.98111111111111],[-90.545,33.00361111111111],[-90.66444444444446,33.04611111111111],[-90.78166666666667,33.087500000000006],[-90.89944444444446,33.12888888888889],[-90.89944444444446,33.12888888888889],[-90.95583333333333,33.14861111111111],[-90.95583333333333,33.14861111111111],[-91.36916666666666,33.29277777777778],[-91.36916666666666,33.29277777777778],[-91.4888888888889,33.33416666666667],[-91.4888888888889,33.33416666666667],[-91.4888888888889,33.33416666666667],[-91.6086111111111,33.37555555555556],[-91.84333333333333,33.45583333333334],[-91.91555555555556,33.480555555555554],[-91.96277777777777,33.49666666666667],[-91.96277777777777,33.49666666666667],[-92.43222222222222,33.655],[-92.48027777777779,33.67111111111111],[-92.48027777777779,33.67111111111111],[-92.59888888888888,33.71055555555556],[-92.71583333333334,33.74944444444444],[-92.71583333333334,33.74944444444444],[-92.71583333333334,33.74944444444444],[-93.06833333333333,33.865833333333335],[-93.1863888888889,33.904444444444444],[-93.235,33.92055555555555],[-93.30472222222222,33.94333333333333],[-93.30472222222222,33.94333333333333],[-93.35222222222221,33.95888888888889],[-93.4238888888889,33.981944444444444],[-93.4238888888889,33.981944444444444],[-93.47222222222223,33.99777777777778],[-93.54222222222222,34.02027777777778],[-93.59166666666667,34.03611111111111],[-93.66000000000001,34.05833333333333],[-93.78138888888888,34.09722222222222],[-93.78138888888888,34.09722222222222],[-93.83027777777778,34.11277777777778],[-93.83027777777778,34.11277777777778],[-93.94722222222222,34.150277777777774],[-93.94722222222222,34.150277777777774],[-94.06638888888888,34.18805555555555],[-94.25305555555556,34.24722222222222],[-94.30499999999999,34.26361111111111],[-94.37416666666665,34.285555555555554],[-94.54638888888888,34.339444444444446],[-94.54638888888888,34.339444444444446],[-94.54638888888888,34.339444444444446],[-94.74,34.39972222222222],[-94.74,34.39972222222222],[-94.74,34.39972222222222],[-94.85722222222222,34.43583333333333],[-95.05,34.495555555555555],[-95.21388888888889,34.545833333333334],[-95.21388888888889,34.545833333333334],[-95.28555555555555,34.5675],[-95.34527777777777,34.58583333333333],[-95.34694444444445,34.58694444444445],[-95.4025,34.60305555555556],[-95.4025,34.60305555555556],[-95.51027777777777,34.63583333333333],[-95.63,34.67194444444444],[-95.69972222222222,34.693888888888885],[-95.74555555555555,34.706944444444446],[-95.74555555555555,34.706944444444446],[-95.81555555555555,34.728611111111114],[-95.81555555555555,34.728611111111114],[-95.86194444444443,34.74166666666667],[-95.92972222222222,34.761944444444445],[-95.97777777777777,34.77611111111111],[-95.97777777777777,34.77611111111111],[-96.21277777777777,34.84583333333334],[-96.21277777777777,34.84583333333334],[-96.33027777777778,34.88055555555555],[-96.44694444444445,34.91444444444444],[-96.44694444444445,34.91444444444444],[-96.51694444444445,34.934999999999995],[-96.51694444444445,34.934999999999995],[-96.56638888888888,34.94944444444444],[-96.75416666666666,35.00388888888889],[-96.75416666666666,35.00388888888889],[-96.87583333333333,35.03916666666667],[-96.87583333333333,35.03916666666667],[-96.99833333333333,35.074444444444445],[-96.99833333333333,35.074444444444445],[-97.12083333333332,35.10944444444445],[-97.17027777777778,35.12361111111111],[-97.24361111111111,35.14472222222222],[-97.29555555555555,35.159444444444446],[-97.29555555555555,35.159444444444446],[-97.37027777777777,35.18055555555555],[-97.67277777777778,35.26638888888889],[-97.67277777777778,35.26638888888889],[-97.74583333333334,35.286944444444444],[-97.86861111111111,35.321111111111115],[-97.86861111111111,35.321111111111115],[-97.99055555555556,35.355000000000004],[-98.01888888888888,35.36277777777778],[-98.01888888888888,35.36277777777778],[-98.01888888888888,35.36277777777778],[-98.40194444444445,35.468611111111116],[-98.40194444444445,35.468611111111116],[-98.505,35.496944444444445],[-98.53138888888888,35.50416666666667],[-98.63722222222223,35.533055555555556],[-98.66527777777779,35.54055555555556],[-98.66527777777779,35.54055555555556],[-98.66527777777779,35.54055555555556],[-98.79777777777778,35.57611111111112],[-99.15,35.670833333333334],[-99.15,35.670833333333334],[-99.15,35.670833333333334],[-99.28861111111111,35.70777777777778],[-99.55972222222222,35.77916666666667],[-99.55972222222222,35.77916666666667],[-100.10249999999999,35.92027777777778],[-100.10249999999999,35.92027777777778],[-100.49583333333334,36.00805555555556],[-100.49583333333334,36.00805555555556],[-100.49583333333334,36.00805555555556],[-100.80055555555555,36.075],[-100.80055555555555,36.075],[-100.80055555555555,36.075],[-100.94222222222223,36.105555555555554],[-101.08999999999999,36.1375],[-101.21277777777777,36.16361111111111],[-101.21277777777777,36.16361111111111],[-101.21277777777777,36.16361111111111],[-101.52583333333334,36.22972222222222],[-101.52583333333334,36.22972222222222],[-101.82194444444444,36.29138888888889],[-101.82194444444444,36.29138888888889],[-102.11722222222221,36.3525],[-102.11722222222221,36.3525],[-102.11722222222221,36.3525],[-102.41722222222222,36.41305555555555],[-102.56666666666666,36.44333333333333],[-102.56666666666666,36.44333333333333],[-102.56666666666666,36.44333333333333],[-102.71611111111112,36.473055555555554],[-102.86527777777778,36.5025],[-103.14777777777779,36.55777777777777],[-103.14777777777779,36.55777777777777],[-103.2975,36.586666666666666],[-103.44805555555556,36.615833333333335],[-103.59694444444445,36.644444444444446],[-103.59694444444445,36.644444444444446],[-103.59694444444445,36.644444444444446],[-103.8736111111111,36.696666666666665],[-103.8736111111111,36.696666666666665],[-104.05416666666666,36.730555555555554],[-104.05416666666666,36.730555555555554],[-104.21111111111111,36.75944444444445],[-104.21111111111111,36.75944444444445],[-104.21111111111111,36.75944444444445],[-104.51805555555555,36.81583333333333],[-104.51805555555555,36.81583333333333],[-104.69166666666668,36.84722222222222],[-104.69166666666668,36.84722222222222],[-104.98,36.903055555555554],[-105.13111111111111,36.95333333333333],[-105.13111111111111,36.95333333333333],[-105.12388888888889,36.950833333333335],[-105.27666666666667,36.98888888888889],[-105.27666666666667,36.98888888888889],[-105.76222222222222,37.05277777777778],[-105.90694444444445,37.07166666666667],[-106.07055555555556,37.09305555555556],[-106.07055555555556,37.09305555555556],[-106.07055555555556,37.09305555555556],[-106.21055555555556,37.11083333333333],[-106.36944444444444,37.13111111111111],[-106.52694444444444,37.15083333333333],[-106.52694444444444,37.15083333333333],[-106.68055555555556,37.169999999999995],[-106.84527777777777,37.19],[-107.00472222222223,37.20944444444445],[-107.00472222222223,37.20944444444445],[-107.16000000000001,37.22805555555556],[-107.16000000000001,37.22805555555556],[-107.48416666666667,37.26611111111111],[-107.80333333333333,37.30277777777778],[-107.80333333333333,37.30277777777778],[-107.96361111111112,37.32083333333334],[-107.96361111111112,37.32083333333334],[-108.12333333333332,37.33861111111111],[-108.12333333333332,37.33861111111111],[-108.60333333333332,37.39083333333333],[-108.76388888888889,37.407777777777774],[-108.76388888888889,37.407777777777774],[-108.76388888888889,37.407777777777774],[-108.9263888888889,37.42472222222222],[-108.9263888888889,37.42472222222222],[-108.9225,37.42444444444444],[-109.41083333333334,37.473888888888894],[-109.41083333333334,37.473888888888894],[-109.57333333333332,37.49],[-109.73944444444444,37.506388888888885],[-109.73944444444444,37.506388888888885],[-109.93777777777778,37.525],[-109.93777777777778,37.525],[-110.0786111111111,37.538333333333334],[-110.2425,37.55361111111111],[-110.26777777777778,37.55611111111111],[-110.26777777777778,37.55611111111111],[-110.36888888888888,37.56583333333333],[-110.43388888888889,37.571111111111115],[-110.43388888888889,37.571111111111115],[-110.57416666666666,37.58388888888889],[-110.60666666666665,37.586666666666666],[-110.69666666666667,37.59444444444445],[-110.69666666666667,37.59444444444445],[-110.74083333333333,37.598333333333336],[-110.94166666666668,37.615833333333335],[-110.94166666666668,37.615833333333335],[-111.39472222222223,37.69361111111111],[-111.39472222222223,37.69361111111111],[-111.39472222222223,37.69361111111111],[-111.74833333333333,37.761944444444445],[-111.87833333333333,37.78666666666666],[-111.90861111111111,37.7925],[-111.90861111111111,37.7925],[-112.07166666666666,37.82333333333334],[-112.07166666666666,37.82333333333334],[-112.50527777777778,37.90416666666667],[-112.50527777777778,37.90416666666667],[-112.50527777777778,37.90416666666667],[-113.32388888888889,38.051944444444445],[-113.32388888888889,38.051944444444445],[-113.32388888888889,38.051944444444445],[-113.48722222222223,38.08083333333334],[-113.48722222222223,38.08083333333334],[-113.98361111111112,38.16638888888889],[-114.14833333333334,38.19444444444444],[-114.14833333333334,38.19444444444444],[-114.31361111111111,38.222500000000004],[-114.31361111111111,38.222500000000004],[-114.31361111111111,38.222500000000004],[-114.48138888888889,38.250277777777775],[-114.48138888888889,38.250277777777775],[-115.01611111111112,38.32916666666667],[-115.01611111111112,38.32916666666667],[-115.01611111111112,38.32916666666667],[-115.21472222222222,38.330555555555556],[-115.38722222222223,38.33111111111111],[-115.52166666666666,38.33277777777778],[-115.55944444444444,38.33277777777778],[-115.55944444444444,38.33277777777778],[-115.55944444444444,38.33277777777778],[-115.69666666666667,38.333333333333336],[-115.69666666666667,38.333333333333336],[-116.04277777777777,38.33361111111111],[-116.04277777777777,38.33361111111111],[-116.42805555555556,38.316944444444445],[-116.42805555555556,38.316944444444445],[-116.73083333333334,38.26555555555556],[-116.93694444444445,38.230000000000004],[-117.06833333333333,38.206944444444446],[-117.06833333333333,38.206944444444446],[-117.06833333333333,38.206944444444446],[-117.25805555555556,38.17333333333333],[-117.3775,38.151944444444446],[-117.3775,38.151944444444446],[-117.53472222222221,38.12388888888889],[-117.53472222222221,38.12388888888889],[-117.76361111111112,38.0825],[-117.85444444444444,38.06583333333333],[-117.85444444444444,38.06583333333333],[-117.85444444444444,38.06583333333333],[-117.92333333333333,38.05333333333333],[-118.1725,38.0075],[-118.24138888888889,37.99472222222222],[-118.24138888888889,37.99472222222222],[-118.33194444444445,37.97777777777778],[-118.33194444444445,37.97777777777778],[-118.4,37.965],[-118.4,37.965],[-119.18805555555556,37.84722222222222],[-119.35111111111111,37.82805555555556],[-119.35111111111111,37.82805555555556],[-119.67694444444444,37.78916666666667],[-119.84194444444444,37.76916666666666],[-119.84194444444444,37.76916666666666],[-120.17111111111112,37.72833333333333],[-120.17111111111112,37.72833333333333],[-120.33277777777778,37.708333333333336],[-120.46666666666667,37.7],[-120.46666666666667,37.7],[-120.63333333333334,37.666666666666664],[-121.06194444444444,37.61972222222222],[-121.06194444444444,37.61972222222222],[-121.06194444444444,37.61972222222222],[-121.19638888888889,37.60166666666667],[-121.43222222222222,37.57333333333334],[-121.43222222222222,37.57333333333334],[-121.53333333333333,37.56666666666667],[-121.54083333333332,37.56055555555555],[-121.63333333333334,37.55],[-121.7475,37.521388888888886],[-121.84555555555555,37.49805555555556],[-121.84555555555555,37.49805555555556],[-122.0275,37.49944444444444],[-122.0275,37.49944444444444],[-122.10833333333333,37.50861111111111],[-122.10833333333333,37.50861111111111],[-122.17722222222223,37.53777777777778],[-122.17722222222223,37.53777777777778],[-122.23527777777778,37.56222222222222],[-122.23527777777778,37.56222222222222],[-122.28916666666666,37.585],[-122.33333333333333,37.6],[-122.33333333333333,37.6]],"type":"LineString"}
}
