{
  "id": 2031537563,
  "type": "Feature",
  "properties": {
    "geom:area": 0,
    "geom:bbox": "-122.211944,37.495278,-120.948889,38.683333",
    "geom:latitude": 37.84428838859886,
    "geom:longitude": -121.3991444439635,
    "src:alt_label": "swim-path",
    "src:geom": "swim",
    "swim:altitudes": [
      "008",
      "008",
      "023",
      "023",
      "072",
      "072",
      "072",
      "113",
      "113",
      "113",
      "123",
      "123",
      "123",
      "131",
      "131",
      "131",
      "150",
      "150",
      "150",
      "150",
      "149",
      "149",
      "149",
      "149",
      "150",
      "150",
      "150",
      "150",
      "150",
      "149",
      "149",
      "149",
      "149",
      "146",
      "146",
      "146",
      "146",
      "139",
      "139",
      "140",
      "140",
      "140",
      "140",
      "140",
      "140",
      "140",
      "140",
      "126",
      "126",
      "115",
      "115",
      "115",
      "115",
      "112",
      "112",
      "112",
      "070",
      "070",
      "070",
      "070",
      "070",
      "070",
      "070",
      "061",
      "046",
      "046",
      "046",
      "046",
      "026",
      "026",
      "026",
      "026",
      "026"
    ],
    "swim:geom": "path",
    "swim:speeds": [
      156,
      156,
      225,
      225,
      269,
      269,
      269,
      307,
      307,
      307,
      349,
      349,
      349,
      362,
      362,
      362,
      376,
      376,
      376,
      376,
      376,
      376,
      376,
      376,
      380,
      380,
      380,
      380,
      380,
      379,
      379,
      379,
      379,
      304,
      304,
      304,
      304,
      303,
      303,
      299,
      299,
      299,
      299,
      299,
      316,
      322,
      322,
      315,
      315,
      313,
      313,
      313,
      313,
      304,
      304,
      304,
      292,
      292,
      292,
      284,
      284,
      284,
      284,
      282,
      273,
      273,
      273,
      273,
      196,
      196,
      196,
      196,
      196
    ],
    "swim:timestamps": [
      1781442757,
      1781442757,
      1781442811,
      1781442811,
      1781442918,
      1781442918,
      1781442918,
      1781442991,
      1781442991,
      1781442991,
      1781443038,
      1781443038,
      1781443038,
      1781443051,
      1781443051,
      1781443051,
      1781443111,
      1781443111,
      1781443111,
      1781443111,
      1781443158,
      1781443158,
      1781443158,
      1781443158,
      1781443291,
      1781443291,
      1781443291,
      1781443291,
      1781443291,
      1781443338,
      1781443338,
      1781443338,
      1781443338,
      1781443526,
      1781443526,
      1781443526,
      1781443526,
      1781443578,
      1781443578,
      1781443586,
      1781443586,
      1781443586,
      1781443586,
      1781443586,
      1781443639,
      1781443646,
      1781443646,
      1781443766,
      1781443766,
      1781443819,
      1781443819,
      1781443819,
      1781443819,
      1781443826,
      1781443826,
      1781443826,
      1781444119,
      1781444119,
      1781444119,
      1781444126,
      1781444126,
      1781444126,
      1781444126,
      1781444179,
      1781444252,
      1781444252,
      1781444252,
      1781444252,
      1781444371,
      1781444371,
      1781444371,
      1781444371,
      1781444371
    ],
    "wof:geomhash": "0f7f3125ad42ae4e6683d94a6eb224df",
    "wof:id": 2031537563,
    "wof:repo": "sfomuseum-data-flights-2026-06"
  },
  "bbox": [
    -122.21194444444444,
    37.49527777777778,
    -120.94888888888889,
    38.68333333333333
  ],
  "geometry": {"coordinates":[[-121.58333333333333,38.68333333333333],[-121.58333333333333,38.68333333333333],[-121.55,38.63333333333333],[-121.55,38.63333333333333],[-121.43694444444445,38.5625],[-121.43694444444445,38.5625],[-121.43694444444445,38.5625],[-121.35,38.483333333333334],[-121.35,38.483333333333334],[-121.35,38.483333333333334],[-121.32083333333333,38.41083333333333],[-121.32083333333333,38.41083333333333],[-121.32083333333333,38.41083333333333],[-121.31666666666666,38.38333333333333],[-121.31666666666666,38.38333333333333],[-121.31666666666666,38.38333333333333],[-121.26666666666667,38.28333333333333],[-121.26666666666667,38.28333333333333],[-121.26666666666667,38.28333333333333],[-121.26666666666667,38.28333333333333],[-121.22944444444444,38.215833333333336],[-121.22944444444444,38.215833333333336],[-121.22944444444444,38.215833333333336],[-121.22944444444444,38.215833333333336],[-121.13333333333334,38],[-121.13333333333334,38],[-121.13333333333334,38],[-121.13333333333334,38],[-121.13333333333334,38],[-121.09166666666667,37.919999999999995],[-121.09166666666667,37.919999999999995],[-121.09166666666667,37.919999999999995],[-121.09166666666667,37.919999999999995],[-120.96666666666667,37.65],[-120.96666666666667,37.65],[-120.96666666666667,37.65],[-120.96666666666667,37.65],[-120.94888888888889,37.58111111111111],[-120.94888888888889,37.58111111111111],[-120.95,37.56666666666667],[-120.95,37.56666666666667],[-120.95,37.56666666666667],[-120.95,37.56666666666667],[-120.95,37.56666666666667],[-121.02416666666666,37.53],[-121.03333333333333,37.53333333333333],[-121.03333333333333,37.53333333333333],[-121.26666666666667,37.53333333333333],[-121.26666666666667,37.53333333333333],[-121.34416666666667,37.54138888888889],[-121.34416666666667,37.54138888888889],[-121.34416666666667,37.54138888888889],[-121.34416666666667,37.54138888888889],[-121.36666666666666,37.55],[-121.36666666666666,37.55],[-121.36666666666666,37.55],[-121.8536111111111,37.49611111111111],[-121.8536111111111,37.49611111111111],[-121.8536111111111,37.49611111111111],[-121.88333333333334,37.5],[-121.88333333333334,37.5],[-121.88333333333334,37.5],[-121.88333333333334,37.5],[-121.95111111111112,37.49527777777778],[-122.08333333333333,37.5],[-122.08333333333333,37.5],[-122.08333333333333,37.5],[-122.08333333333333,37.5],[-122.21194444444444,37.552499999999995],[-122.21194444444444,37.552499999999995],[-122.21194444444444,37.552499999999995],[-122.21194444444444,37.552499999999995],[-122.21194444444444,37.552499999999995]],"type":"LineString"}
}
