{
  "id": 2031487059,
  "type": "Feature",
  "properties": {
    "geom:area": 0,
    "geom:bbox": "-122.380000,37.620000,-73.600000,42.190000",
    "geom:latitude": 40.28696596808583,
    "geom:longitude": -97.62735561129512,
    "src:alt_label": "swim-route",
    "src:geom": "swim",
    "swim:geom": "route",
    "wof:geomhash": "f8ae696514bbdb5f5557e8db4e5df780",
    "wof:id": 2031487059,
    "wof:repo": "sfomuseum-data-flights-2026-06"
  },
  "bbox": [
    -122.38,
    37.62,
    -73.6,
    42.19
  ],
  "geometry": {"coordinates":[[-122.38,37.62],[-122.27,37.69],[-122.22,37.72],[-122.21,37.72],[-122.16,37.75],[-122.12,37.76],[-122.09,37.78],[-122.02,37.82],[-122.01,37.82],[-122,37.83],[-121.94,37.84],[-121.73,37.88],[-121.7,37.88],[-121.59,37.9],[-121.46,37.93],[-121.41,37.94],[-121.34,37.95],[-121.17,37.98],[-121.16,37.98],[-121.1,37.99],[-120.89,38.02],[-120.7,38.05],[-120.66,38.06],[-120.54,38.08],[-120.12,38.14],[-119.96,38.16],[-119.8,38.19],[-119.65,38.21],[-119.32,38.26],[-119.18,38.27],[-117.29,38.52],[-117.28,38.52],[-113.49,38.83],[-113.12,38.85],[-112.21,38.9],[-111.76,38.93],[-111.39,38.94],[-110.54,38.99],[-109.98,39.08],[-107.25,39.48],[-107.22,39.49],[-105.13,39.76],[-104.3,39.85],[-104.25,39.86],[-103.2,39.97],[-102.16,40.07],[-101.38,40.14],[-100.59,40.2],[-99.05,40.32],[-99.05,40.32],[-96,40.5],[-95.78,40.51],[-93.97,40.6],[-93.52,40.7],[-92.86,40.75],[-92.31,40.87],[-91.37,41.02],[-91.08,41.04],[-90.66,41.13],[-90.55,41.15],[-90.41,41.13],[-90.4,41.17],[-89.92,41.25],[-89.88,41.26],[-89.55,41.36],[-89.19,41.42],[-88.8,41.49],[-87.67,41.64],[-87,41.71],[-86.56,41.76],[-85.59,41.87],[-84.88,41.92],[-82.97,42.04],[-82.18,42.08],[-81.12,42.13],[-79.4,42.18],[-79.12,42.19],[-77.85,41.87],[-77.55,41.79],[-77.49,41.77],[-77.15,41.68],[-76.75,41.57],[-76.6,41.53],[-76.26,41.43],[-76.03,41.37],[-75.93,41.34],[-75.69,41.27],[-75.53,41.22],[-75.52,41.22],[-75.33,41.15],[-75.33,41.15],[-75.09,41.07],[-74.87,41],[-74.84,40.99],[-74.63,40.97],[-74.4,40.94],[-74.18,40.91],[-74.16,40.91],[-74.13,40.91],[-74.12,40.91],[-74.1,40.9],[-74.08,40.88],[-74.06,40.88],[-74.05,40.87],[-74.01,40.85],[-73.99,40.84],[-73.97,40.83],[-73.96,40.83],[-73.95,40.82],[-73.94,40.82],[-73.92,40.81],[-73.91,40.8],[-73.9,40.8],[-73.89,40.79],[-73.88,40.79],[-73.87,40.78],[-73.87,40.78],[-73.86,40.77],[-73.85,40.76],[-73.85,40.75],[-73.84,40.74],[-73.84,40.73],[-73.83,40.71],[-73.81,40.7],[-73.81,40.69],[-73.6,40.4],[-73.6,40.39],[-73.62,40.37],[-73.63,40.35],[-73.65,40.32],[-73.65,40.32],[-73.66,40.34],[-73.66,40.35],[-73.67,40.37],[-73.68,40.39],[-73.69,40.41],[-73.7,40.43],[-73.7,40.45],[-73.71,40.47],[-73.72,40.49],[-73.74,40.54],[-73.75,40.56],[-73.78,40.64]],"type":"LineString"}
}
