{
  "id": 2031470083,
  "type": "Feature",
  "properties": {
    "geom:area": 0,
    "geom:bbox": "-122.530000,37.620000,-77.460000,39.240000",
    "geom:latitude": 38.45172247854505,
    "geom:longitude": -99.85901517131799,
    "src:alt_label": "swim-route",
    "src:geom": "swim",
    "swim:geom": "route",
    "wof:geomhash": "dbb425205cb69a25118bb7705f345c74",
    "wof:id": 2031470083,
    "wof:repo": "sfomuseum-data-flights-2026-06"
  },
  "bbox": [
    -122.53,
    37.62,
    -77.46,
    39.24
  ],
  "geometry": {"coordinates":[[-122.38,37.62],[-122.5,37.67],[-122.51,37.67],[-122.52,37.68],[-122.53,37.75],[-122.53,37.75],[-122.53,37.79],[-122.53,37.8],[-122.48,37.82],[-122.46,37.83],[-122.43,37.84],[-122.34,37.85],[-122.13,37.87],[-122.01,37.89],[-121.9,37.9],[-121.86,37.91],[-121.77,37.92],[-121.69,37.93],[-121.68,37.93],[-121.42,37.96],[-121.34,37.96],[-121.25,37.97],[-121.21,37.98],[-121.11,37.99],[-121.1,37.99],[-120.91,38.02],[-120.83,38.03],[-120.75,38.05],[-120.66,38.06],[-120.47,38.09],[-120.3,38.11],[-119.77,38.19],[-119.36,38.25],[-119.18,38.27],[-117.29,38.52],[-117.28,38.52],[-113.86,38.4],[-111.87,38.42],[-110.7,38.42],[-109.98,38.43],[-108.61,38.45],[-108.44,38.45],[-108.24,38.45],[-107.04,38.45],[-105.99,38.4],[-105.76,38.38],[-105.38,38.36],[-105.09,38.34],[-104.43,38.29],[-103.57,38.25],[-102.69,38.2],[-101.83,38.34],[-101.46,38.39],[-101.17,38.44],[-100.67,38.51],[-99.13,38.73],[-98.65,38.76],[-98.2,38.74],[-96.38,38.75],[-96.15,38.75],[-94.93,38.74],[-94.71,38.75],[-91.32,38.85],[-90.48,38.86],[-90.01,38.71],[-89.16,38.42],[-88.15,38.34],[-86.51,38.2],[-85.58,38.1],[-85.06,38.14],[-84.24,38.2],[-83.03,38.28],[-81.77,38.35],[-80.77,38.32],[-80.66,38.31],[-80.46,38.3],[-80.4,38.32],[-80,38.4],[-79.81,38.43],[-79.63,38.47],[-79.51,38.5],[-79.5,38.5],[-79.41,38.52],[-79.36,38.53],[-79.35,38.53],[-79.05,38.59],[-78.95,38.6],[-78.94,38.61],[-78.82,38.63],[-78.64,38.67],[-78.58,38.68],[-78.38,38.73],[-78.34,38.76],[-78.27,38.81],[-78.24,38.83],[-78.21,38.85],[-78.11,38.88],[-78.06,38.89],[-77.97,38.91],[-77.94,38.92],[-77.83,38.95],[-77.76,38.97],[-77.69,38.96],[-77.62,38.95],[-77.58,39],[-77.57,39.01],[-77.57,39.11],[-77.57,39.15],[-77.57,39.16],[-77.58,39.23],[-77.58,39.24],[-77.54,39.15],[-77.51,39.07],[-77.48,38.99],[-77.46,38.95]],"type":"LineString"}
}
