{
  "id": 2031608297,
  "type": "Feature",
  "properties": {
    "geom:area": 0,
    "geom:bbox": "-122.840190,37.388580,-122.128160,38.473110",
    "geom:latitude": 37.80343808994149,
    "geom:longitude": -122.48960381477761,
    "src:alt_label": "swim-approach",
    "src:geom": "swim",
    "swim:elevations": [
      7529,
      7296,
      6983,
      6620,
      6578,
      6112,
      5862,
      5618,
      5329,
      5005,
      4685,
      4616,
      4179,
      3913,
      3643,
      3470,
      3434,
      3354,
      3353,
      3353,
      3353,
      3353,
      3373,
      3306,
      3098,
      2807,
      2716,
      2401,
      2339,
      2164,
      2032,
      1822,
      1546,
      1523,
      1399,
      1272,
      1219,
      1219,
      1041,
      982,
      911,
      794,
      702,
      649,
      575,
      462,
      365,
      213,
      83,
      55
    ],
    "swim:geom": "approach",
    "swim:timestamps": [
      1782161963,
      1782161987,
      1782162019,
      1782162056,
      1782162060,
      1782162111,
      1782162139,
      1782162165,
      1782162196,
      1782162231,
      1782162266,
      1782162275,
      1782162323,
      1782162351,
      1782162381,
      1782162404,
      1782162414,
      1782162443,
      1782162455,
      1782162501,
      1782162512,
      1782162553,
      1782162570,
      1782162590,
      1782162613,
      1782162653,
      1782162666,
      1782162713,
      1782162721,
      1782162748,
      1782162771,
      1782162800,
      1782162838,
      1782162848,
      1782162886,
      1782162919,
      1782162928,
      1782162941,
      1782162987,
      1782162999,
      1782163025,
      1782163076,
      1782163102,
      1782163112,
      1782163128,
      1782163160,
      1782163182,
      1782163221,
      1782163255,
      1782163275
    ],
    "wof:geomhash": "f67189d2c99f26befde28dff3311ff9b",
    "wof:id": 2031608297,
    "wof:repo": "sfomuseum-data-flights-2026-06"
  },
  "bbox": [
    -122.84019,
    37.38858,
    -122.12816,
    38.47311
  ],
  "geometry": {"coordinates":[[-122.84019,38.47311],[-122.82783,38.43087],[-122.81158,38.37522],[-122.79295,38.31097],[-122.7909,38.30394],[-122.76598,38.21869],[-122.7522,38.17148],[-122.73983,38.12925],[-122.72497,38.07873],[-122.70873,38.02291],[-122.69264,37.96678],[-122.68858,37.95257],[-122.65419,37.88213],[-122.61747,37.84708],[-122.57937,37.81087],[-122.55062,37.78375],[-122.53789,37.77167],[-122.5037,37.73943],[-122.48985,37.7264],[-122.44178,37.68137],[-122.4312,37.67144],[-122.39325,37.63561],[-122.37799,37.6211],[-122.36098,37.60287],[-122.34689,37.57814],[-122.32443,37.53632],[-122.31634,37.52309],[-122.2873,37.47501],[-122.28253,37.46699],[-122.26598,37.43964],[-122.25227,37.41741],[-122.23231,37.39106],[-122.1842,37.38858],[-122.17419,37.39607],[-122.15363,37.43078],[-122.13839,37.45773],[-122.13443,37.46469],[-122.12864,37.47494],[-122.12816,37.50811],[-122.13713,37.51488],[-122.15681,37.52671],[-122.19981,37.5451],[-122.2213,37.55412],[-122.22998,37.55765],[-122.24408,37.56372],[-122.27151,37.57528],[-122.28891,37.58255],[-122.31948,37.59541],[-122.34427,37.60581],[-122.3589,37.6118]],"type":"LineString"}
}
