{
  "id": 2031621009,
  "type": "Feature",
  "properties": {
    "geom:area": 0,
    "geom:bbox": "-122.526810,37.622440,-121.285430,38.108630",
    "geom:latitude": 37.92497095741233,
    "geom:longitude": -122.0059999506661,
    "src:alt_label": "swim-takeoff",
    "src:geom": "swim",
    "swim:elevations": [
      152,
      456,
      546,
      774,
      911,
      1063,
      1147,
      1498,
      1600,
      1845,
      1935,
      2349,
      2623,
      2879,
      3066,
      3204,
      3416,
      3544,
      3753,
      3900,
      4037,
      4162,
      4281,
      4554,
      4714,
      4867,
      5056,
      5183,
      5255,
      5501,
      5568,
      5825
    ],
    "swim:geom": "takeoff",
    "swim:timestamps": [
      1782238277,
      1782238314,
      1782238333,
      1782238365,
      1782238388,
      1782238410,
      1782238428,
      1782238467,
      1782238476,
      1782238498,
      1782238507,
      1782238550,
      1782238574,
      1782238607,
      1782238629,
      1782238656,
      1782238707,
      1782238730,
      1782238764,
      1782238784,
      1782238804,
      1782238816,
      1782238834,
      1782238888,
      1782238914,
      1782238941,
      1782238972,
      1782238998,
      1782239016,
      1782239066,
      1782239076,
      1782239121
    ],
    "wof:geomhash": "0d76962c102893b44f4f203917487b50",
    "wof:id": 2031621009,
    "wof:repo": "sfomuseum-data-flights-2026-06"
  },
  "bbox": [
    -122.52681,
    37.62244,
    -121.28543,
    38.10863
  ],
  "geometry": {"coordinates":[[-122.38406,37.62244],[-122.41211,37.63455],[-122.42858,37.64166],[-122.46057,37.6555],[-122.48585,37.66638],[-122.51198,37.67972],[-122.52342,37.69865],[-122.52642,37.75026],[-122.52681,37.76245],[-122.52259,37.79044],[-122.51576,37.80063],[-122.45524,37.83046],[-122.41586,37.84264],[-122.36201,37.85682],[-122.32603,37.86664],[-122.27911,37.87946],[-122.18282,37.9055],[-122.13837,37.91742],[-122.0684,37.93615],[-122.02735,37.9471],[-121.98794,37.95766],[-121.96124,37.96474],[-121.92614,37.97403],[-121.81159,38.00439],[-121.75578,38.01907],[-121.699,38.03404],[-121.63115,38.05158],[-121.57204,38.06199],[-121.53119,38.06861],[-121.41527,38.08755],[-121.39275,38.09124],[-121.28543,38.10863]],"type":"LineString"}
}
