{
  "id": 2031543851,
  "type": "Feature",
  "properties": {
    "geom:area": 0,
    "geom:bbox": "-122.357570,36.734500,-121.886300,37.611290",
    "geom:latitude": 37.22143945272237,
    "geom:longitude": -122.10333298663531,
    "src:alt_label": "swim-approach",
    "src:geom": "swim",
    "swim:elevations": [
      5341,
      5074,
      5025,
      4760,
      4428,
      4190,
      3938,
      3696,
      3437,
      3260,
      3069,
      2777,
      2587,
      2295,
      2100,
      1830,
      1829,
      1801,
      1662,
      1534,
      1410,
      1248,
      1089,
      913,
      914,
      885,
      798,
      652,
      514,
      403,
      282,
      243,
      182,
      66,
      7
    ],
    "swim:geom": "approach",
    "swim:timestamps": [
      1781527165,
      1781527196,
      1781527204,
      1781527240,
      1781527276,
      1781527305,
      1781527336,
      1781527363,
      1781527391,
      1781527412,
      1781527440,
      1781527485,
      1781527514,
      1781527557,
      1781527577,
      1781527615,
      1781527631,
      1781527668,
      1781527692,
      1781527720,
      1781527745,
      1781527777,
      1781527807,
      1781527856,
      1781527860,
      1781527896,
      1781527916,
      1781527945,
      1781527974,
      1781528003,
      1781528038,
      1781528045,
      1781528063,
      1781528098,
      1781528109
    ],
    "wof:geomhash": "dc92a84810a85d1f6f9443a5e4fff327",
    "wof:id": 2031543851,
    "wof:repo": "sfomuseum-data-flights-2026-06"
  },
  "bbox": [
    -122.35757,
    36.7345,
    -121.8863,
    37.61129
  ],
  "geometry": {"coordinates":[[-121.8863,36.7345],[-121.90579,36.7828],[-121.90927,36.79561],[-121.9243,36.84924],[-121.93889,36.90202],[-121.95077,36.94366],[-121.96782,36.98901],[-121.99355,37.02435],[-122.03122,37.05353],[-122.0611,37.07586],[-122.09975,37.10504],[-122.15856,37.14917],[-122.18571,37.18375],[-122.19767,37.23997],[-122.2023,37.2656],[-122.19144,37.31308],[-122.18177,37.33035],[-122.16092,37.36738],[-122.14707,37.39167],[-122.13122,37.41918],[-122.11804,37.44229],[-122.10247,37.46897],[-122.09893,37.49548],[-122.14157,37.52076],[-122.14543,37.52231],[-122.18032,37.53675],[-122.20005,37.54516],[-122.22865,37.55722],[-122.2557,37.56868],[-122.27975,37.57855],[-122.30593,37.58969],[-122.31057,37.59166],[-122.32456,37.59754],[-122.35024,37.60826],[-122.35757,37.61129]],"type":"LineString"}
}
