{
  "id": 2031518465,
  "type": "Feature",
  "properties": {
    "geom:area": 0,
    "geom:bbox": "-170.000000,35.760000,161.260000,47.200000",
    "geom:latitude": 44.921027169502715,
    "geom:longitude": -13.057179898543097,
    "src:alt_label": "swim-route",
    "src:geom": "swim",
    "swim:geom": "route",
    "wof:geomhash": "0f83920a155b7c83aa9607e217dcce72",
    "wof:id": 2031518465,
    "wof:repo": "sfomuseum-data-flights-2026-06"
  },
  "bbox": [
    -170,
    35.76,
    161.26,
    47.2
  ],
  "geometry": {"coordinates":[[[140.39,35.76],[142.97,37.08],[160.01,43.49],[161.26,43.82]],[[-170,47.2],[-150,45.16],[-146.4,44.38],[-137.31,41.8],[-130,39],[-127,38.47],[-126.99,38.46],[-125.5,38],[-124.87,37.75],[-124.69,37.67],[-124.4,37.55],[-124.31,37.51],[-124.25,37.49],[-124.02,37.39],[-123.95,37.36],[-123.81,37.3],[-123.67,37.28],[-123.61,37.27],[-123.34,37.23],[-123.13,37.19],[-122.96,37.24],[-122.86,37.26],[-122.84,37.26],[-122.84,37.26],[-122.76,37.28],[-122.71,37.29],[-122.66,37.3],[-122.63,37.31],[-122.5,37.34],[-122.44,37.36],[-122.29,37.39],[-122.28,37.39],[-122.31,37.46],[-122.34,37.54],[-122.37,37.6],[-122.37,37.61],[-122.38,37.62]]],"type":"MultiLineString"}
}
