{
  "id": 2031465783,
  "type": "Feature",
  "properties": {
    "geom:area": 0,
    "geom:bbox": "-123.352140,37.416040,-122.112520,38.441330",
    "geom:latitude": 37.85449209229303,
    "geom:longitude": -122.64080836198106,
    "src:alt_label": "swim-approach",
    "src:geom": "swim",
    "swim:elevations": [
      7590,
      7138,
      6919,
      6858,
      6570,
      6506,
      6298,
      6156,
      5760,
      5403,
      5364,
      5201,
      5054,
      4859,
      4735,
      4509,
      4326,
      4034,
      3705,
      3474,
      3412,
      3352,
      3353,
      3231,
      2876,
      2825,
      2580,
      2516,
      2469,
      2387,
      2247,
      2015,
      1827,
      1641,
      1589,
      1460,
      1347,
      1156,
      1033,
      939,
      914,
      822,
      776,
      667,
      447,
      359,
      197,
      65,
      34,
      0
    ],
    "swim:geom": "approach",
    "swim:timestamps": [
      1780814077,
      1780814123,
      1780814147,
      1780814153,
      1780814183,
      1780814190,
      1780814211,
      1780814228,
      1780814270,
      1780814305,
      1780814308,
      1780814329,
      1780814344,
      1780814367,
      1780814379,
      1780814405,
      1780814433,
      1780814479,
      1780814509,
      1780814538,
      1780814553,
      1780814578,
      1780814590,
      1780814615,
      1780814665,
      1780814677,
      1780814711,
      1780814725,
      1780814731,
      1780814741,
      1780814767,
      1780814805,
      1780814834,
      1780814875,
      1780814889,
      1780814923,
      1780814946,
      1780814995,
      1780815025,
      1780815053,
      1780815082,
      1780815101,
      1780815115,
      1780815136,
      1780815176,
      1780815197,
      1780815236,
      1780815267,
      1780815272,
      1780815278
    ],
    "wof:geomhash": "b169f861b50cc8ac577da7c724d71a94",
    "wof:id": 2031465783,
    "wof:repo": "sfomuseum-data-flights-2026-06"
  },
  "bbox": [
    -123.35214,
    37.41604,
    -122.11252,
    38.44133
  ],
  "geometry": {"coordinates":[[-123.35214,38.44133],[-123.26233,38.36988],[-123.21516,38.33326],[-123.20359,38.32421],[-123.14679,38.27907],[-123.13413,38.26893],[-123.09442,38.23718],[-123.06473,38.21356],[-122.98895,38.15317],[-122.92708,38.10375],[-122.92184,38.09955],[-122.8857,38.07049],[-122.8588,38.04878],[-122.81964,38.01741],[-122.79952,38.00125],[-122.75749,37.96738],[-122.7115,37.93033],[-122.64208,37.87022],[-122.5997,37.83006],[-122.56069,37.79325],[-122.54142,37.77514],[-122.51024,37.74572],[-122.49575,37.73197],[-122.46644,37.70425],[-122.40822,37.64961],[-122.39414,37.63651],[-122.35633,37.59843],[-122.34761,37.58022],[-122.34391,37.57188],[-122.33797,37.55939],[-122.31944,37.52525],[-122.29125,37.47912],[-122.25998,37.44875],[-122.19813,37.42552],[-122.17896,37.41833],[-122.13042,37.41604],[-122.11252,37.43456],[-122.12811,37.48003],[-122.14991,37.50304],[-122.16896,37.52221],[-122.18906,37.54142],[-122.20575,37.54963],[-122.21877,37.55511],[-122.23817,37.56342],[-122.27614,37.57945],[-122.29432,37.58714],[-122.32638,37.60058],[-122.35104,37.61101],[-122.35526,37.61271],[-122.36024,37.61467]],"type":"LineString"}
}
