{
  "id": 2031502289,
  "type": "Feature",
  "properties": {
    "geom:area": 0,
    "geom:bbox": "-122.399610,37.627640,-121.277030,38.112510",
    "geom:latitude": 37.88028796426048,
    "geom:longitude": -121.85193924727567,
    "src:alt_label": "swim-takeoff",
    "src:geom": "swim",
    "swim:elevations": [
      213,
      582,
      794,
      1047,
      1382,
      1693,
      2060,
      2342,
      2503,
      2839,
      3241,
      3427,
      3594,
      3784,
      3834,
      4169,
      4259,
      4518,
      4911,
      5015,
      5265,
      5538,
      5681,
      5770,
      5912
    ],
    "swim:geom": "takeoff",
    "swim:timestamps": [
      1781079552,
      1781079592,
      1781079624,
      1781079656,
      1781079687,
      1781079717,
      1781079746,
      1781079772,
      1781079791,
      1781079817,
      1781079868,
      1781079894,
      1781079924,
      1781079955,
      1781079966,
      1781080016,
      1781080024,
      1781080057,
      1781080101,
      1781080114,
      1781080145,
      1781080180,
      1781080196,
      1781080209,
      1781080230
    ],
    "wof:geomhash": "15972df07a1cc7f30fc24c773cf80c32",
    "wof:id": 2031502289,
    "wof:repo": "sfomuseum-data-flights-2026-06"
  },
  "bbox": [
    -122.39961,
    37.62764,
    -121.27703,
    38.11251
  ],
  "geometry": {"coordinates":[[-122.396,37.62764],[-122.39961,37.65512],[-122.36623,37.66829],[-122.3267,37.68113],[-122.28467,37.69488],[-122.24092,37.7091],[-122.20041,37.72508],[-122.16598,37.74317],[-122.13997,37.75667],[-122.10346,37.77542],[-122.03183,37.81232],[-121.9898,37.83225],[-121.9378,37.85223],[-121.87921,37.87564],[-121.8587,37.88386],[-121.75724,37.92411],[-121.73942,37.93104],[-121.67136,37.95822],[-121.57388,37.99649],[-121.54459,38.00768],[-121.47559,38.03451],[-121.39525,38.0661],[-121.35733,38.08105],[-121.32694,38.09294],[-121.27703,38.11251]],"type":"LineString"}
}
