{
  "id": 2031501377,
  "type": "Feature",
  "properties": {
    "geom:area": 0,
    "geom:bbox": "-122.358110,37.446870,-121.258910,37.614110",
    "geom:latitude": 37.5224176397121,
    "geom:longitude": -121.81562791865328,
    "src:alt_label": "swim-approach",
    "src:geom": "swim",
    "swim:elevations": [
      4620,
      4558,
      4376,
      2289,
      2134,
      1866,
      1811,
      1005,
      955,
      732,
      637,
      412,
      304,
      282,
      227,
      123,
      0
    ],
    "swim:geom": "approach",
    "swim:timestamps": [
      1781127925,
      1781127935,
      1781127962,
      1781128283,
      1781128356,
      1781128425,
      1781128441,
      1781128617,
      1781128626,
      1781128668,
      1781128689,
      1781128737,
      1781128761,
      1781128766,
      1781128781,
      1781128810,
      1781128834
    ],
    "wof:geomhash": "43c7a595c707b5aa21a16c31454a9808",
    "wof:id": 2031501377,
    "wof:repo": "sfomuseum-data-flights-2026-06"
  },
  "bbox": [
    -122.35811,
    37.44687,
    -121.25891,
    37.61411
  ],
  "geometry": {"coordinates":[[-121.25891,37.59309],[-121.278,37.59062],[-121.3285,37.58513],[-121.79742,37.47174],[-121.88903,37.44687],[-121.97424,37.45419],[-121.99121,37.45954],[-122.16309,37.53207],[-122.17209,37.53579],[-122.21358,37.55343],[-122.23459,37.56189],[-122.27925,37.5809],[-122.29902,37.58904],[-122.30244,37.59051],[-122.31498,37.59585],[-122.33879,37.60583],[-122.35811,37.61411]],"type":"LineString"}
}
