{
  "id": 2031499963,
  "type": "Feature",
  "properties": {
    "geom:area": 0,
    "geom:bbox": "-122.353550,37.436650,-121.260620,37.619370",
    "geom:latitude": 37.54622801459446,
    "geom:longitude": -121.81669176585076,
    "src:alt_label": "swim-approach",
    "src:geom": "swim",
    "swim:elevations": [
      4756,
      4645,
      4418,
      4265,
      4236,
      4010,
      3832,
      3494,
      3443,
      3351,
      3229,
      3054,
      3048,
      3048,
      3048,
      2867,
      2772,
      2518,
      2405,
      2373,
      2344,
      2138,
      1910,
      1802,
      1611,
      1578,
      1337,
      1275,
      1095,
      891,
      833,
      719,
      521,
      396,
      273,
      174,
      91,
      59
    ],
    "swim:geom": "approach",
    "swim:timestamps": [
      1781093784,
      1781093796,
      1781093825,
      1781093845,
      1781093851,
      1781093900,
      1781093920,
      1781093968,
      1781093972,
      1781093988,
      1781094009,
      1781094043,
      1781094078,
      1781094116,
      1781094135,
      1781094176,
      1781094197,
      1781094233,
      1781094267,
      1781094276,
      1781094281,
      1781094314,
      1781094353,
      1781094381,
      1781094416,
      1781094425,
      1781094476,
      1781094489,
      1781094521,
      1781094565,
      1781094579,
      1781094608,
      1781094653,
      1781094685,
      1781094716,
      1781094748,
      1781094776,
      1781094784
    ],
    "wof:geomhash": "924f1a7ad786338be0530029358e85f0",
    "wof:id": 2031499963,
    "wof:repo": "sfomuseum-data-flights-2026-06"
  },
  "bbox": [
    -122.35355,
    37.43665,
    -121.26062,
    37.61937
  ],
  "geometry": {"coordinates":[[-121.26062,37.59277],[-121.28221,37.58992],[-121.33417,37.5837],[-121.36912,37.57977],[-121.3802,37.57859],[-121.46161,37.56918],[-121.49541,37.56534],[-121.57252,37.55677],[-121.57979,37.55598],[-121.60488,37.55788],[-121.63247,37.57257],[-121.67168,37.5997],[-121.72059,37.61937],[-121.78113,37.61058],[-121.8053,37.59458],[-121.83087,37.54685],[-121.84285,37.52373],[-121.86387,37.48382],[-121.88352,37.44935],[-121.89176,37.44258],[-121.89766,37.43984],[-121.93746,37.43665],[-121.97707,37.45088],[-122.00491,37.46271],[-122.03969,37.47736],[-122.04757,37.48068],[-122.09715,37.50179],[-122.10905,37.50674],[-122.14011,37.51988],[-122.17904,37.53631],[-122.19146,37.54159],[-122.21741,37.55248],[-122.25827,37.56969],[-122.28546,37.58108],[-122.30772,37.5905],[-122.32924,37.59954],[-122.34859,37.60759],[-122.35355,37.60968]],"type":"LineString"}
}
