{
  "id": 2031451907,
  "type": "Feature",
  "properties": {
    "date:cessation_lower": "2026-06-05",
    "date:cessation_upper": "2026-06-05",
    "date:inception_lower": "2026-06-05",
    "date:inception_upper": "2026-06-05",
    "edtf:cessation": "2026-06-05T13:24:03Z",
    "edtf:inception": "2026-06-05T03:20:00Z",
    "flysfo:actual_timestamp": -1,
    "flysfo:airline": "TP",
    "flysfo:base_airline": "",
    "flysfo:base_flight_number": "6725",
    "flysfo:date": "2026-06-04",
    "flysfo:estimated_timestamp": 1780628100,
    "flysfo:event": "D",
    "flysfo:flight_number": "TP236",
    "flysfo:gate": "A9",
    "flysfo:journey": "SFO-LIS",
    "flysfo:scheduled_timestamp": 1780628100,
    "flysfo:timestamp": 1780628100,
    "geom:area": 0,
    "geom:bbox": "-122.370943,37.617990,-9.135591,38.772844",
    "geom:latitude": 38.195417,
    "geom:longitude": -65.753267,
    "iata:airline": "TP",
    "iata:base_airline": "",
    "icao:aircraft": "A339",
    "icao:airline": "TAP",
    "icao:base_airline": "JBU",
    "lbl:latitude": 37.612893,
    "lbl:longitude": -122.389652,
    "sfomuseum:aircraft_id": 1393786509,
    "sfomuseum:airline_id": 1159285271,
    "sfomuseum:arrival_id": 102535643,
    "sfomuseum:base_flight_id": "20260604-D-JBU-6725",
    "sfomuseum:departure_id": 102527513,
    "sfomuseum:flight_id": "20260604-D-TAP-236",
    "sfomuseum:flight_number": [
      "TAP236",
      "TP236"
    ],
    "sfomuseum:placetype": "flight",
    "src:geom": "flysfo",
    "src:geom_alt": [
      "swim-route",
      "swim-path",
      "swim-takeoff"
    ],
    "swim:tail_number": "CSTUP",
    "wof:belongsto": [
      1947304067,
      102527513,
      1947304073,
      102191575,
      85633793,
      102087579,
      85922583,
      554784711,
      85688637,
      1947304077,
      1947304069,
      102085387
    ],
    "wof:country": "US",
    "wof:created": 1780676190,
    "wof:geomhash": "d52bb0a5cfa06eebb6a938b29d78a44d",
    "wof:hierarchy": [
      {
        "building_id": 1947304067,
        "campus_id": 102527513,
        "concourse_id": 1947304073,
        "continent_id": 102191575,
        "country_id": 85633793,
        "county_id": 102087579,
        "custom_id": 2031451907,
        "flight_id": 2031451907,
        "locality_id": 85922583,
        "postalcode_id": 554784711,
        "region_id": 85688637,
        "venue_id": 1947304077,
        "wing_id": 1947304069
      },
      {
        "building_id": 1947304067,
        "campus_id": 102527513,
        "concourse_id": 1947304073,
        "continent_id": 102191575,
        "country_id": 85633793,
        "county_id": 102085387,
        "custom_id": 2031451907,
        "flight_id": 2031451907,
        "region_id": 85688637,
        "venue_id": 1947304077,
        "wing_id": 1947304069
      }
    ],
    "wof:id": 2031451907,
    "wof:involves": [
      102535643,
      102527513,
      1159285271,
      1947304077,
      1159284583,
      1393786509
    ],
    "wof:lastmodified": 1780676370,
    "wof:name": "TP236 (SFO-LIS)",
    "wof:parent_id": 1947304077,
    "wof:placetype": "custom",
    "wof:placetype_alt": [
      "flight"
    ],
    "wof:repo": "sfomuseum-data-flights-2026-06",
    "wof:superseded_by": [],
    "wof:supersedes": []
  },
  "bbox": [
    -122.370943,
    37.61799,
    -9.135591,
    38.772844
  ],
  "geometry": {"coordinates":[[-122.370943,37.61799],[-9.135591,38.772844]],"type":"MultiPoint"}
}
