{
  "id": 2031453419,
  "type": "Feature",
  "properties": {
    "geom:area": 0,
    "geom:bbox": "-122.380000,35.170000,-80.950000,39.680000",
    "geom:latitude": 37.64703614165828,
    "geom:longitude": -101.80854233563166,
    "src:alt_label": "swim-route",
    "src:geom": "swim",
    "swim:geom": "route",
    "wof:geomhash": "9e0325146ce150548d687d4f570a3afe",
    "wof:id": 2031453419,
    "wof:repo": "sfomuseum-data-flights-2026-06"
  },
  "bbox": [
    -122.38,
    35.17,
    -80.95,
    39.68
  ],
  "geometry": {"coordinates":[[-80.95,35.21],[-81.13,35.2],[-81.18,35.2],[-81.33,35.19],[-81.35,35.19],[-81.53,35.19],[-81.57,35.19],[-81.59,35.19],[-81.63,35.19],[-82.21,35.17],[-82.52,35.25],[-83.25,35.41],[-83.25,35.41],[-83.71,35.52],[-83.95,35.57],[-84.54,35.7],[-85.27,35.85],[-85.33,35.87],[-85.87,35.98],[-86.68,36.14],[-87.49,36.21],[-87.86,36.25],[-88.23,36.28],[-88.29,36.29],[-88.84,36.37],[-90.37,36.58],[-91.45,36.72],[-92.54,36.84],[-92.98,36.89],[-93.43,36.94],[-93.73,36.97],[-94,37],[-94.23,37.05],[-94.9,37.2],[-95.59,37.35],[-96.84,37.6],[-97.22,37.68],[-97.58,37.75],[-97.85,37.78],[-97.92,37.79],[-98,37.8],[-98.82,37.9],[-99.21,37.95],[-99.63,38],[-99.78,38.02],[-100.82,38.13],[-100.92,38.14],[-101.02,38.15],[-101.26,38.2],[-101.8,38.46],[-102.41,38.9],[-102.61,39.13],[-102.79,39.34],[-103,39.47],[-103.1,39.52],[-103.2,39.58],[-103.22,39.6],[-103.24,39.62],[-103.27,39.63],[-103.32,39.65],[-103.49,39.68],[-103.56,39.67],[-103.71,39.65],[-104.06,39.6],[-104.15,39.52],[-104.18,39.51],[-104.34,39.43],[-104.53,39.29],[-104.89,39.14],[-105.27,39.1],[-105.4,38.95],[-106.24,38.88],[-107.65,38.75],[-109.52,38.57],[-109.98,38.5],[-110.7,38.42],[-111.91,38.39],[-112.46,38.38],[-113.01,38.36],[-113.84,38.41],[-113.91,38.35],[-114.09,38.85],[-114.41,38.98],[-117.28,38.29],[-118.56,37.95],[-118.76,37.9],[-119.1,37.86],[-119.59,37.8],[-119.61,37.8],[-119.72,37.78],[-119.82,37.77],[-119.92,37.76],[-120.02,37.75],[-120.12,37.74],[-120.31,37.71],[-120.4,37.7],[-120.53,37.69],[-120.55,37.68],[-120.57,37.68],[-120.69,37.67],[-120.75,37.66],[-120.79,37.65],[-120.8,37.65],[-120.96,37.63],[-121,37.63],[-121.01,37.63],[-121.07,37.62],[-121.17,37.61],[-121.26,37.59],[-121.39,37.58],[-121.41,37.58],[-121.6,37.55],[-121.61,37.55],[-121.62,37.55],[-121.72,37.53],[-121.8,37.51],[-121.88,37.49],[-121.89,37.49],[-122.01,37.53],[-122.08,37.54],[-122.18,37.57],[-122.18,37.57],[-122.28,37.59],[-122.33,37.61],[-122.36,37.61],[-122.38,37.62]],"type":"LineString"}
}
