{
  "id": 2031465749,
  "type": "Feature",
  "properties": {
    "geom:area": 0,
    "geom:bbox": "-156.416667,20.883333,-122.095833,37.609722",
    "geom:latitude": 31.158670007688727,
    "geom:longitude": -140.3693587022654,
    "src:alt_label": "swim-path",
    "src:geom": "swim",
    "swim:altitudes": [
      "001",
      "001",
      "001",
      "044C",
      "044C",
      "044C",
      "044C",
      "114T",
      "114T",
      "114T",
      "114T",
      "166T",
      "166T",
      "166T",
      "178T",
      "178T",
      "193T",
      "193T",
      "193T",
      "206T",
      "206T",
      "227T",
      "227T",
      "227T",
      "227T",
      "268C",
      "278C",
      "278C",
      "278C",
      "290C",
      "290C",
      "290C",
      "290C",
      "330",
      "330",
      "330",
      "330",
      "330",
      "330",
      "330",
      "330",
      "330",
      "330",
      "330",
      "330",
      "330",
      "330",
      "330",
      "330",
      "330",
      "330",
      "330",
      "330C",
      "330C",
      "330C",
      "330C",
      "330C",
      "330C",
      "330C",
      "330C",
      "330C",
      "330C",
      "330C",
      "330",
      "330",
      "330C",
      "330C",
      "330C",
      "330",
      "330",
      "330",
      "330",
      "330",
      "330",
      "330",
      "322",
      "274",
      "274",
      "224",
      "224",
      "211",
      "211",
      "192",
      "154",
      "154",
      "154",
      "135",
      "135",
      "100",
      "100",
      "100",
      "099",
      "099",
      "100",
      "090",
      "090",
      "061",
      "061",
      "060",
      "060",
      "060",
      "060",
      "040",
      "023",
      "023",
      "023",
      "009",
      "001",
      "001"
    ],
    "swim:geom": "path",
    "swim:speeds": [
      90,
      90,
      90,
      240,
      240,
      240,
      240,
      310,
      310,
      310,
      310,
      410,
      410,
      410,
      420,
      420,
      430,
      430,
      430,
      430,
      430,
      460,
      460,
      460,
      460,
      480,
      490,
      490,
      490,
      480,
      480,
      480,
      480,
      470,
      470,
      470,
      470,
      470,
      470,
      470,
      470,
      470,
      470,
      470,
      470,
      470,
      470,
      470,
      470,
      470,
      470,
      470,
      489,
      488,
      488,
      485,
      485,
      483,
      483,
      486,
      489,
      492,
      492,
      500,
      500,
      495,
      503,
      503,
      510,
      510,
      511,
      511,
      513,
      513,
      513,
      512,
      477,
      477,
      457,
      457,
      423,
      423,
      408,
      381,
      381,
      381,
      373,
      373,
      352,
      300,
      300,
      269,
      269,
      262,
      236,
      236,
      224,
      224,
      219,
      219,
      248,
      248,
      204,
      143,
      143,
      143,
      134,
      136,
      136
    ],
    "swim:timestamps": [
      1780783320,
      1780783320,
      1780783320,
      1780783469,
      1780783469,
      1780783469,
      1780783469,
      1780783649,
      1780783649,
      1780783649,
      1780783649,
      1780783890,
      1780783890,
      1780783890,
      1780783950,
      1780783950,
      1780784010,
      1780784010,
      1780784010,
      1780784071,
      1780784071,
      1780784191,
      1780784191,
      1780784191,
      1780784191,
      1780784431,
      1780784492,
      1780784492,
      1780784492,
      1780784551,
      1780784551,
      1780784551,
      1780784551,
      1780784792,
      1780784792,
      1780784792,
      1780784792,
      1780785033,
      1780785033,
      1780785033,
      1780785033,
      1780785153,
      1780785153,
      1780785153,
      1780785308,
      1780785308,
      1780785308,
      1780785308,
      1780785611,
      1780785611,
      1780785611,
      1780785611,
      1780798048,
      1780798108,
      1780798108,
      1780798168,
      1780798168,
      1780798228,
      1780798228,
      1780798288,
      1780798348,
      1780798468,
      1780798468,
      1780798495,
      1780798556,
      1780798588,
      1780798709,
      1780798709,
      1780798796,
      1780798796,
      1780798949,
      1780798949,
      1780799009,
      1780799009,
      1780799009,
      1780799069,
      1780799189,
      1780799189,
      1780799309,
      1780799309,
      1780799369,
      1780799369,
      1780799429,
      1780799549,
      1780799549,
      1780799549,
      1780799609,
      1780799609,
      1780799730,
      1780799790,
      1780799790,
      1780799850,
      1780799850,
      1780799910,
      1780800088,
      1780800088,
      1780800268,
      1780800268,
      1780800328,
      1780800328,
      1780800447,
      1780800447,
      1780800570,
      1780800802,
      1780800802,
      1780800802,
      1780800931,
      1780801003,
      1780801003
    ],
    "wof:geomhash": "9b586a0a8625bf08c7033a28b256d8ae",
    "wof:id": 2031465749,
    "wof:repo": "sfomuseum-data-flights-2026-06"
  },
  "bbox": [
    -156.41666666666666,
    20.883333333333333,
    -122.09583333333333,
    37.609722222222224
  ],
  "geometry": {"coordinates":[[-156.41666666666666,20.883333333333333],[-156.41666666666666,20.883333333333333],[-156.41666666666666,20.883333333333333],[-156.4,21.016666666666666],[-156.4,21.016666666666666],[-156.4,21.016666666666666],[-156.4,21.016666666666666],[-156.35,21.25],[-156.35,21.25],[-156.35,21.25],[-156.35,21.25],[-156.21666666666667,21.666666666666668],[-156.21666666666667,21.666666666666668],[-156.21666666666667,21.666666666666668],[-156.18333333333334,21.766666666666666],[-156.18333333333334,21.766666666666666],[-156.15,21.883333333333333],[-156.15,21.883333333333333],[-156.15,21.883333333333333],[-156.11666666666667,22],[-156.11666666666667,22],[-156.05,22.25],[-156.05,22.25],[-156.05,22.25],[-156.05,22.25],[-155.88333333333333,22.75],[-155.83333333333334,22.883333333333333],[-155.83333333333334,22.883333333333333],[-155.83333333333334,22.883333333333333],[-155.8,23.016666666666666],[-155.8,23.016666666666666],[-155.8,23.016666666666666],[-155.8,23.016666666666666],[-155.63333333333333,23.516666666666666],[-155.63333333333333,23.516666666666666],[-155.63333333333333,23.516666666666666],[-155.63333333333333,23.516666666666666],[-155.48333333333332,24.033333333333335],[-155.48333333333332,24.033333333333335],[-155.48333333333332,24.033333333333335],[-155.48333333333332,24.033333333333335],[-155.4,24.283333333333335],[-155.4,24.283333333333335],[-155.4,24.283333333333335],[-155.28333333333333,24.616666666666667],[-155.28333333333333,24.616666666666667],[-155.28333333333333,24.616666666666667],[-155.28333333333333,24.616666666666667],[-154.75,25],[-154.75,25],[-154.75,25],[-154.75,25],[-127.46805555555555,37.353611111111114],[-127.31,37.399166666666666],[-127.31,37.399166666666666],[-127.15111111111112,37.445277777777775],[-127.15111111111112,37.445277777777775],[-126.99416666666667,37.489444444444445],[-126.99416666666667,37.489444444444445],[-126.82638888888889,37.49527777777778],[-126.65472222222223,37.483333333333334],[-126.31166666666667,37.468333333333334],[-126.31166666666667,37.468333333333334],[-126.2,37.45],[-126.03333333333333,37.45],[-125.93027777777779,37.45],[-125.58111111111111,37.43222222222222],[-125.58111111111111,37.43222222222222],[-125.33333333333333,37.416666666666664],[-125.33333333333333,37.416666666666664],[-124.87083333333332,37.3925],[-124.87083333333332,37.3925],[-124.6913888888889,37.38166666666667],[-124.6913888888889,37.38166666666667],[-124.6913888888889,37.38166666666667],[-124.515,37.37111111111111],[-124.18166666666667,37.35027777777778],[-124.18166666666667,37.35027777777778],[-123.8611111111111,37.32916666666667],[-123.8611111111111,37.32916666666667],[-123.71277777777777,37.31888888888889],[-123.71277777777777,37.31888888888889],[-123.57083333333333,37.30916666666666],[-123.30111111111111,37.29],[-123.30111111111111,37.29],[-123.30111111111111,37.29],[-123.17305555555556,37.28055555555555],[-123.17305555555556,37.28055555555555],[-122.92777777777778,37.2625],[-122.81638888888888,37.26861111111111],[-122.81638888888888,37.26861111111111],[-122.72916666666667,37.24583333333334],[-122.72916666666667,37.24583333333334],[-122.64611111111111,37.21527777777778],[-122.43333333333334,37.2],[-122.43333333333334,37.2],[-122.31666666666666,37.3],[-122.31666666666666,37.3],[-122.33333333333333,37.36666666666667],[-122.33333333333333,37.36666666666667],[-122.23333333333333,37.416666666666664],[-122.23333333333333,37.416666666666664],[-122.09583333333333,37.44833333333333],[-122.21666666666667,37.55],[-122.21666666666667,37.55],[-122.21666666666667,37.55],[-122.30361111111111,37.58888888888889],[-122.3536111111111,37.609722222222224],[-122.3536111111111,37.609722222222224]],"type":"LineString"}
}
