{
  "id": 2031487075,
  "type": "Feature",
  "properties": {
    "geom:area": 0,
    "geom:bbox": "-122.380000,37.620000,-70.930000,45.150000",
    "geom:latitude": 43.078275157462215,
    "geom:longitude": -96.92549948842534,
    "src:alt_label": "swim-route",
    "src:geom": "swim",
    "swim:geom": "route",
    "wof:geomhash": "198d16876e99c16cf42f0d8c42e43b18",
    "wof:id": 2031487075,
    "wof:repo": "sfomuseum-data-flights-2026-06"
  },
  "bbox": [
    -122.38,
    37.62,
    -70.93,
    45.15
  ],
  "geometry": {"coordinates":[[-122.38,37.62],[-122.27,37.69],[-122.22,37.72],[-122.21,37.72],[-122.15,37.79],[-122.15,37.79],[-122.12,37.82],[-122.08,37.87],[-122.07,37.88],[-122.07,37.88],[-122.03,37.92],[-121.9,38.06],[-121.9,38.06],[-121.82,38.15],[-121.74,38.23],[-121.73,38.25],[-121.71,38.27],[-121.56,38.43],[-121.56,38.44],[-121.55,38.44],[-121.47,38.5],[-121.34,38.57],[-121.19,38.66],[-121.15,38.69],[-121.06,38.74],[-120.72,38.95],[-120.59,39.03],[-120.46,39.1],[-120.35,39.16],[-120.33,39.18],[-120.06,39.34],[-119.1,39.89],[-118.92,39.98],[-118.54,40.14],[-118.12,40.32],[-117.89,40.37],[-116.92,40.57],[-115.96,40.94],[-114.49,41.49],[-114.28,41.57],[-113.77,41.72],[-113.36,41.85],[-113.26,41.88],[-111.86,42.3],[-109.96,42.82],[-109.61,42.91],[-107.37,43.67],[-107.25,43.69],[-103.14,44.39],[-101.47,44.58],[-101.08,44.63],[-97.98,44.92],[-97.56,44.95],[-97.41,44.96],[-97.14,44.98],[-95.41,45.07],[-94.37,45.11],[-93.87,45.13],[-93.37,45.15],[-93.1,45.13],[-92.5,45.09],[-90.69,44.94],[-90.37,44.93],[-90.11,44.91],[-88.55,44.81],[-88.32,44.77],[-88.1,44.72],[-87.19,44.54],[-86.63,44.43],[-86.35,44.37],[-84.39,43.93],[-83.68,43.72],[-83.67,43.72],[-82.28,43.28],[-82.26,43.27],[-80.48,42.8],[-80.38,42.78],[-79.79,42.61],[-79.27,42.49],[-78.35,42.55],[-77.88,42.58],[-77.33,42.61],[-76.77,42.64],[-74.56,42.73],[-74.12,42.74],[-73.81,42.75],[-73.51,42.74],[-73.11,42.74],[-72.94,42.72],[-72.63,42.68],[-72.38,42.65],[-72.32,42.65],[-72.16,42.63],[-72.04,42.61],[-71.84,42.59],[-71.82,42.59],[-71.72,42.57],[-71.71,42.57],[-71.61,42.55],[-71.59,42.55],[-71.37,42.5],[-71.35,42.5],[-71.25,42.48],[-71.16,42.46],[-71.16,42.46],[-71.06,42.45],[-71.03,42.45],[-70.99,42.39],[-70.96,42.35],[-70.95,42.34],[-70.93,42.31],[-70.95,42.27],[-70.97,42.24],[-70.98,42.21],[-70.99,42.18],[-70.99,42.2],[-71,42.28],[-71.01,42.35],[-71.01,42.36]],"type":"LineString"}
}
