{
  "id": 2031514905,
  "type": "Feature",
  "properties": {
    "geom:area": 0,
    "geom:bbox": "-122.391667,37.675833,-104.660556,40.730833",
    "geom:latitude": 40.13410525765458,
    "geom:longitude": -113.48574522944044,
    "src:alt_label": "swim-path",
    "src:geom": "swim",
    "swim:altitudes": [
      "036",
      "036",
      "049",
      "049",
      "049",
      "121",
      "121",
      "121",
      "121",
      "159",
      "159",
      "159",
      "159",
      "176",
      "176",
      "176",
      "176",
      "176",
      "208",
      "208",
      "208",
      "208",
      "222",
      "222",
      "232",
      "232",
      "232",
      "232",
      "232",
      "267",
      "267",
      "267",
      "267",
      "267",
      "267",
      "288",
      "288",
      "288",
      "291",
      "291",
      "291",
      "302",
      "302",
      "302",
      "302",
      "310C",
      "310C",
      "310C",
      "310C",
      "310C",
      "310C",
      "310C",
      "310C",
      "310C",
      "310C",
      "310C",
      "310C",
      "310C",
      "310C",
      "310C",
      "310C",
      "310C",
      "310C",
      "310C",
      "310C",
      "310C",
      "310C",
      "310C",
      "310C",
      "310C",
      "310C",
      "310C",
      "310C",
      "310C",
      "310C",
      "310C",
      "310C",
      "310C",
      "310C",
      "310C",
      "310C",
      "310C",
      "310C",
      "310C",
      "310C",
      "310C",
      "310C",
      "310C",
      "310C",
      "310C",
      "310C",
      "310C",
      "310C",
      "310C",
      "310C",
      "310C",
      "310C",
      "310C",
      "310C",
      "310C",
      "310C",
      "310C",
      "310C",
      "310C",
      "310C",
      "310C",
      "310C",
      "310C",
      "310C",
      "310C",
      "310C",
      "310C",
      "310C",
      "310C",
      "310C",
      "310C",
      "310C",
      "310C",
      "310C",
      "310C",
      "310C",
      "310C",
      "310C",
      "310C",
      "310C",
      "310C",
      "310C",
      "310C",
      "310C",
      "310C",
      "310C",
      "310C",
      "310C",
      "310C",
      "310C",
      "310C",
      "310C",
      "310C",
      "310C",
      "310C",
      "310C",
      "310C",
      "310C",
      "310C",
      "310C",
      "310C",
      "310C",
      "310C",
      "310C",
      "310C",
      "310C",
      "310C",
      "310C",
      "310C",
      "310C",
      "310C",
      "310C",
      "310C",
      "310C",
      "310C",
      "310C",
      "310C",
      "310C",
      "310C",
      "310C",
      "310C",
      "310C",
      "310C",
      "310C",
      "310C",
      "310C",
      "310C",
      "310C",
      "310C",
      "310C",
      "310C",
      "310C",
      "310C",
      "310C",
      "310C",
      "310C",
      "310C",
      "310C",
      "310C",
      "310C",
      "310C",
      "310C",
      "310C",
      "310C",
      "310C",
      "310C",
      "310C",
      "310C",
      "310C",
      "310C",
      "310C",
      "310C",
      "310C",
      "310C",
      "306",
      "306",
      "292",
      "292",
      "280",
      "280",
      "280",
      "269",
      "269",
      "260",
      "260",
      "260",
      "260",
      "251",
      "240",
      "240",
      "233",
      "233",
      "233",
      "208",
      "208",
      "208",
      "192",
      "192",
      "187",
      "185",
      "185",
      "185",
      "166",
      "166",
      "156",
      "156",
      "145",
      "145",
      "145",
      "145",
      "110",
      "110",
      "110",
      "110",
      "110",
      "100",
      "100",
      "100",
      "096",
      "096",
      "078",
      "078",
      "078",
      "071",
      "071",
      "071",
      "063",
      "054",
      "054"
    ],
    "swim:geom": "path",
    "swim:speeds": [
      188,
      188,
      260,
      260,
      260,
      342,
      342,
      342,
      342,
      376,
      376,
      376,
      376,
      388,
      388,
      388,
      388,
      388,
      418,
      418,
      418,
      418,
      435,
      435,
      460,
      460,
      460,
      460,
      460,
      492,
      492,
      492,
      492,
      492,
      492,
      507,
      507,
      507,
      510,
      510,
      510,
      508,
      508,
      508,
      508,
      507,
      507,
      509,
      506,
      506,
      506,
      506,
      506,
      506,
      506,
      506,
      506,
      506,
      506,
      506,
      507,
      512,
      512,
      512,
      511,
      511,
      511,
      511,
      511,
      509,
      509,
      509,
      511,
      511,
      511,
      514,
      514,
      514,
      514,
      514,
      514,
      515,
      515,
      515,
      516,
      516,
      516,
      516,
      516,
      516,
      516,
      516,
      516,
      516,
      517,
      517,
      517,
      517,
      517,
      517,
      517,
      517,
      517,
      517,
      517,
      519,
      519,
      519,
      519,
      519,
      520,
      520,
      520,
      521,
      521,
      521,
      521,
      521,
      522,
      522,
      522,
      522,
      522,
      522,
      522,
      522,
      522,
      522,
      522,
      523,
      523,
      523,
      523,
      523,
      523,
      524,
      524,
      524,
      524,
      525,
      525,
      525,
      525,
      525,
      528,
      528,
      528,
      528,
      528,
      528,
      528,
      528,
      528,
      528,
      528,
      528,
      528,
      528,
      527,
      527,
      526,
      526,
      526,
      526,
      526,
      524,
      524,
      524,
      524,
      524,
      524,
      525,
      525,
      525,
      525,
      525,
      527,
      527,
      527,
      529,
      529,
      529,
      529,
      531,
      532,
      532,
      532,
      535,
      535,
      535,
      535,
      536,
      536,
      539,
      539,
      539,
      540,
      540,
      540,
      542,
      542,
      536,
      536,
      530,
      530,
      530,
      522,
      522,
      516,
      516,
      516,
      516,
      515,
      512,
      512,
      501,
      501,
      501,
      458,
      458,
      458,
      414,
      414,
      376,
      368,
      368,
      368,
      370,
      370,
      350,
      350,
      344,
      344,
      344,
      344,
      249,
      249,
      249,
      249,
      249,
      234,
      234,
      234,
      217,
      217,
      191,
      191,
      191,
      186,
      186,
      186,
      166,
      158,
      158
    ],
    "swim:timestamps": [
      1781194937,
      1781194937,
      1781194996,
      1781194996,
      1781194996,
      1781195238,
      1781195238,
      1781195238,
      1781195238,
      1781195358,
      1781195358,
      1781195358,
      1781195358,
      1781195418,
      1781195418,
      1781195418,
      1781195418,
      1781195418,
      1781195538,
      1781195538,
      1781195538,
      1781195538,
      1781195598,
      1781195598,
      1781195658,
      1781195658,
      1781195658,
      1781195658,
      1781195658,
      1781195839,
      1781195839,
      1781195839,
      1781195839,
      1781195839,
      1781195839,
      1781195959,
      1781195959,
      1781195959,
      1781195969,
      1781195969,
      1781195969,
      1781196019,
      1781196019,
      1781196019,
      1781196019,
      1781196079,
      1781196079,
      1781196089,
      1781196329,
      1781196329,
      1781196329,
      1781196329,
      1781196329,
      1781196329,
      1781196439,
      1781196439,
      1781196439,
      1781196439,
      1781196439,
      1781196439,
      1781196560,
      1781196570,
      1781196570,
      1781196570,
      1781196630,
      1781196630,
      1781196630,
      1781196630,
      1781196630,
      1781196680,
      1781196680,
      1781196680,
      1781196740,
      1781196740,
      1781196740,
      1781196800,
      1781196800,
      1781196800,
      1781196860,
      1781196860,
      1781196860,
      1781197100,
      1781197100,
      1781197100,
      1781197170,
      1781197170,
      1781197170,
      1781197170,
      1781197221,
      1781197221,
      1781197221,
      1781197221,
      1781197221,
      1781197221,
      1781197411,
      1781197411,
      1781197411,
      1781197411,
      1781197461,
      1781197461,
      1781197461,
      1781197471,
      1781197521,
      1781197521,
      1781197521,
      1781197591,
      1781197591,
      1781197591,
      1781197591,
      1781197591,
      1781197651,
      1781197651,
      1781197651,
      1781197771,
      1781197771,
      1781197771,
      1781197771,
      1781197771,
      1781197951,
      1781197951,
      1781197951,
      1781197951,
      1781198012,
      1781198012,
      1781198012,
      1781198072,
      1781198072,
      1781198072,
      1781198072,
      1781198132,
      1781198132,
      1781198132,
      1781198132,
      1781198132,
      1781198132,
      1781198372,
      1781198372,
      1781198372,
      1781198372,
      1781198432,
      1781198432,
      1781198432,
      1781198432,
      1781198432,
      1781198733,
      1781198733,
      1781198733,
      1781198733,
      1781198793,
      1781198793,
      1781198793,
      1781198793,
      1781198793,
      1781198853,
      1781198853,
      1781198853,
      1781198913,
      1781198913,
      1781198973,
      1781198973,
      1781199093,
      1781199093,
      1781199093,
      1781199093,
      1781199093,
      1781199273,
      1781199273,
      1781199273,
      1781199273,
      1781199393,
      1781199393,
      1781199453,
      1781199453,
      1781199453,
      1781199453,
      1781199453,
      1781199574,
      1781199574,
      1781199574,
      1781199694,
      1781199694,
      1781199694,
      1781199694,
      1781199751,
      1781199811,
      1781199811,
      1781199811,
      1781199991,
      1781199991,
      1781199991,
      1781199991,
      1781200051,
      1781200051,
      1781200231,
      1781200231,
      1781200231,
      1781200291,
      1781200291,
      1781200291,
      1781200412,
      1781200412,
      1781200472,
      1781200472,
      1781200532,
      1781200532,
      1781200532,
      1781200592,
      1781200592,
      1781200652,
      1781200652,
      1781200652,
      1781200652,
      1781200712,
      1781200772,
      1781200772,
      1781200782,
      1781200782,
      1781200782,
      1781200892,
      1781200892,
      1781200892,
      1781200959,
      1781200959,
      1781201012,
      1781201019,
      1781201019,
      1781201019,
      1781201132,
      1781201132,
      1781201193,
      1781201193,
      1781201253,
      1781201253,
      1781201253,
      1781201253,
      1781201493,
      1781201493,
      1781201493,
      1781201493,
      1781201493,
      1781201673,
      1781201673,
      1781201673,
      1781201730,
      1781201730,
      1781201853,
      1781201853,
      1781201853,
      1781201914,
      1781201914,
      1781201914,
      1781201974,
      1781202034,
      1781202034
    ],
    "wof:geomhash": "5c109848eaf473bdfed3c0af8e61f514",
    "wof:id": 2031514905,
    "wof:repo": "sfomuseum-data-flights-2026-06"
  },
  "bbox": [
    -122.39166666666668,
    37.67583333333333,
    -104.66055555555556,
    40.73083333333334
  ],
  "geometry": {"coordinates":[[-122.39166666666668,37.67583333333333],[-122.39166666666668,37.67583333333333],[-122.3,37.7],[-122.3,37.7],[-122.3,37.7],[-121.99444444444444,37.88472222222222],[-121.99444444444444,37.88472222222222],[-121.99444444444444,37.88472222222222],[-121.99444444444444,37.88472222222222],[-121.79277777777777,38.03638888888889],[-121.79277777777777,38.03638888888889],[-121.79277777777777,38.03638888888889],[-121.79277777777777,38.03638888888889],[-121.69277777777778,38.11138888888889],[-121.69277777777778,38.11138888888889],[-121.69277777777778,38.11138888888889],[-121.69277777777778,38.11138888888889],[-121.69277777777778,38.11138888888889],[-121.48111111111112,38.26833333333333],[-121.48111111111112,38.26833333333333],[-121.48111111111112,38.26833333333333],[-121.48111111111112,38.26833333333333],[-121.36694444444444,38.35],[-121.36694444444444,38.35],[-121.24277777777777,38.42722222222222],[-121.24277777777777,38.42722222222222],[-121.24277777777777,38.42722222222222],[-121.24277777777777,38.42722222222222],[-121.24277777777777,38.42722222222222],[-120.84638888888888,38.67111111111111],[-120.84638888888888,38.67111111111111],[-120.84638888888888,38.67111111111111],[-120.84638888888888,38.67111111111111],[-120.84638888888888,38.67111111111111],[-120.84638888888888,38.67111111111111],[-120.56277777777777,38.843611111111116],[-120.56277777777777,38.843611111111116],[-120.56277777777777,38.843611111111116],[-120.53555555555555,38.85944444444445],[-120.53555555555555,38.85944444444445],[-120.53555555555555,38.85944444444445],[-120.4213888888889,38.92916666666667],[-120.4213888888889,38.92916666666667],[-120.4213888888889,38.92916666666667],[-120.4213888888889,38.92916666666667],[-120.27777777777777,39.01583333333333],[-120.27777777777777,39.01583333333333],[-120.24833333333333,39.03111111111111],[-119.67333333333333,39.37444444444444],[-119.67333333333333,39.37444444444444],[-119.67333333333333,39.37444444444444],[-119.67333333333333,39.37444444444444],[-119.67333333333333,39.37444444444444],[-119.67333333333333,39.37444444444444],[-119.40972222222223,39.53],[-119.40972222222223,39.53],[-119.40972222222223,39.53],[-119.40972222222223,39.53],[-119.40972222222223,39.53],[-119.40972222222223,39.53],[-119.11611111111111,39.70111111111111],[-119.08749999999999,39.7175],[-119.08749999999999,39.7175],[-119.08749999999999,39.7175],[-118.93861111111111,39.80333333333333],[-118.93861111111111,39.80333333333333],[-118.93861111111111,39.80333333333333],[-118.93861111111111,39.80333333333333],[-118.93861111111111,39.80333333333333],[-118.81888888888888,39.87083333333334],[-118.81888888888888,39.87083333333334],[-118.81888888888888,39.87083333333334],[-118.65527777777778,39.94277777777778],[-118.65527777777778,39.94277777777778],[-118.65527777777778,39.94277777777778],[-118.48944444444444,40.01],[-118.48944444444444,40.01],[-118.48944444444444,40.01],[-118.3236111111111,40.07694444444445],[-118.3236111111111,40.07694444444445],[-118.3236111111111,40.07694444444445],[-117.63555555555556,40.288888888888884],[-117.63555555555556,40.288888888888884],[-117.63555555555556,40.288888888888884],[-117.42222222222223,40.33777777777778],[-117.42222222222223,40.33777777777778],[-117.42222222222223,40.33777777777778],[-117.42222222222223,40.33777777777778],[-117.27694444444444,40.37083333333334],[-117.27694444444444,40.37083333333334],[-117.27694444444444,40.37083333333334],[-117.27694444444444,40.37083333333334],[-117.27694444444444,40.37083333333334],[-117.27694444444444,40.37083333333334],[-116.7213888888889,40.49583333333334],[-116.7213888888889,40.49583333333334],[-116.7213888888889,40.49583333333334],[-116.7213888888889,40.49583333333334],[-116.53833333333333,40.53638888888889],[-116.53833333333333,40.53638888888889],[-116.53833333333333,40.53638888888889],[-116.5411111111111,40.535555555555554],[-116.35333333333332,40.569722222222225],[-116.35333333333332,40.569722222222225],[-116.35333333333332,40.569722222222225],[-116.16833333333334,40.585],[-116.16833333333334,40.585],[-116.16833333333334,40.585],[-116.16833333333334,40.585],[-116.16833333333334,40.585],[-115.98,40.598888888888894],[-115.98,40.598888888888894],[-115.98,40.598888888888894],[-115.60083333333333,40.62638888888889],[-115.60083333333333,40.62638888888889],[-115.60083333333333,40.62638888888889],[-115.60083333333333,40.62638888888889],[-115.60083333333333,40.62638888888889],[-115.03083333333333,40.66583333333333],[-115.03083333333333,40.66583333333333],[-115.03083333333333,40.66583333333333],[-115.03083333333333,40.66583333333333],[-114.83999999999999,40.67833333333333],[-114.83999999999999,40.67833333333333],[-114.83999999999999,40.67833333333333],[-114.64277777777778,40.687777777777775],[-114.64277777777778,40.687777777777775],[-114.64277777777778,40.687777777777775],[-114.64277777777778,40.687777777777775],[-114.4538888888889,40.69611111111111],[-114.4538888888889,40.69611111111111],[-114.4538888888889,40.69611111111111],[-114.4538888888889,40.69611111111111],[-114.4538888888889,40.69611111111111],[-114.4538888888889,40.69611111111111],[-113.69,40.72805555555556],[-113.69,40.72805555555556],[-113.69,40.72805555555556],[-113.69,40.72805555555556],[-113.49805555555555,40.72833333333333],[-113.49805555555555,40.72833333333333],[-113.49805555555555,40.72833333333333],[-113.49805555555555,40.72833333333333],[-113.49805555555555,40.72833333333333],[-112.53527777777778,40.73083333333334],[-112.53527777777778,40.73083333333334],[-112.53527777777778,40.73083333333334],[-112.53527777777778,40.73083333333334],[-112.3425,40.73027777777778],[-112.3425,40.73027777777778],[-112.3425,40.73027777777778],[-112.3425,40.73027777777778],[-112.3425,40.73027777777778],[-112.14944444444446,40.72944444444445],[-112.14944444444446,40.72944444444445],[-112.14944444444446,40.72944444444445],[-111.92305555555556,40.72833333333333],[-111.92305555555556,40.72833333333333],[-111.73194444444445,40.72666666666667],[-111.73194444444445,40.72666666666667],[-111.35166666666666,40.723055555555554],[-111.35166666666666,40.723055555555554],[-111.35166666666666,40.723055555555554],[-111.35166666666666,40.723055555555554],[-111.35166666666666,40.723055555555554],[-110.77972222222222,40.71472222222223],[-110.77972222222222,40.71472222222223],[-110.77972222222222,40.71472222222223],[-110.77972222222222,40.71472222222223],[-110.39472222222223,40.70777777777778],[-110.39472222222223,40.70777777777778],[-110.2025,40.70388888888889],[-110.2025,40.70388888888889],[-110.2025,40.70388888888889],[-110.2025,40.70388888888889],[-110.2025,40.70388888888889],[-109.83527777777778,40.695277777777775],[-109.83527777777778,40.695277777777775],[-109.83527777777778,40.695277777777775],[-109.44861111111112,40.684999999999995],[-109.44861111111112,40.684999999999995],[-109.44861111111112,40.684999999999995],[-109.44861111111112,40.684999999999995],[-109.2538888888889,40.67916666666667],[-109.05805555555555,40.67333333333333],[-109.05805555555555,40.67333333333333],[-109.05805555555555,40.67333333333333],[-108.47111111111111,40.63444444444444],[-108.47111111111111,40.63444444444444],[-108.47111111111111,40.63444444444444],[-108.47111111111111,40.63444444444444],[-108.27388888888889,40.62111111111111],[-108.27388888888889,40.62111111111111],[-107.67527777777778,40.57805555555556],[-107.67527777777778,40.57805555555556],[-107.67527777777778,40.57805555555556],[-107.48194444444445,40.56361111111111],[-107.48194444444445,40.56361111111111],[-107.48194444444445,40.56361111111111],[-107.0911111111111,40.533055555555556],[-107.0911111111111,40.533055555555556],[-106.89777777777779,40.5175],[-106.89777777777779,40.5175],[-106.70833333333334,40.50194444444445],[-106.70833333333334,40.50194444444445],[-106.70833333333334,40.50194444444445],[-106.51916666666666,40.48638888888889],[-106.51916666666666,40.48638888888889],[-106.33361111111111,40.469722222222224],[-106.33361111111111,40.469722222222224],[-106.33361111111111,40.469722222222224],[-106.33361111111111,40.469722222222224],[-106.14666666666668,40.4525],[-105.97555555555556,40.4375],[-105.97555555555556,40.4375],[-105.91666666666667,40.43333333333333],[-105.91666666666667,40.43333333333333],[-105.91666666666667,40.43333333333333],[-105.6261111111111,40.38722222222222],[-105.6261111111111,40.38722222222222],[-105.6261111111111,40.38722222222222],[-105.43333333333334,40.35],[-105.43333333333334,40.35],[-105.32777777777777,40.32277777777778],[-105.31666666666666,40.31666666666667],[-105.31666666666666,40.31666666666667],[-105.31666666666666,40.31666666666667],[-105.11611111111111,40.19694444444444],[-105.11611111111111,40.19694444444444],[-105.01666666666667,40.135555555555555],[-105.01666666666667,40.135555555555555],[-104.92833333333334,40.06777777777778],[-104.92833333333334,40.06777777777778],[-104.92833333333334,40.06777777777778],[-104.92833333333334,40.06777777777778],[-104.80916666666667,39.775555555555556],[-104.80916666666667,39.775555555555556],[-104.80916666666667,39.775555555555556],[-104.80916666666667,39.775555555555556],[-104.80916666666667,39.775555555555556],[-104.80055555555555,39.58361111111111],[-104.80055555555555,39.58361111111111],[-104.80055555555555,39.58361111111111],[-104.73333333333333,39.583333333333336],[-104.73333333333333,39.583333333333336],[-104.68333333333334,39.69],[-104.68333333333334,39.69],[-104.68333333333334,39.69],[-104.66527777777779,39.73833333333334],[-104.66527777777779,39.73833333333334],[-104.66527777777779,39.73833333333334],[-104.66166666666668,39.78666666666666],[-104.66055555555556,39.83083333333334],[-104.66055555555556,39.83083333333334]],"type":"LineString"}
}
