{
  "id": 2031530847,
  "type": "Feature",
  "properties": {
    "geom:area": 0,
    "geom:bbox": "-122.826944,37.925278,-122.227222,45.646111",
    "geom:latitude": 41.87494875997735,
    "geom:longitude": -122.5212710219876,
    "src:alt_label": "swim-path",
    "src:geom": "swim",
    "swim:altitudes": [
      "108",
      "108",
      "108",
      "108",
      "108",
      "146",
      "146",
      "146",
      "146",
      "208",
      "208",
      "208",
      "222",
      "222",
      "222",
      "238",
      "238",
      "238",
      "240",
      "270",
      "286",
      "286",
      "286",
      "286",
      "308",
      "330",
      "331",
      "331",
      "331",
      "331",
      "340",
      "340",
      "340",
      "340",
      "340",
      "351",
      "351",
      "351",
      "358C",
      "358C",
      "360C",
      "360C",
      "360C",
      "360C",
      "360C",
      "360C",
      "360C",
      "360C",
      "360C",
      "360C",
      "360C",
      "360C",
      "360C",
      "360C",
      "360C",
      "360C",
      "360C",
      "360C",
      "360C",
      "360C",
      "360C",
      "360C",
      "360C",
      "360C",
      "360C",
      "360C",
      "360C",
      "360C",
      "360C",
      "360C",
      "360C",
      "360C",
      "360C",
      "360C",
      "360C",
      "360C",
      "360C",
      "360C",
      "360C",
      "360C",
      "360C",
      "360C",
      "360C",
      "360C",
      "360C",
      "360C",
      "360C",
      "360C",
      "360C",
      "360C",
      "360C",
      "360C",
      "360C",
      "360C",
      "360C",
      "360C",
      "360C",
      "360C",
      "360C",
      "360C",
      "360C",
      "360C",
      "360C",
      "360",
      "360",
      "360",
      "360",
      "360",
      "360",
      "360",
      "284",
      "284",
      "284",
      "284",
      "284",
      "284",
      "199",
      "199",
      "199",
      "197",
      "197",
      "197",
      "197",
      "179",
      "179",
      "179",
      "179",
      "179",
      "163",
      "163",
      "147",
      "147",
      "147",
      "132",
      "118",
      "118",
      "118",
      "118",
      "118",
      "115",
      "115",
      "081",
      "081",
      "081",
      "068",
      "068",
      "068",
      "065",
      "065",
      "049",
      "049",
      "049",
      "048",
      "037",
      "037",
      "037",
      "037",
      "025",
      "025",
      "024",
      "016",
      "016",
      "015",
      "015",
      "007",
      "007",
      "007",
      "007",
      "007",
      "007"
    ],
    "swim:geom": "path",
    "swim:speeds": [
      301,
      301,
      301,
      301,
      301,
      343,
      343,
      343,
      343,
      374,
      374,
      374,
      389,
      389,
      389,
      404,
      404,
      404,
      399,
      412,
      417,
      417,
      417,
      417,
      435,
      444,
      443,
      443,
      443,
      443,
      446,
      446,
      446,
      446,
      446,
      452,
      452,
      452,
      447,
      447,
      448,
      448,
      447,
      447,
      448,
      448,
      448,
      448,
      448,
      448,
      447,
      447,
      447,
      447,
      447,
      447,
      446,
      446,
      446,
      446,
      445,
      445,
      445,
      445,
      445,
      447,
      447,
      447,
      447,
      447,
      447,
      448,
      448,
      448,
      448,
      447,
      447,
      447,
      447,
      447,
      447,
      446,
      446,
      446,
      446,
      446,
      445,
      445,
      445,
      441,
      441,
      441,
      441,
      441,
      441,
      440,
      440,
      440,
      440,
      440,
      440,
      440,
      440,
      442,
      443,
      443,
      443,
      443,
      443,
      443,
      413,
      413,
      413,
      413,
      413,
      413,
      345,
      345,
      345,
      344,
      348,
      348,
      348,
      335,
      335,
      339,
      339,
      339,
      333,
      333,
      320,
      320,
      320,
      297,
      287,
      287,
      287,
      287,
      287,
      291,
      291,
      275,
      275,
      275,
      270,
      270,
      270,
      273,
      273,
      286,
      286,
      286,
      283,
      215,
      215,
      215,
      215,
      166,
      166,
      170,
      153,
      153,
      157,
      157,
      158,
      158,
      158,
      156,
      156,
      156
    ],
    "swim:timestamps": [
      1781361555,
      1781361555,
      1781361555,
      1781361555,
      1781361555,
      1781361675,
      1781361675,
      1781361675,
      1781361675,
      1781361863,
      1781361863,
      1781361863,
      1781361915,
      1781361915,
      1781361915,
      1781361975,
      1781361975,
      1781361975,
      1781361983,
      1781362095,
      1781362163,
      1781362163,
      1781362163,
      1781362163,
      1781362276,
      1781362396,
      1781362404,
      1781362404,
      1781362404,
      1781362404,
      1781362456,
      1781362456,
      1781362524,
      1781362524,
      1781362524,
      1781362584,
      1781362584,
      1781362584,
      1781362636,
      1781362636,
      1781362644,
      1781362644,
      1781362756,
      1781362756,
      1781362816,
      1781362816,
      1781362876,
      1781362876,
      1781362936,
      1781362936,
      1781362996,
      1781362996,
      1781363004,
      1781363004,
      1781363064,
      1781363064,
      1781363125,
      1781363125,
      1781363125,
      1781363125,
      1781363185,
      1781363185,
      1781363185,
      1781363365,
      1781363365,
      1781363477,
      1781363477,
      1781363477,
      1781363486,
      1781363486,
      1781363486,
      1781363597,
      1781363597,
      1781363606,
      1781363606,
      1781363657,
      1781363657,
      1781363657,
      1781363666,
      1781363666,
      1781363717,
      1781363726,
      1781363726,
      1781363786,
      1781363786,
      1781363786,
      1781363846,
      1781363846,
      1781363846,
      1781364026,
      1781364026,
      1781364026,
      1781364026,
      1781364026,
      1781364026,
      1781364207,
      1781364207,
      1781364207,
      1781364207,
      1781364267,
      1781364267,
      1781364267,
      1781364267,
      1781364327,
      1781364447,
      1781364447,
      1781364447,
      1781364447,
      1781364447,
      1781364447,
      1781364687,
      1781364687,
      1781364687,
      1781364687,
      1781364687,
      1781364687,
      1781364970,
      1781364970,
      1781364970,
      1781364976,
      1781364988,
      1781364988,
      1781364988,
      1781365036,
      1781365036,
      1781365048,
      1781365048,
      1781365048,
      1781365108,
      1781365108,
      1781365168,
      1781365168,
      1781365168,
      1781365228,
      1781365276,
      1781365276,
      1781365276,
      1781365276,
      1781365276,
      1781365288,
      1781365288,
      1781365468,
      1781365468,
      1781365468,
      1781365516,
      1781365516,
      1781365516,
      1781365529,
      1781365529,
      1781365577,
      1781365577,
      1781365577,
      1781365589,
      1781365709,
      1781365709,
      1781365709,
      1781365709,
      1781365763,
      1781365763,
      1781365769,
      1781365823,
      1781365823,
      1781365829,
      1781365829,
      1781365883,
      1781365883,
      1781365883,
      1781365889,
      1781365889,
      1781365889
    ],
    "wof:geomhash": "b71b06e891d964cf66aaa0252185f6f7",
    "wof:id": 2031530847,
    "wof:repo": "sfomuseum-data-flights-2026-06"
  },
  "bbox": [
    -122.82694444444444,
    37.92527777777777,
    -122.22722222222222,
    45.64611111111111
  ],
  "geometry": {"coordinates":[[-122.26694444444445,37.92527777777777],[-122.26694444444445,37.92527777777777],[-122.26694444444445,37.92527777777777],[-122.26694444444445,37.92527777777777],[-122.26694444444445,37.92527777777777],[-122.25166666666667,38.109722222222224],[-122.25166666666667,38.109722222222224],[-122.25166666666667,38.109722222222224],[-122.25166666666667,38.109722222222224],[-122.22722222222222,38.42777777777778],[-122.22722222222222,38.42777777777778],[-122.22722222222222,38.42777777777778],[-122.24666666666667,38.52472222222222],[-122.24666666666667,38.52472222222222],[-122.24666666666667,38.52472222222222],[-122.25583333333333,38.63638888888889],[-122.25583333333333,38.63638888888889],[-122.25583333333333,38.63638888888889],[-122.25527777777778,38.64722222222222],[-122.27416666666666,38.85666666666667],[-122.285,38.994166666666665],[-122.285,38.994166666666665],[-122.285,38.994166666666665],[-122.285,38.994166666666665],[-122.30444444444444,39.21555555555556],[-122.32555555555555,39.46472222222223],[-122.32583333333334,39.48305555555556],[-122.32583333333334,39.48305555555556],[-122.32583333333334,39.48305555555556],[-122.32583333333334,39.48305555555556],[-122.33555555555554,39.58361111111111],[-122.33555555555554,39.58361111111111],[-122.34722222222221,39.731944444444444],[-122.34722222222221,39.731944444444444],[-122.34722222222221,39.731944444444444],[-122.35888888888888,39.85722222222223],[-122.35888888888888,39.85722222222223],[-122.35888888888888,39.85722222222223],[-122.36749999999999,39.95666666666667],[-122.36749999999999,39.95666666666667],[-122.36944444444444,39.980000000000004],[-122.36944444444444,39.980000000000004],[-122.38972222222223,40.21361111111111],[-122.38972222222223,40.21361111111111],[-122.40055555555556,40.33916666666667],[-122.40055555555556,40.33916666666667],[-122.4113888888889,40.46333333333334],[-122.4113888888889,40.46333333333334],[-122.42222222222223,40.58722222222222],[-122.42222222222223,40.58722222222222],[-122.43333333333334,40.71277777777778],[-122.43333333333334,40.71277777777778],[-122.43555555555555,40.736111111111114],[-122.43555555555555,40.736111111111114],[-122.44638888888889,40.86083333333333],[-122.44638888888889,40.86083333333333],[-122.45722222222223,40.98305555555556],[-122.45722222222223,40.98305555555556],[-122.45722222222223,40.98305555555556],[-122.45722222222223,40.98305555555556],[-122.46805555555555,41.10611111111111],[-122.46805555555555,41.10611111111111],[-122.46805555555555,41.10611111111111],[-122.5,41.45944444444445],[-122.5,41.45944444444445],[-122.52277777777778,41.70944444444445],[-122.52277777777778,41.70944444444445],[-122.52277777777778,41.70944444444445],[-122.52277777777778,41.71027777777778],[-122.52277777777778,41.71027777777778],[-122.52277777777778,41.71027777777778],[-122.54555555555555,41.961111111111116],[-122.54555555555555,41.961111111111116],[-122.54527777777777,41.96],[-122.54527777777777,41.96],[-122.55694444444444,42.086111111111116],[-122.55694444444444,42.086111111111116],[-122.55694444444444,42.086111111111116],[-122.55694444444444,42.085],[-122.55694444444444,42.085],[-122.56638888888888,42.186388888888885],[-122.56861111111111,42.209722222222226],[-122.56861111111111,42.209722222222226],[-122.58,42.335],[-122.58,42.335],[-122.58,42.335],[-122.5911111111111,42.456944444444446],[-122.5911111111111,42.456944444444446],[-122.5911111111111,42.456944444444446],[-122.62638888888888,42.83388888888889],[-122.62638888888888,42.83388888888889],[-122.62638888888888,42.83388888888889],[-122.62638888888888,42.83388888888889],[-122.62638888888888,42.83388888888889],[-122.62638888888888,42.83388888888889],[-122.66111111111111,43.19916666666666],[-122.66111111111111,43.19916666666666],[-122.66111111111111,43.19916666666666],[-122.66111111111111,43.19916666666666],[-122.67277777777778,43.32166666666667],[-122.67277777777778,43.32166666666667],[-122.67277777777778,43.32166666666667],[-122.67277777777778,43.32166666666667],[-122.68444444444445,43.44444444444444],[-122.70833333333334,43.69027777777777],[-122.70833333333334,43.69027777777777],[-122.70833333333334,43.69027777777777],[-122.70833333333334,43.69027777777777],[-122.70833333333334,43.69027777777777],[-122.70833333333334,43.69027777777777],[-122.75166666666667,44.16444444444444],[-122.75166666666667,44.16444444444444],[-122.75166666666667,44.16444444444444],[-122.75166666666667,44.16444444444444],[-122.75166666666667,44.16444444444444],[-122.75166666666667,44.16444444444444],[-122.7025,44.661944444444444],[-122.7025,44.661944444444444],[-122.7025,44.661944444444444],[-122.70222222222222,44.67055555555555],[-122.70111111111112,44.67388888888889],[-122.70111111111112,44.67388888888889],[-122.70111111111112,44.67388888888889],[-122.69416666666667,44.76638888888889],[-122.69416666666667,44.76638888888889],[-122.69194444444445,44.7675],[-122.69194444444445,44.7675],[-122.69194444444445,44.7675],[-122.68277777777779,44.8575],[-122.68277777777779,44.8575],[-122.67361111111111,44.9475],[-122.67361111111111,44.9475],[-122.67361111111111,44.9475],[-122.66444444444446,45.040277777777774],[-122.6563888888889,45.109722222222224],[-122.6563888888889,45.109722222222224],[-122.6563888888889,45.109722222222224],[-122.6563888888889,45.109722222222224],[-122.6563888888889,45.109722222222224],[-122.65611111111112,45.120555555555555],[-122.65611111111112,45.120555555555555],[-122.69555555555556,45.345555555555556],[-122.69555555555556,45.345555555555556],[-122.69555555555556,45.345555555555556],[-122.73055555555555,45.40416666666667],[-122.73055555555555,45.40416666666667],[-122.73055555555555,45.40416666666667],[-122.73444444444445,45.41611111111111],[-122.73444444444445,45.41611111111111],[-122.77083333333333,45.47944444444445],[-122.77083333333333,45.47944444444445],[-122.77083333333333,45.47944444444445],[-122.77444444444444,45.48916666666667],[-122.82694444444444,45.62027777777778],[-122.82694444444444,45.62027777777778],[-122.82694444444444,45.62027777777778],[-122.82694444444444,45.62027777777778],[-122.78055555555555,45.645833333333336],[-122.78055555555555,45.645833333333336],[-122.775,45.64611111111111],[-122.7213888888889,45.63194444444444],[-122.7213888888889,45.63194444444444],[-122.71666666666667,45.630833333333335],[-122.71666666666667,45.630833333333335],[-122.66472222222222,45.61194444444445],[-122.66472222222222,45.61194444444445],[-122.66472222222222,45.61194444444445],[-122.66111111111111,45.61055555555556],[-122.66111111111111,45.61055555555556],[-122.66111111111111,45.61055555555556]],"type":"LineString"}
}
