{
  "id": 2031517779,
  "type": "Feature",
  "properties": {
    "geom:area": 0,
    "geom:bbox": "-122.340833,32.571111,-115.500000,37.604167",
    "geom:latitude": 34.959636647756575,
    "geom:longitude": -119.1392855715633,
    "src:alt_label": "swim-path",
    "src:geom": "swim",
    "swim:altitudes": [
      "360C",
      "360C",
      "360C",
      "360C",
      "360C",
      "360C",
      "360C",
      "360C",
      "360C",
      "360C",
      "360C",
      "360C",
      "360C",
      "360C",
      "360C",
      "360C",
      "360C",
      "360C",
      "360C",
      "360C",
      "360C",
      "360C",
      "360C",
      "360C",
      "360",
      "360",
      "360",
      "295",
      "251",
      "149",
      "094",
      "074",
      "063",
      "043",
      "033",
      "019",
      "003",
      "003"
    ],
    "swim:geom": "path",
    "swim:speeds": [
      453,
      453,
      450,
      450,
      450,
      450,
      449,
      450,
      450,
      452,
      452,
      454,
      454,
      449,
      440,
      440,
      445,
      444,
      441,
      439,
      438,
      436,
      435,
      435,
      433,
      434,
      434,
      423,
      392,
      357,
      270,
      237,
      236,
      215,
      200,
      172,
      148,
      148
    ],
    "swim:timestamps": [
      1781326037,
      1781326037,
      1781326217,
      1781326217,
      1781326397,
      1781326457,
      1781326578,
      1781326758,
      1781326758,
      1781326938,
      1781326938,
      1781327179,
      1781327179,
      1781327419,
      1781327590,
      1781327590,
      1781327770,
      1781327900,
      1781328010,
      1781328130,
      1781328200,
      1781328430,
      1781328500,
      1781328500,
      1781328621,
      1781328851,
      1781328851,
      1781329031,
      1781329154,
      1781329451,
      1781329692,
      1781329815,
      1781329872,
      1781329992,
      1781330052,
      1781330169,
      1781330292,
      1781330292
    ],
    "wof:geomhash": "b7b3601225c1da179d7e85ac697dec35",
    "wof:id": 2031517779,
    "wof:repo": "sfomuseum-data-flights-2026-06"
  },
  "bbox": [
    -122.34083333333332,
    32.571111111111115,
    -115.5,
    37.60416666666667
  ],
  "geometry": {"coordinates":[[-115.5,32.571111111111115],[-115.5,32.571111111111115],[-115.8761111111111,32.77027777777778],[-115.8761111111111,32.77027777777778],[-116.27416666666666,32.978611111111114],[-116.40194444444445,33.044999999999995],[-116.63805555555557,33.18388888888889],[-116.9563888888889,33.448055555555555],[-116.9563888888889,33.448055555555555],[-117.28277777777778,33.71666666666667],[-117.28277777777778,33.71666666666667],[-117.71416666666667,34.066111111111105],[-117.71416666666667,34.066111111111105],[-118.19111111111111,34.367777777777775],[-118.51888888888888,34.57027777777778],[-118.51888888888888,34.57027777777778],[-118.87833333333333,34.79611111111111],[-119.14333333333335,34.95916666666667],[-119.36027777777777,35.091944444444444],[-119.59944444444444,35.23694444444445],[-119.73916666666666,35.32138888888889],[-120.21638888888889,35.606944444444444],[-120.35805555555555,35.68722222222222],[-120.35805555555555,35.68722222222222],[-120.61166666666666,35.80361111111111],[-121.05749999999999,36.08972222222222],[-121.05749999999999,36.08972222222222],[-121.40805555555556,36.31194444444444],[-121.63333333333334,36.45],[-121.93722222222223,36.89527777777778],[-122.05194444444444,37.20444444444445],[-122.15,37.31666666666667],[-122.20611111111111,37.34777777777778],[-122.12972222222221,37.45611111111111],[-122.13666666666667,37.50861111111111],[-122.25,37.56666666666667],[-122.34083333333332,37.60416666666667],[-122.34083333333332,37.60416666666667]],"type":"LineString"}
}
