{
  "id": 2031542501,
  "type": "Feature",
  "properties": {
    "geom:area": 0,
    "geom:bbox": "-122.390000,37.620000,-74.170000,41.270000",
    "geom:latitude": 40.246044097945294,
    "geom:longitude": -98.45260588479502,
    "src:alt_label": "swim-route",
    "src:geom": "swim",
    "swim:geom": "route",
    "wof:geomhash": "5e281041ccdb3b1555b1c020cdb94f75",
    "wof:id": 2031542501,
    "wof:repo": "sfomuseum-data-flights-2026-06"
  },
  "bbox": [
    -122.39,
    37.62,
    -74.17,
    41.27
  ],
  "geometry": {"coordinates":[[-122.38,37.62],[-122.3,37.68],[-122.32,37.71],[-122.32,37.71],[-122.34,37.75],[-122.35,37.77],[-122.35,37.77],[-122.36,37.79],[-122.39,37.84],[-122.39,37.85],[-122.39,37.86],[-122.38,37.94],[-122.31,37.96],[-122.15,37.99],[-122.1,37.99],[-122,37.99],[-121.89,37.99],[-121.81,37.99],[-121.6,38.02],[-121.44,38.04],[-121.4,38.04],[-121.4,38.04],[-121.19,38.08],[-121.05,38.1],[-121.02,38.11],[-120.93,38.12],[-120.62,38.17],[-120.59,38.18],[-120.5,38.19],[-120.48,38.19],[-120.38,38.21],[-120.27,38.23],[-119.97,38.27],[-119.83,38.29],[-119.2,38.39],[-118.72,38.48],[-118.48,38.51],[-117.4,38.66],[-117.29,38.67],[-116.75,38.73],[-116.67,38.75],[-116.48,38.79],[-116.37,38.8],[-115.2,39.02],[-113.63,39.29],[-113.32,39.35],[-112.48,39.48],[-109.86,39.85],[-109.4,39.92],[-107.2,40.17],[-105.08,40.38],[-104.63,40.42],[-104.09,40.46],[-103.79,40.49],[-101.29,40.65],[-100.43,40.7],[-99.44,40.74],[-99.05,40.75],[-95.83,40.82],[-93.83,40.82],[-93.54,40.82],[-92.37,40.8],[-92.22,40.79],[-91.15,40.83],[-88.99,40.84],[-88.04,40.84],[-86.78,40.82],[-86.05,40.8],[-85.62,40.79],[-85.53,40.79],[-84.69,40.76],[-84.52,40.75],[-84.34,40.76],[-84.04,40.82],[-83.04,40.96],[-80.84,41.21],[-79.93,41.21],[-79.79,41.27],[-78.44,41.2],[-78.24,41.2],[-78.14,41.2],[-77.9,41.19],[-77.65,41.19],[-77.56,41.19],[-77.16,41.18],[-77.08,41.17],[-76.58,41.16],[-76.49,41.16],[-76.47,41.04],[-76.26,41.01],[-76.19,41],[-76.12,40.99],[-75.82,40.95],[-75.74,40.94],[-75.67,40.93],[-75.6,40.92],[-75.52,40.91],[-75.48,40.91],[-75.45,40.9],[-75.4,40.9],[-75.37,40.89],[-75.26,40.88],[-75.22,40.87],[-75.15,40.86],[-75.08,40.85],[-75,40.84],[-74.92,40.83],[-74.92,40.83],[-74.87,40.82],[-74.82,40.81],[-74.76,40.8],[-74.71,40.79],[-74.7,40.79],[-74.65,40.78],[-74.61,40.77],[-74.49,40.75],[-74.44,40.74],[-74.38,40.73],[-74.27,40.71],[-74.17,40.69]],"type":"LineString"}
}
