{
  "id": 2031480857,
  "type": "Feature",
  "properties": {
    "geom:area": 0,
    "geom:bbox": "-127.438056,37.333333,-122.083889,40.834444",
    "geom:latitude": 39.27900707423661,
    "geom:longitude": -124.24406877748426,
    "src:alt_label": "swim-path",
    "src:geom": "swim",
    "swim:altitudes": [
      "370C",
      "370C",
      "370C",
      "370C",
      "370C",
      "370C",
      "370C",
      "370C",
      "370C",
      "370C",
      "370C",
      "370C",
      "370C",
      "370C",
      "370C",
      "370C",
      "370C",
      "370C",
      "370C",
      "370C",
      "370C",
      "370C",
      "370C",
      "370C",
      "370C",
      "370C",
      "370",
      "370",
      "370C",
      "370C",
      "370C",
      "370C",
      "370C",
      "370C",
      "370C",
      "370C",
      "370C",
      "370C",
      "352",
      "352",
      "352",
      "352",
      "312",
      "312",
      "312",
      "312",
      "280",
      "280",
      "273",
      "273",
      "273",
      "273",
      "273",
      "245",
      "245",
      "245",
      "232",
      "232",
      "232",
      "215",
      "215",
      "199",
      "199",
      "199",
      "182",
      "182",
      "182",
      "170",
      "166",
      "154",
      "154",
      "131",
      "131",
      "131",
      "121",
      "121",
      "108",
      "108",
      "103",
      "091",
      "091",
      "091",
      "091",
      "091",
      "070",
      "070",
      "070",
      "070",
      "070",
      "070",
      "070",
      "070",
      "070",
      "070",
      "070",
      "070",
      "056",
      "056",
      "049",
      "049",
      "049",
      "049",
      "045",
      "043",
      "038",
      "038",
      "035",
      "035",
      "029",
      "026",
      "026",
      "017",
      "017",
      "008",
      "008",
      "003",
      "003"
    ],
    "swim:geom": "path",
    "swim:speeds": [
      599,
      599,
      599,
      599,
      598,
      598,
      598,
      598,
      598,
      599,
      599,
      599,
      599,
      599,
      599,
      599,
      599,
      599,
      599,
      599,
      601,
      601,
      600,
      600,
      600,
      600,
      600,
      600,
      552,
      552,
      552,
      551,
      551,
      551,
      550,
      550,
      550,
      550,
      531,
      531,
      531,
      531,
      507,
      507,
      507,
      507,
      465,
      465,
      466,
      466,
      466,
      466,
      466,
      433,
      433,
      433,
      422,
      422,
      422,
      411,
      411,
      400,
      400,
      400,
      388,
      388,
      388,
      383,
      385,
      377,
      377,
      355,
      355,
      355,
      319,
      319,
      281,
      281,
      284,
      280,
      280,
      280,
      280,
      280,
      233,
      233,
      241,
      241,
      241,
      241,
      237,
      261,
      265,
      266,
      266,
      266,
      253,
      253,
      225,
      225,
      225,
      225,
      205,
      190,
      176,
      176,
      176,
      176,
      170,
      172,
      172,
      172,
      172,
      157,
      157,
      140,
      140
    ],
    "swim:timestamps": [
      1780933946,
      1780933946,
      1780933946,
      1780933946,
      1780934006,
      1780934006,
      1780934006,
      1780934066,
      1780934066,
      1780934186,
      1780934186,
      1780934186,
      1780934186,
      1780934247,
      1780934247,
      1780934247,
      1780934247,
      1780934307,
      1780934307,
      1780934307,
      1780934427,
      1780934427,
      1780934487,
      1780934487,
      1780934487,
      1780934487,
      1780934654,
      1780934654,
      1780934847,
      1780934847,
      1780934847,
      1780934907,
      1780934907,
      1780934907,
      1780935027,
      1780935027,
      1780935027,
      1780935027,
      1780935148,
      1780935148,
      1780935148,
      1780935148,
      1780935268,
      1780935268,
      1780935268,
      1780935268,
      1780935508,
      1780935508,
      1780935568,
      1780935568,
      1780935568,
      1780935568,
      1780935568,
      1780935808,
      1780935808,
      1780935808,
      1780935868,
      1780935868,
      1780935868,
      1780935929,
      1780935929,
      1780935989,
      1780935989,
      1780935989,
      1780936042,
      1780936042,
      1780936042,
      1780936084,
      1780936109,
      1780936144,
      1780936144,
      1780936229,
      1780936229,
      1780936229,
      1780936264,
      1780936264,
      1780936444,
      1780936444,
      1780936469,
      1780936529,
      1780936529,
      1780936529,
      1780936529,
      1780936529,
      1780936744,
      1780936744,
      1780936805,
      1780936805,
      1780936805,
      1780936805,
      1780936830,
      1780936864,
      1780936890,
      1780936950,
      1780936950,
      1780936950,
      1780937010,
      1780937010,
      1780937070,
      1780937070,
      1780937070,
      1780937070,
      1780937105,
      1780937130,
      1780937165,
      1780937165,
      1780937190,
      1780937190,
      1780937225,
      1780937250,
      1780937250,
      1780937310,
      1780937310,
      1780937370,
      1780937370,
      1780937405,
      1780937405
    ],
    "wof:geomhash": "02debbdda2a3be344ad034dcaf44d2ec",
    "wof:id": 2031480857,
    "wof:repo": "sfomuseum-data-flights-2026-06"
  },
  "bbox": [
    -127.43805555555556,
    37.333333333333336,
    -122.08388888888888,
    40.83444444444444
  ],
  "geometry": {"coordinates":[[-127.43805555555556,40.83444444444444],[-127.43805555555556,40.83444444444444],[-127.43805555555556,40.83444444444444],[-127.43805555555556,40.83444444444444],[-127.25333333333333,40.74666666666667],[-127.25333333333333,40.74666666666667],[-127.25333333333333,40.74666666666667],[-127.06861111111111,40.658055555555556],[-127.06861111111111,40.658055555555556],[-126.69666666666667,40.480555555555554],[-126.69666666666667,40.480555555555554],[-126.69666666666667,40.480555555555554],[-126.69666666666667,40.480555555555554],[-126.51472222222222,40.39333333333333],[-126.51472222222222,40.39333333333333],[-126.51472222222222,40.39333333333333],[-126.51472222222222,40.39333333333333],[-126.33111111111111,40.30444444444444],[-126.33111111111111,40.30444444444444],[-126.33111111111111,40.30444444444444],[-125.96194444444444,40.12444444444444],[-125.96194444444444,40.12444444444444],[-125.78055555555555,40.035],[-125.78055555555555,40.035],[-125.78055555555555,40.035],[-125.78055555555555,40.035],[-125.28333333333333,39.78333333333333],[-125.28333333333333,39.78333333333333],[-124.64333333333335,39.734722222222224],[-124.64333333333335,39.734722222222224],[-124.64333333333335,39.734722222222224],[-124.44527777777778,39.727222222222224],[-124.44527777777778,39.727222222222224],[-124.44527777777778,39.727222222222224],[-124.05194444444444,39.71416666666667],[-124.05194444444444,39.71416666666667],[-124.05194444444444,39.71416666666667],[-124.05194444444444,39.71416666666667],[-123.66277777777778,39.70638888888889],[-123.66277777777778,39.70638888888889],[-123.66277777777778,39.70638888888889],[-123.66277777777778,39.70638888888889],[-123.29805555555555,39.67861111111111],[-123.29805555555555,39.67861111111111],[-123.29805555555555,39.67861111111111],[-123.29805555555555,39.67861111111111],[-123.06722222222221,39.200833333333335],[-123.06722222222221,39.200833333333335],[-123.02805555555555,39.07555555555556],[-123.02805555555555,39.07555555555556],[-123.02805555555555,39.07555555555556],[-123.02805555555555,39.07555555555556],[-123.02805555555555,39.07555555555556],[-122.88055555555555,38.596111111111114],[-122.88055555555555,38.596111111111114],[-122.88055555555555,38.596111111111114],[-122.84555555555555,38.481944444444444],[-122.84555555555555,38.481944444444444],[-122.84555555555555,38.481944444444444],[-122.81194444444444,38.37111111111111],[-122.81194444444444,38.37111111111111],[-122.77888888888889,38.2625],[-122.77888888888889,38.2625],[-122.77888888888889,38.2625],[-122.75,38.15],[-122.75,38.15],[-122.75,38.15],[-122.73333333333333,38.083333333333336],[-122.71805555555555,38.05444444444444],[-122.7,37.983333333333334],[-122.7,37.983333333333334],[-122.62333333333332,37.85194444444445],[-122.62333333333332,37.85194444444445],[-122.62333333333332,37.85194444444445],[-122.58333333333333,37.81666666666667],[-122.58333333333333,37.81666666666667],[-122.38333333333334,37.63333333333333],[-122.38333333333334,37.63333333333333],[-122.36083333333333,37.60416666666667],[-122.3236111111111,37.5325],[-122.3236111111111,37.5325],[-122.3236111111111,37.5325],[-122.3236111111111,37.5325],[-122.3236111111111,37.5325],[-122.36666666666666,37.333333333333336],[-122.36666666666666,37.333333333333336],[-122.38333333333334,37.38333333333333],[-122.38333333333334,37.38333333333333],[-122.38333333333334,37.38333333333333],[-122.38333333333334,37.38333333333333],[-122.37833333333333,37.401944444444446],[-122.35,37.43333333333333],[-122.31194444444444,37.43416666666666],[-122.22666666666667,37.40611111111111],[-122.22666666666667,37.40611111111111],[-122.22666666666667,37.40611111111111],[-122.13805555555557,37.41083333333333],[-122.13805555555557,37.41083333333333],[-122.08388888888888,37.45583333333334],[-122.08388888888888,37.45583333333334],[-122.08388888888888,37.45583333333334],[-122.08388888888888,37.45583333333334],[-122.1,37.5],[-122.10694444444444,37.507777777777775],[-122.13333333333334,37.516666666666666],[-122.13333333333334,37.516666666666666],[-122.16111111111111,37.530833333333334],[-122.16111111111111,37.530833333333334],[-122.2,37.55],[-122.21333333333334,37.55305555555555],[-122.21333333333334,37.55305555555555],[-122.26722222222222,37.575833333333335],[-122.26722222222222,37.575833333333335],[-122.31583333333333,37.596111111111114],[-122.31583333333333,37.596111111111114],[-122.35,37.6],[-122.35,37.6]],"type":"LineString"}
}
