{
  "id": 2031452715,
  "type": "Feature",
  "properties": {
    "geom:area": 0,
    "geom:bbox": "-122.380000,37.620000,-79.390000,43.980000",
    "geom:latitude": 41.43584459525302,
    "geom:longitude": -100.7139809857246,
    "src:alt_label": "swim-route",
    "src:geom": "swim",
    "swim:geom": "route",
    "wof:geomhash": "86b10c8f10e889d3dedd4f6d423a1f89",
    "wof:id": 2031452715,
    "wof:repo": "sfomuseum-data-flights-2026-06"
  },
  "bbox": [
    -122.38,
    37.62,
    -79.39,
    43.98
  ],
  "geometry": {"coordinates":[[-122.38,37.62],[-122.28,37.68],[-122.27,37.69],[-122.27,37.69],[-122.21,37.72],[-122.2,37.72],[-122.2,37.73],[-122.18,37.74],[-122.17,37.74],[-122.16,37.75],[-122.11,37.77],[-122.1,37.78],[-122,37.83],[-121.94,37.85],[-121.77,37.92],[-121.75,37.93],[-121.6,37.99],[-121.45,38.04],[-121.41,38.06],[-121.35,38.09],[-121.24,38.13],[-121.21,38.14],[-121.14,38.16],[-121.12,38.17],[-121.04,38.21],[-120.93,38.22],[-120.84,38.23],[-120.75,38.25],[-120.66,38.26],[-119.22,38.45],[-118.23,38.57],[-117.3,38.68],[-117.29,38.68],[-116.05,38.89],[-115.74,38.94],[-114.68,39.1],[-113.71,39.24],[-113.32,39.29],[-113.25,39.3],[-112.2,39.47],[-111.75,39.58],[-110.26,39.94],[-110.09,39.98],[-110,40],[-109.15,40.22],[-109.08,40.24],[-108,40.5],[-106,41],[-105.74,41.06],[-104.56,41.3],[-103.15,41.58],[-102,41.74],[-100.75,41.91],[-100,42],[-99.63,42.03],[-99.29,42.07],[-99.26,42.08],[-99.12,42.12],[-98.84,42.22],[-98.42,42.36],[-98,42.5],[-97.75,42.56],[-97.71,42.57],[-97.24,42.69],[-96.21,42.93],[-96.01,42.98],[-95.8,43.03],[-95.39,43.12],[-95.2,43.16],[-94.91,43.2],[-94.19,43.27],[-94,43.19],[-92.64,42.97],[-92.16,42.99],[-91.43,43.03],[-89.76,43.08],[-88.28,43.12],[-87,43.17],[-85,43.23],[-84.46,43.24],[-84.37,43.25],[-84.07,43.28],[-83.7,43.32],[-82.9,43.41],[-82.53,43.45],[-82.41,43.46],[-82.29,43.47],[-82.18,43.48],[-82.07,43.45],[-82.07,43.45],[-82.06,43.45],[-81.82,43.5],[-81.62,43.51],[-81.59,43.49],[-81.57,43.47],[-81.38,43.51],[-81.32,43.53],[-81.26,43.53],[-81.02,43.54],[-81,43.54],[-80.89,43.55],[-80.65,43.45],[-80.2,43.53],[-80.18,43.54],[-79.87,43.59],[-79.8,43.66],[-79.8,43.67],[-79.72,43.75],[-79.67,43.78],[-79.66,43.79],[-79.54,43.87],[-79.49,43.91],[-79.44,43.94],[-79.39,43.98],[-79.47,43.87],[-79.51,43.83],[-79.53,43.8],[-79.59,43.73],[-79.63,43.68]],"type":"LineString"}
}
