{
  "id": 2031633865,
  "type": "Feature",
  "properties": {
    "geom:area": 0,
    "geom:bbox": "-122.359320,37.491990,-121.258270,37.614020",
    "geom:latitude": 37.542474303855826,
    "geom:longitude": -121.81579557056114,
    "src:alt_label": "swim-approach",
    "src:geom": "swim",
    "swim:elevations": [
      4582,
      4199,
      4014,
      3923,
      3818,
      3675,
      3463,
      3357,
      3234,
      2931,
      2608,
      2465,
      2437,
      2438,
      2297,
      2211,
      2164,
      1837,
      1626,
      1586,
      1490,
      1448,
      1280,
      1064,
      1038,
      1036,
      965,
      881,
      801,
      729,
      684,
      480,
      401,
      272,
      218,
      53,
      98
    ],
    "swim:geom": "approach",
    "swim:timestamps": [
      1782434978,
      1782435023,
      1782435049,
      1782435058,
      1782435073,
      1782435088,
      1782435118,
      1782435139,
      1782435177,
      1782435207,
      1782435231,
      1782435249,
      1782435258,
      1782435285,
      1782435328,
      1782435340,
      1782435362,
      1782435418,
      1782435441,
      1782435452,
      1782435473,
      1782435482,
      1782435513,
      1782435551,
      1782435566,
      1782435575,
      1782435604,
      1782435621,
      1782435637,
      1782435652,
      1782435662,
      1782435714,
      1782435736,
      1782435773,
      1782435786,
      1782435827,
      1782435845
    ],
    "wof:geomhash": "70a47a6827355050871e5e1a8071b81c",
    "wof:id": 2031633865,
    "wof:repo": "sfomuseum-data-flights-2026-06"
  },
  "bbox": [
    -122.35932,
    37.49199,
    -121.25827,
    37.61402
  ],
  "geometry": {"coordinates":[[-121.25827,37.59328],[-121.34517,37.58295],[-121.39436,37.57749],[-121.41172,37.57543],[-121.44051,37.57209],[-121.46888,37.56877],[-121.52504,37.56224],[-121.56305,37.55785],[-121.62582,37.54998],[-121.66934,37.53981],[-121.70509,37.53124],[-121.73346,37.52448],[-121.74679,37.52131],[-121.78427,37.5124],[-121.84408,37.49817],[-121.86051,37.49422],[-121.89147,37.49199],[-121.96975,37.49623],[-122.00142,37.49797],[-122.01677,37.49883],[-122.0432,37.50035],[-122.05431,37.50099],[-122.09148,37.50332],[-122.13141,37.51844],[-122.14647,37.52482],[-122.15498,37.5285],[-122.18035,37.53916],[-122.19523,37.54541],[-122.20947,37.55145],[-122.2225,37.55686],[-122.23094,37.56046],[-122.2711,37.57738],[-122.28592,37.58357],[-122.3116,37.59447],[-122.32036,37.59808],[-122.34748,37.60944],[-122.35932,37.61402]],"type":"LineString"}
}
