{
  "id": 2031651429,
  "type": "Feature",
  "properties": {
    "geom:area": 0,
    "geom:bbox": "-122.525380,37.623390,-121.252480,38.087500",
    "geom:latitude": 37.91934004479192,
    "geom:longitude": -121.99003344759363,
    "src:alt_label": "swim-takeoff",
    "src:geom": "swim",
    "swim:elevations": [
      152,
      592,
      754,
      1068,
      1176,
      1296,
      1474,
      2092,
      2542,
      2698,
      3137,
      3249,
      3324,
      3535,
      3958,
      4064,
      4166,
      4492,
      4800,
      5045,
      5203,
      5455,
      5594,
      5771,
      6053,
      6158,
      6419,
      6492,
      6665
    ],
    "swim:geom": "takeoff",
    "swim:timestamps": [
      1782541423,
      1782541450,
      1782541464,
      1782541495,
      1782541514,
      1782541535,
      1782541573,
      1782541613,
      1782541646,
      1782541660,
      1782541704,
      1782541731,
      1782541746,
      1782541777,
      1782541825,
      1782541835,
      1782541845,
      1782541880,
      1782541911,
      1782541943,
      1782541959,
      1782541992,
      1782542023,
      1782542048,
      1782542097,
      1782542116,
      1782542158,
      1782542171,
      1782542198
    ],
    "wof:geomhash": "990043e25a852f1205c30fb490e0cac1",
    "wof:id": 2031651429,
    "wof:repo": "sfomuseum-data-flights-2026-06"
  },
  "bbox": [
    -122.52538,
    37.62339,
    -121.25248,
    38.0875
  ],
  "geometry": {"coordinates":[[-122.38597,37.62339],[-122.40791,37.63283],[-122.41906,37.63763],[-122.44323,37.64759],[-122.4594,37.65506],[-122.47979,37.66412],[-122.52025,37.68734],[-122.52455,37.7376],[-122.52538,37.77843],[-122.51944,37.79547],[-122.4562,37.82923],[-122.40679,37.84496],[-122.37706,37.85292],[-122.31203,37.87065],[-122.20719,37.89909],[-122.18349,37.90543],[-122.16014,37.91164],[-122.07903,37.93336],[-122.00882,37.95209],[-121.92968,37.9717],[-121.8898,37.97868],[-121.80681,37.9929],[-121.72795,38.00655],[-121.66095,38.01807],[-121.53126,38.04032],[-121.479,38.04924],[-121.36348,38.0688],[-121.32817,38.07473],[-121.25248,38.0875]],"type":"LineString"}
}
