{
  "id": 2031432661,
  "type": "Feature",
  "properties": {
    "geom:area": 0,
    "geom:bbox": "-122.711760,36.718000,-122.272340,37.667660",
    "geom:latitude": 37.23450969585886,
    "geom:longitude": -122.54573270053322,
    "src:alt_label": "swim-takeoff",
    "src:geom": "swim",
    "swim:elevations": [
      152,
      219,
      465,
      571,
      1023,
      1146,
      1797,
      2133,
      2345,
      2805,
      2960,
      3462,
      3582,
      3814,
      4294,
      4905,
      5290,
      5561,
      5588,
      5684,
      5901,
      5986,
      6305,
      6595,
      7052,
      7125,
      7191,
      7456,
      7550,
      7640,
      7855,
      8078
    ],
    "swim:geom": "takeoff",
    "swim:timestamps": [
      1780383890,
      1780383895,
      1780383921,
      1780383936,
      1780383981,
      1780383999,
      1780384047,
      1780384075,
      1780384091,
      1780384130,
      1780384142,
      1780384187,
      1780384205,
      1780384242,
      1780384287,
      1780384343,
      1780384376,
      1780384403,
      1780384406,
      1780384415,
      1780384436,
      1780384445,
      1780384478,
      1780384510,
      1780384558,
      1780384567,
      1780384573,
      1780384606,
      1780384618,
      1780384630,
      1780384655,
      1780384684
    ],
    "wof:geomhash": "ecd12629742523b07e34a341a6d885ce",
    "wof:id": 2031432661,
    "wof:repo": "sfomuseum-data-flights-2026-06"
  },
  "bbox": [
    -122.71176,
    36.718,
    -122.27234,
    37.66766
  ],
  "geometry": {"coordinates":[[-122.39119,37.62558],[-122.39553,37.62745],[-122.4195,37.6379],[-122.43464,37.64425],[-122.48673,37.66677],[-122.51332,37.66766],[-122.56075,37.62243],[-122.59117,37.59725],[-122.60962,37.58137],[-122.65422,37.54364],[-122.66822,37.53197],[-122.71176,37.4831],[-122.70816,37.4583],[-122.68823,37.40557],[-122.66557,37.33725],[-122.63853,37.24764],[-122.62207,37.19452],[-122.60829,37.14979],[-122.60676,37.1448],[-122.60205,37.12976],[-122.5912,37.0943],[-122.58637,37.0784],[-122.56745,37.02155],[-122.53119,36.9714],[-122.46095,36.90278],[-122.44758,36.88982],[-122.43869,36.88118],[-122.39033,36.83411],[-122.37163,36.81593],[-122.35422,36.79892],[-122.31606,36.76098],[-122.27234,36.718]],"type":"LineString"}
}
