{
  "id": 2031447677,
  "type": "Feature",
  "properties": {
    "geom:area": 0,
    "geom:bbox": "-122.380000,19.430000,-99.070000,37.620000",
    "geom:latitude": 28.845473510063442,
    "geom:longitude": -110.39561772782872,
    "src:alt_label": "swim-route",
    "src:geom": "swim",
    "swim:geom": "route",
    "wof:geomhash": "44d231e3a57ef9af226d681ac57dc98a",
    "wof:id": 2031447677,
    "wof:repo": "sfomuseum-data-flights-2026-06"
  },
  "bbox": [
    -122.38,
    19.43,
    -99.07,
    37.62
  ],
  "geometry": {"coordinates":[[-99.07,19.43],[-99.08,19.53],[-99.1,19.6],[-99.11,19.68],[-99.14,19.84],[-99.16,19.95],[-99.17,20.01],[-99.23,20.34],[-99.25,20.45],[-99.3,20.5],[-99.45,20.66],[-99.5,20.72],[-99.58,20.81],[-99.61,20.84],[-99.79,21.04],[-99.85,21.08],[-99.94,21.14],[-100.37,21.55],[-100.93,21.83],[-101.08,22.2],[-102.94,23.42],[-104.37,24.33],[-104.86,24.75],[-105.53,25.31],[-105.88,25.6],[-106.04,25.73],[-106.86,26.39],[-107.01,26.52],[-107.13,26.61],[-107.48,26.89],[-107.8,27.15],[-107.88,27.3],[-108.81,27.93],[-109.13,28.18],[-109.89,28.75],[-110.63,29.43],[-112.15,30.55],[-112.54,30.79],[-112.73,30.97],[-113.3,31.37],[-113.3,31.37],[-115.65,32.65],[-115.68,32.67],[-116.59,33.14],[-116.84,33.35],[-117.53,33.92],[-117.72,34.08],[-118.06,34.38],[-118.2,34.5],[-118.37,34.6],[-119.27,35.1],[-119.62,35.29],[-120.33,35.68],[-120.34,35.68],[-120.64,35.8],[-121.14,35.98],[-121.23,36.02],[-121.31,36.05],[-121.36,36.07],[-121.38,36.09],[-121.48,36.22],[-121.52,36.27],[-121.67,36.46],[-121.7,36.5],[-121.7,36.5],[-121.76,36.57],[-121.82,36.65],[-121.84,36.67],[-121.89,36.74],[-121.9,36.76],[-121.94,36.91],[-121.95,36.95],[-121.97,36.99],[-122,37.07],[-122.08,37.27],[-122.08,37.28],[-122.1,37.33],[-122.12,37.37],[-122.17,37.43],[-122.22,37.47],[-122.24,37.49],[-122.31,37.56],[-122.36,37.6],[-122.37,37.61],[-122.38,37.62]],"type":"LineString"}
}
