{
  "id": 2031466817,
  "type": "Feature",
  "properties": {
    "geom:area": 0,
    "geom:bbox": "-122.400000,25.773889,-80.598611,38.514722",
    "geom:latitude": 33.107526083035204,
    "geom:longitude": -101.47910120630462,
    "src:alt_label": "swim-path",
    "src:geom": "swim",
    "swim:altitudes": [
      "018",
      "031",
      "031",
      "069",
      "069",
      "086",
      "086",
      "102",
      "111",
      "135",
      "177",
      "201",
      "210",
      "220",
      "220",
      "238",
      "248",
      "248",
      "255",
      "283",
      "298",
      "304",
      "304",
      "305",
      "307",
      "307",
      "310C",
      "310C",
      "310C",
      "310C",
      "310C",
      "310C",
      "310C",
      "310C",
      "310C",
      "310C",
      "310C",
      "310C",
      "310C",
      "310C",
      "310C",
      "310C",
      "310C",
      "310C",
      "310C",
      "310C",
      "310C",
      "310C",
      "310C",
      "310C",
      "310C",
      "310C",
      "310C",
      "310C",
      "310C",
      "310C",
      "310C",
      "310C",
      "310C",
      "310C",
      "310C",
      "310C",
      "310C",
      "310C",
      "310C",
      "310C",
      "310C",
      "310C",
      "310C",
      "310C",
      "310C",
      "310C",
      "310C",
      "310C",
      "310C",
      "310C",
      "310C",
      "310C",
      "310C",
      "310C",
      "310C",
      "310C",
      "310C",
      "310C",
      "310C",
      "310C",
      "310C",
      "310C",
      "310C",
      "310C",
      "310C",
      "310C",
      "310C",
      "310C",
      "310C",
      "310C",
      "310C",
      "310C",
      "310C",
      "310C",
      "310C",
      "310C",
      "310C",
      "310C",
      "310C",
      "310C",
      "310C",
      "310C",
      "310C",
      "310C",
      "310C",
      "310C",
      "310C",
      "310C",
      "310C",
      "310C",
      "310C",
      "310C",
      "310C",
      "310C",
      "310C",
      "310C",
      "310C",
      "310C",
      "310C",
      "310C",
      "310C",
      "310C",
      "310C",
      "310C",
      "310C",
      "310C",
      "313",
      "330C",
      "330C",
      "330C",
      "330C",
      "330C",
      "330C",
      "330C",
      "330C",
      "330C",
      "330C",
      "330C",
      "330C",
      "330C",
      "330C",
      "330C",
      "330C",
      "330C",
      "330C",
      "330C",
      "330C",
      "330C",
      "330C",
      "330C",
      "330C",
      "330C",
      "330C",
      "330C",
      "330C",
      "330C",
      "330C",
      "330C",
      "330C",
      "330C",
      "330C",
      "330C",
      "330C",
      "330C",
      "330C",
      "330C",
      "330C",
      "330C",
      "330C",
      "330C",
      "330C",
      "330C",
      "330C",
      "330C",
      "330C",
      "330C",
      "330C",
      "330C",
      "330C",
      "330C",
      "330C",
      "330C",
      "330C",
      "330C",
      "330C",
      "330C",
      "330C",
      "330C",
      "330C",
      "330C",
      "330C",
      "330C",
      "330C",
      "330C",
      "330C",
      "330C",
      "310",
      "294",
      "294",
      "278",
      "254",
      "231",
      "208",
      "208",
      "101",
      "080",
      "065",
      "065",
      "040",
      "040"
    ],
    "swim:geom": "path",
    "swim:speeds": [
      164,
      253,
      253,
      261,
      261,
      277,
      277,
      298,
      338,
      392,
      422,
      440,
      452,
      460,
      460,
      474,
      479,
      479,
      482,
      477,
      478,
      478,
      478,
      479,
      478,
      484,
      491,
      491,
      495,
      496,
      495,
      494,
      503,
      506,
      508,
      508,
      507,
      500,
      500,
      499,
      499,
      499,
      498,
      495,
      495,
      495,
      498,
      499,
      499,
      494,
      494,
      495,
      495,
      496,
      498,
      498,
      496,
      489,
      489,
      489,
      491,
      491,
      492,
      492,
      492,
      492,
      492,
      492,
      492,
      492,
      493,
      493,
      494,
      494,
      494,
      491,
      492,
      492,
      492,
      492,
      488,
      489,
      489,
      489,
      489,
      488,
      492,
      484,
      486,
      492,
      492,
      492,
      491,
      492,
      491,
      491,
      491,
      489,
      489,
      486,
      486,
      485,
      485,
      485,
      488,
      488,
      488,
      488,
      489,
      489,
      488,
      488,
      488,
      489,
      486,
      485,
      477,
      475,
      474,
      473,
      473,
      473,
      473,
      474,
      475,
      474,
      473,
      473,
      472,
      472,
      472,
      473,
      474,
      461,
      458,
      457,
      464,
      465,
      469,
      474,
      478,
      477,
      477,
      486,
      493,
      495,
      496,
      490,
      490,
      502,
      502,
      507,
      509,
      508,
      507,
      507,
      507,
      507,
      507,
      507,
      506,
      506,
      507,
      505,
      507,
      504,
      502,
      504,
      504,
      506,
      506,
      506,
      505,
      504,
      503,
      501,
      501,
      502,
      502,
      502,
      501,
      496,
      495,
      494,
      494,
      493,
      491,
      490,
      490,
      490,
      489,
      488,
      488,
      488,
      489,
      489,
      489,
      488,
      488,
      487,
      482,
      482,
      485,
      483,
      483,
      487,
      477,
      458,
      442,
      442,
      310,
      284,
      282,
      282,
      247,
      247
    ],
    "swim:timestamps": [
      1780817419,
      1780817519,
      1780817519,
      1780817639,
      1780817639,
      1780817699,
      1780817699,
      1780817759,
      1780817819,
      1780817940,
      1780818120,
      1780818240,
      1780818300,
      1780818360,
      1780818360,
      1780818480,
      1780818540,
      1780818540,
      1780818600,
      1780818770,
      1780818900,
      1780818950,
      1780818950,
      1780818960,
      1780819010,
      1780819020,
      1780819080,
      1780819080,
      1780819140,
      1780819200,
      1780819310,
      1780819320,
      1780819430,
      1780819500,
      1780819560,
      1780819560,
      1780819620,
      1780819740,
      1780819790,
      1780819850,
      1780819850,
      1780819860,
      1780819910,
      1780820030,
      1780820040,
      1780820040,
      1780820270,
      1780820451,
      1780820451,
      1780820631,
      1780820631,
      1780820871,
      1780820871,
      1780821111,
      1780821237,
      1780821237,
      1780821291,
      1780821351,
      1780821351,
      1780821477,
      1780821531,
      1780821537,
      1780821591,
      1780821597,
      1780821651,
      1780821651,
      1780821778,
      1780821831,
      1780821958,
      1780822018,
      1780822131,
      1780822198,
      1780822314,
      1780822378,
      1780822378,
      1780822447,
      1780822498,
      1780822508,
      1780822558,
      1780822558,
      1780822627,
      1780822678,
      1780822678,
      1780822678,
      1780822688,
      1780822738,
      1780822798,
      1780822867,
      1780822918,
      1780822987,
      1780822987,
      1780823048,
      1780823098,
      1780823169,
      1780823278,
      1780823278,
      1780823278,
      1780823528,
      1780823528,
      1780823888,
      1780823888,
      1780823947,
      1780824008,
      1780824068,
      1780824199,
      1780824199,
      1780824249,
      1780824249,
      1780824427,
      1780824439,
      1780824488,
      1780824559,
      1780824559,
      1780824619,
      1780824668,
      1780824679,
      1780824848,
      1780824908,
      1780824968,
      1780825028,
      1780825088,
      1780825100,
      1780825150,
      1780825160,
      1780825208,
      1780825340,
      1780825460,
      1780825460,
      1780825520,
      1780825580,
      1780825580,
      1780825640,
      1780825700,
      1780826000,
      1780826060,
      1780826098,
      1780826120,
      1780826180,
      1780826240,
      1780826457,
      1780826637,
      1780826840,
      1780826840,
      1780827380,
      1780827620,
      1780827839,
      1780828018,
      1780828461,
      1780828521,
      1780829040,
      1780829040,
      1780829580,
      1780829880,
      1780830088,
      1780830241,
      1780830268,
      1780830301,
      1780830301,
      1780830361,
      1780830448,
      1780830480,
      1780830480,
      1780830508,
      1780830601,
      1780830689,
      1780830839,
      1780830869,
      1780830899,
      1780830989,
      1780831079,
      1780831139,
      1780831139,
      1780831169,
      1780831260,
      1780831290,
      1780831350,
      1780831380,
      1780831440,
      1780831470,
      1780831470,
      1780831530,
      1780831620,
      1780831710,
      1780831830,
      1780831860,
      1780831890,
      1780831920,
      1780831950,
      1780832012,
      1780832012,
      1780832040,
      1780832100,
      1780832132,
      1780832160,
      1780832192,
      1780832311,
      1780832373,
      1780832491,
      1780832491,
      1780832671,
      1780833032,
      1780833092,
      1780833635,
      1780833755,
      1780833755,
      1780833815,
      1780833875,
      1780833935,
      1780833995,
      1780833995,
      1780834356,
      1780834465,
      1780834531,
      1780834531,
      1780834651,
      1780834651
    ],
    "wof:geomhash": "bdaffcddfa963c0365d9114a80e3eeb4",
    "wof:id": 2031466817,
    "wof:repo": "sfomuseum-data-flights-2026-06"
  },
  "bbox": [
    -122.4,
    25.773888888888887,
    -80.59861111111111,
    38.514722222222225
  ],
  "geometry": {"coordinates":[[-122.4,37.65],[-122.34333333333333,37.71888888888889],[-122.34333333333333,37.71888888888889],[-122.38611111111112,37.85416666666667],[-122.38611111111112,37.85416666666667],[-122.37666666666667,37.92805555555555],[-122.37666666666667,37.92805555555555],[-122.2825,37.96083333333333],[-122.1713888888889,37.98361111111111],[-121.90472222222223,37.98972222222222],[-121.4575,37.99111111111111],[-121.1525,37.99111111111111],[-120.99527777777777,38.00805555555556],[-120.83749999999999,38.0325],[-120.83749999999999,38.0325],[-120.51388888888889,38.081388888888895],[-120.345,38.106944444444444],[-120.345,38.106944444444444],[-120.17833333333334,38.13166666666667],[-119.71833333333333,38.19777777777777],[-119.35416666666666,38.250277777777775],[-119.22111111111111,38.26777777777777],[-119.22111111111111,38.26777777777777],[-119.18722222222223,38.27333333333333],[-119.05388888888889,38.29138888888889],[-119.02,38.296388888888885],[-118.84694444444445,38.32],[-118.84694444444445,38.32],[-118.67416666666666,38.34305555555556],[-118.50194444444445,38.36611111111111],[-118.1563888888889,38.41138888888889],[-118.12472222222222,38.41555555555556],[-117.80277777777778,38.45638888888889],[-117.62277777777777,38.47916666666667],[-117.44222222222223,38.501666666666665],[-117.44222222222223,38.501666666666665],[-117.2625,38.514722222222225],[-116.9063888888889,38.48916666666667],[-116.76611111111112,38.4775],[-116.58888888888889,38.46194444444445],[-116.58888888888889,38.46194444444445],[-116.55222222222221,38.45888888888889],[-116.41583333333334,38.44694444444444],[-116.06555555555555,38.415277777777774],[-116.02666666666667,38.41166666666666],[-116.02666666666667,38.41166666666666],[-115.36444444444444,38.34916666666667],[-114.82472222222222,38.294999999999995],[-114.82472222222222,38.294999999999995],[-114.30749999999999,38.22777777777778],[-114.30749999999999,38.22777777777778],[-113.64777777777779,38.055],[-113.64777777777779,38.055],[-112.98444444444445,37.876666666666665],[-112.64805555555556,37.78444444444444],[-112.64805555555556,37.78444444444444],[-112.51527777777778,37.74777777777778],[-112.35805555555555,37.696666666666665],[-112.35805555555555,37.696666666666665],[-112.01555555555555,37.57055555555556],[-111.88916666666667,37.52333333333333],[-111.85722222222222,37.51138888888889],[-111.73333333333333,37.46527777777778],[-111.7025,37.453611111111115],[-111.57583333333334,37.40611111111111],[-111.57583333333334,37.40611111111111],[-111.23666666666666,37.27777777777778],[-111.11222222222221,37.23027777777778],[-110.77416666666666,37.10055555555556],[-110.61805555555554,37.040277777777774],[-110.33999999999999,36.931666666666665],[-110.1575,36.86027777777778],[-109.85166666666666,36.73916666666667],[-109.69444444444444,36.67638888888889],[-109.69444444444444,36.67638888888889],[-109.54138888888889,36.61527777777778],[-109.39055555555557,36.55444444444444],[-109.39055555555557,36.55444444444444],[-109.23833333333333,36.49277777777778],[-109.23833333333333,36.49277777777778],[-109.08638888888889,36.43111111111111],[-108.93555555555555,36.36944444444445],[-108.93555555555555,36.36944444444445],[-108.93555555555555,36.36944444444445],[-108.93555555555555,36.36944444444445],[-108.81583333333333,36.32055555555556],[-108.65972222222223,36.256388888888885],[-108.47972222222222,36.18194444444444],[-108.35944444444443,36.13194444444444],[-108.17722222222223,36.05583333333333],[-108.17722222222223,36.05583333333333],[-108.02805555555555,35.99333333333333],[-107.90805555555556,35.94277777777778],[-107.7286111111111,35.86694444444444],[-107.46027777777778,35.75277777777778],[-107.46027777777778,35.75277777777778],[-107.46027777777778,35.75277777777778],[-106.84166666666667,35.48527777777778],[-106.84166666666667,35.48527777777778],[-105.955,35.09388888888889],[-105.955,35.09388888888889],[-105.82222222222222,35.034166666666664],[-105.67444444444445,34.967777777777776],[-105.52888888888889,34.901944444444446],[-105.22111111111111,34.76166666666666],[-105.22111111111111,34.76166666666666],[-105.09916666666666,34.70583333333334],[-105.09916666666666,34.70583333333334],[-104.67,34.507777777777775],[-104.64611111111111,34.49666666666667],[-104.52777777777777,34.44138888888889],[-104.36,34.363055555555555],[-104.36,34.363055555555555],[-104.2175,34.29611111111111],[-104.10333333333332,34.242222222222225],[-104.07722222222222,34.230000000000004],[-103.68972222222223,34.045833333333334],[-103.55111111111111,33.97972222222222],[-103.41527777777779,33.91444444444444],[-103.27694444444444,33.84777777777778],[-103.13916666666667,33.78111111111111],[-103.11388888888888,33.76888888888889],[-103.00333333333333,33.71527777777778],[-102.97583333333334,33.70194444444445],[-102.86694444444444,33.64861111111111],[-102.5675,33.501666666666665],[-102.2961111111111,33.367222222222225],[-102.2961111111111,33.367222222222225],[-102.16027777777778,33.29972222222222],[-102.02472222222222,33.231944444444444],[-102.02472222222222,33.231944444444444],[-101.88972222222223,33.16444444444444],[-101.75472222222223,33.09666666666667],[-101.11138888888888,32.76972222222222],[-100.98138888888889,32.70305555555556],[-100.89472222222223,32.669444444444444],[-100.84083333333332,32.65472222222222],[-100.69305555555556,32.61472222222223],[-100.54833333333333,32.57527777777778],[-100.005,32.42388888888889],[-99.5461111111111,32.29611111111111],[-99.03972222222222,32.151666666666664],[-99.03972222222222,32.151666666666664],[-97.7088888888889,31.759722222222223],[-97.10694444444444,31.576944444444443],[-96.5611111111111,31.40833333333333],[-96.10722222222222,31.265555555555554],[-95.00638888888889,30.879444444444445],[-94.87722222222222,30.803055555555556],[-93.67777777777778,30.24888888888889],[-93.67777777777778,30.24888888888889],[-92.26722222222222,29.84472222222222],[-91.50083333333333,29.6175],[-90.96916666666667,29.450833333333332],[-90.58777777777777,29.339444444444442],[-90.51666666666667,29.31527777777778],[-90.43694444444445,29.29277777777778],[-90.43694444444445,29.29277777777778],[-90.28333333333333,29.245],[-90.06222222222222,29.174166666666668],[-89.9825,29.15083333333333],[-89.9825,29.15083333333333],[-89.91055555555556,29.125555555555557],[-89.68305555555555,29.05638888888889],[-89.45944444444444,28.983055555555556],[-89.085,28.865000000000002],[-89.015,28.842499999999998],[-88.93472222222222,28.81638888888889],[-88.71722222222222,28.745555555555555],[-88.4863888888889,28.67027777777778],[-88.33555555555554,28.620555555555555],[-88.33555555555554,28.620555555555555],[-88.26861111111111,28.598333333333333],[-88.03222222222222,28.52],[-87.97194444444445,28.499722222222225],[-87.82472222222222,28.450833333333332],[-87.73694444444445,28.42138888888889],[-87.59027777777777,28.372222222222224],[-87.53305555555555,28.352777777777778],[-87.53305555555555,28.352777777777778],[-87.385,28.302777777777777],[-87.15361111111112,28.224166666666665],[-86.94944444444445,28.154166666666665],[-86.66250000000001,28.055555555555557],[-86.57527777777777,28.025277777777777],[-86.51833333333333,28.005555555555556],[-86.4325,27.97583333333333],[-86.34888888888888,27.946666666666665],[-86.20916666666668,27.897777777777776],[-86.20916666666668,27.897777777777776],[-86.14750000000001,27.87638888888889],[-86.00611111111111,27.826666666666668],[-85.92583333333334,27.798333333333336],[-85.86416666666666,27.776666666666667],[-85.78416666666666,27.748333333333335],[-85.49666666666667,27.64638888888889],[-85.34805555555555,27.592777777777776],[-85.07166666666666,27.491944444444446],[-85.07166666666666,27.491944444444446],[-84.67361111111111,27.345555555555553],[-83.84166666666667,27.034722222222225],[-83.70527777777778,26.982499999999998],[-82.45166666666667,26.489166666666666],[-82.18,26.38],[-82.18,26.38],[-82.0425,26.324444444444445],[-81.90777777777778,26.27],[-81.78277777777778,26.219166666666666],[-81.65666666666667,26.16777777777778],[-81.65666666666667,26.16777777777778],[-81.00555555555556,25.900555555555552],[-80.84444444444443,25.83722222222222],[-80.7538888888889,25.803611111111113],[-80.7538888888889,25.803611111111113],[-80.59861111111111,25.773888888888887],[-80.59861111111111,25.773888888888887]],"type":"LineString"}
}
