{
  "id": 2031610529,
  "type": "Feature",
  "properties": {
    "geom:area": 0,
    "geom:bbox": "-122.361670,37.493210,-121.280500,37.614720",
    "geom:latitude": 37.54200718538417,
    "geom:longitude": -121.82797465633304,
    "src:alt_label": "swim-approach",
    "src:geom": "swim",
    "swim:elevations": [
      4758,
      4492,
      4270,
      3980,
      3929,
      3517,
      3276,
      3087,
      3009,
      2749,
      2546,
      2312,
      2196,
      2134,
      2069,
      1945,
      1831,
      1829,
      1710,
      1670,
      1481,
      1279,
      1121,
      943,
      818,
      542,
      489,
      347,
      306,
      114,
      0
    ],
    "swim:geom": "approach",
    "swim:timestamps": [
      1782196075,
      1782196105,
      1782196131,
      1782196168,
      1782196173,
      1782196223,
      1782196256,
      1782196287,
      1782196311,
      1782196347,
      1782196374,
      1782196406,
      1782196427,
      1782196466,
      1782196489,
      1782196500,
      1782196531,
      1782196547,
      1782196582,
      1782196594,
      1782196645,
      1782196673,
      1782196703,
      1782196727,
      1782196744,
      1782196798,
      1782196812,
      1782196848,
      1782196860,
      1782196911,
      1782196941
    ],
    "wof:geomhash": "695e3cdf34e9ddc72c165981729ca812",
    "wof:id": 2031610529,
    "wof:repo": "sfomuseum-data-flights-2026-06"
  },
  "bbox": [
    -122.36167,
    37.49321,
    -121.2805,
    37.61472
  ],
  "geometry": {"coordinates":[[-121.2805,37.59046],[-121.33418,37.5845],[-121.38054,37.57941],[-121.44746,37.57155],[-121.45622,37.57055],[-121.54428,37.56017],[-121.60187,37.5535],[-121.65341,37.54382],[-121.68989,37.53516],[-121.74269,37.52266],[-121.77967,37.51387],[-121.82253,37.50356],[-121.85163,37.49656],[-121.9037,37.49321],[-121.93336,37.49555],[-121.94929,37.49685],[-121.99081,37.50019],[-122.01331,37.50208],[-122.05884,37.5058],[-122.07347,37.50698],[-122.12794,37.51486],[-122.15439,37.5258],[-122.18007,37.53681],[-122.19948,37.54488],[-122.21195,37.55012],[-122.25477,37.56821],[-122.26633,37.57309],[-122.29425,37.58482],[-122.30321,37.5886],[-122.34081,37.6044],[-122.36167,37.61472]],"type":"LineString"}
}
