{
  "id": 2031467295,
  "type": "Feature",
  "properties": {
    "geom:area": 0,
    "geom:bbox": "-122.380000,37.620000,-79.390000,44.540000",
    "geom:latitude": 42.93072052033024,
    "geom:longitude": -100.70941158269113,
    "src:alt_label": "swim-route",
    "src:geom": "swim",
    "swim:geom": "route",
    "wof:geomhash": "0eeaa87182d53d75ad7c2781402c911d",
    "wof:id": 2031467295,
    "wof:repo": "sfomuseum-data-flights-2026-06"
  },
  "bbox": [
    -122.38,
    37.62,
    -79.39,
    44.54
  ],
  "geometry": {"coordinates":[[-122.38,37.62],[-122.27,37.69],[-122.22,37.72],[-122.21,37.72],[-122.15,37.79],[-122.15,37.79],[-122.12,37.82],[-122.08,37.87],[-122.07,37.88],[-122.07,37.88],[-122.01,37.92],[-121.85,38.02],[-121.75,38.1],[-121.74,38.1],[-121.65,38.16],[-121.6,38.2],[-121.59,38.2],[-121.53,38.25],[-121.41,38.32],[-121.39,38.34],[-121.19,38.46],[-121.13,38.5],[-121.04,38.55],[-121,38.58],[-120.91,38.63],[-120.57,38.84],[-120.44,38.92],[-120.31,38.99],[-120.18,39.07],[-120.18,39.08],[-119.91,39.23],[-119.17,39.67],[-118.8,39.88],[-118.39,40.05],[-118.02,40.2],[-117.94,40.22],[-117.39,40.39],[-114.83,41.1],[-114.46,41.2],[-113.84,41.36],[-112.94,41.67],[-111.36,42.19],[-110.11,42.58],[-109.84,42.65],[-109.04,42.83],[-108.02,43.07],[-107.98,43.08],[-107.18,43.25],[-106,43.5],[-103.01,43.98],[-102.23,44.12],[-101.45,44.26],[-100,44.5],[-98.92,44.52],[-98.12,44.53],[-97.72,44.54],[-94.28,44.51],[-94,44.5],[-92.9,44.51],[-91.51,44.52],[-90.26,44.5],[-90,44.5],[-89.93,44.49],[-87.46,44.1],[-87.2,44.06],[-84.87,43.63],[-84.7,43.62],[-84.45,43.59],[-83.62,43.48],[-83.26,43.45],[-82.9,43.41],[-82.2,43.44],[-81.84,43.46],[-81.59,43.47],[-81.37,43.47],[-81.26,43.48],[-80.95,43.49],[-80.85,43.49],[-80.65,43.5],[-80.65,43.5],[-80.64,43.5],[-80.62,43.49],[-80.39,43.46],[-80.38,43.46],[-80.19,43.51],[-80.17,43.51],[-80.17,43.52],[-79.87,43.59],[-79.8,43.66],[-79.8,43.67],[-79.72,43.75],[-79.67,43.78],[-79.66,43.79],[-79.54,43.87],[-79.49,43.91],[-79.44,43.94],[-79.44,43.94],[-79.39,43.98],[-79.44,43.92],[-79.47,43.87],[-79.82,43.6],[-79.53,43.8],[-79.53,43.8],[-79.59,43.73],[-79.63,43.68]],"type":"LineString"}
}
