{
  "id": 2031421877,
  "type": "Feature",
  "properties": {
    "geom:area": 0,
    "geom:bbox": "-122.342750,37.423480,-121.244630,37.634760",
    "geom:latitude": 37.54837293426872,
    "geom:longitude": -121.81015811250882,
    "src:alt_label": "swim-approach",
    "src:geom": "swim",
    "swim:elevations": [
      4605,
      4250,
      4013,
      3824,
      3739,
      3455,
      3345,
      3348,
      3191,
      3144,
      3068,
      3048,
      3048,
      3034,
      2986,
      2746,
      2543,
      2521,
      2438,
      2429,
      2378,
      2259,
      2222,
      2023,
      1910,
      1888,
      1751,
      1501,
      1276,
      1180,
      1072,
      1011,
      916,
      728,
      608,
      511,
      365,
      91
    ],
    "swim:geom": "approach",
    "swim:timestamps": [
      1780344275,
      1780344325,
      1780344355,
      1780344379,
      1780344393,
      1780344427,
      1780344454,
      1780344484,
      1780344536,
      1780344547,
      1780344571,
      1780344600,
      1780344634,
      1780344647,
      1780344661,
      1780344710,
      1780344742,
      1780344755,
      1780344803,
      1780344831,
      1780344853,
      1780344897,
      1780344911,
      1780344963,
      1780344988,
      1780344994,
      1780345027,
      1780345067,
      1780345102,
      1780345117,
      1780345132,
      1780345141,
      1780345159,
      1780345197,
      1780345224,
      1780345246,
      1780345283,
      1780345351
    ],
    "wof:geomhash": "38fe0b77344227be177f7632af103746",
    "wof:id": 2031421877,
    "wof:repo": "sfomuseum-data-flights-2026-06"
  },
  "bbox": [
    -122.34275,
    37.42348,
    -121.24463,
    37.63476
  ],
  "geometry": {"coordinates":[[-121.24463,37.59528],[-121.33428,37.58438],[-121.38883,37.57848],[-121.43073,37.57352],[-121.45361,37.57083],[-121.51332,37.56396],[-121.56012,37.55858],[-121.60758,37.55926],[-121.67929,37.58426],[-121.69374,37.58938],[-121.72578,37.60067],[-121.76436,37.61431],[-121.80964,37.63037],[-121.82662,37.63476],[-121.84658,37.63338],[-121.874,37.58891],[-121.84404,37.56183],[-121.83376,37.55117],[-121.84047,37.50082],[-121.84911,37.47216],[-121.85584,37.4495],[-121.897,37.42348],[-121.91435,37.42788],[-121.9809,37.45441],[-122.01244,37.46837],[-122.01922,37.47124],[-122.05639,37.48686],[-122.09804,37.5043],[-122.13265,37.51897],[-122.14662,37.52485],[-122.16054,37.5307],[-122.16893,37.53432],[-122.18551,37.54131],[-122.21963,37.55569],[-122.24468,37.56622],[-122.26299,37.57395],[-122.29144,37.58589],[-122.34275,37.60752]],"type":"LineString"}
}
