{
  "id": 2031477413,
  "type": "Feature",
  "properties": {
    "geom:area": 0,
    "geom:bbox": "-122.541950,36.720660,-121.480640,37.667890",
    "geom:latitude": 37.18725501349901,
    "geom:longitude": -122.09761567576153,
    "src:alt_label": "swim-takeoff",
    "src:geom": "swim",
    "swim:elevations": [
      274,
      504,
      652,
      1057,
      1522,
      2081,
      2411,
      2963,
      3048,
      3048,
      3069,
      3524,
      3945,
      4569,
      5113,
      5286,
      5391,
      5850,
      6328,
      6575,
      7114,
      7341,
      7635,
      8256,
      8495,
      8565,
      8919
    ],
    "swim:geom": "takeoff",
    "swim:timestamps": [
      1780826483,
      1780826510,
      1780826536,
      1780826569,
      1780826615,
      1780826654,
      1780826676,
      1780826717,
      1780826758,
      1780826772,
      1780826794,
      1780826834,
      1780826860,
      1780826896,
      1780826927,
      1780826961,
      1780826970,
      1780827004,
      1780827043,
      1780827065,
      1780827112,
      1780827136,
      1780827169,
      1780827236,
      1780827260,
      1780827275,
      1780827319
    ],
    "wof:geomhash": "5e0093ad29681460af4bd9946ce53ec4",
    "wof:id": 2031477413,
    "wof:repo": "sfomuseum-data-flights-2026-06"
  },
  "bbox": [
    -122.54195,
    36.72066,
    -121.48064,
    37.66789
  ],
  "geometry": {"coordinates":[[-122.40008,37.62978],[-122.42397,37.64034],[-122.45313,37.65253],[-122.4941,37.66789],[-122.54195,37.63525],[-122.51789,37.58557],[-122.50104,37.55907],[-122.46841,37.50816],[-122.4338,37.45327],[-122.42064,37.43269],[-122.40045,37.40079],[-122.36341,37.34301],[-122.33744,37.30409],[-122.28488,37.26133],[-122.23533,37.2287],[-122.17729,37.19007],[-122.1613,37.17931],[-122.10063,37.13853],[-122.03025,37.09119],[-121.98971,37.06399],[-121.90009,37.00365],[-121.85405,36.97261],[-121.78978,36.92909],[-121.65278,36.83821],[-121.60491,36.80559],[-121.57403,36.78256],[-121.48064,36.72066]],"type":"LineString"}
}
