{
  "id": 2031461445,
  "type": "Feature",
  "properties": {
    "geom:area": 0,
    "geom:bbox": "-122.390000,37.620000,-87.510000,43.210000",
    "geom:latitude": 41.85324021519841,
    "geom:longitude": -105.07796035573547,
    "src:alt_label": "swim-route",
    "src:geom": "swim",
    "swim:geom": "route",
    "wof:geomhash": "52a79dac69719a088437bfd182ab2d77",
    "wof:id": 2031461445,
    "wof:repo": "sfomuseum-data-flights-2026-06"
  },
  "bbox": [
    -122.39,
    37.62,
    -87.51,
    43.21
  ],
  "geometry": {"coordinates":[[-122.38,37.62],[-122.3,37.68],[-122.31,37.69],[-122.31,37.7],[-122.34,37.75],[-122.34,37.76],[-122.34,37.76],[-122.36,37.79],[-122.39,37.85],[-122.39,37.85],[-122.39,37.86],[-122.38,37.94],[-122.32,37.97],[-122.13,38.04],[-122.05,38.08],[-122,38.1],[-122,38.1],[-121.95,38.13],[-121.9,38.15],[-121.81,38.19],[-121.7,38.24],[-121.62,38.28],[-121.61,38.28],[-121.56,38.3],[-121.42,38.36],[-121.3,38.42],[-121.27,38.43],[-121.19,38.47],[-120.99,38.56],[-120.91,38.59],[-120.84,38.62],[-120.77,38.65],[-120.56,38.74],[-120.54,38.75],[-120.43,38.8],[-119.92,39.02],[-119.44,39.22],[-117.51,40.01],[-114.46,41.15],[-113.84,41.36],[-113.35,41.49],[-113.11,41.56],[-112.84,41.61],[-112.58,41.65],[-110.89,41.92],[-110.63,41.96],[-107.06,42.44],[-104.95,42.67],[-104.68,42.69],[-103.31,42.82],[-103.24,42.82],[-102.42,42.88],[-102.15,42.9],[-100.53,43.01],[-99.89,43.05],[-98.89,43.1],[-98.51,43.11],[-97.47,43.15],[-96.42,43.18],[-93.99,43.21],[-93.38,43.21],[-91.86,43.19],[-91.66,43.19],[-91.45,43.11],[-91.41,43.1],[-91.4,43.1],[-91.37,43.09],[-91.27,43.05],[-91.25,43.04],[-91.1,42.97],[-90.9,42.76],[-90.69,42.6],[-90.51,42.58],[-90.35,42.57],[-89.78,42.52],[-89.68,42.51],[-89.62,42.5],[-89.4,42.47],[-89.32,42.46],[-89.12,42.44],[-89.06,42.43],[-88.89,42.41],[-88.82,42.4],[-88.81,42.4],[-88.69,42.38],[-88.67,42.38],[-88.63,42.38],[-88.57,42.37],[-88.52,42.36],[-88.5,42.36],[-88.43,42.35],[-88.39,42.34],[-88.31,42.3],[-88.15,42.2],[-88.07,42.13],[-88.03,42.09],[-87.79,42.09],[-87.54,42.09],[-87.51,42.09],[-87.55,42.08],[-87.69,42.04],[-87.8,42.01],[-87.9,41.98],[-87.91,41.98]],"type":"LineString"}
}
