{
  "id": 2031461445,
  "type": "Feature",
  "properties": {
    "geom:area": 0,
    "geom:bbox": "-122.403490,37.623360,-121.272110,38.422060",
    "geom:latitude": 38.085964736455686,
    "geom:longitude": -121.94723458352645,
    "src:alt_label": "swim-takeoff",
    "src:geom": "swim",
    "swim:elevations": [
      152,
      461,
      878,
      1172,
      1220,
      1417,
      1925,
      2276,
      2731,
      2955,
      3292,
      3348,
      3607,
      3714,
      4134,
      4629,
      4866,
      5182,
      5315,
      5708,
      6017,
      6256,
      6390,
      6689,
      7009,
      7251,
      7494,
      7714
    ],
    "swim:geom": "takeoff",
    "swim:timestamps": [
      1780710687,
      1780710698,
      1780710718,
      1780710746,
      1780710755,
      1780710789,
      1780710830,
      1780710857,
      1780710890,
      1780710908,
      1780710950,
      1780710966,
      1780711010,
      1780711022,
      1780711064,
      1780711106,
      1780711136,
      1780711166,
      1780711181,
      1780711217,
      1780711250,
      1780711277,
      1780711292,
      1780711325,
      1780711363,
      1780711393,
      1780711423,
      1780711453
    ],
    "wof:geomhash": "f9c5ac4da42f0ff89596a65b76a14f72",
    "wof:id": 2031461445,
    "wof:repo": "sfomuseum-data-flights-2026-06"
  },
  "bbox": [
    -122.40349,
    37.62336,
    -121.27211,
    38.42206
  ],
  "geometry": {"coordinates":[[-122.38644,37.62336],[-122.39569,37.6286],[-122.40349,37.64249],[-122.39727,37.6664],[-122.3909,37.67394],[-122.35793,37.70436],[-122.34091,37.75148],[-122.35495,37.78235],[-122.37449,37.82061],[-122.38359,37.84169],[-122.38592,37.89926],[-122.38174,37.9234],[-122.31344,37.97316],[-122.28878,37.98164],[-122.19737,38.01445],[-122.10498,38.05124],[-122.03678,38.07906],[-121.96767,38.10757],[-121.93332,38.12325],[-121.85067,38.16184],[-121.77362,38.19729],[-121.70836,38.22701],[-121.67233,38.24326],[-121.59208,38.27941],[-121.49944,38.32093],[-121.42446,38.35455],[-121.34876,38.38837],[-121.27211,38.42206]],"type":"LineString"}
}
