{
  "id": 2031547289,
  "type": "Feature",
  "properties": {
    "geom:area": 0,
    "geom:bbox": "-122.770000,37.620000,4.760000,66.210000",
    "geom:latitude": 57.535800084517646,
    "geom:longitude": -61.576129330105935,
    "src:alt_label": "swim-route",
    "src:geom": "swim",
    "swim:geom": "route",
    "wof:geomhash": "aab6f13aa3bf3edf5c77b7f08a45f429",
    "wof:id": 2031547289,
    "wof:repo": "sfomuseum-data-flights-2026-06"
  },
  "bbox": [
    -122.77,
    37.62,
    4.76,
    66.21
  ],
  "geometry": {"coordinates":[[4.76,52.31],[1.86,54.24],[-60.55,66.21],[-101.89,55.42],[-104.21,54.01],[-105.8,52.97],[-108.15,51.35],[-109,50.72],[-109.4,50.42],[-111.18,49],[-114.15,46.39],[-114.57,45.99],[-115,45.57],[-115.24,45.34],[-117.87,42.59],[-118.2,42.2],[-118.83,41.44],[-119.11,41.19],[-119.38,40.94],[-120.58,39.84],[-121.04,39.39],[-121.1,39.34],[-121.28,39.23],[-121.33,39.2],[-121.67,39],[-121.73,38.96],[-121.99,38.81],[-122.04,38.78],[-122.22,38.67],[-122.26,38.65],[-122.44,38.55],[-122.44,38.54],[-122.68,38.31],[-122.69,38.3],[-122.77,38.22],[-122.75,38.16],[-122.72,38.06],[-122.69,37.95],[-122.67,37.9],[-122.67,37.9],[-122.65,37.87],[-122.62,37.85],[-122.59,37.82],[-122.58,37.81],[-122.51,37.74],[-122.5,37.73],[-122.44,37.68],[-122.37,37.62],[-122.38,37.62]],"type":"LineString"}
}
