{
  "id": 2031426083,
  "type": "Feature",
  "properties": {
    "geom:area": 0,
    "geom:bbox": "-122.654722,34.199167,-118.400000,37.647778",
    "geom:latitude": 35.89663295470694,
    "geom:longitude": -120.65690588297912,
    "src:alt_label": "swim-path",
    "src:geom": "swim",
    "swim:altitudes": [
      "006",
      "006",
      "006",
      "006",
      "032",
      "032",
      "111",
      "111",
      "111",
      "122",
      "122",
      "122",
      "169",
      "169",
      "169",
      "169",
      "179",
      "192",
      "211",
      "211",
      "219",
      "219",
      "219",
      "219",
      "275",
      "275",
      "275",
      "275",
      "275",
      "275",
      "310C",
      "310C",
      "310C",
      "310C",
      "310C",
      "310C",
      "310C",
      "310C",
      "310C",
      "310C",
      "310C",
      "310C",
      "310C",
      "310C",
      "310C",
      "310C",
      "310C",
      "310C",
      "310C",
      "310C",
      "310C",
      "310C",
      "310C",
      "310C",
      "310C",
      "310C",
      "310C",
      "310C",
      "310C",
      "310C",
      "310C",
      "310C",
      "310C",
      "310C",
      "310C",
      "310C",
      "310C",
      "310C",
      "310C",
      "310C",
      "310",
      "310",
      "310",
      "281",
      "281",
      "281",
      "272",
      "272",
      "261",
      "261",
      "261",
      "231",
      "231",
      "231",
      "191",
      "191",
      "191",
      "179",
      "179",
      "179",
      "179",
      "152",
      "152",
      "142",
      "142",
      "142",
      "113",
      "113",
      "104",
      "104",
      "104",
      "104",
      "093",
      "093",
      "093",
      "071",
      "071",
      "070",
      "070",
      "070",
      "070",
      "070",
      "070",
      "070",
      "052",
      "045",
      "045",
      "045",
      "037",
      "034",
      "034",
      "034",
      "034",
      "034",
      "029",
      "024",
      "024",
      "013",
      "013",
      "013"
    ],
    "swim:geom": "path",
    "swim:speeds": [
      155,
      155,
      155,
      155,
      167,
      167,
      260,
      260,
      260,
      347,
      347,
      347,
      389,
      389,
      389,
      389,
      381,
      401,
      416,
      416,
      410,
      410,
      410,
      410,
      413,
      413,
      413,
      413,
      413,
      413,
      441,
      441,
      441,
      441,
      455,
      455,
      475,
      475,
      475,
      475,
      476,
      476,
      476,
      473,
      470,
      470,
      470,
      470,
      470,
      470,
      470,
      470,
      470,
      470,
      470,
      470,
      470,
      470,
      470,
      468,
      468,
      468,
      468,
      468,
      468,
      467,
      467,
      467,
      467,
      467,
      465,
      465,
      465,
      446,
      446,
      446,
      442,
      442,
      433,
      433,
      433,
      415,
      415,
      415,
      392,
      392,
      392,
      385,
      385,
      385,
      385,
      368,
      368,
      361,
      361,
      361,
      329,
      329,
      299,
      299,
      299,
      299,
      275,
      275,
      275,
      224,
      224,
      226,
      226,
      226,
      214,
      214,
      214,
      214,
      193,
      191,
      191,
      191,
      184,
      187,
      187,
      187,
      187,
      187,
      184,
      183,
      183,
      134,
      134,
      134
    ],
    "swim:timestamps": [
      1780336700,
      1780336700,
      1780336700,
      1780336700,
      1780336760,
      1780336760,
      1780336940,
      1780336940,
      1780336940,
      1780337000,
      1780337000,
      1780337000,
      1780337120,
      1780337120,
      1780337120,
      1780337120,
      1780337149,
      1780337180,
      1780337240,
      1780337240,
      1780337270,
      1780337270,
      1780337270,
      1780337270,
      1780337421,
      1780337421,
      1780337421,
      1780337421,
      1780337421,
      1780337421,
      1780337601,
      1780337601,
      1780337601,
      1780337601,
      1780337690,
      1780337690,
      1780337721,
      1780337721,
      1780337721,
      1780337721,
      1780337810,
      1780337810,
      1780337810,
      1780337841,
      1780337870,
      1780337870,
      1780337870,
      1780337870,
      1780337930,
      1780337991,
      1780338021,
      1780338021,
      1780338021,
      1780338051,
      1780338051,
      1780338051,
      1780338081,
      1780338081,
      1780338081,
      1780338231,
      1780338231,
      1780338291,
      1780338291,
      1780338291,
      1780338291,
      1780338322,
      1780338322,
      1780338351,
      1780338351,
      1780338351,
      1780338442,
      1780338442,
      1780338442,
      1780338531,
      1780338531,
      1780338531,
      1780338562,
      1780338562,
      1780338591,
      1780338591,
      1780338591,
      1780338682,
      1780338682,
      1780338682,
      1780338802,
      1780338802,
      1780338802,
      1780338832,
      1780338832,
      1780338832,
      1780338832,
      1780338923,
      1780338923,
      1780338952,
      1780338952,
      1780338952,
      1780339072,
      1780339072,
      1780339132,
      1780339132,
      1780339132,
      1780339132,
      1780339192,
      1780339192,
      1780339192,
      1780339335,
      1780339335,
      1780339373,
      1780339373,
      1780339373,
      1780339395,
      1780339395,
      1780339395,
      1780339395,
      1780339515,
      1780339553,
      1780339553,
      1780339553,
      1780339635,
      1780339673,
      1780339673,
      1780339673,
      1780339673,
      1780339673,
      1780339690,
      1780339733,
      1780339733,
      1780339810,
      1780339810,
      1780339810
    ],
    "wof:geomhash": "d4cd0720634a19a323475cb024f1bc98",
    "wof:id": 2031426083,
    "wof:repo": "sfomuseum-data-flights-2026-06"
  },
  "bbox": [
    -122.65472222222223,
    34.19916666666666,
    -118.4,
    37.647777777777776
  ],
  "geometry": {"coordinates":[[-122.3963888888889,37.62777777777778],[-122.3963888888889,37.62777777777778],[-122.3963888888889,37.62777777777778],[-122.3963888888889,37.62777777777778],[-122.44916666666667,37.647777777777776],[-122.44916666666667,37.647777777777776],[-122.65472222222223,37.61888888888889],[-122.65472222222223,37.61888888888889],[-122.65472222222223,37.61888888888889],[-122.58611111111111,37.55222222222222],[-122.58611111111111,37.55222222222222],[-122.58611111111111,37.55222222222222],[-122.39944444444446,37.403888888888886],[-122.39944444444446,37.403888888888886],[-122.39944444444446,37.403888888888886],[-122.39944444444446,37.403888888888886],[-122.35083333333333,37.37388888888889],[-122.30111111111111,37.32416666666667],[-122.20027777777779,37.242222222222225],[-122.20027777777779,37.242222222222225],[-122.14916666666667,37.20944444444445],[-122.14916666666667,37.20944444444445],[-122.14916666666667,37.20944444444445],[-122.14916666666667,37.20944444444445],[-121.89027777777778,36.98861111111111],[-121.89027777777778,36.98861111111111],[-121.89027777777778,36.98861111111111],[-121.89027777777778,36.98861111111111],[-121.89027777777778,36.98861111111111],[-121.89027777777778,36.98861111111111],[-121.58583333333333,36.73694444444445],[-121.58583333333333,36.73694444444445],[-121.58583333333333,36.73694444444445],[-121.58583333333333,36.73694444444445],[-121.41222222222223,36.59583333333334],[-121.41222222222223,36.59583333333334],[-121.36305555555555,36.551111111111105],[-121.36305555555555,36.551111111111105],[-121.36305555555555,36.551111111111105],[-121.36305555555555,36.551111111111105],[-121.18361111111112,36.40138888888889],[-121.18361111111112,36.40138888888889],[-121.18361111111112,36.40138888888889],[-121.13805555555557,36.36],[-121.08027777777778,36.30305555555555],[-121.08027777777778,36.30305555555555],[-121.08027777777778,36.30305555555555],[-121.08027777777778,36.30305555555555],[-120.97666666666667,36.20194444444445],[-120.87444444444444,36.10194444444445],[-120.82916666666667,36.0575],[-120.82916666666667,36.0575],[-120.82916666666667,36.0575],[-120.77055555555556,35.999722222222225],[-120.77055555555556,35.999722222222225],[-120.77055555555556,35.999722222222225],[-120.72722222222222,35.956944444444446],[-120.72722222222222,35.956944444444446],[-120.72722222222222,35.956944444444446],[-120.46583333333334,35.698055555555555],[-120.46583333333334,35.698055555555555],[-120.36583333333333,35.598333333333336],[-120.36583333333333,35.598333333333336],[-120.36583333333333,35.598333333333336],[-120.36583333333333,35.598333333333336],[-120.31888888888888,35.552499999999995],[-120.31888888888888,35.552499999999995],[-120.26166666666667,35.498333333333335],[-120.26166666666667,35.498333333333335],[-120.26166666666667,35.498333333333335],[-120.10972222222222,35.352222222222224],[-120.10972222222222,35.352222222222224],[-120.10972222222222,35.352222222222224],[-119.95194444444445,35.2],[-119.95194444444445,35.2],[-119.95194444444445,35.2],[-119.91000000000001,35.159166666666664],[-119.91000000000001,35.159166666666664],[-119.85694444444444,35.1075],[-119.85694444444444,35.1075],[-119.85694444444444,35.1075],[-119.72611111111111,34.98027777777778],[-119.72611111111111,34.98027777777778],[-119.72611111111111,34.98027777777778],[-119.54138888888889,34.82361111111111],[-119.54138888888889,34.82361111111111],[-119.54138888888889,34.82361111111111],[-119.48333333333333,34.78444444444444],[-119.48333333333333,34.78444444444444],[-119.48333333333333,34.78444444444444],[-119.48333333333333,34.78444444444444],[-119.34388888888888,34.69277777777778],[-119.34388888888888,34.69277777777778],[-119.28944444444444,34.657222222222224],[-119.28944444444444,34.657222222222224],[-119.28944444444444,34.657222222222224],[-119.10749999999999,34.56666666666667],[-119.10749999999999,34.56666666666667],[-119.0261111111111,34.51972222222222],[-119.0261111111111,34.51972222222222],[-119.0261111111111,34.51972222222222],[-119.0261111111111,34.51972222222222],[-118.97222222222223,34.45416666666667],[-118.97222222222223,34.45416666666667],[-118.97222222222223,34.45416666666667],[-118.85,34.31666666666667],[-118.85,34.31666666666667],[-118.82666666666667,34.3],[-118.82666666666667,34.3],[-118.82666666666667,34.3],[-118.8,34.28333333333333],[-118.8,34.28333333333333],[-118.8,34.28333333333333],[-118.8,34.28333333333333],[-118.68333333333334,34.233333333333334],[-118.65666666666667,34.217777777777776],[-118.65666666666667,34.217777777777776],[-118.65666666666667,34.217777777777776],[-118.56666666666666,34.2],[-118.53472222222221,34.20027777777778],[-118.53472222222221,34.20027777777778],[-118.53472222222221,34.20027777777778],[-118.53472222222221,34.20027777777778],[-118.53472222222221,34.20027777777778],[-118.5,34.2],[-118.47277777777778,34.19916666666666],[-118.47277777777778,34.19916666666666],[-118.4,34.2],[-118.4,34.2],[-118.4,34.2]],"type":"LineString"}
}
