{
  "id": 2031429079,
  "type": "Feature",
  "properties": {
    "geom:area": 0,
    "geom:bbox": "-122.305000,33.683333,-84.300000,38.333889",
    "geom:latitude": 36.52574852266472,
    "geom:longitude": -103.21890343549813,
    "src:alt_label": "swim-path",
    "src:geom": "swim",
    "swim:altitudes": [
      "043",
      "043",
      "106",
      "106",
      "193",
      "208",
      "229",
      "261",
      "277",
      "294",
      "300C",
      "300C",
      "300C",
      "300C",
      "300C",
      "300C",
      "300C",
      "300C",
      "300C",
      "315",
      "320C",
      "320C",
      "320C",
      "320C",
      "320C",
      "320C",
      "320C",
      "320C",
      "320C",
      "320C",
      "320C",
      "303",
      "300C",
      "300C",
      "300C",
      "300C",
      "300C",
      "300C",
      "300C",
      "300C",
      "300C",
      "300C",
      "300C",
      "300C",
      "300C",
      "300C",
      "300C",
      "300C",
      "300C",
      "300C",
      "300C",
      "300C",
      "300",
      "328",
      "336",
      "336",
      "340C",
      "340C",
      "340C",
      "340C",
      "340C",
      "340C",
      "340C",
      "340C",
      "340C",
      "340C",
      "340C",
      "340C",
      "340C",
      "340C",
      "340C",
      "340C",
      "340C",
      "340C",
      "340C",
      "340C",
      "340C",
      "340C",
      "340C",
      "340C",
      "340C",
      "340C",
      "340C",
      "340C",
      "340C",
      "340C",
      "340C",
      "340C",
      "340C",
      "340C",
      "340C",
      "340C",
      "340C",
      "340C",
      "340C",
      "340C",
      "340C",
      "340C",
      "340C",
      "324",
      "324",
      "320C",
      "320C",
      "320C",
      "320C",
      "320C",
      "320C",
      "320C",
      "320C",
      "320C",
      "320C",
      "320C",
      "320",
      "268",
      "186",
      "124",
      "124",
      "054",
      "045",
      "009"
    ],
    "swim:geom": "path",
    "swim:speeds": [
      248,
      248,
      284,
      284,
      401,
      414,
      416,
      398,
      418,
      418,
      417,
      417,
      418,
      428,
      428,
      428,
      429,
      432,
      432,
      444,
      445,
      445,
      447,
      447,
      456,
      462,
      462,
      464,
      463,
      467,
      462,
      463,
      468,
      469,
      458,
      458,
      455,
      455,
      455,
      454,
      452,
      452,
      449,
      450,
      450,
      453,
      454,
      452,
      450,
      449,
      450,
      450,
      453,
      453,
      450,
      450,
      450,
      450,
      449,
      431,
      430,
      430,
      433,
      441,
      446,
      448,
      445,
      442,
      442,
      432,
      432,
      434,
      434,
      437,
      444,
      444,
      438,
      438,
      438,
      440,
      440,
      438,
      438,
      438,
      438,
      444,
      437,
      437,
      437,
      437,
      439,
      439,
      438,
      438,
      435,
      435,
      439,
      436,
      436,
      433,
      433,
      429,
      429,
      433,
      435,
      435,
      439,
      442,
      441,
      441,
      436,
      435,
      435,
      414,
      382,
      357,
      357,
      226,
      222,
      154
    ],
    "swim:timestamps": [
      1780450524,
      1780450524,
      1780450694,
      1780450694,
      1780451006,
      1780451066,
      1780451126,
      1780451279,
      1780451399,
      1780451487,
      1780451727,
      1780451727,
      1780451940,
      1780452240,
      1780452240,
      1780452361,
      1780452421,
      1780452553,
      1780452553,
      1780452793,
      1780453093,
      1780453093,
      1780453214,
      1780453214,
      1780453849,
      1780453935,
      1780453935,
      1780453969,
      1780453995,
      1780454209,
      1780454269,
      1780454466,
      1780454509,
      1780454570,
      1780454766,
      1780454766,
      1780454946,
      1780454990,
      1780455016,
      1780455050,
      1780455170,
      1780455170,
      1780455256,
      1780455487,
      1780455487,
      1780455607,
      1780455771,
      1780455903,
      1780456023,
      1780456143,
      1780456204,
      1780456264,
      1780456461,
      1780456641,
      1780456701,
      1780456701,
      1780456907,
      1780456941,
      1780456985,
      1780457242,
      1780457422,
      1780457525,
      1780457542,
      1780457663,
      1780457843,
      1780457921,
      1780458024,
      1780458161,
      1780458227,
      1780458402,
      1780458402,
      1780458762,
      1780458762,
      1780458828,
      1780459062,
      1780459123,
      1780459363,
      1780459363,
      1780459663,
      1780459783,
      1780459783,
      1780460016,
      1780460084,
      1780460316,
      1780460316,
      1780460496,
      1780460684,
      1780460736,
      1780460977,
      1780460984,
      1780461157,
      1780461157,
      1780461405,
      1780461405,
      1780461637,
      1780461637,
      1780462238,
      1780462418,
      1780462598,
      1780463018,
      1780463018,
      1780463258,
      1780463258,
      1780463499,
      1780463561,
      1780463679,
      1780463982,
      1780464219,
      1780464522,
      1780464522,
      1780464762,
      1780464822,
      1780465063,
      1780465363,
      1780465603,
      1780465779,
      1780465779,
      1780466143,
      1780466203,
      1780466443
    ],
    "wof:geomhash": "d2401688e8074e38539d59fa95e3f83d",
    "wof:id": 2031429079,
    "wof:repo": "sfomuseum-data-flights-2026-06"
  },
  "bbox": [
    -122.30499999999999,
    33.68333333333333,
    -84.3,
    38.33388888888889
  ],
  "geometry": {"coordinates":[[-84.3,33.68333333333333],[-84.3,33.68333333333333],[-84.37277777777777,33.814166666666665],[-84.37277777777777,33.814166666666665],[-85.02583333333334,33.818333333333335],[-85.16333333333334,33.81861111111112],[-85.30361111111111,33.823055555555555],[-85.63861111111112,33.83777777777778],[-85.90027777777779,33.911944444444444],[-86.11361111111111,33.973333333333336],[-86.63944444444445,34.12361111111111],[-86.63944444444445,34.12361111111111],[-87.09166666666667,34.25083333333333],[-87.78361111111111,34.44138888888889],[-87.78361111111111,34.44138888888889],[-88.05805555555555,34.51555555555556],[-88.19472222222223,34.55222222222222],[-88.5,34.63361111111111],[-88.5,34.63361111111111],[-89.05694444444444,34.779444444444444],[-89.81777777777778,34.83833333333334],[-89.81777777777778,34.83833333333334],[-90.11999999999999,34.855000000000004],[-90.11999999999999,34.855000000000004],[-91.74388888888889,34.93222222222222],[-91.96444444444445,34.94],[-91.96444444444445,34.94],[-92.05833333333334,34.94333333333333],[-92.1211111111111,34.94611111111111],[-92.69250000000001,34.96611111111111],[-92.85111111111111,34.971111111111114],[-93.35111111111111,34.98638888888889],[-93.47916666666667,34.989444444444445],[-93.60972222222222,34.99277777777778],[-94.13833333333334,35.005],[-94.13833333333334,35.005],[-94.59916666666666,35.015],[-94.7125,35.01861111111111],[-94.7713888888889,35.019999999999996],[-94.86555555555555,35.02194444444444],[-95.17222222222223,35.026944444444446],[-95.17222222222223,35.026944444444446],[-95.38472222222222,35.03194444444444],[-95.93111111111112,35.1475],[-95.93111111111112,35.1475],[-96.2238888888889,35.22638888888889],[-96.63333333333334,35.33527777777778],[-96.95583333333333,35.41972222222222],[-97.24361111111111,35.49444444444445],[-97.55666666666666,35.57472222222223],[-97.70277777777778,35.611666666666665],[-97.84888888888888,35.64833333333333],[-98.32166666666666,35.76638888888889],[-98.7675,35.87555555555556],[-98.91361111111112,35.91083333333333],[-98.91361111111112,35.91083333333333],[-99.40777777777778,36.028888888888886],[-99.50861111111111,36.05305555555555],[-99.60499999999999,36.09055555555556],[-100.16027777777778,36.35638888888889],[-100.53416666666666,36.54888888888889],[-100.75777777777778,36.63638888888889],[-100.80416666666666,36.65138888888889],[-101.0886111111111,36.74333333333333],[-101.52027777777778,36.88611111111111],[-101.69444444444444,36.94499999999999],[-101.94638888888889,37.033055555555556],[-102.28027777777778,37.08305555555556],[-102.46166666666667,37.10611111111111],[-102.89166666666668,37.159444444444446],[-102.89166666666668,37.159444444444446],[-103.78444444444445,37.26416666666667],[-103.78444444444445,37.26416666666667],[-103.93666666666667,37.28111111111111],[-104.55888888888889,37.34916666666667],[-104.71222222222222,37.36527777777778],[-105.31555555555555,37.426944444444445],[-105.31555555555555,37.426944444444445],[-106.06972222222223,37.5],[-106.37666666666667,37.52833333333333],[-106.37666666666667,37.52833333333333],[-106.94555555555556,37.57777777777778],[-107.13055555555555,37.59388888888889],[-107.71222222222222,37.64194444444444],[-107.71222222222222,37.64194444444444],[-108.18111111111112,37.676944444444445],[-108.66444444444446,37.713055555555556],[-108.78999999999999,37.721944444444446],[-109.39861111111112,37.7625],[-109.4225,37.76416666666667],[-109.86055555555555,37.791666666666664],[-109.86055555555555,37.791666666666664],[-110.49416666666667,37.82805555555556],[-110.49416666666667,37.82805555555556],[-111.09444444444443,37.875277777777775],[-111.09444444444443,37.875277777777775],[-112.61305555555555,38.06944444444445],[-113.06472222222222,38.12305555555555],[-113.51944444444445,38.17527777777777],[-114.5775,38.28972222222222],[-114.5775,38.28972222222222],[-115.18,38.330555555555556],[-115.18,38.330555555555556],[-115.81027777777777,38.33361111111111],[-115.96666666666667,38.33388888888889],[-116.27222222222223,38.33361111111111],[-117.02972222222222,38.21361111111111],[-117.62388888888889,38.10777777777778],[-118.38527777777779,37.9675],[-118.38527777777779,37.9675],[-118.98472222222222,37.87083333333334],[-119.14166666666668,37.8525],[-119.74694444444445,37.780833333333334],[-120.49083333333333,37.689166666666665],[-121.03194444444445,37.62388888888889],[-121.41666666666667,37.583333333333336],[-121.41666666666667,37.583333333333336],[-122.0038888888889,37.49805555555556],[-122.08055555555555,37.5025],[-122.30499999999999,37.59166666666667]],"type":"LineString"}
}
