{
  "id": 2031429079,
  "type": "Feature",
  "properties": {
    "geom:area": 0,
    "geom:bbox": "-122.357280,37.492130,-121.248480,37.613450",
    "geom:latitude": 37.54290826435013,
    "geom:longitude": -121.80981754865371,
    "src:alt_label": "swim-approach",
    "src:geom": "swim",
    "swim:elevations": [
      4609,
      4342,
      3943,
      3813,
      3411,
      3168,
      3132,
      2961,
      2719,
      2653,
      2411,
      2262,
      2174,
      1909,
      1855,
      1713,
      1451,
      1392,
      1189,
      1084,
      902,
      792,
      726,
      611,
      491,
      425,
      295,
      186,
      0
    ],
    "swim:geom": "approach",
    "swim:timestamps": [
      1780440498,
      1780440522,
      1780440561,
      1780440574,
      1780440618,
      1780440651,
      1780440660,
      1780440710,
      1780440747,
      1780440753,
      1780440804,
      1780440833,
      1780440858,
      1780440894,
      1780440902,
      1780440930,
      1780440987,
      1780440999,
      1780441041,
      1780441067,
      1780441105,
      1780441132,
      1780441147,
      1780441168,
      1780441198,
      1780441215,
      1780441242,
      1780441269,
      1780441311
    ],
    "wof:geomhash": "1a5084b7cf62a6fbe091a18b508f1d79",
    "wof:id": 2031429079,
    "wof:repo": "sfomuseum-data-flights-2026-06"
  },
  "bbox": [
    -122.35728,
    37.49213,
    -121.24848,
    37.61345
  ],
  "geometry": {"coordinates":[[-121.24848,37.59484],[-121.2992,37.58813],[-121.38202,37.57915],[-121.40968,37.57618],[-121.49595,37.56596],[-121.56015,37.55798],[-121.5772,37.55613],[-121.66457,37.5411],[-121.72549,37.52675],[-121.73522,37.52442],[-121.81458,37.50527],[-121.85694,37.49548],[-121.89252,37.49213],[-121.94142,37.49523],[-121.95201,37.49586],[-121.98881,37.49735],[-122.06146,37.50154],[-122.07646,37.50226],[-122.12591,37.51577],[-122.15296,37.52709],[-122.18986,37.54299],[-122.21473,37.55369],[-122.22839,37.55944],[-122.24644,37.56699],[-122.26967,37.57678],[-122.2829,37.58231],[-122.30454,37.59145],[-122.32532,37.60016],[-122.35728,37.61345]],"type":"LineString"}
}
