{
  "id": 2031523495,
  "type": "Feature",
  "properties": {
    "geom:area": 0,
    "geom:bbox": "-122.355556,37.781389,-104.683333,40.663056",
    "geom:latitude": 39.38780838953412,
    "geom:longitude": -113.42360507462512,
    "src:alt_label": "swim-path",
    "src:geom": "swim",
    "swim:altitudes": [
      "049",
      "049",
      "107",
      "122",
      "122",
      "163",
      "186",
      "186",
      "204",
      "238",
      "283",
      "283",
      "294",
      "305",
      "311",
      "344",
      "364",
      "370C",
      "370C",
      "370C",
      "370C",
      "370C",
      "370C",
      "370C",
      "370C",
      "370C",
      "370C",
      "370C",
      "370C",
      "370C",
      "370C",
      "370C",
      "370C",
      "370C",
      "370C",
      "370C",
      "370C",
      "370C",
      "370C",
      "370C",
      "370C",
      "370C",
      "370C",
      "370C",
      "370C",
      "370C",
      "370C",
      "370C",
      "370C",
      "370C",
      "370C",
      "370C",
      "370C",
      "370C",
      "370C",
      "370C",
      "370C",
      "370C",
      "370C",
      "370C",
      "370C",
      "370C",
      "370C",
      "370C",
      "370C",
      "370C",
      "370C",
      "370C",
      "370",
      "363",
      "351",
      "303",
      "303",
      "284",
      "265",
      "231",
      "228",
      "228",
      "178",
      "166",
      "152",
      "131",
      "131",
      "120",
      "096",
      "096",
      "086",
      "073",
      "066",
      "055",
      "055"
    ],
    "swim:geom": "path",
    "swim:speeds": [
      268,
      268,
      313,
      348,
      348,
      373,
      387,
      387,
      401,
      428,
      456,
      456,
      465,
      475,
      475,
      489,
      491,
      489,
      489,
      489,
      490,
      490,
      488,
      488,
      488,
      488,
      489,
      489,
      489,
      490,
      490,
      493,
      493,
      494,
      494,
      494,
      494,
      494,
      495,
      495,
      496,
      497,
      497,
      497,
      498,
      498,
      500,
      500,
      508,
      509,
      509,
      511,
      511,
      517,
      517,
      520,
      520,
      517,
      517,
      516,
      516,
      518,
      518,
      518,
      518,
      518,
      517,
      517,
      516,
      517,
      523,
      503,
      503,
      487,
      475,
      448,
      450,
      450,
      375,
      373,
      365,
      317,
      317,
      273,
      261,
      261,
      213,
      196,
      174,
      167,
      167
    ],
    "swim:timestamps": [
      1781267227,
      1781267227,
      1781267407,
      1781267467,
      1781267467,
      1781267587,
      1781267647,
      1781267647,
      1781267707,
      1781267827,
      1781268007,
      1781268007,
      1781268067,
      1781268127,
      1781268165,
      1781268345,
      1781268465,
      1781268608,
      1781268668,
      1781268668,
      1781268788,
      1781268788,
      1781268968,
      1781269028,
      1781269066,
      1781269066,
      1781269208,
      1781269246,
      1781269246,
      1781269306,
      1781269328,
      1781269448,
      1781269448,
      1781269508,
      1781269508,
      1781269628,
      1781269628,
      1781269688,
      1781269786,
      1781269786,
      1781269906,
      1781269966,
      1781270027,
      1781270027,
      1781270207,
      1781270207,
      1781270327,
      1781270327,
      1781270567,
      1781270627,
      1781270627,
      1781270807,
      1781270867,
      1781271288,
      1781271288,
      1781271535,
      1781271535,
      1781271709,
      1781271709,
      1781271956,
      1781271956,
      1781272129,
      1781272136,
      1781272196,
      1781272196,
      1781272256,
      1781272309,
      1781272369,
      1781272557,
      1781272610,
      1781272677,
      1781272917,
      1781272917,
      1781272977,
      1781273037,
      1781273138,
      1781273158,
      1781273158,
      1781273357,
      1781273398,
      1781273458,
      1781273578,
      1781273578,
      1781273658,
      1781273758,
      1781273758,
      1781273838,
      1781273958,
      1781273999,
      1781274078,
      1781274078
    ],
    "wof:geomhash": "27efb13e792fee1de72209be1ffc29c5",
    "wof:id": 2031523495,
    "wof:repo": "sfomuseum-data-flights-2026-06"
  },
  "bbox": [
    -122.35555555555555,
    37.78138888888889,
    -104.68333333333334,
    40.66305555555555
  ],
  "geometry": {"coordinates":[[-122.35555555555555,37.78138888888889],[-122.35555555555555,37.78138888888889],[-122.2725,37.963055555555556],[-122.15361111111112,37.98722222222222],[-122.15361111111112,37.98722222222222],[-121.90555555555557,38.03666666666666],[-121.75805555555556,38.06583333333333],[-121.75805555555556,38.06583333333333],[-121.62166666666666,38.09277777777778],[-121.3325,38.14888888888889],[-120.87444444444444,38.22888888888889],[-120.87444444444444,38.22888888888889],[-120.71416666666667,38.251666666666665],[-120.54861111111111,38.27472222222222],[-120.45666666666666,38.28638888888889],[-119.94555555555556,38.35472222222222],[-119.60388888888889,38.400555555555556],[-119.19611111111111,38.45416666666667],[-119.02666666666667,38.475833333333334],[-119.02666666666667,38.475833333333334],[-118.68388888888889,38.51833333333333],[-118.68388888888889,38.51833333333333],[-118.17583333333334,38.57916666666667],[-117.98,38.602222222222224],[-117.88055555555555,38.61361111111111],[-117.88055555555555,38.61361111111111],[-117.46083333333334,38.66111111111111],[-117.35916666666667,38.6725],[-117.35916666666667,38.6725],[-117.18694444444445,38.69583333333333],[-117.11555555555555,38.70666666666667],[-116.76694444444445,38.75833333333333],[-116.76694444444445,38.75833333333333],[-116.62777777777777,38.77861111111111],[-116.62777777777777,38.77861111111111],[-116.28,38.82888888888889],[-116.28,38.82888888888889],[-116.10722222222222,38.853611111111114],[-115.7961111111111,38.89666666666667],[-115.7961111111111,38.89666666666667],[-115.44805555555556,38.94444444444444],[-115.26916666666666,38.968333333333334],[-115.09555555555555,38.99138888888889],[-115.09555555555555,38.99138888888889],[-114.56833333333333,39.05972222222222],[-114.56833333333333,39.05972222222222],[-114.21583333333334,39.103611111111114],[-114.21583333333334,39.103611111111114],[-113.49805555555555,39.19027777777777],[-113.35305555555556,39.20722222222223],[-113.35305555555556,39.20722222222223],[-112.80777777777777,39.26888888888889],[-112.60138888888888,39.291666666666664],[-111.45138888888889,39.73694444444445],[-111.45138888888889,39.73694444444445],[-110.77555555555556,40.0075],[-110.77555555555556,40.0075],[-110.27416666666666,40.20472222222222],[-110.27416666666666,40.20472222222222],[-109.60305555555556,40.46333333333334],[-109.60305555555556,40.46333333333334],[-109.12222222222222,40.64472222222222],[-109.0936111111111,40.653888888888886],[-108.90277777777779,40.66305555555555],[-108.90277777777779,40.66305555555555],[-108.71666666666667,40.651666666666664],[-108.55722222222222,40.64138888888889],[-108.40861111111111,40.630833333333335],[-107.76416666666667,40.584722222222226],[-107.62444444444444,40.57416666666667],[-107.3875,40.55638888888888],[-106.63555555555556,40.49583333333334],[-106.63555555555556,40.49583333333334],[-106.46111111111111,40.48111111111111],[-106.28999999999999,40.46555555555556],[-106,40.43333333333333],[-105.97166666666666,40.43694444444444],[-105.97166666666666,40.43694444444444],[-105.46666666666667,40.36666666666667],[-105.36972222222222,40.345555555555556],[-105.24083333333333,40.32833333333333],[-104.99638888888889,40.29472222222222],[-104.99638888888889,40.29472222222222],[-104.86666666666666,40.25],[-104.73944444444444,40.184999999999995],[-104.73944444444444,40.184999999999995],[-104.68333333333334,40.11666666666667],[-104.68333333333334,40],[-104.68611111111112,39.961666666666666],[-104.68333333333334,39.9],[-104.68333333333334,39.9]],"type":"LineString"}
}
