{
  "id": 2031461589,
  "type": "Feature",
  "properties": {
    "geom:area": 0,
    "geom:bbox": "-122.530000,37.620000,8.550000,58.100000",
    "geom:latitude": 53.65894996766161,
    "geom:longitude": -58.5820289927127,
    "src:alt_label": "swim-route",
    "src:geom": "swim",
    "swim:geom": "route",
    "wof:geomhash": "b1ebc1f6e9730b6d32fbbea1cb942944",
    "wof:id": 2031461589,
    "wof:repo": "sfomuseum-data-flights-2026-06"
  },
  "bbox": [
    -122.53,
    37.62,
    8.55,
    58.1
  ],
  "geometry": {"coordinates":[[-122.38,37.62],[-122.5,37.67],[-122.51,37.68],[-122.52,37.68],[-122.53,37.75],[-122.53,37.76],[-122.53,37.79],[-122.53,37.8],[-122.47,37.83],[-122.46,37.83],[-122.43,37.84],[-122.36,37.89],[-122.2,38],[-122.12,38.06],[-122.04,38.11],[-121.9,38.2],[-121.88,38.22],[-121.68,38.36],[-121.68,38.36],[-121.59,38.45],[-121.52,38.52],[-121.5,38.54],[-121.42,38.63],[-121.39,38.65],[-121.32,38.72],[-121.2,38.84],[-121.2,38.84],[-121.14,38.9],[-121.09,38.95],[-121.04,39],[-120.97,39.06],[-120.75,39.26],[-120.72,39.29],[-120.66,39.35],[-120.5,39.52],[-120.34,39.68],[-119.65,40.33],[-119.49,40.48],[-119.12,40.82],[-117.67,42.11],[-114.42,44.76],[-114.08,45.02],[-113.01,45.83],[-112.36,46.32],[-111.95,46.61],[-109.07,48.39],[-108.02,49],[-106.32,49.93],[-104.89,50.67],[-104.18,50.88],[-103.32,51.15],[-101,51.83],[-99.05,52.35],[-97.88,52.65],[-97.64,52.71],[-94.49,53.87],[-91.52,54.75],[-91.16,54.95],[-91,55],[-89.72,55.3],[-88.42,55.58],[-86.78,55.91],[-82.28,56.6],[-81.67,56.77],[-80,57],[-78.67,57.18],[-78.03,57.17],[-73.45,57.58],[-72.07,57.65],[-71.17,57.68],[-68.09,57.75],[-65.88,57.76],[-65.72,57.77],[-65.51,57.76],[-63.86,57.74],[-63.67,57.73],[-62.69,57.71],[-59.5,57.56],[-59.16,57.54],[-58,57.47],[-57.3,57.53],[-56.02,57.65],[-54.58,57.76],[-50,58],[-45.72,58.1],[-40,58],[-30,57],[-28.91,56.93],[-25.65,56.67],[-20,56],[-16.94,55.5],[-13.96,54.92],[-11.64,54.4],[-11,54.25],[-5.5,52.75],[-3.9,52.17],[-2.86,51.77],[-1.55,51.25],[-1.37,51.17],[-0.93,50.99],[-0.25,50.7],[0.27,50.2],[0.27,50.2],[0.62,49.86],[5.32,48.53],[5.54,48.46],[5.61,48.44],[6.05,48.3],[6.14,48.27],[6.49,48.16],[6.79,48.06],[7.07,47.97],[7.49,47.82],[7.71,47.75],[8,47.65],[8.06,47.63],[8.22,47.57],[8.33,47.54],[8.44,47.5],[8.55,47.46]],"type":"LineString"}
}
