{
  "id": 2031569013,
  "type": "Feature",
  "properties": {
    "geom:area": 0,
    "geom:bbox": "-122.405170,37.622640,-121.299530,38.392610",
    "geom:latitude": 38.00457278952578,
    "geom:longitude": -121.86896931716628,
    "src:alt_label": "swim-takeoff",
    "src:geom": "swim",
    "swim:elevations": [
      91,
      213,
      815,
      1026,
      1194,
      1920,
      2178,
      2779,
      3216,
      3235,
      3534,
      3726,
      3984,
      4389,
      4724,
      4973,
      5434,
      5599,
      5993,
      6148,
      6501,
      6841,
      7020,
      7376,
      7547
    ],
    "swim:geom": "takeoff",
    "swim:timestamps": [
      1781708214,
      1781708223,
      1781708270,
      1781708292,
      1781708314,
      1781708380,
      1781708400,
      1781708442,
      1781708487,
      1781708493,
      1781708527,
      1781708569,
      1781708594,
      1781708632,
      1781708660,
      1781708683,
      1781708723,
      1781708739,
      1781708780,
      1781708796,
      1781708833,
      1781708868,
      1781708888,
      1781708929,
      1781708950
    ],
    "wof:geomhash": "0fd1ea78b4df80174cdbd182b9103865",
    "wof:id": 2031569013,
    "wof:repo": "sfomuseum-data-flights-2026-06"
  },
  "bbox": [
    -122.40517,
    37.62264,
    -121.29953,
    38.39261
  ],
  "geometry": {"coordinates":[[-122.38397,37.62264],[-122.39161,37.62608],[-122.40517,37.65836],[-122.38466,37.66792],[-122.35717,37.674],[-122.26709,37.7015],[-122.23694,37.71061],[-122.18723,37.74668],[-122.14465,37.79581],[-122.13826,37.8027],[-122.09953,37.84526],[-122.04229,37.89969],[-121.99709,37.92952],[-121.9277,37.97487],[-121.87706,38.00896],[-121.83352,38.03852],[-121.75814,38.08966],[-121.72665,38.11081],[-121.64806,38.1635],[-121.61609,38.18489],[-121.54063,38.23532],[-121.47004,38.28242],[-121.43091,38.30848],[-121.34399,38.36547],[-121.29953,38.39261]],"type":"LineString"}
}
