{
  "id": 2031560047,
  "type": "Feature",
  "properties": {
    "geom:area": 0,
    "geom:bbox": "-122.380000,37.620000,-74.170000,42.060000",
    "geom:latitude": 41.263557344510545,
    "geom:longitude": -98.61763981199009,
    "src:alt_label": "swim-route",
    "src:geom": "swim",
    "swim:geom": "route",
    "wof:geomhash": "a4b0b2185117dcb66d133d57e0f20bc6",
    "wof:id": 2031560047,
    "wof:repo": "sfomuseum-data-flights-2026-06"
  },
  "bbox": [
    -122.38,
    37.62,
    -74.17,
    42.06
  ],
  "geometry": {"coordinates":[[-122.38,37.62],[-122.27,37.69],[-122.26,37.69],[-122.26,37.69],[-122.21,37.72],[-122.2,37.73],[-122.2,37.73],[-122.18,37.75],[-122.14,37.8],[-122.13,37.81],[-122.07,37.88],[-122.01,37.92],[-121.85,38.02],[-121.85,38.03],[-121.77,38.08],[-121.74,38.1],[-121.7,38.13],[-121.59,38.2],[-121.54,38.23],[-121.54,38.24],[-121.53,38.25],[-121.39,38.34],[-121.38,38.35],[-121.26,38.41],[-121.24,38.43],[-121.17,38.47],[-120.92,38.63],[-120.85,38.67],[-120.83,38.68],[-120.75,38.73],[-120.66,38.78],[-120.41,38.93],[-120.3,39],[-120.18,39.08],[-119.97,39.2],[-119.34,39.57],[-118.8,39.88],[-118.02,40.2],[-117.94,40.22],[-117.86,40.25],[-117.67,40.3],[-114.99,41.06],[-114.46,41.2],[-113.84,41.36],[-113.72,41.39],[-112.76,41.56],[-110.88,41.87],[-110,42],[-108.29,42],[-107.54,42.01],[-106,42],[-104.62,42.04],[-103.08,42.06],[-102.12,42.05],[-101.59,42.04],[-100,42],[-99.93,42],[-99.31,41.96],[-99.02,41.94],[-97.34,41.81],[-96.76,41.76],[-96.51,41.74],[-96.18,41.71],[-95.73,41.66],[-95.21,41.61],[-93.65,41.44],[-93.51,41.44],[-92.62,41.45],[-91.13,41.45],[-89.18,41.42],[-88.73,41.41],[-88.18,41.4],[-87,41.3],[-86.46,41.25],[-86.08,41.22],[-84.71,41.08],[-84.43,41.05],[-82.72,41.27],[-80.89,41.49],[-80.05,41.58],[-79.21,41.66],[-77.97,41.51],[-77.78,41.49],[-77.69,41.47],[-77.55,41.45],[-77.45,41.44],[-77.16,41.4],[-77.07,41.38],[-76.99,41.37],[-76.77,41.34],[-76.54,41.28],[-76.16,41.17],[-76.05,41.14],[-75.74,41.06],[-75.69,41.04],[-75.64,41.03],[-75.6,41.02],[-75.58,41.01],[-75.47,40.98],[-75.4,40.96],[-75.17,40.9],[-75.11,40.88],[-75.05,40.86],[-74.92,40.83],[-74.92,40.83],[-74.87,40.82],[-74.82,40.81],[-74.76,40.8],[-74.71,40.79],[-74.7,40.79],[-74.65,40.78],[-74.61,40.77],[-74.49,40.75],[-74.44,40.74],[-74.38,40.73],[-74.27,40.71],[-74.17,40.69]],"type":"LineString"}
}
