{
  "id": 2031425611,
  "type": "Feature",
  "properties": {
    "geom:area": 0,
    "geom:bbox": "-122.531944,36.001111,-114.879167,37.662500",
    "geom:latitude": 36.86303038963347,
    "geom:longitude": -118.58731401536139,
    "src:alt_label": "swim-path",
    "src:geom": "swim",
    "swim:altitudes": [
      "053",
      "082",
      "197",
      "197",
      "197",
      "197",
      "197",
      "197",
      "310C",
      "310C",
      "310C",
      "310C",
      "310C",
      "310C",
      "310C",
      "310C",
      "310C",
      "310C",
      "310C",
      "310C",
      "310C",
      "310C",
      "310C",
      "310C",
      "310C",
      "310C",
      "310C",
      "310C",
      "310C",
      "310C",
      "310C",
      "310C",
      "310C",
      "310C",
      "310C",
      "310C",
      "310C",
      "310C",
      "310C",
      "310C",
      "310",
      "310",
      "310C",
      "310C",
      "310C",
      "310C",
      "310C",
      "310C",
      "310C",
      "310C",
      "310C",
      "310C",
      "310C",
      "298",
      "298",
      "298",
      "298",
      "298",
      "298",
      "192",
      "192",
      "192",
      "192",
      "192",
      "192",
      "150",
      "150",
      "150",
      "150",
      "120",
      "120",
      "120",
      "120",
      "099",
      "099",
      "099",
      "072",
      "072",
      "062",
      "061",
      "060",
      "060",
      "056",
      "046",
      "029",
      "029",
      "026",
      "022",
      "022",
      "022",
      "022",
      "022"
    ],
    "swim:geom": "path",
    "swim:speeds": [
      246,
      269,
      363,
      363,
      363,
      363,
      363,
      363,
      454,
      452,
      452,
      452,
      452,
      457,
      457,
      455,
      455,
      455,
      455,
      455,
      456,
      456,
      456,
      456,
      464,
      464,
      464,
      464,
      467,
      467,
      467,
      467,
      469,
      469,
      469,
      469,
      469,
      468,
      468,
      468,
      468,
      468,
      468,
      468,
      468,
      469,
      469,
      469,
      468,
      467,
      467,
      467,
      467,
      469,
      469,
      469,
      469,
      469,
      469,
      376,
      376,
      376,
      376,
      376,
      376,
      314,
      314,
      314,
      314,
      297,
      297,
      297,
      297,
      287,
      287,
      287,
      240,
      240,
      241,
      213,
      196,
      196,
      188,
      190,
      145,
      145,
      147,
      145,
      145,
      145,
      145,
      145
    ],
    "swim:timestamps": [
      1780316014,
      1780316074,
      1780316314,
      1780316314,
      1780316314,
      1780316314,
      1780316314,
      1780316314,
      1780316674,
      1780316794,
      1780316794,
      1780316794,
      1780316794,
      1780316855,
      1780316855,
      1780316914,
      1780316914,
      1780316914,
      1780316914,
      1780316914,
      1780317034,
      1780317034,
      1780317034,
      1780317034,
      1780317214,
      1780317214,
      1780317214,
      1780317214,
      1780317275,
      1780317334,
      1780317334,
      1780317334,
      1780317455,
      1780317455,
      1780317455,
      1780317455,
      1780317455,
      1780317694,
      1780317754,
      1780317754,
      1780317859,
      1780317859,
      1780317934,
      1780317934,
      1780317934,
      1780318055,
      1780318055,
      1780318055,
      1780318175,
      1780318235,
      1780318235,
      1780318235,
      1780318235,
      1780318475,
      1780318475,
      1780318475,
      1780318475,
      1780318475,
      1780318475,
      1780318775,
      1780318775,
      1780318775,
      1780318775,
      1780318775,
      1780318775,
      1780319031,
      1780319031,
      1780319031,
      1780319031,
      1780319151,
      1780319151,
      1780319151,
      1780319151,
      1780319256,
      1780319256,
      1780319256,
      1780319398,
      1780319398,
      1780319446,
      1780319496,
      1780319506,
      1780319506,
      1780319556,
      1780319616,
      1780319736,
      1780319736,
      1780319753,
      1780319796,
      1780319796,
      1780319796,
      1780319796,
      1780319796
    ],
    "wof:geomhash": "fc61ae481f3ed7160339b505150d1f2a",
    "wof:id": 2031425611,
    "wof:repo": "sfomuseum-data-flights-2026-06"
  },
  "bbox": [
    -122.53194444444445,
    36.00111111111111,
    -114.87916666666666,
    37.6625
  ],
  "geometry": {"coordinates":[[-122.52888888888889,37.6625],[-122.53194444444445,37.594166666666666],[-122.18722222222223,37.39833333333333],[-122.18722222222223,37.39833333333333],[-122.18722222222223,37.39833333333333],[-122.18722222222223,37.39833333333333],[-122.18722222222223,37.39833333333333],[-122.18722222222223,37.39833333333333],[-121.31,37.30166666666666],[-120.99416666666667,37.2675],[-120.99416666666667,37.2675],[-120.99416666666667,37.2675],[-120.99416666666667,37.2675],[-120.83722222222222,37.24722222222222],[-120.83722222222222,37.24722222222222],[-120.67805555555556,37.22972222222222],[-120.67805555555556,37.22972222222222],[-120.67805555555556,37.22972222222222],[-120.67805555555556,37.22972222222222],[-120.67805555555556,37.22972222222222],[-120.36138888888888,37.19138888888889],[-120.36138888888888,37.19138888888889],[-120.36138888888888,37.19138888888889],[-120.36138888888888,37.19138888888889],[-119.88194444444444,37.130833333333335],[-119.88194444444444,37.130833333333335],[-119.88194444444444,37.130833333333335],[-119.88194444444444,37.130833333333335],[-119.74666666666667,37.11361111111111],[-119.55944444444444,37.089444444444446],[-119.55944444444444,37.089444444444446],[-119.55944444444444,37.089444444444446],[-119.26333333333334,37.05083333333333],[-119.26333333333334,37.05083333333333],[-119.26333333333334,37.05083333333333],[-119.26333333333334,37.05083333333333],[-119.26333333333334,37.05083333333333],[-118.62055555555555,36.96388888888889],[-118.46111111111111,36.94194444444444],[-118.46111111111111,36.94194444444444],[-118.15611111111112,36.89888888888889],[-118.15611111111112,36.89888888888889],[-117.97972222222222,36.87416666666667],[-117.97972222222222,36.87416666666667],[-117.97972222222222,36.87416666666667],[-117.66166666666668,36.82805555555556],[-117.66166666666668,36.82805555555556],[-117.66166666666668,36.82805555555556],[-117.34472222222222,36.78138888888889],[-117.1888888888889,36.75805555555556],[-117.1888888888889,36.75805555555556],[-117.1888888888889,36.75805555555556],[-117.1888888888889,36.75805555555556],[-116.55138888888888,36.66],[-116.55138888888888,36.66],[-116.55138888888888,36.66],[-116.55138888888888,36.66],[-116.55138888888888,36.66],[-116.55138888888888,36.66],[-115.98138888888889,36.288888888888884],[-115.98138888888889,36.288888888888884],[-115.98138888888889,36.288888888888884],[-115.98138888888889,36.288888888888884],[-115.98138888888889,36.288888888888884],[-115.98138888888889,36.288888888888884],[-115.57194444444444,36.08388888888889],[-115.57194444444444,36.08388888888889],[-115.57194444444444,36.08388888888889],[-115.57194444444444,36.08388888888889],[-115.37722222222222,36.02166666666667],[-115.37722222222222,36.02166666666667],[-115.37722222222222,36.02166666666667],[-115.37722222222222,36.02166666666667],[-115.20722222222223,36.00888888888889],[-115.20722222222223,36.00888888888889],[-115.20722222222223,36.00888888888889],[-115.00277777777778,36.00111111111111],[-115.00277777777778,36.00111111111111],[-114.9375,36.00138888888889],[-114.87972222222221,36.01777777777777],[-114.87916666666666,36.02611111111111],[-114.87916666666666,36.02611111111111],[-114.90666666666667,36.06055555555555],[-114.96361111111112,36.073888888888895],[-115.07277777777777,36.07361111111111],[-115.07277777777777,36.07361111111111],[-115.09055555555555,36.072500000000005],[-115.11944444444444,36.07361111111111],[-115.11944444444444,36.07361111111111],[-115.11944444444444,36.07361111111111],[-115.11944444444444,36.07361111111111],[-115.11944444444444,36.07361111111111]],"type":"LineString"}
}
