{
  "id": 2031606283,
  "type": "Feature",
  "properties": {
    "geom:area": 0,
    "geom:bbox": "-123.312250,37.628300,-122.397770,38.487500",
    "geom:latitude": 38.016777774177946,
    "geom:longitude": -122.88807531287999,
    "src:alt_label": "swim-takeoff",
    "src:geom": "swim",
    "swim:elevations": [
      195,
      606,
      699,
      1073,
      1140,
      1369,
      1693,
      1888,
      1971,
      2366,
      2679,
      2925,
      3142,
      3487,
      3613,
      3866,
      3902,
      4286,
      4628,
      4837,
      5111,
      5268,
      5546,
      5842,
      6005,
      6187,
      6370
    ],
    "swim:geom": "takeoff",
    "swim:timestamps": [
      1782054676,
      1782054708,
      1782054721,
      1782054773,
      1782054784,
      1782054818,
      1782054854,
      1782054870,
      1782054877,
      1782054913,
      1782054945,
      1782054970,
      1782054998,
      1782055046,
      1782055066,
      1782055108,
      1782055113,
      1782055153,
      1782055192,
      1782055222,
      1782055256,
      1782055276,
      1782055305,
      1782055341,
      1782055362,
      1782055386,
      1782055410
    ],
    "wof:geomhash": "16de48c115b04f03cb83c2bda4d95e87",
    "wof:id": 2031606283,
    "wof:repo": "sfomuseum-data-flights-2026-06"
  },
  "bbox": [
    -123.31225,
    37.6283,
    -122.39777,
    38.4875
  ],
  "geometry": {"coordinates":[[-122.39777,37.6283],[-122.4292,37.64221],[-122.4429,37.64819],[-122.49931,37.67302],[-122.5123,37.67973],[-122.55264,37.70402],[-122.60074,37.7322],[-122.62183,37.74442],[-122.63162,37.75031],[-122.68046,37.77927],[-122.72521,37.80535],[-122.75857,37.82819],[-122.78801,37.86118],[-122.83844,37.92196],[-122.86187,37.95059],[-122.9108,38.00923],[-122.91728,38.01699],[-122.96775,38.07744],[-123.01728,38.13683],[-123.05587,38.18296],[-123.10111,38.23684],[-123.12739,38.26807],[-123.16749,38.31585],[-123.21631,38.37378],[-123.24525,38.40744],[-123.27947,38.44772],[-123.31225,38.4875]],"type":"LineString"}
}
