{
  "id": 2031501227,
  "type": "Feature",
  "properties": {
    "geom:area": 0,
    "geom:bbox": "-122.380000,28.350000,-81.310000,38.330000",
    "geom:latitude": 34.71173430142802,
    "geom:longitude": -101.34377742212799,
    "src:alt_label": "swim-route",
    "src:geom": "swim",
    "swim:geom": "route",
    "wof:geomhash": "c436e756233d5ac7dec954a36a5707e2",
    "wof:id": 2031501227,
    "wof:repo": "sfomuseum-data-flights-2026-06"
  },
  "bbox": [
    -122.38,
    28.35,
    -81.31,
    38.33
  ],
  "geometry": {"coordinates":[[-81.31,28.43],[-81.35,28.36],[-81.35,28.35],[-81.37,28.35],[-81.39,28.36],[-81.45,28.36],[-81.51,28.37],[-81.54,28.38],[-81.56,28.38],[-81.59,28.38],[-81.76,28.39],[-81.77,28.4],[-81.92,28.43],[-81.96,28.43],[-81.96,28.43],[-81.97,28.43],[-82,28.43],[-82.05,28.43],[-82.07,28.43],[-82.14,28.43],[-82.16,28.43],[-82.37,28.43],[-82.39,28.42],[-82.46,28.51],[-82.5,28.56],[-82.51,28.58],[-82.58,28.66],[-82.62,28.71],[-82.66,28.77],[-82.76,28.88],[-82.82,28.96],[-82.98,29.15],[-83.26,29.48],[-83.36,29.61],[-83.73,30.06],[-84.13,30.32],[-84.84,30.77],[-85.26,30.85],[-85.39,30.87],[-86.77,31.11],[-87.45,31.22],[-88.25,31.32],[-88.62,31.44],[-88.72,31.54],[-89.35,31.83],[-90.03,32.01],[-91.45,32.37],[-91.51,32.38],[-91.57,32.4],[-92,32.5],[-92.84,32.77],[-92.96,32.8],[-93.88,33.08],[-94.1,33.15],[-95.36,33.52],[-95.45,33.54],[-95.9,33.72],[-96.28,33.86],[-96.53,33.96],[-98,34.5],[-98.35,34.61],[-98.47,34.64],[-99.02,34.8],[-99.19,34.85],[-100.14,35.13],[-100.56,35.24],[-101.04,35.36],[-102.98,35.79],[-104,36],[-104.21,36.06],[-104.3,36.08],[-105.01,36.25],[-105.09,36.27],[-105.38,36.34],[-106.46,36.59],[-106.51,36.6],[-108.35,36.99],[-109.16,37.15],[-111.47,37.59],[-112.07,37.71],[-112.72,37.87],[-112.94,37.93],[-113.99,38.13],[-114.05,38.19],[-114.96,38.33],[-116.33,38.33],[-117.27,38.12],[-117.27,38.12],[-117.77,38],[-118.76,37.9],[-119.1,37.86],[-119.63,37.8],[-119.99,37.75],[-120.04,37.74],[-120.26,37.72],[-120.28,37.72],[-120.38,37.7],[-120.4,37.7],[-120.75,37.66],[-120.78,37.66],[-120.83,37.65],[-120.96,37.63],[-121,37.63],[-121.08,37.62],[-121.18,37.6],[-121.26,37.59],[-121.39,37.58],[-121.41,37.58],[-121.6,37.55],[-121.61,37.55],[-121.62,37.55],[-121.7,37.53],[-121.8,37.51],[-121.83,37.5],[-121.88,37.49],[-122.08,37.54],[-122.14,37.56],[-122.18,37.57],[-122.28,37.59],[-122.33,37.61],[-122.36,37.61],[-122.38,37.62]],"type":"LineString"}
}
