{
  "id": 2031537697,
  "type": "Feature",
  "properties": {
    "geom:area": 0,
    "geom:bbox": "-122.380000,37.490000,-87.910000,42.050000",
    "geom:latitude": 40.19739930274031,
    "geom:longitude": -105.21148689009053,
    "src:alt_label": "swim-route",
    "src:geom": "swim",
    "swim:geom": "route",
    "wof:geomhash": "ea570ca07dda885188fcb2a98e2e0460",
    "wof:id": 2031537697,
    "wof:repo": "sfomuseum-data-flights-2026-06"
  },
  "bbox": [
    -122.38,
    37.49,
    -87.91,
    42.05
  ],
  "geometry": {"coordinates":[[-87.91,41.98],[-87.99,41.98],[-88.02,41.99],[-88.11,41.99],[-88.11,41.99],[-88.24,42],[-88.26,42.01],[-88.44,42.02],[-88.67,42.04],[-88.73,42.04],[-88.79,42.05],[-88.81,42.05],[-88.82,42.05],[-88.91,42.04],[-88.92,42.04],[-89.13,42.03],[-89.37,42.01],[-89.51,42],[-89.65,42],[-89.9,41.98],[-89.98,41.97],[-90.16,41.96],[-90.25,41.96],[-90.43,41.94],[-91.44,41.87],[-91.77,41.84],[-91.95,41.83],[-92.13,41.82],[-93.41,41.73],[-93.44,41.73],[-93.9,41.71],[-94.24,41.69],[-94.25,41.69],[-94.77,41.66],[-96.04,41.57],[-98.35,41.38],[-99.03,41.32],[-99.21,41.3],[-100,41.22],[-100.78,41.14],[-101.3,41.08],[-101.44,41.07],[-102,41],[-102.8,40.89],[-103.34,40.82],[-103.87,40.74],[-104.61,40.63],[-105.13,40.55],[-106.2,40.37],[-107.26,40.19],[-107.92,40.07],[-108.1,40.04],[-109.17,39.88],[-109.76,39.78],[-109.87,39.77],[-110.11,39.73],[-112.51,39.3],[-113.32,39.12],[-117.27,38.12],[-117.27,38.12],[-117.77,38],[-118.76,37.9],[-119.1,37.86],[-119.2,37.85],[-119.3,37.83],[-119.66,37.79],[-119.73,37.78],[-119.82,37.77],[-120.15,37.73],[-120.23,37.72],[-120.4,37.7],[-120.56,37.68],[-120.63,37.67],[-120.69,37.67],[-120.75,37.66],[-120.96,37.63],[-120.96,37.63],[-120.97,37.63],[-121,37.63],[-121.09,37.62],[-121.26,37.59],[-121.39,37.58],[-121.41,37.58],[-121.6,37.55],[-121.61,37.55],[-121.62,37.55],[-121.7,37.53],[-121.8,37.51],[-121.82,37.5],[-121.88,37.49],[-122.08,37.54],[-122.12,37.55],[-122.18,37.57],[-122.28,37.59],[-122.33,37.61],[-122.36,37.61],[-122.38,37.62]],"type":"LineString"}
}
