{
  "id": 2031492341,
  "type": "Feature",
  "properties": {
    "geom:area": 0,
    "geom:bbox": "-122.350000,37.433333,-77.500000,43.645278",
    "geom:latitude": 41.169412130568226,
    "geom:longitude": -99.7691071019275,
    "src:alt_label": "swim-path",
    "src:geom": "swim",
    "swim:altitudes": [
      "011",
      "065",
      "117",
      "117",
      "117",
      "206",
      "206",
      "206",
      "216",
      "216",
      "216",
      "251",
      "251",
      "251",
      "262",
      "262",
      "262",
      "280C",
      "280C",
      "280C",
      "280C",
      "280C",
      "280C",
      "280C",
      "280C",
      "280C",
      "280C",
      "280C",
      "280C",
      "280C",
      "280C",
      "280C",
      "300C",
      "300C",
      "300C",
      "300C",
      "300C",
      "300C",
      "300C",
      "300C",
      "300C",
      "300C",
      "300C",
      "301C",
      "301C",
      "300C",
      "300C",
      "300C",
      "300C",
      "300C",
      "300C",
      "300C",
      "300C",
      "300C",
      "300C",
      "300C",
      "300C",
      "300C",
      "300C",
      "300C",
      "300C",
      "300C",
      "300C",
      "300C",
      "300C",
      "300C",
      "300C",
      "300C",
      "300C",
      "300C",
      "300C",
      "300",
      "300",
      "302",
      "308",
      "308",
      "311",
      "311",
      "311",
      "311",
      "318C",
      "320C",
      "320C",
      "320C",
      "320C",
      "320C",
      "320C",
      "320",
      "320",
      "320",
      "320",
      "320",
      "320",
      "320",
      "331",
      "331",
      "340C",
      "340",
      "339",
      "339",
      "339",
      "339",
      "320",
      "320",
      "307",
      "307",
      "307",
      "280C",
      "280C",
      "280C",
      "280C",
      "280C",
      "280C",
      "280C",
      "280C",
      "280C",
      "280",
      "280",
      "267",
      "267",
      "267",
      "260C",
      "260C",
      "260C",
      "260C",
      "260C",
      "260C",
      "260C",
      "260C",
      "260C",
      "260C",
      "260C",
      "260C",
      "260C",
      "260C",
      "260C",
      "260C",
      "260C",
      "260C",
      "260C",
      "260C",
      "260C",
      "260C",
      "260C",
      "260C",
      "260C",
      "260C",
      "260C",
      "260C",
      "260C",
      "260C",
      "260C",
      "260C",
      "260C",
      "260C",
      "260C",
      "260C",
      "260C",
      "260C",
      "260C",
      "260C",
      "260C",
      "260C",
      "260C",
      "260C",
      "260C",
      "260C",
      "260C",
      "260C",
      "260C",
      "260C",
      "260C",
      "260C",
      "260C",
      "260C",
      "260C",
      "260C",
      "260C",
      "260C",
      "260C",
      "260C",
      "260C",
      "260C",
      "260C",
      "260C",
      "260C",
      "260C",
      "260C",
      "260C",
      "260C",
      "260C",
      "260C",
      "264",
      "264",
      "292",
      "292",
      "292",
      "292",
      "300C",
      "300C",
      "300C",
      "300C",
      "300C",
      "300C",
      "300C",
      "300C",
      "300C",
      "300C",
      "300C",
      "300C",
      "300C",
      "300C",
      "300C",
      "300C",
      "300C",
      "300C",
      "300C",
      "300C",
      "300C",
      "300C",
      "300C",
      "300C",
      "300C",
      "300C",
      "300C",
      "300C",
      "300C",
      "300C",
      "300C",
      "300C",
      "300C",
      "300C",
      "300C",
      "300C",
      "300C",
      "300C",
      "300C",
      "300C",
      "300C",
      "300C",
      "300C",
      "300C",
      "300C",
      "300C",
      "300C",
      "300C",
      "300C",
      "300C",
      "300C",
      "300C",
      "300C",
      "300C",
      "300C",
      "300C",
      "300C",
      "300C",
      "300C",
      "300C",
      "300C",
      "300C",
      "300C",
      "300C",
      "300C",
      "300C",
      "300C",
      "300C",
      "300C",
      "300C",
      "300C",
      "300C",
      "301C",
      "301C",
      "300C",
      "300C",
      "300C",
      "300C",
      "300C",
      "300C",
      "300C",
      "300C",
      "300C",
      "300C",
      "300C",
      "300C",
      "300C",
      "300C",
      "300C",
      "300C",
      "300C",
      "300C",
      "300C",
      "300C",
      "300C",
      "300C",
      "300C",
      "300C",
      "300C",
      "300C",
      "300C",
      "300C",
      "300C",
      "300C",
      "300C",
      "300C",
      "300C",
      "300C",
      "300C",
      "300C",
      "300C",
      "300C",
      "300C",
      "300C",
      "300C",
      "300C",
      "300C",
      "300C",
      "300C",
      "300C",
      "300C",
      "300C",
      "300C",
      "300C",
      "300C",
      "300C",
      "300C",
      "300C",
      "300C",
      "300C",
      "300C",
      "300C",
      "300C",
      "300C",
      "300C",
      "300C",
      "300C",
      "300C",
      "300C",
      "300C",
      "300C",
      "300C",
      "300C",
      "300C",
      "300C",
      "300C",
      "300C",
      "300C",
      "300C",
      "300C",
      "300C",
      "300C",
      "300C",
      "300C",
      "300C",
      "301C",
      "301C",
      "301C",
      "301C",
      "300C",
      "300C",
      "300C",
      "300C",
      "300C",
      "300C",
      "300C",
      "300C",
      "300C",
      "300C",
      "300C",
      "300C",
      "300C",
      "300C",
      "300C",
      "300C",
      "300C",
      "300C",
      "300C",
      "300C",
      "300C",
      "300C",
      "300C",
      "300C",
      "300C",
      "300C",
      "300C",
      "300C",
      "300C",
      "300C",
      "300C",
      "300C",
      "300C",
      "300C",
      "299C",
      "299C",
      "299C",
      "300C",
      "300C",
      "300C",
      "300C",
      "300C",
      "300C",
      "300C",
      "300C",
      "300C",
      "300C",
      "300C",
      "300C",
      "300C",
      "300C",
      "300C",
      "300C",
      "300C",
      "300C",
      "300C",
      "300C",
      "300C",
      "300C",
      "300C",
      "300C",
      "300C",
      "300C",
      "300C",
      "300C",
      "300C",
      "300C",
      "300C",
      "300C",
      "300C",
      "300C",
      "300C",
      "300C",
      "300C",
      "300C",
      "300C",
      "300C",
      "300C",
      "300C",
      "300C",
      "300C",
      "300C",
      "300C",
      "300C",
      "300C",
      "300C",
      "300C",
      "300C",
      "300C",
      "300C",
      "300C",
      "300C",
      "300C",
      "300C",
      "300C",
      "300C",
      "300C",
      "300C",
      "300C",
      "300C",
      "300C",
      "300C",
      "300C",
      "300C",
      "300C",
      "300C",
      "300C",
      "300C",
      "300C",
      "300C",
      "300C",
      "300C",
      "300C",
      "300C",
      "300",
      "300",
      "300",
      "293",
      "293",
      "293",
      "283",
      "283",
      "283",
      "255",
      "255",
      "255",
      "221",
      "221",
      "221",
      "221",
      "202",
      "202",
      "202",
      "202",
      "170",
      "170",
      "170",
      "146",
      "146",
      "146",
      "146",
      "146",
      "105",
      "105",
      "105",
      "105",
      "097",
      "097",
      "097",
      "092",
      "092",
      "070",
      "070",
      "070",
      "070",
      "070",
      "070",
      "070",
      "070",
      "063",
      "063",
      "063",
      "063",
      "055",
      "055",
      "055",
      "039",
      "039",
      "039",
      "039",
      "034",
      "034",
      "028",
      "023",
      "017",
      "017",
      "017",
      "017",
      "017",
      "010",
      "010",
      "010",
      "002",
      "002",
      "002"
    ],
    "swim:geom": "path",
    "swim:speeds": [
      172,
      262,
      352,
      352,
      352,
      406,
      406,
      406,
      419,
      419,
      419,
      434,
      434,
      434,
      435,
      435,
      435,
      452,
      452,
      452,
      452,
      452,
      453,
      455,
      455,
      455,
      455,
      457,
      460,
      460,
      461,
      461,
      448,
      448,
      445,
      445,
      445,
      445,
      445,
      446,
      448,
      448,
      448,
      449,
      449,
      448,
      448,
      447,
      447,
      446,
      446,
      443,
      446,
      444,
      444,
      448,
      448,
      449,
      449,
      452,
      453,
      453,
      452,
      452,
      452,
      452,
      452,
      453,
      453,
      451,
      452,
      451,
      451,
      449,
      449,
      449,
      450,
      450,
      450,
      450,
      451,
      454,
      454,
      453,
      453,
      454,
      457,
      458,
      458,
      456,
      456,
      454,
      454,
      454,
      447,
      447,
      441,
      436,
      440,
      440,
      440,
      440,
      446,
      446,
      445,
      445,
      445,
      441,
      444,
      444,
      444,
      444,
      439,
      439,
      439,
      439,
      439,
      439,
      436,
      436,
      436,
      437,
      437,
      428,
      428,
      428,
      428,
      428,
      429,
      429,
      429,
      430,
      432,
      432,
      434,
      434,
      434,
      434,
      429,
      429,
      429,
      431,
      431,
      432,
      432,
      432,
      432,
      432,
      437,
      437,
      437,
      437,
      437,
      437,
      440,
      439,
      439,
      435,
      435,
      433,
      433,
      430,
      430,
      430,
      428,
      428,
      428,
      427,
      427,
      427,
      423,
      423,
      423,
      423,
      417,
      417,
      417,
      415,
      415,
      415,
      415,
      416,
      416,
      419,
      419,
      419,
      420,
      420,
      425,
      425,
      425,
      425,
      428,
      428,
      430,
      430,
      430,
      430,
      425,
      425,
      425,
      421,
      422,
      421,
      421,
      421,
      421,
      425,
      425,
      425,
      428,
      418,
      418,
      418,
      418,
      429,
      429,
      429,
      429,
      402,
      402,
      402,
      402,
      403,
      401,
      401,
      401,
      401,
      401,
      401,
      401,
      401,
      403,
      403,
      403,
      404,
      404,
      404,
      404,
      403,
      403,
      404,
      404,
      404,
      413,
      413,
      413,
      413,
      413,
      413,
      413,
      413,
      413,
      413,
      416,
      416,
      416,
      416,
      416,
      418,
      418,
      417,
      417,
      417,
      417,
      416,
      416,
      416,
      416,
      416,
      428,
      428,
      425,
      425,
      425,
      425,
      425,
      425,
      420,
      419,
      419,
      419,
      419,
      419,
      417,
      417,
      417,
      417,
      417,
      417,
      417,
      417,
      417,
      417,
      417,
      417,
      417,
      417,
      417,
      416,
      415,
      415,
      415,
      415,
      414,
      414,
      413,
      413,
      413,
      413,
      410,
      410,
      408,
      408,
      408,
      410,
      410,
      410,
      410,
      410,
      410,
      396,
      396,
      396,
      396,
      396,
      396,
      397,
      397,
      397,
      397,
      397,
      397,
      396,
      396,
      396,
      388,
      388,
      388,
      388,
      388,
      388,
      384,
      384,
      384,
      384,
      384,
      384,
      385,
      385,
      385,
      385,
      385,
      386,
      386,
      386,
      386,
      384,
      384,
      381,
      381,
      381,
      381,
      381,
      382,
      382,
      382,
      383,
      383,
      383,
      386,
      386,
      386,
      384,
      384,
      384,
      384,
      384,
      384,
      384,
      383,
      383,
      382,
      382,
      379,
      379,
      379,
      378,
      378,
      378,
      378,
      379,
      379,
      379,
      381,
      381,
      381,
      383,
      383,
      383,
      383,
      384,
      384,
      384,
      387,
      387,
      387,
      387,
      387,
      387,
      387,
      387,
      387,
      387,
      387,
      387,
      387,
      387,
      388,
      388,
      388,
      389,
      389,
      390,
      390,
      390,
      390,
      390,
      390,
      391,
      391,
      391,
      391,
      392,
      392,
      392,
      392,
      392,
      392,
      392,
      392,
      392,
      392,
      392,
      390,
      390,
      390,
      390,
      388,
      388,
      388,
      388,
      388,
      388,
      388,
      389,
      389,
      388,
      388,
      388,
      388,
      388,
      388,
      389,
      389,
      389,
      389,
      389,
      396,
      396,
      396,
      397,
      397,
      397,
      401,
      401,
      401,
      405,
      405,
      405,
      407,
      407,
      407,
      366,
      366,
      366,
      366,
      354,
      354,
      354,
      354,
      332,
      332,
      332,
      329,
      329,
      329,
      329,
      329,
      266,
      266,
      266,
      266,
      240,
      240,
      240,
      242,
      242,
      245,
      245,
      245,
      245,
      238,
      238,
      238,
      238,
      214,
      214,
      214,
      214,
      187,
      187,
      187,
      199,
      199,
      199,
      199,
      195,
      195,
      184,
      185,
      172,
      172,
      172,
      172,
      172,
      137,
      137,
      137,
      139,
      139,
      139
    ],
    "swim:timestamps": [
      1781001681,
      1781001854,
      1781002038,
      1781002038,
      1781002038,
      1781002395,
      1781002395,
      1781002395,
      1781002455,
      1781002455,
      1781002455,
      1781002636,
      1781002636,
      1781002636,
      1781002696,
      1781002696,
      1781002696,
      1781002876,
      1781002876,
      1781002876,
      1781002876,
      1781002876,
      1781002936,
      1781003056,
      1781003056,
      1781003116,
      1781003116,
      1781003236,
      1781003357,
      1781003357,
      1781003417,
      1781003417,
      1781003597,
      1781003597,
      1781003717,
      1781003777,
      1781003777,
      1781003777,
      1781003777,
      1781003837,
      1781003897,
      1781003897,
      1781003897,
      1781003957,
      1781003957,
      1781004078,
      1781004078,
      1781004138,
      1781004138,
      1781004198,
      1781004198,
      1781004285,
      1781004318,
      1781004345,
      1781004345,
      1781004378,
      1781004378,
      1781004438,
      1781004438,
      1781004679,
      1781004706,
      1781004706,
      1781004739,
      1781004799,
      1781004799,
      1781004799,
      1781004799,
      1781004886,
      1781004886,
      1781004915,
      1781004946,
      1781005035,
      1781005035,
      1781005067,
      1781005127,
      1781005127,
      1781005155,
      1781005155,
      1781005155,
      1781005155,
      1781005215,
      1781005247,
      1781005247,
      1781005275,
      1781005275,
      1781005367,
      1781005395,
      1781005455,
      1781005455,
      1781005487,
      1781005487,
      1781005520,
      1781005520,
      1781005520,
      1781005668,
      1781005668,
      1781005788,
      1781005968,
      1781005996,
      1781005996,
      1781005996,
      1781005996,
      1781006176,
      1781006176,
      1781006208,
      1781006208,
      1781006208,
      1781006389,
      1781006569,
      1781006569,
      1781006569,
      1781006569,
      1781006869,
      1781006869,
      1781006869,
      1781006869,
      1781006945,
      1781006945,
      1781007065,
      1781007065,
      1781007065,
      1781007110,
      1781007110,
      1781007245,
      1781007245,
      1781007245,
      1781007350,
      1781007410,
      1781007486,
      1781007486,
      1781007486,
      1781007530,
      1781007666,
      1781007666,
      1781007831,
      1781007831,
      1781007846,
      1781007846,
      1781008027,
      1781008027,
      1781008027,
      1781008087,
      1781008087,
      1781008147,
      1781008147,
      1781008267,
      1781008267,
      1781008327,
      1781008507,
      1781008507,
      1781008627,
      1781008627,
      1781008627,
      1781008627,
      1781008868,
      1781008928,
      1781008928,
      1781009048,
      1781009048,
      1781009108,
      1781009108,
      1781009168,
      1781009168,
      1781009168,
      1781009288,
      1781009288,
      1781009288,
      1781009408,
      1781009408,
      1781009408,
      1781009529,
      1781009529,
      1781009529,
      1781009529,
      1781009649,
      1781009649,
      1781009649,
      1781009709,
      1781009709,
      1781009709,
      1781009709,
      1781009829,
      1781009829,
      1781009889,
      1781009889,
      1781009889,
      1781010190,
      1781010190,
      1781010310,
      1781010310,
      1781010310,
      1781010310,
      1781010490,
      1781010490,
      1781010606,
      1781010606,
      1781010606,
      1781010606,
      1781010727,
      1781010727,
      1781010727,
      1781010849,
      1781010911,
      1781010967,
      1781010967,
      1781010967,
      1781010967,
      1781011087,
      1781011087,
      1781011087,
      1781011147,
      1781011269,
      1781011269,
      1781011269,
      1781011269,
      1781011451,
      1781011451,
      1781011451,
      1781011451,
      1781011630,
      1781011630,
      1781011630,
      1781011630,
      1781011688,
      1781011750,
      1781011750,
      1781011750,
      1781011810,
      1781011810,
      1781011930,
      1781011930,
      1781011930,
      1781012048,
      1781012048,
      1781012048,
      1781012111,
      1781012111,
      1781012111,
      1781012111,
      1781012228,
      1781012228,
      1781012288,
      1781012288,
      1781012288,
      1781012351,
      1781012351,
      1781012351,
      1781012351,
      1781012531,
      1781012531,
      1781012531,
      1781012531,
      1781012531,
      1781012531,
      1781012829,
      1781012829,
      1781012829,
      1781012829,
      1781012829,
      1781012952,
      1781012952,
      1781013009,
      1781013009,
      1781013009,
      1781013009,
      1781013130,
      1781013130,
      1781013130,
      1781013130,
      1781013130,
      1781013432,
      1781013432,
      1781013492,
      1781013492,
      1781013492,
      1781013492,
      1781013492,
      1781013492,
      1781013673,
      1781013730,
      1781013730,
      1781013730,
      1781013730,
      1781013730,
      1781013793,
      1781013793,
      1781013793,
      1781013853,
      1781013853,
      1781013913,
      1781013913,
      1781013913,
      1781013913,
      1781013973,
      1781013973,
      1781013973,
      1781013973,
      1781013973,
      1781013973,
      1781014031,
      1781014093,
      1781014093,
      1781014093,
      1781014093,
      1781014153,
      1781014153,
      1781014271,
      1781014271,
      1781014271,
      1781014271,
      1781014574,
      1781014574,
      1781014692,
      1781014692,
      1781014692,
      1781014814,
      1781014814,
      1781014814,
      1781014814,
      1781014814,
      1781014814,
      1781015112,
      1781015112,
      1781015112,
      1781015112,
      1781015112,
      1781015112,
      1781015293,
      1781015293,
      1781015293,
      1781015293,
      1781015293,
      1781015293,
      1781015653,
      1781015653,
      1781015653,
      1781015833,
      1781015833,
      1781015833,
      1781015833,
      1781015833,
      1781015833,
      1781016014,
      1781016014,
      1781016014,
      1781016014,
      1781016014,
      1781016014,
      1781016194,
      1781016194,
      1781016194,
      1781016194,
      1781016194,
      1781016254,
      1781016254,
      1781016254,
      1781016254,
      1781016374,
      1781016374,
      1781016554,
      1781016554,
      1781016554,
      1781016554,
      1781016554,
      1781016735,
      1781016735,
      1781016735,
      1781016795,
      1781016795,
      1781016795,
      1781016915,
      1781016915,
      1781016915,
      1781017035,
      1781017035,
      1781017035,
      1781017035,
      1781017155,
      1781017155,
      1781017155,
      1781017215,
      1781017215,
      1781017257,
      1781017257,
      1781017317,
      1781017317,
      1781017317,
      1781017335,
      1781017335,
      1781017335,
      1781017335,
      1781017437,
      1781017437,
      1781017437,
      1781017456,
      1781017456,
      1781017497,
      1781017516,
      1781017516,
      1781017516,
      1781017516,
      1781017576,
      1781017576,
      1781017576,
      1781017756,
      1781017756,
      1781017756,
      1781017798,
      1781017798,
      1781017798,
      1781017798,
      1781017798,
      1781017918,
      1781017918,
      1781017918,
      1781017996,
      1781017996,
      1781017996,
      1781018056,
      1781018056,
      1781018056,
      1781018116,
      1781018116,
      1781018158,
      1781018158,
      1781018158,
      1781018158,
      1781018177,
      1781018177,
      1781018218,
      1781018237,
      1781018237,
      1781018237,
      1781018399,
      1781018399,
      1781018399,
      1781018399,
      1781018417,
      1781018417,
      1781018417,
      1781018459,
      1781018477,
      1781018477,
      1781018477,
      1781018537,
      1781018537,
      1781018537,
      1781018537,
      1781018657,
      1781018657,
      1781018657,
      1781018657,
      1781018699,
      1781018699,
      1781018699,
      1781018759,
      1781018759,
      1781018777,
      1781018777,
      1781018777,
      1781018777,
      1781018939,
      1781018939,
      1781018999,
      1781018999,
      1781018999,
      1781018999,
      1781018999,
      1781019420,
      1781019420,
      1781019420,
      1781019540,
      1781019540,
      1781019540,
      1781019600,
      1781019600,
      1781019600,
      1781019660,
      1781019660,
      1781019660,
      1781019736,
      1781019736,
      1781019736,
      1781019840,
      1781019840,
      1781019840,
      1781019840,
      1781019901,
      1781019901,
      1781019901,
      1781019901,
      1781019995,
      1781019995,
      1781019995,
      1781020081,
      1781020081,
      1781020081,
      1781020081,
      1781020081,
      1781020261,
      1781020261,
      1781020261,
      1781020261,
      1781020295,
      1781020295,
      1781020295,
      1781020321,
      1781020321,
      1781020415,
      1781020415,
      1781020415,
      1781020415,
      1781020470,
      1781020470,
      1781020470,
      1781020470,
      1781020529,
      1781020529,
      1781020529,
      1781020529,
      1781020590,
      1781020590,
      1781020590,
      1781020649,
      1781020649,
      1781020649,
      1781020649,
      1781020682,
      1781020682,
      1781020715,
      1781020802,
      1781020830,
      1781020830,
      1781020830,
      1781020830,
      1781020830,
      1781020890,
      1781020890,
      1781020890,
      1781020961,
      1781020961,
      1781020961
    ],
    "wof:geomhash": "ab8f2114e0548587672a28dff3b5bfb2",
    "wof:id": 2031492341,
    "wof:repo": "sfomuseum-data-flights-2026-06"
  },
  "bbox": [
    -122.35,
    37.43333333333333,
    -77.5,
    43.64527777777778
  ],
  "geometry": {"coordinates":[[-77.5,38.95],[-77.6675,39.066111111111105],[-77.77444444444444,39.306666666666665],[-77.77444444444444,39.306666666666665],[-77.77444444444444,39.306666666666665],[-78.33972222222222,39.68472222222222],[-78.33972222222222,39.68472222222222],[-78.33972222222222,39.68472222222222],[-78.47722222222222,39.72638888888889],[-78.47722222222222,39.72638888888889],[-78.47722222222222,39.72638888888889],[-78.91111111111111,39.85583333333334],[-78.91111111111111,39.85583333333334],[-78.91111111111111,39.85583333333334],[-79.05972222222222,39.89972222222222],[-79.05972222222222,39.89972222222222],[-79.05972222222222,39.89972222222222],[-79.50305555555556,40.04944444444444],[-79.50305555555556,40.04944444444444],[-79.50305555555556,40.04944444444444],[-79.50305555555556,40.04944444444444],[-79.50305555555556,40.04944444444444],[-79.63666666666667,40.117777777777775],[-79.91444444444446,40.259166666666665],[-79.91444444444446,40.259166666666665],[-80.05222222222221,40.32888888888889],[-80.05222222222221,40.32888888888889],[-80.33333333333333,40.47027777777778],[-80.61749999999999,40.611666666666665],[-80.61749999999999,40.611666666666665],[-80.77166666666666,40.67777777777778],[-80.77166666666666,40.67777777777778],[-81.21805555555555,40.842222222222226],[-81.21805555555555,40.842222222222226],[-81.51305555555555,40.94944444444444],[-81.66416666666667,41.00361111111111],[-81.66416666666667,41.00361111111111],[-81.66416666666667,41.00361111111111],[-81.66416666666667,41.00361111111111],[-81.81444444444445,41.0575],[-81.96555555555555,41.11138888888889],[-81.96555555555555,41.11138888888889],[-81.96555555555555,41.11138888888889],[-82.11472222222221,41.16444444444444],[-82.11472222222221,41.16444444444444],[-82.41666666666667,41.270833333333336],[-82.41666666666667,41.270833333333336],[-82.56527777777778,41.322500000000005],[-82.56527777777778,41.322500000000005],[-82.71638888888889,41.375],[-82.71638888888889,41.375],[-82.93777777777778,41.452222222222225],[-83.01694444444445,41.478611111111114],[-83.08833333333332,41.5025],[-83.08833333333332,41.5025],[-83.16722222222222,41.52972222222222],[-83.16722222222222,41.52972222222222],[-83.31666666666666,41.580555555555556],[-83.31666666666666,41.580555555555556],[-83.93472222222222,41.78777777777778],[-84.00611111111111,41.811388888888885],[-84.00611111111111,41.811388888888885],[-84.08999999999999,41.83916666666667],[-84.24555555555555,41.89],[-84.24555555555555,41.89],[-84.24555555555555,41.89],[-84.24555555555555,41.89],[-84.4675,41.962500000000006],[-84.4675,41.962500000000006],[-84.52083333333333,41.98083333333334],[-84.61388888888888,42.01],[-84.82805555555555,42.08027777777778],[-84.82805555555555,42.08027777777778],[-84.92083333333333,42.10861111111111],[-85.07638888888889,42.158055555555556],[-85.07638888888889,42.158055555555556],[-85.1363888888889,42.17777777777778],[-85.1363888888889,42.17777777777778],[-85.1363888888889,42.17777777777778],[-85.1363888888889,42.17777777777778],[-85.29416666666667,42.22777777777778],[-85.39027777777778,42.257222222222225],[-85.39027777777778,42.257222222222225],[-85.45166666666667,42.276944444444446],[-85.45166666666667,42.276944444444446],[-85.70555555555556,42.355555555555554],[-85.77055555555556,42.37388888888889],[-85.92972222222222,42.42361111111111],[-85.92972222222222,42.42361111111111],[-86.02277777777778,42.45333333333333],[-86.02277777777778,42.45333333333333],[-86.11638888888888,42.48027777777778],[-86.11638888888888,42.48027777777778],[-86.11638888888888,42.48027777777778],[-86.51388888888889,42.544999999999995],[-86.51388888888889,42.544999999999995],[-86.84027777777777,42.595],[-87.32194444444444,42.66722222222222],[-87.41555555555556,42.68083333333333],[-87.41555555555556,42.68083333333333],[-87.41555555555556,42.68083333333333],[-87.41555555555556,42.68083333333333],[-87.90333333333334,42.75111111111111],[-87.90333333333334,42.75111111111111],[-87.97,42.760555555555555],[-87.97,42.760555555555555],[-87.97,42.760555555555555],[-88.46416666666667,42.82916666666667],[-88.96277777777777,42.89611111111111],[-88.96277777777777,42.89611111111111],[-88.96277777777777,42.89611111111111],[-88.96277777777777,42.89611111111111],[-89.78444444444445,43.00138888888889],[-89.78444444444445,43.00138888888889],[-89.78444444444445,43.00138888888889],[-89.78444444444445,43.00138888888889],[-89.98555555555555,43.02638888888889],[-89.98555555555555,43.02638888888889],[-90.33138888888888,43.068333333333335],[-90.33138888888888,43.068333333333335],[-90.33138888888888,43.068333333333335],[-90.42805555555556,43.07972222222222],[-90.42805555555556,43.07972222222222],[-90.81083333333333,43.12416666666667],[-90.81083333333333,43.12416666666667],[-90.81083333333333,43.12416666666667],[-91.0675,43.15333333333333],[-91.25861111111111,43.17472222222222],[-91.45194444444445,43.19611111111111],[-91.45194444444445,43.19611111111111],[-91.45194444444445,43.19611111111111],[-91.57777777777777,43.209722222222226],[-91.93472222222222,43.2475],[-91.93472222222222,43.2475],[-92.39027777777778,43.294444444444444],[-92.39027777777778,43.294444444444444],[-92.42222222222223,43.2975],[-92.42222222222223,43.2975],[-92.91166666666668,43.34583333333334],[-92.91166666666668,43.34583333333334],[-92.91166666666668,43.34583333333334],[-93.0761111111111,43.36138888888889],[-93.0761111111111,43.36138888888889],[-93.23916666666666,43.376666666666665],[-93.23916666666666,43.376666666666665],[-93.56611111111111,43.406388888888884],[-93.56611111111111,43.406388888888884],[-93.72805555555556,43.420833333333334],[-94.22527777777778,43.46388888888889],[-94.22527777777778,43.46388888888889],[-94.56055555555555,43.49166666666667],[-94.56055555555555,43.49166666666667],[-94.56055555555555,43.49166666666667],[-94.56055555555555,43.49166666666667],[-95.22805555555556,43.54361111111111],[-95.39500000000001,43.55611111111111],[-95.39500000000001,43.55611111111111],[-95.72444444444444,43.57972222222222],[-95.72444444444444,43.57972222222222],[-95.88944444444445,43.59138888888889],[-95.88944444444445,43.59138888888889],[-96.05388888888889,43.60277777777778],[-96.05388888888889,43.60277777777778],[-96.05388888888889,43.60277777777778],[-96.38055555555555,43.62444444444444],[-96.38055555555555,43.62444444444444],[-96.38055555555555,43.62444444444444],[-96.70972222222223,43.64527777777778],[-96.70972222222223,43.64527777777778],[-96.70972222222223,43.64527777777778],[-97.02305555555556,43.59444444444445],[-97.02305555555556,43.59444444444445],[-97.02305555555556,43.59444444444445],[-97.02305555555556,43.59444444444445],[-97.32472222222222,43.525],[-97.32472222222222,43.525],[-97.32472222222222,43.525],[-97.47694444444444,43.48972222222222],[-97.47694444444444,43.48972222222222],[-97.47694444444444,43.48972222222222],[-97.47694444444444,43.48972222222222],[-97.77777777777777,43.41916666666666],[-97.77777777777777,43.41916666666666],[-97.93277777777779,43.382222222222225],[-97.93277777777779,43.382222222222225],[-97.93277777777779,43.382222222222225],[-98.68916666666667,43.19916666666666],[-98.68916666666667,43.19916666666666],[-98.99722222222222,43.125277777777775],[-98.99722222222222,43.125277777777775],[-98.99722222222222,43.125277777777775],[-98.99722222222222,43.125277777777775],[-99.47222222222223,43.06361111111111],[-99.47222222222223,43.06361111111111],[-99.77972222222222,43.04972222222222],[-99.77972222222222,43.04972222222222],[-99.77972222222222,43.04972222222222],[-99.77972222222222,43.04972222222222],[-100.11138888888888,43.04527777777778],[-100.11138888888888,43.04527777777778],[-100.11138888888888,43.04527777777778],[-100.44944444444445,43.04611111111111],[-100.61,43.0475],[-100.75194444444445,43.047777777777775],[-100.75194444444445,43.047777777777775],[-100.75194444444445,43.047777777777775],[-100.75194444444445,43.047777777777775],[-101.07472222222222,43.05166666666666],[-101.07472222222222,43.05166666666666],[-101.07472222222222,43.05166666666666],[-101.23583333333333,43.03916666666667],[-101.54666666666667,42.955000000000005],[-101.54666666666667,42.955000000000005],[-101.54666666666667,42.955000000000005],[-101.54666666666667,42.955000000000005],[-102.00888888888889,42.82944444444445],[-102.00888888888889,42.82944444444445],[-102.00888888888889,42.82944444444445],[-102.00888888888889,42.82944444444445],[-102.42611111111111,42.71416666666667],[-102.42611111111111,42.71416666666667],[-102.42611111111111,42.71416666666667],[-102.42611111111111,42.71416666666667],[-102.56611111111111,42.671388888888885],[-102.70833333333334,42.63472222222222],[-102.70833333333334,42.63472222222222],[-102.70833333333334,42.63472222222222],[-102.84972222222221,42.594722222222224],[-102.84972222222221,42.594722222222224],[-103.13222222222221,42.51416666666667],[-103.13222222222221,42.51416666666667],[-103.13222222222221,42.51416666666667],[-103.41333333333334,42.43194444444444],[-103.41333333333334,42.43194444444444],[-103.41333333333334,42.43194444444444],[-103.55638888888889,42.39138888888889],[-103.55638888888889,42.39138888888889],[-103.55638888888889,42.39138888888889],[-103.55638888888889,42.39138888888889],[-103.84055555555555,42.308055555555555],[-103.84055555555555,42.308055555555555],[-103.98305555555555,42.265],[-103.98305555555555,42.265],[-103.98305555555555,42.265],[-104.12833333333333,42.22277777777778],[-104.12833333333333,42.22277777777778],[-104.12833333333333,42.22277777777778],[-104.12833333333333,42.22277777777778],[-104.56083333333333,42.0925],[-104.56083333333333,42.0925],[-104.56083333333333,42.0925],[-104.56083333333333,42.0925],[-104.56083333333333,42.0925],[-104.56083333333333,42.0925],[-105.2775,41.871944444444445],[-105.2775,41.871944444444445],[-105.2775,41.871944444444445],[-105.2775,41.871944444444445],[-105.2775,41.871944444444445],[-105.56416666666667,41.782777777777774],[-105.56416666666667,41.782777777777774],[-105.70722222222223,41.73638888888889],[-105.70722222222223,41.73638888888889],[-105.70722222222223,41.73638888888889],[-105.70722222222223,41.73638888888889],[-105.99138888888889,41.646388888888886],[-105.99138888888889,41.646388888888886],[-105.99138888888889,41.646388888888886],[-105.99138888888889,41.646388888888886],[-105.99138888888889,41.646388888888886],[-106.7063888888889,41.415],[-106.7063888888889,41.415],[-106.85111111111111,41.367222222222225],[-106.85111111111111,41.367222222222225],[-106.85111111111111,41.367222222222225],[-106.85111111111111,41.367222222222225],[-106.85111111111111,41.367222222222225],[-106.85111111111111,41.367222222222225],[-107.27555555555556,41.226111111111116],[-107.41611111111112,41.178888888888885],[-107.41611111111112,41.178888888888885],[-107.41611111111112,41.178888888888885],[-107.41611111111112,41.178888888888885],[-107.41611111111112,41.178888888888885],[-107.55611111111111,41.13138888888889],[-107.55611111111111,41.13138888888889],[-107.55611111111111,41.13138888888889],[-107.69500000000001,41.08444444444444],[-107.69500000000001,41.08444444444444],[-107.83388888888888,41.036944444444444],[-107.83388888888888,41.036944444444444],[-107.83388888888888,41.036944444444444],[-107.83388888888888,41.036944444444444],[-107.97472222222223,40.98861111111111],[-107.97472222222223,40.98861111111111],[-107.97472222222223,40.98861111111111],[-107.97472222222223,40.98861111111111],[-107.97472222222223,40.98861111111111],[-107.97472222222223,40.98861111111111],[-108.11472222222221,40.940555555555555],[-108.25,40.89361111111111],[-108.25,40.89361111111111],[-108.25,40.89361111111111],[-108.25,40.89361111111111],[-108.39083333333333,40.84444444444445],[-108.39083333333333,40.84444444444445],[-108.66611111111112,40.74805555555556],[-108.66611111111112,40.74805555555556],[-108.66611111111112,40.74805555555556],[-108.66611111111112,40.74805555555556],[-109.33888888888889,40.50833333333333],[-109.33888888888889,40.50833333333333],[-109.60638888888889,40.41138888888889],[-109.60638888888889,40.41138888888889],[-109.60638888888889,40.41138888888889],[-109.89916666666667,40.30416666666667],[-109.89916666666667,40.30416666666667],[-109.89916666666667,40.30416666666667],[-109.89916666666667,40.30416666666667],[-109.89916666666667,40.30416666666667],[-109.89916666666667,40.30416666666667],[-110.5363888888889,40.09138888888889],[-110.5363888888889,40.09138888888889],[-110.5363888888889,40.09138888888889],[-110.5363888888889,40.09138888888889],[-110.5363888888889,40.09138888888889],[-110.5363888888889,40.09138888888889],[-110.94472222222223,39.995],[-110.94472222222223,39.995],[-110.94472222222223,39.995],[-110.94472222222223,39.995],[-110.94472222222223,39.995],[-110.94472222222223,39.995],[-111.71000000000001,39.65972222222222],[-111.71000000000001,39.65972222222222],[-111.71000000000001,39.65972222222222],[-112.07416666666666,39.49722222222222],[-112.07416666666666,39.49722222222222],[-112.07416666666666,39.49722222222222],[-112.07416666666666,39.49722222222222],[-112.07416666666666,39.49722222222222],[-112.07416666666666,39.49722222222222],[-112.43027777777779,39.33638888888889],[-112.43027777777779,39.33638888888889],[-112.43027777777779,39.33638888888889],[-112.43027777777779,39.33638888888889],[-112.43027777777779,39.33638888888889],[-112.43027777777779,39.33638888888889],[-112.82722222222222,39.22972222222222],[-112.82722222222222,39.22972222222222],[-112.82722222222222,39.22972222222222],[-112.82722222222222,39.22972222222222],[-112.82722222222222,39.22972222222222],[-112.96138888888889,39.19916666666666],[-112.96138888888889,39.19916666666666],[-112.96138888888889,39.19916666666666],[-112.96138888888889,39.19916666666666],[-113.22444444444444,39.13861111111111],[-113.22444444444444,39.13861111111111],[-113.6125,39.04805555555556],[-113.6125,39.04805555555556],[-113.6125,39.04805555555556],[-113.6125,39.04805555555556],[-113.6125,39.04805555555556],[-114.00416666666666,38.95527777777778],[-114.00416666666666,38.95527777777778],[-114.00416666666666,38.95527777777778],[-114.13388888888889,38.924166666666665],[-114.13388888888889,38.924166666666665],[-114.13388888888889,38.924166666666665],[-114.39527777777778,38.86083333333333],[-114.39527777777778,38.86083333333333],[-114.39527777777778,38.86083333333333],[-114.6563888888889,38.79722222222222],[-114.6563888888889,38.79722222222222],[-114.6563888888889,38.79722222222222],[-114.6563888888889,38.79722222222222],[-114.91472222222222,38.733333333333334],[-114.91472222222222,38.733333333333334],[-114.91472222222222,38.733333333333334],[-115.04527777777777,38.700833333333335],[-115.04527777777777,38.700833333333335],[-115.12305555555555,38.68083333333333],[-115.12305555555555,38.68083333333333],[-115.24944444444445,38.65],[-115.24944444444445,38.65],[-115.24944444444445,38.65],[-115.29944444444445,38.636944444444445],[-115.29944444444445,38.636944444444445],[-115.29944444444445,38.636944444444445],[-115.29944444444445,38.636944444444445],[-115.51138888888889,38.58277777777778],[-115.51138888888889,38.58277777777778],[-115.51138888888889,38.58277777777778],[-115.56194444444444,38.57055555555556],[-115.56194444444444,38.57055555555556],[-115.64083333333333,38.54972222222222],[-115.69166666666668,38.53722222222222],[-115.69166666666668,38.53722222222222],[-115.69166666666668,38.53722222222222],[-115.69166666666668,38.53722222222222],[-115.82305555555556,38.50361111111111],[-115.82305555555556,38.50361111111111],[-115.82305555555556,38.50361111111111],[-116.21305555555556,38.40222222222222],[-116.21305555555556,38.40222222222222],[-116.21305555555556,38.40222222222222],[-116.2925,38.38138888888889],[-116.2925,38.38138888888889],[-116.2925,38.38138888888889],[-116.2925,38.38138888888889],[-116.2925,38.38138888888889],[-116.5525,38.312777777777775],[-116.5525,38.312777777777775],[-116.5525,38.312777777777775],[-116.73305555555555,38.264722222222225],[-116.73305555555555,38.264722222222225],[-116.73305555555555,38.264722222222225],[-116.86222222222221,38.230000000000004],[-116.86222222222221,38.230000000000004],[-116.86222222222221,38.230000000000004],[-116.99194444444444,38.195277777777775],[-116.99194444444444,38.195277777777775],[-117.07249999999999,38.17333333333333],[-117.07249999999999,38.17333333333333],[-117.07249999999999,38.17333333333333],[-117.07249999999999,38.17333333333333],[-117.12388888888889,38.159444444444446],[-117.12388888888889,38.159444444444446],[-117.21583333333334,38.13444444444444],[-117.2375,38.12861111111111],[-117.2375,38.12861111111111],[-117.2375,38.12861111111111],[-117.58805555555556,38.04611111111111],[-117.58805555555556,38.04611111111111],[-117.58805555555556,38.04611111111111],[-117.58805555555556,38.04611111111111],[-117.63916666666667,38.03388888888889],[-117.63916666666667,38.03388888888889],[-117.63916666666667,38.03388888888889],[-117.72111111111111,38.014722222222225],[-117.7713888888889,38.004444444444445],[-117.7713888888889,38.004444444444445],[-117.7713888888889,38.004444444444445],[-117.9075,37.98916666666667],[-117.9075,37.98916666666667],[-117.9075,37.98916666666667],[-117.9075,37.98916666666667],[-118.17666666666668,37.96027777777778],[-118.17666666666668,37.96027777777778],[-118.17666666666668,37.96027777777778],[-118.17666666666668,37.96027777777778],[-118.26194444444444,37.95111111111111],[-118.26194444444444,37.95111111111111],[-118.26194444444444,37.95111111111111],[-118.3963888888889,37.936388888888885],[-118.3963888888889,37.936388888888885],[-118.44805555555556,37.93083333333333],[-118.44805555555556,37.93083333333333],[-118.44805555555556,37.93083333333333],[-118.44805555555556,37.93083333333333],[-118.80277777777778,37.89111111111111],[-118.80277777777778,37.89111111111111],[-118.93666666666667,37.876111111111115],[-118.93666666666667,37.876111111111115],[-118.93666666666667,37.876111111111115],[-118.93666666666667,37.876111111111115],[-118.93666666666667,37.876111111111115],[-119.91000000000001,37.76111111111111],[-119.91000000000001,37.76111111111111],[-119.91000000000001,37.76111111111111],[-120.18555555555555,37.72666666666667],[-120.18555555555555,37.72666666666667],[-120.18555555555555,37.72666666666667],[-120.32555555555555,37.70944444444445],[-120.32555555555555,37.70944444444445],[-120.32555555555555,37.70944444444445],[-120.46638888888889,37.69166666666666],[-120.46638888888889,37.69166666666666],[-120.46638888888889,37.69166666666666],[-120.65,37.666666666666664],[-120.65,37.666666666666664],[-120.65,37.666666666666664],[-120.87388888888889,37.64388888888889],[-120.87388888888889,37.64388888888889],[-120.87388888888889,37.64388888888889],[-120.87388888888889,37.64388888888889],[-120.99527777777777,37.62888888888889],[-120.99527777777777,37.62888888888889],[-120.99527777777777,37.62888888888889],[-120.99527777777777,37.62888888888889],[-121.18333333333334,37.6],[-121.18333333333334,37.6],[-121.18333333333334,37.6],[-121.32833333333333,37.585],[-121.32833333333333,37.585],[-121.32833333333333,37.585],[-121.32833333333333,37.585],[-121.32833333333333,37.585],[-121.6525,37.54388888888889],[-121.6525,37.54388888888889],[-121.6525,37.54388888888889],[-121.6525,37.54388888888889],[-121.7,37.53333333333333],[-121.7,37.53333333333333],[-121.7,37.53333333333333],[-121.72611111111111,37.52638888888889],[-121.72611111111111,37.52638888888889],[-121.81666666666666,37.45],[-121.81666666666666,37.45],[-121.81666666666666,37.45],[-121.81666666666666,37.45],[-121.9,37.43333333333333],[-121.9,37.43333333333333],[-121.9,37.43333333333333],[-121.9,37.43333333333333],[-121.96666666666667,37.45],[-121.96666666666667,37.45],[-121.96666666666667,37.45],[-121.96666666666667,37.45],[-122.03333333333333,37.46666666666667],[-122.03333333333333,37.46666666666667],[-122.03333333333333,37.46666666666667],[-122.08333333333333,37.5],[-122.08333333333333,37.5],[-122.08333333333333,37.5],[-122.08333333333333,37.5],[-122.11,37.507222222222225],[-122.11,37.507222222222225],[-122.15,37.516666666666666],[-122.2238888888889,37.555],[-122.25,37.56666666666667],[-122.25,37.56666666666667],[-122.25,37.56666666666667],[-122.25,37.56666666666667],[-122.25,37.56666666666667],[-122.3,37.583333333333336],[-122.3,37.583333333333336],[-122.3,37.583333333333336],[-122.35,37.61666666666667],[-122.35,37.61666666666667],[-122.35,37.61666666666667]],"type":"LineString"}
}
