{
  "id": 2031651839,
  "type": "Feature",
  "properties": {
    "geom:area": 0,
    "geom:bbox": "-122.528860,37.623890,-122.232440,38.515710",
    "geom:latitude": 38.01034871274119,
    "geom:longitude": -122.32451597262447,
    "src:alt_label": "swim-takeoff",
    "src:geom": "swim",
    "swim:elevations": [
      122,
      632,
      835,
      1074,
      1106,
      1485,
      1865,
      2033,
      2545,
      2736,
      2743,
      2743,
      2743,
      3024,
      3368,
      3736,
      4183,
      4418,
      4610,
      4763,
      4874,
      5118,
      5369,
      5544,
      5854,
      6092
    ],
    "swim:geom": "takeoff",
    "swim:timestamps": [
      1782470787,
      1782470813,
      1782470828,
      1782470871,
      1782470876,
      1782470907,
      1782470936,
      1782470948,
      1782470991,
      1782471010,
      1782471037,
      1782471076,
      1782471092,
      1782471130,
      1782471160,
      1782471188,
      1782471234,
      1782471253,
      1782471287,
      1782471321,
      1782471352,
      1782471382,
      1782471412,
      1782471432,
      1782471464,
      1782471497
    ],
    "wof:geomhash": "be065550606a25052ccdc0326ad38ee9",
    "wof:id": 2031651839,
    "wof:repo": "sfomuseum-data-flights-2026-06"
  },
  "bbox": [
    -122.52886,
    37.62389,
    -122.23244,
    38.51571
  ],
  "geometry": {"coordinates":[[-122.38722,37.62389],[-122.4095,37.63383],[-122.42284,37.63954],[-122.46608,37.65814],[-122.47207,37.66069],[-122.50988,37.67741],[-122.52886,37.70635],[-122.52554,37.72126],[-122.47949,37.7644],[-122.45554,37.78298],[-122.42014,37.81043],[-122.37013,37.84893],[-122.34905,37.86504],[-122.30136,37.90166],[-122.2619,37.93278],[-122.23876,37.9696],[-122.23868,38.03801],[-122.23831,38.06721],[-122.23711,38.12065],[-122.23553,38.179],[-122.23409,38.23542],[-122.23287,38.29201],[-122.23244,38.35125],[-122.23765,38.39034],[-122.24735,38.45199],[-122.25728,38.51571]],"type":"LineString"}
}
