{
  "id": 2031437531,
  "type": "Feature",
  "properties": {
    "geom:area": 0,
    "geom:bbox": "-122.656930,37.086960,-122.083000,38.512090",
    "geom:latitude": 37.62884371256507,
    "geom:longitude": -122.37112084622626,
    "src:alt_label": "swim-approach",
    "src:geom": "swim",
    "swim:elevations": [
      8803,
      8416,
      8095,
      7741,
      7208,
      7119,
      6961,
      6755,
      6278,
      5684,
      5357,
      5084,
      4898,
      4341,
      4258,
      4120,
      3725,
      3617,
      3586,
      3529,
      3464,
      3353,
      3353,
      3353,
      3352,
      3225,
      2982,
      2823,
      2572,
      2526,
      2254,
      2158,
      2074,
      2014,
      1802,
      1523,
      1524,
      1524,
      1524,
      1304,
      1199,
      1019,
      913,
      914,
      914,
      914,
      741,
      644,
      681,
      1079,
      1217,
      1187,
      1219,
      1219,
      1219,
      1219,
      1219,
      1270,
      1342,
      1408,
      1518,
      1533,
      1607,
      1710,
      1750,
      1829,
      1829,
      1829,
      1829,
      1829,
      1829,
      1829,
      1829,
      1829,
      1829,
      1829,
      1829,
      1829,
      1829,
      1829,
      1829,
      1829,
      1829,
      1829,
      1829,
      1829,
      1829,
      1829,
      1800,
      1630,
      1424,
      1249,
      1219,
      1164,
      1035,
      952,
      864,
      760,
      655,
      464,
      426,
      327,
      256,
      224,
      42,
      0
    ],
    "swim:geom": "approach",
    "swim:timestamps": [
      1780530740,
      1780530770,
      1780530794,
      1780530821,
      1780530865,
      1780530872,
      1780530884,
      1780530901,
      1780530940,
      1780530988,
      1780531017,
      1780531041,
      1780531056,
      1780531102,
      1780531135,
      1780531147,
      1780531194,
      1780531218,
      1780531227,
      1780531239,
      1780531254,
      1780531287,
      1780531315,
      1780531324,
      1780531372,
      1780531400,
      1780531437,
      1780531462,
      1780531495,
      1780531501,
      1780531535,
      1780531563,
      1780531584,
      1780531596,
      1780531630,
      1780531675,
      1780531705,
      1780531732,
      1780531741,
      1780531790,
      1780531803,
      1780531827,
      1780531848,
      1780531865,
      1780531902,
      1780531934,
      1780531977,
      1780532000,
      1780532018,
      1780532048,
      1780532085,
      1780532110,
      1780532153,
      1780532177,
      1780532186,
      1780532217,
      1780532236,
      1780532277,
      1780532307,
      1780532334,
      1780532366,
      1780532372,
      1780532392,
      1780532422,
      1780532434,
      1780532468,
      1780532514,
      1780532532,
      1780532556,
      1780532599,
      1780532632,
      1780532663,
      1780532681,
      1780532724,
      1780532734,
      1780532758,
      1780532815,
      1780532899,
      1780533026,
      1780533050,
      1780533069,
      1780533117,
      1780533139,
      1780533178,
      1780533205,
      1780533226,
      1780533267,
      1780533297,
      1780533313,
      1780533335,
      1780533370,
      1780533409,
      1780533433,
      1780533462,
      1780533493,
      1780533508,
      1780533535,
      1780533557,
      1780533581,
      1780533628,
      1780533640,
      1780533667,
      1780533687,
      1780533696,
      1780533749,
      1780533756
    ],
    "wof:geomhash": "42da21b5ca982fd2a468e4040cf19efb",
    "wof:id": 2031437531,
    "wof:repo": "sfomuseum-data-flights-2026-06"
  },
  "bbox": [
    -122.65693,
    37.08696,
    -122.083,
    38.51209
  ],
  "geometry": {"coordinates":[[-122.14199,38.51209],[-122.18799,38.45949],[-122.22375,38.41855],[-122.26267,38.37344],[-122.32576,38.29999],[-122.33442,38.2899],[-122.35138,38.27029],[-122.3757,38.2424],[-122.42928,38.18148],[-122.49284,38.10829],[-122.53017,38.06503],[-122.5604,38.03008],[-122.57981,38.00768],[-122.63677,37.94103],[-122.64542,37.8862],[-122.63678,37.86731],[-122.5752,37.80638],[-122.54493,37.7775],[-122.53398,37.76719],[-122.51953,37.75366],[-122.50173,37.73715],[-122.46448,37.70243],[-122.43648,37.67644],[-122.42727,37.66795],[-122.37807,37.62138],[-122.35327,37.59272],[-122.33305,37.55034],[-122.31668,37.52382],[-122.29481,37.48839],[-122.29093,37.48204],[-122.26905,37.44573],[-122.253,37.41856],[-122.24104,37.39894],[-122.23439,37.38827],[-122.20277,37.36914],[-122.14976,37.36226],[-122.13014,37.38361],[-122.11625,37.40525],[-122.11152,37.41241],[-122.0859,37.45053],[-122.083,37.46162],[-122.09477,37.47861],[-122.10665,37.49293],[-122.11643,37.50432],[-122.14704,37.52279],[-122.17539,37.53481],[-122.21294,37.55059],[-122.23315,37.55914],[-122.24905,37.56579],[-122.27759,37.57745],[-122.31444,37.59336],[-122.34132,37.60531],[-122.38898,37.62374],[-122.41598,37.63303],[-122.42627,37.63652],[-122.46071,37.6487],[-122.48115,37.65621],[-122.52989,37.66561],[-122.56839,37.66758],[-122.60419,37.66939],[-122.64407,37.66557],[-122.64969,37.66127],[-122.65693,37.64127],[-122.65184,37.60736],[-122.64984,37.59398],[-122.64413,37.55639],[-122.63483,37.50476],[-122.63117,37.48453],[-122.62667,37.45733],[-122.61952,37.40848],[-122.6138,37.36997],[-122.60852,37.33412],[-122.60547,37.31309],[-122.57924,37.27177],[-122.56563,37.26637],[-122.53528,37.25422],[-122.46332,37.22568],[-122.35657,37.18438],[-122.26376,37.08747],[-122.23093,37.08696],[-122.21383,37.10179],[-122.19507,37.1514],[-122.18755,37.17355],[-122.17405,37.21437],[-122.16443,37.24248],[-122.15695,37.26393],[-122.14265,37.30573],[-122.13191,37.33693],[-122.12608,37.35372],[-122.1209,37.37664],[-122.13136,37.41094],[-122.1438,37.44819],[-122.15165,37.47025],[-122.15936,37.49524],[-122.16831,37.52236],[-122.17433,37.53349],[-122.19658,37.54602],[-122.2167,37.55455],[-122.23845,37.56358],[-122.27469,37.57891],[-122.28284,37.58231],[-122.30158,37.59027],[-122.31449,37.59562],[-122.31991,37.5979],[-122.35376,37.6121],[-122.35848,37.61411]],"type":"LineString"}
}
