{
  "id": 2031504185,
  "type": "Feature",
  "properties": {
    "geom:area": 0,
    "geom:bbox": "-122.526410,37.627220,-121.464130,38.497690",
    "geom:latitude": 38.07204579864536,
    "geom:longitude": -122.06880341588672,
    "src:alt_label": "swim-takeoff",
    "src:geom": "swim",
    "swim:elevations": [
      153,
      207,
      464,
      641,
      862,
      1036,
      1161,
      1246,
      1293,
      1638,
      1822,
      2497,
      2751,
      3003,
      3099,
      3306,
      3535,
      3566,
      3701,
      3748,
      3772,
      3970,
      4164,
      4310,
      4490,
      4633,
      4804,
      5003,
      5195,
      5450,
      5522,
      5603
    ],
    "swim:geom": "takeoff",
    "swim:timestamps": [
      1781104587,
      1781104599,
      1781104633,
      1781104661,
      1781104701,
      1781104737,
      1781104766,
      1781104794,
      1781104803,
      1781104855,
      1781104879,
      1781104940,
      1781104970,
      1781104995,
      1781105006,
      1781105041,
      1781105095,
      1781105105,
      1781105139,
      1781105153,
      1781105160,
      1781105217,
      1781105241,
      1781105265,
      1781105295,
      1781105319,
      1781105347,
      1781105379,
      1781105410,
      1781105450,
      1781105458,
      1781105469
    ],
    "wof:geomhash": "71af042e4bcdc2f024498c0a8749052d",
    "wof:id": 2031504185,
    "wof:repo": "sfomuseum-data-flights-2026-06"
  },
  "bbox": [
    -122.52641,
    37.62722,
    -121.46413,
    38.49769
  ],
  "geometry": {"coordinates":[[-122.39579,37.62722],[-122.40603,37.63157],[-122.43633,37.64473],[-122.46181,37.65571],[-122.49897,37.67178],[-122.52455,37.69324],[-122.52486,37.71897],[-122.52614,37.7484],[-122.52641,37.75728],[-122.48488,37.80447],[-122.45614,37.82453],[-122.38267,37.87533],[-122.34574,37.90079],[-122.31329,37.92323],[-122.29907,37.93308],[-122.25067,37.96673],[-122.1718,38.0211],[-122.1549,38.03273],[-122.0997,38.07062],[-122.07575,38.08695],[-122.06474,38.09461],[-121.96253,38.16456],[-121.91709,38.1956],[-121.87157,38.22657],[-121.8156,38.26476],[-121.76876,38.29656],[-121.71455,38.3334],[-121.65022,38.37694],[-121.58782,38.41914],[-121.50497,38.47323],[-121.48716,38.48382],[-121.46413,38.49769]],"type":"LineString"}
}
