{
  "id": 2031522383,
  "type": "Feature",
  "properties": {
    "geom:area": 0,
    "geom:bbox": "-122.401730,37.623940,-121.430700,38.517720",
    "geom:latitude": 38.120581291983214,
    "geom:longitude": -122.01810328488298,
    "src:alt_label": "swim-takeoff",
    "src:geom": "swim",
    "swim:elevations": [
      152,
      555,
      619,
      853,
      904,
      1040,
      1074,
      1225,
      1347,
      1686,
      1790,
      2065,
      2091,
      2194,
      2251,
      2754,
      2987,
      3087,
      3188,
      3285,
      3358,
      3441,
      3509,
      3533,
      3594,
      3822,
      4205,
      4522,
      4703,
      4795,
      4901,
      4961,
      5094,
      5184,
      5615,
      5768,
      5961,
      6034,
      6248,
      6338,
      6390,
      6666,
      6714
    ],
    "swim:geom": "takeoff",
    "swim:timestamps": [
      1781332486,
      1781332526,
      1781332534,
      1781332556,
      1781332562,
      1781332587,
      1781332596,
      1781332635,
      1781332668,
      1781332697,
      1781332706,
      1781332733,
      1781332736,
      1781332744,
      1781332750,
      1781332796,
      1781332816,
      1781332827,
      1781332846,
      1781332865,
      1781332878,
      1781332899,
      1781332914,
      1781332920,
      1781332929,
      1781332955,
      1781333003,
      1781333034,
      1781333065,
      1781333077,
      1781333092,
      1781333101,
      1781333126,
      1781333138,
      1781333185,
      1781333206,
      1781333234,
      1781333247,
      1781333274,
      1781333289,
      1781333302,
      1781333337,
      1781333342
    ],
    "wof:geomhash": "e5768830c379778f8637527136d55f7c",
    "wof:id": 2031522383,
    "wof:repo": "sfomuseum-data-flights-2026-06"
  },
  "bbox": [
    -122.40173,
    37.62394,
    -121.4307,
    38.51772
  ],
  "geometry": {"coordinates":[[-122.38744,37.62394],[-122.40173,37.64931],[-122.39791,37.65521],[-122.38419,37.67067],[-122.38051,37.67451],[-122.3654,37.69094],[-122.35961,37.69756],[-122.33673,37.73069],[-122.349,37.76747],[-122.36599,37.80263],[-122.37125,37.81336],[-122.38542,37.8462],[-122.38596,37.85008],[-122.38592,37.86066],[-122.38548,37.86851],[-122.38277,37.92797],[-122.36619,37.95073],[-122.3523,37.95959],[-122.32806,37.97479],[-122.30154,37.99138],[-122.28235,38.00306],[-122.25016,38.02255],[-122.22619,38.03701],[-122.21647,38.04292],[-122.20168,38.05189],[-122.15788,38.07838],[-122.07541,38.12847],[-122.02093,38.1616],[-121.96682,38.19438],[-121.94503,38.20748],[-121.91766,38.224],[-121.90111,38.23399],[-121.85409,38.26242],[-121.83131,38.27607],[-121.74191,38.32985],[-121.70159,38.35404],[-121.64747,38.38653],[-121.62161,38.40194],[-121.56688,38.43461],[-121.53685,38.45249],[-121.51263,38.46719],[-121.44163,38.51102],[-121.4307,38.51772]],"type":"LineString"}
}
