{
  "id": 2031446353,
  "type": "Feature",
  "properties": {
    "geom:area": 0,
    "geom:bbox": "-122.952222,37.376111,-111.990556,40.869722",
    "geom:latitude": 39.672118997983794,
    "geom:longitude": -118.36556827444703,
    "src:alt_label": "swim-path",
    "src:geom": "swim",
    "swim:altitudes": [
      "057",
      "057",
      "057",
      "138",
      "159",
      "159",
      "181",
      "181",
      "216",
      "233",
      "268",
      "295",
      "295",
      "342",
      "342",
      "342",
      "372",
      "379",
      "379",
      "361C",
      "361C",
      "361C",
      "360C",
      "360C",
      "360C",
      "360C",
      "360C",
      "360C",
      "360C",
      "360C",
      "360C",
      "360C",
      "349",
      "340",
      "340",
      "321C",
      "321C",
      "320C",
      "320C",
      "320C",
      "320C",
      "320C",
      "320C",
      "320C",
      "320C",
      "320C",
      "320C",
      "320C",
      "320C",
      "320C",
      "320C",
      "320C",
      "320C",
      "320C",
      "320C",
      "320C",
      "320C",
      "320C",
      "320C",
      "320C",
      "320C",
      "320C",
      "320C",
      "320",
      "320",
      "302",
      "302",
      "302",
      "293",
      "284",
      "284",
      "284",
      "264",
      "256",
      "246",
      "220C",
      "220C",
      "220C",
      "220C",
      "210C",
      "210C",
      "210C",
      "210C",
      "183",
      "183",
      "153",
      "140",
      "140",
      "122",
      "122",
      "120",
      "120",
      "120",
      "120",
      "117",
      "109C",
      "081",
      "081",
      "080",
      "080",
      "080",
      "076",
      "074",
      "074",
      "055",
      "052",
      "052",
      "039",
      "039",
      "039",
      "030",
      "030",
      "026",
      "026",
      "009",
      "009",
      "009",
      "004",
      "004"
    ],
    "swim:geom": "path",
    "swim:speeds": [
      193,
      193,
      193,
      345,
      364,
      364,
      374,
      374,
      410,
      424,
      429,
      440,
      440,
      425,
      425,
      425,
      416,
      415,
      415,
      419,
      419,
      419,
      420,
      420,
      422,
      422,
      425,
      432,
      432,
      429,
      434,
      434,
      437,
      437,
      437,
      440,
      440,
      445,
      445,
      445,
      448,
      448,
      448,
      449,
      449,
      449,
      449,
      449,
      449,
      446,
      446,
      446,
      444,
      444,
      444,
      433,
      422,
      422,
      422,
      419,
      417,
      417,
      417,
      410,
      410,
      410,
      410,
      410,
      410,
      412,
      412,
      412,
      421,
      425,
      427,
      317,
      311,
      303,
      303,
      305,
      305,
      336,
      336,
      348,
      348,
      327,
      313,
      313,
      317,
      317,
      311,
      311,
      311,
      311,
      273,
      258,
      255,
      255,
      247,
      247,
      247,
      250,
      249,
      249,
      216,
      218,
      218,
      190,
      190,
      190,
      186,
      186,
      181,
      181,
      152,
      152,
      152,
      143,
      143
    ],
    "swim:timestamps": [
      1780629044,
      1780629044,
      1780629044,
      1780629285,
      1780629345,
      1780629345,
      1780629405,
      1780629405,
      1780629525,
      1780629585,
      1780629705,
      1780629826,
      1780629826,
      1780630006,
      1780630006,
      1780630006,
      1780630186,
      1780630308,
      1780630308,
      1780630426,
      1780630426,
      1780630426,
      1780630548,
      1780630548,
      1780630728,
      1780630728,
      1780630787,
      1780630908,
      1780630908,
      1780631027,
      1780631089,
      1780631089,
      1780631207,
      1780631269,
      1780631269,
      1780631388,
      1780631388,
      1780631508,
      1780631508,
      1780631508,
      1780631688,
      1780631688,
      1780631688,
      1780631748,
      1780631808,
      1780631808,
      1780632050,
      1780632050,
      1780632050,
      1780632230,
      1780632230,
      1780632230,
      1780632350,
      1780632350,
      1780632350,
      1780632530,
      1780632590,
      1780632590,
      1780632590,
      1780632710,
      1780632770,
      1780632770,
      1780632770,
      1780632951,
      1780632951,
      1780633071,
      1780633071,
      1780633071,
      1780633131,
      1780633191,
      1780633191,
      1780633191,
      1780633311,
      1780633371,
      1780633431,
      1780633611,
      1780633671,
      1780633731,
      1780633731,
      1780633851,
      1780633851,
      1780633912,
      1780633912,
      1780634092,
      1780634092,
      1780634212,
      1780634302,
      1780634302,
      1780634482,
      1780634482,
      1780634512,
      1780634512,
      1780634512,
      1780634512,
      1780634542,
      1780634692,
      1780634812,
      1780634812,
      1780634848,
      1780634848,
      1780634848,
      1780634908,
      1780634933,
      1780634933,
      1780635028,
      1780635053,
      1780635053,
      1780635143,
      1780635143,
      1780635143,
      1780635197,
      1780635197,
      1780635233,
      1780635233,
      1780635353,
      1780635353,
      1780635353,
      1780635383,
      1780635383
    ],
    "wof:geomhash": "d081d15ac1017c99e8f614ac1899c585",
    "wof:id": 2031446353,
    "wof:repo": "sfomuseum-data-flights-2026-06"
  },
  "bbox": [
    -122.95222222222222,
    37.376111111111115,
    -111.99055555555556,
    40.86972222222222
  ],
  "geometry": {"coordinates":[[-111.99055555555556,40.82638888888889],[-111.99055555555556,40.82638888888889],[-111.99055555555556,40.82638888888889],[-112.40444444444445,40.86972222222222],[-112.53583333333333,40.865],[-112.53583333333333,40.865],[-112.6725,40.85388888888889],[-112.6725,40.85388888888889],[-112.96444444444445,40.842222222222226],[-113.11888888888888,40.8425],[-113.43527777777778,40.8425],[-113.75694444444444,40.841944444444444],[-113.75694444444444,40.841944444444444],[-114.23333333333333,40.83861111111111],[-114.23333333333333,40.83861111111111],[-114.23333333333333,40.83861111111111],[-114.68083333333334,40.83444444444444],[-114.98333333333333,40.809999999999995],[-114.98333333333333,40.809999999999995],[-115.285,40.77222222222222],[-115.285,40.77222222222222],[-115.285,40.77222222222222],[-115.59083333333332,40.736666666666665],[-115.59083333333332,40.736666666666665],[-116.04722222222222,40.680277777777775],[-116.04722222222222,40.680277777777775],[-116.19916666666667,40.661944444444444],[-116.51222222222222,40.62222222222222],[-116.51222222222222,40.62222222222222],[-116.84555555555555,40.57888888888889],[-116.99333333333334,40.543055555555554],[-116.99333333333334,40.543055555555554],[-117.27527777777777,40.440555555555555],[-117.42111111111112,40.386944444444445],[-117.42111111111112,40.386944444444445],[-117.7063888888889,40.28138888888889],[-117.7063888888889,40.28138888888889],[-117.99833333333333,40.17222222222222],[-117.99833333333333,40.17222222222222],[-117.99833333333333,40.17222222222222],[-118.43777777777778,40.00555555555555],[-118.43777777777778,40.00555555555555],[-118.43777777777778,40.00555555555555],[-118.58277777777778,39.95027777777778],[-118.72500000000001,39.89555555555555],[-118.72500000000001,39.89555555555555],[-119.30222222222221,39.67111111111111],[-119.30222222222221,39.67111111111111],[-119.30222222222221,39.67111111111111],[-119.74083333333333,39.52972222222222],[-119.74083333333333,39.52972222222222],[-119.74083333333333,39.52972222222222],[-120.04777777777778,39.468333333333334],[-120.04777777777778,39.468333333333334],[-120.04777777777778,39.468333333333334],[-120.48305555555555,39.276666666666664],[-120.61444444444444,39.217777777777776],[-120.61444444444444,39.217777777777776],[-120.61444444444444,39.217777777777776],[-120.87388888888889,39.10194444444445],[-121.00138888888888,39.04472222222222],[-121.00138888888888,39.04472222222222],[-121.00138888888888,39.04472222222222],[-121.37666666666667,38.87388888888889],[-121.37666666666667,38.87388888888889],[-121.6261111111111,38.75972222222222],[-121.6261111111111,38.75972222222222],[-121.6261111111111,38.75972222222222],[-121.75222222222222,38.70166666666667],[-121.87777777777777,38.64333333333333],[-121.87777777777777,38.64333333333333],[-121.87777777777777,38.64333333333333],[-122.13083333333333,38.525277777777774],[-122.25194444444445,38.468611111111116],[-122.38166666666666,38.407777777777774],[-122.7125,38.25055555555556],[-122.80499999999999,38.20638888888889],[-122.90083333333334,38.21666666666667],[-122.90083333333334,38.21666666666667],[-122.95222222222222,38.3825],[-122.95222222222222,38.3825],[-122.86722222222221,38.42805555555555],[-122.86722222222221,38.42805555555555],[-122.50888888888889,38.33305555555556],[-122.50888888888889,38.33305555555556],[-122.58277777777778,38.16555555555556],[-122.63333333333334,38.016666666666666],[-122.63333333333334,38.016666666666666],[-122.56666666666666,37.78333333333333],[-122.56666666666666,37.78333333333333],[-122.53027777777778,37.76444444444444],[-122.53027777777778,37.76444444444444],[-122.53027777777778,37.76444444444444],[-122.53027777777778,37.76444444444444],[-122.5,37.733333333333334],[-122.35499999999999,37.595555555555556],[-122.28611111111111,37.46361111111111],[-122.28611111111111,37.46361111111111],[-122.3,37.416666666666664],[-122.3,37.416666666666664],[-122.3,37.416666666666664],[-122.23333333333333,37.38333333333333],[-122.21666666666667,37.376111111111115],[-122.21666666666667,37.376111111111115],[-122.11666666666666,37.43333333333333],[-122.10166666666666,37.45055555555556],[-122.10166666666666,37.45055555555556],[-122.13333333333334,37.516666666666666],[-122.13333333333334,37.516666666666666],[-122.13333333333334,37.516666666666666],[-122.18333333333334,37.53333333333333],[-122.18333333333334,37.53333333333333],[-122.21277777777777,37.55277777777778],[-122.21277777777777,37.55277777777778],[-122.3111111111111,37.594166666666666],[-122.3111111111111,37.594166666666666],[-122.3111111111111,37.594166666666666],[-122.33333333333333,37.6],[-122.33333333333333,37.6]],"type":"LineString"}
}
