{
  "id": 2031510493,
  "type": "Feature",
  "properties": {
    "geom:area": 0,
    "geom:bbox": "-122.359780,37.491930,-121.258610,37.614790",
    "geom:latitude": 37.54277646511339,
    "geom:longitude": -121.81626683584709,
    "src:alt_label": "swim-approach",
    "src:geom": "swim",
    "swim:elevations": [
      4601,
      4489,
      4142,
      4025,
      3765,
      3583,
      3443,
      3425,
      3251,
      3092,
      2960,
      2914,
      2677,
      2559,
      2474,
      2378,
      2136,
      2134,
      1834,
      1829,
      1829,
      1821,
      1629,
      1466,
      1320,
      790,
      753,
      551,
      523,
      457,
      310,
      272,
      0
    ],
    "swim:geom": "approach",
    "swim:timestamps": [
      1781215106,
      1781215119,
      1781215154,
      1781215166,
      1781215193,
      1781215211,
      1781215227,
      1781215230,
      1781215249,
      1781215285,
      1781215313,
      1781215327,
      1781215371,
      1781215385,
      1781215397,
      1781215413,
      1781215466,
      1781215478,
      1781215524,
      1781215557,
      1781215572,
      1781215587,
      1781215610,
      1781215636,
      1781215660,
      1781215730,
      1781215736,
      1781215773,
      1781215777,
      1781215791,
      1781215825,
      1781215841,
      1781215903
    ],
    "wof:geomhash": "a066428a1c3383b73e9be17e3a830fac",
    "wof:id": 2031510493,
    "wof:repo": "sfomuseum-data-flights-2026-06"
  },
  "bbox": [
    -122.35978,
    37.49193,
    -121.25861,
    37.61479
  ],
  "geometry": {"coordinates":[[-121.25861,37.59325],[-121.2843,37.58991],[-121.35647,37.5819],[-121.38086,37.57923],[-121.43564,37.57323],[-121.47198,37.56901],[-121.50273,37.56531],[-121.50876,37.56459],[-121.54732,37.55988],[-121.61502,37.55183],[-121.66337,37.5414],[-121.68621,37.53599],[-121.75626,37.51942],[-121.77624,37.51443],[-121.79425,37.50996],[-121.81869,37.50426],[-121.89375,37.49193],[-121.91047,37.49299],[-121.9757,37.49638],[-122.0214,37.49916],[-122.04236,37.50049],[-122.06332,37.50177],[-122.09464,37.50477],[-122.12449,37.5156],[-122.14825,37.52555],[-122.21434,37.55365],[-122.21978,37.55603],[-122.25261,37.56978],[-122.25634,37.57134],[-122.26781,37.57629],[-122.29574,37.58793],[-122.30919,37.59344],[-122.35978,37.61479]],"type":"LineString"}
}
