{
  "id": 2031514691,
  "type": "Feature",
  "properties": {
    "geom:area": 0,
    "geom:bbox": "-122.560000,32.698889,-116.960278,37.654167",
    "geom:latitude": 34.98867182776308,
    "geom:longitude": -119.9764986176355,
    "src:alt_label": "swim-path",
    "src:geom": "swim",
    "swim:altitudes": [
      "004",
      "004",
      "004",
      "010",
      "010",
      "010",
      "046",
      "046",
      "046",
      "046",
      "093",
      "093",
      "109",
      "109",
      "109",
      "128",
      "128",
      "128",
      "128",
      "204",
      "204",
      "204",
      "222",
      "222",
      "222",
      "222",
      "253",
      "253",
      "253",
      "297",
      "297",
      "310C",
      "310C",
      "310C",
      "310C",
      "310C",
      "310C",
      "310C",
      "310C",
      "310C",
      "310C",
      "310C",
      "310C",
      "310C",
      "310C",
      "310C",
      "310C",
      "310C",
      "310C",
      "310C",
      "310C",
      "310C",
      "310C",
      "310C",
      "310C",
      "310C",
      "310C",
      "310C",
      "310C",
      "310C",
      "310C",
      "310C",
      "310C",
      "310C",
      "310C",
      "310C",
      "310C",
      "310C",
      "310C",
      "310C",
      "310C",
      "310C",
      "310C",
      "310C",
      "310C",
      "310C",
      "310C",
      "310C",
      "310C",
      "310C",
      "310",
      "310",
      "310",
      "284",
      "284",
      "284",
      "284",
      "260",
      "260",
      "260",
      "189",
      "189",
      "173",
      "173",
      "170",
      "170",
      "170",
      "170",
      "133",
      "133",
      "133",
      "133",
      "121",
      "096",
      "096",
      "096",
      "082",
      "082",
      "082",
      "076",
      "076",
      "076",
      "076",
      "064",
      "055",
      "055",
      "055",
      "055",
      "055",
      "054",
      "054",
      "041",
      "041",
      "038",
      "038",
      "038",
      "038",
      "034",
      "031",
      "031",
      "018",
      "015",
      "015",
      "008",
      "008"
    ],
    "swim:geom": "path",
    "swim:speeds": [
      188,
      188,
      188,
      192,
      192,
      192,
      272,
      272,
      272,
      272,
      303,
      303,
      314,
      314,
      314,
      375,
      375,
      375,
      375,
      427,
      427,
      427,
      436,
      436,
      436,
      436,
      454,
      454,
      454,
      470,
      470,
      467,
      467,
      467,
      467,
      464,
      464,
      463,
      463,
      462,
      460,
      460,
      460,
      460,
      460,
      460,
      460,
      460,
      460,
      460,
      460,
      460,
      460,
      460,
      460,
      460,
      459,
      459,
      459,
      458,
      458,
      458,
      455,
      455,
      455,
      454,
      454,
      454,
      454,
      454,
      454,
      454,
      454,
      453,
      453,
      453,
      450,
      450,
      450,
      450,
      443,
      443,
      443,
      432,
      432,
      432,
      432,
      432,
      432,
      432,
      378,
      378,
      366,
      366,
      368,
      368,
      368,
      368,
      354,
      354,
      354,
      354,
      312,
      270,
      270,
      270,
      261,
      261,
      261,
      210,
      210,
      210,
      210,
      200,
      197,
      199,
      190,
      190,
      190,
      187,
      187,
      185,
      185,
      182,
      182,
      182,
      184,
      171,
      171,
      171,
      159,
      162,
      162,
      150,
      150
    ],
    "swim:timestamps": [
      1781233808,
      1781233808,
      1781233808,
      1781233823,
      1781233823,
      1781233823,
      1781233943,
      1781233943,
      1781233943,
      1781233943,
      1781234063,
      1781234063,
      1781234124,
      1781234124,
      1781234124,
      1781234183,
      1781234183,
      1781234183,
      1781234183,
      1781234424,
      1781234424,
      1781234424,
      1781234484,
      1781234484,
      1781234484,
      1781234484,
      1781234604,
      1781234604,
      1781234604,
      1781234784,
      1781234784,
      1781234844,
      1781234844,
      1781234844,
      1781234844,
      1781234964,
      1781234964,
      1781235024,
      1781235024,
      1781235084,
      1781235144,
      1781235144,
      1781235144,
      1781235144,
      1781235445,
      1781235445,
      1781235445,
      1781235445,
      1781235505,
      1781235505,
      1781235565,
      1781235565,
      1781235565,
      1781235626,
      1781235626,
      1781235626,
      1781235745,
      1781235745,
      1781235745,
      1781235806,
      1781235806,
      1781235806,
      1781235986,
      1781235986,
      1781235986,
      1781236046,
      1781236046,
      1781236046,
      1781236106,
      1781236106,
      1781236167,
      1781236167,
      1781236167,
      1781236227,
      1781236227,
      1781236227,
      1781236407,
      1781236407,
      1781236407,
      1781236407,
      1781236587,
      1781236587,
      1781236587,
      1781236707,
      1781236707,
      1781236707,
      1781236707,
      1781236767,
      1781236767,
      1781236767,
      1781237008,
      1781237008,
      1781237046,
      1781237046,
      1781237068,
      1781237068,
      1781237068,
      1781237068,
      1781237166,
      1781237166,
      1781237166,
      1781237166,
      1781237226,
      1781237340,
      1781237340,
      1781237340,
      1781237400,
      1781237400,
      1781237400,
      1781237489,
      1781237489,
      1781237489,
      1781237489,
      1781237549,
      1781237586,
      1781237609,
      1781237640,
      1781237640,
      1781237640,
      1781237669,
      1781237669,
      1781237729,
      1781237729,
      1781237766,
      1781237766,
      1781237766,
      1781237789,
      1781237827,
      1781237849,
      1781237849,
      1781237886,
      1781237909,
      1781237909,
      1781237941,
      1781237941
    ],
    "wof:geomhash": "8cc8b18c81822a07bcfe2e4b952af12c",
    "wof:id": 2031514691,
    "wof:repo": "sfomuseum-data-flights-2026-06"
  },
  "bbox": [
    -122.56,
    32.69888888888889,
    -116.96027777777778,
    37.65416666666667
  ],
  "geometry": {"coordinates":[[-122.4,37.63333333333333],[-122.4,37.63333333333333],[-122.4,37.63333333333333],[-122.40833333333335,37.632777777777775],[-122.40833333333335,37.632777777777775],[-122.40833333333335,37.632777777777775],[-122.54194444444444,37.65416666666667],[-122.54194444444444,37.65416666666667],[-122.54194444444444,37.65416666666667],[-122.54194444444444,37.65416666666667],[-122.55777777777777,37.49111111111111],[-122.55777777777777,37.49111111111111],[-122.56,37.4125],[-122.56,37.4125],[-122.56,37.4125],[-122.55972222222222,37.297777777777775],[-122.55972222222222,37.297777777777775],[-122.55972222222222,37.297777777777775],[-122.55972222222222,37.297777777777775],[-122.44055555555556,36.88305555555556],[-122.44055555555556,36.88305555555556],[-122.44055555555556,36.88305555555556],[-122.345,36.78972222222222],[-122.345,36.78972222222222],[-122.345,36.78972222222222],[-122.345,36.78972222222222],[-122.14777777777779,36.59666666666667],[-122.14777777777779,36.59666666666667],[-122.14777777777779,36.59666666666667],[-121.84194444444444,36.294444444444444],[-121.84194444444444,36.294444444444444],[-121.75,36.20305555555556],[-121.75,36.20305555555556],[-121.75,36.20305555555556],[-121.75,36.20305555555556],[-121.54972222222221,36.00277777777778],[-121.54972222222221,36.00277777777778],[-121.45083333333334,35.903055555555554],[-121.45083333333334,35.903055555555554],[-121.35138888888888,35.80277777777778],[-121.25472222222223,35.70527777777778],[-121.25472222222223,35.70527777777778],[-121.25472222222223,35.70527777777778],[-121.25472222222223,35.70527777777778],[-120.67194444444445,35.28527777777778],[-120.67194444444445,35.28527777777778],[-120.67194444444445,35.28527777777778],[-120.67194444444445,35.28527777777778],[-120.52638888888889,35.2],[-120.52638888888889,35.2],[-120.39888888888889,35.125],[-120.39888888888889,35.125],[-120.39888888888889,35.125],[-120.28888888888889,35.06027777777778],[-120.28888888888889,35.06027777777778],[-120.28888888888889,35.06027777777778],[-120.025,34.90361111111111],[-120.025,34.90361111111111],[-120.025,34.90361111111111],[-119.90305555555557,34.83083333333334],[-119.90305555555557,34.83083333333334],[-119.90305555555557,34.83083333333334],[-119.53277777777778,34.608333333333334],[-119.53277777777778,34.608333333333334],[-119.53277777777778,34.608333333333334],[-119.40444444444445,34.53055555555555],[-119.40444444444445,34.53055555555555],[-119.40444444444445,34.53055555555555],[-119.28,34.45527777777778],[-119.28,34.45527777777778],[-119.15777777777778,34.38055555555555],[-119.15777777777778,34.38055555555555],[-119.15777777777778,34.38055555555555],[-119.03388888888888,34.30472222222222],[-119.03388888888888,34.30472222222222],[-119.03388888888888,34.30472222222222],[-118.6713888888889,34.08166666666667],[-118.6713888888889,34.08166666666667],[-118.6713888888889,34.08166666666667],[-118.6713888888889,34.08166666666667],[-118.32305555555556,33.848888888888894],[-118.32305555555556,33.848888888888894],[-118.32305555555556,33.848888888888894],[-118.125,33.697222222222216],[-118.125,33.697222222222216],[-118.125,33.697222222222216],[-118.125,33.697222222222216],[-118.01805555555555,33.61555555555556],[-118.01805555555555,33.61555555555556],[-118.01805555555555,33.61555555555556],[-117.6525,33.29694444444444],[-117.6525,33.29694444444444],[-117.58333333333333,33.233333333333334],[-117.58333333333333,33.233333333333334],[-117.57194444444444,33.221111111111114],[-117.57194444444444,33.221111111111114],[-117.57194444444444,33.221111111111114],[-117.57194444444444,33.221111111111114],[-117.43333333333334,33.083333333333336],[-117.43333333333334,33.083333333333336],[-117.43333333333334,33.083333333333336],[-117.43333333333334,33.083333333333336],[-117.38333333333334,33.016666666666666],[-117.26666666666667,32.88333333333333],[-117.26666666666667,32.88333333333333],[-117.26666666666667,32.88333333333333],[-117.21666666666667,32.833333333333336],[-117.21666666666667,32.833333333333336],[-117.21666666666667,32.833333333333336],[-117.12944444444443,32.79944444444444],[-117.12944444444443,32.79944444444444],[-117.12944444444443,32.79944444444444],[-117.12944444444443,32.79944444444444],[-117.06694444444445,32.81666666666667],[-117.01666666666667,32.833333333333336],[-117.00444444444445,32.8325],[-116.96666666666667,32.81666666666667],[-116.96666666666667,32.81666666666667],[-116.96666666666667,32.81666666666667],[-116.96027777777778,32.805],[-116.96027777777778,32.805],[-116.97222222222223,32.75472222222222],[-116.97222222222223,32.75472222222222],[-117,32.71666666666667],[-117,32.71666666666667],[-117,32.71666666666667],[-117.00805555555556,32.716944444444444],[-117.05,32.7],[-117.05916666666667,32.69888888888889],[-117.05916666666667,32.69888888888889],[-117.1,32.71666666666667],[-117.10916666666667,32.71388888888889],[-117.10916666666667,32.71388888888889],[-117.13333333333334,32.71666666666667],[-117.13333333333334,32.71666666666667]],"type":"LineString"}
}
