{
  "id": 2031556839,
  "type": "Feature",
  "properties": {
    "geom:area": 0,
    "geom:bbox": "-122.480000,25.800000,-80.290000,37.660000",
    "geom:latitude": 31.208071933040873,
    "geom:longitude": -101.6866839945133,
    "src:alt_label": "swim-route",
    "src:geom": "swim",
    "swim:geom": "route",
    "wof:geomhash": "f62179fa7c1e235e2caeacf135b609da",
    "wof:id": 2031556839,
    "wof:repo": "sfomuseum-data-flights-2026-06"
  },
  "bbox": [
    -122.48,
    25.8,
    -80.29,
    37.66
  ],
  "geometry": {"coordinates":[[-122.38,37.62],[-122.48,37.66],[-122.48,37.66],[-122.48,37.65],[-122.48,37.59],[-122.48,37.59],[-122.48,37.56],[-122.48,37.51],[-122.47,37.5],[-122.47,37.49],[-122.43,37.46],[-122.33,37.4],[-122.17,37.29],[-122.14,37.27],[-122.11,37.25],[-122.05,37.21],[-121.93,37.14],[-121.92,37.13],[-121.85,37.08],[-121.72,37],[-121.66,36.96],[-121.53,36.88],[-121.47,36.83],[-121.39,36.78],[-121.27,36.71],[-121.24,36.68],[-120.95,36.49],[-120.92,36.47],[-120,35.85],[-119.96,35.82],[-119.4,35.42],[-118.04,34.43],[-118.03,34.42],[-117.35,34.26],[-116.89,34.15],[-116.34,34.01],[-115.14,33.7],[-114.76,33.6],[-114,33.47],[-110.5,32.85],[-108.2,32.38],[-107.48,32.22],[-106.27,31.95],[-106.23,31.94],[-102.19,31.14],[-99.82,30.6],[-99.36,30.54],[-98.47,30.42],[-98.03,30.36],[-97.26,30.25],[-96.48,30.14],[-95.97,30.06],[-95.35,29.96],[-94.88,29.9],[-94.47,29.84],[-92.92,29.62],[-92.82,29.61],[-92.38,29.54],[-91.44,29.4],[-90.5,29.24],[-90.1,29.18],[-88.63,28.62],[-88.03,28.38],[-88,28.37],[-87.38,28.19],[-86.76,28.01],[-85.34,27.59],[-85.21,27.57],[-85.16,27.56],[-84.78,27.49],[-84.38,27.42],[-83.96,27.34],[-83.12,27.19],[-83.09,27.18],[-82.84,27.13],[-82.44,26.92],[-82.23,26.7],[-82.07,26.53],[-81.91,26.36],[-81.85,26.3],[-81.79,26.24],[-81.78,26.24],[-81.5,26.12],[-81.4,26.07],[-81.12,25.95],[-81.07,25.93],[-81.04,25.91],[-80.94,25.85],[-80.93,25.85],[-80.92,25.84],[-80.75,25.82],[-80.58,25.81],[-80.57,25.81],[-80.47,25.81],[-80.46,25.81],[-80.42,25.8],[-80.38,25.8],[-80.29,25.8]],"type":"LineString"}
}
