{
  "id": 2031443603,
  "type": "Feature",
  "properties": {
    "geom:area": 0,
    "geom:bbox": "-122.618889,33.516667,-117.800000,37.684722",
    "geom:latitude": 35.19681102573066,
    "geom:longitude": -120.58323007099573,
    "src:alt_label": "swim-path",
    "src:geom": "swim",
    "swim:altitudes": [
      "005",
      "026",
      "026",
      "064",
      "064",
      "064",
      "064",
      "064",
      "099",
      "099",
      "099",
      "198",
      "198",
      "198",
      "198",
      "198",
      "222",
      "222",
      "222",
      "224",
      "224",
      "295",
      "295",
      "295",
      "307",
      "307",
      "307",
      "307",
      "307",
      "370C",
      "370C",
      "370C",
      "370C",
      "370C",
      "370C",
      "370C",
      "370C",
      "370C",
      "370C",
      "370C",
      "370C",
      "370C",
      "370C",
      "370C",
      "370C",
      "370C",
      "370C",
      "370C",
      "370C",
      "370C",
      "370C",
      "370C",
      "370C",
      "370C",
      "370C",
      "370C",
      "370",
      "370",
      "370",
      "370",
      "370",
      "370",
      "370",
      "370",
      "363",
      "363",
      "363",
      "310",
      "310",
      "310",
      "288",
      "288",
      "288",
      "288",
      "288",
      "266",
      "266",
      "266",
      "246",
      "246",
      "246",
      "227",
      "227",
      "207",
      "207",
      "189",
      "189",
      "143",
      "143",
      "128",
      "128",
      "128",
      "128",
      "123",
      "123",
      "106",
      "106",
      "106",
      "106",
      "102",
      "070",
      "070",
      "070",
      "070",
      "070",
      "070",
      "070",
      "070",
      "052",
      "052",
      "052",
      "050",
      "050",
      "050",
      "050",
      "045",
      "045",
      "045",
      "040",
      "040",
      "040",
      "040",
      "022",
      "022",
      "022",
      "022",
      "022",
      "022",
      "007",
      "007",
      "004",
      "004",
      "004",
      "004"
    ],
    "swim:geom": "path",
    "swim:speeds": [
      167,
      176,
      176,
      264,
      264,
      264,
      264,
      264,
      284,
      284,
      284,
      405,
      405,
      405,
      405,
      405,
      410,
      410,
      410,
      410,
      410,
      474,
      474,
      474,
      486,
      486,
      486,
      486,
      486,
      485,
      485,
      485,
      485,
      485,
      483,
      483,
      483,
      482,
      482,
      480,
      480,
      480,
      479,
      479,
      479,
      479,
      477,
      477,
      477,
      477,
      475,
      475,
      475,
      475,
      475,
      475,
      474,
      474,
      474,
      474,
      474,
      474,
      474,
      474,
      471,
      471,
      471,
      484,
      484,
      484,
      478,
      478,
      478,
      478,
      478,
      451,
      451,
      451,
      434,
      434,
      434,
      425,
      425,
      413,
      413,
      396,
      396,
      355,
      355,
      345,
      345,
      345,
      345,
      346,
      346,
      340,
      340,
      340,
      340,
      302,
      269,
      269,
      269,
      268,
      268,
      268,
      268,
      268,
      226,
      226,
      226,
      220,
      220,
      225,
      225,
      221,
      221,
      221,
      218,
      218,
      218,
      218,
      209,
      209,
      209,
      209,
      209,
      209,
      147,
      147,
      140,
      140,
      140,
      140
    ],
    "swim:timestamps": [
      1780514345,
      1780514388,
      1780514388,
      1780514492,
      1780514492,
      1780514492,
      1780514492,
      1780514492,
      1780514552,
      1780514552,
      1780514552,
      1780514792,
      1780514792,
      1780514792,
      1780514792,
      1780514792,
      1780514852,
      1780514852,
      1780514852,
      1780514853,
      1780514853,
      1780515092,
      1780515092,
      1780515092,
      1780515152,
      1780515152,
      1780515152,
      1780515152,
      1780515152,
      1780515453,
      1780515453,
      1780515453,
      1780515453,
      1780515453,
      1780515513,
      1780515513,
      1780515513,
      1780515574,
      1780515574,
      1780515633,
      1780515633,
      1780515633,
      1780515694,
      1780515694,
      1780515694,
      1780515694,
      1780515754,
      1780515754,
      1780515754,
      1780515754,
      1780516054,
      1780516054,
      1780516054,
      1780516115,
      1780516115,
      1780516115,
      1780516174,
      1780516174,
      1780516174,
      1780516234,
      1780516234,
      1780516234,
      1780516234,
      1780516234,
      1780516415,
      1780516415,
      1780516415,
      1780516535,
      1780516535,
      1780516535,
      1780516595,
      1780516595,
      1780516595,
      1780516595,
      1780516595,
      1780516655,
      1780516655,
      1780516655,
      1780516715,
      1780516715,
      1780516715,
      1780516776,
      1780516776,
      1780516836,
      1780516836,
      1780516896,
      1780516896,
      1780517049,
      1780517049,
      1780517103,
      1780517103,
      1780517103,
      1780517103,
      1780517136,
      1780517136,
      1780517196,
      1780517196,
      1780517196,
      1780517196,
      1780517228,
      1780517403,
      1780517403,
      1780517403,
      1780517437,
      1780517437,
      1780517437,
      1780517437,
      1780517437,
      1780517557,
      1780517557,
      1780517557,
      1780517644,
      1780517644,
      1780517823,
      1780517823,
      1780517857,
      1780517857,
      1780517857,
      1780517884,
      1780517884,
      1780517884,
      1780517884,
      1780518004,
      1780518004,
      1780518004,
      1780518004,
      1780518004,
      1780518004,
      1780518098,
      1780518098,
      1780518124,
      1780518124,
      1780518124,
      1780518124
    ],
    "wof:geomhash": "1ca8e550d7b545f519b9d69cc6196d89",
    "wof:id": 2031443603,
    "wof:repo": "sfomuseum-data-flights-2026-06"
  },
  "bbox": [
    -122.61888888888888,
    33.516666666666666,
    -117.8,
    37.68472222222222
  ],
  "geometry": {"coordinates":[[-122.38333333333334,37.61666666666667],[-122.43333333333334,37.63333333333333],[-122.43333333333334,37.63333333333333],[-122.52916666666667,37.68472222222222],[-122.52916666666667,37.68472222222222],[-122.52916666666667,37.68472222222222],[-122.52916666666667,37.68472222222222],[-122.52916666666667,37.68472222222222],[-122.61888888888888,37.65861111111111],[-122.61888888888888,37.65861111111111],[-122.61888888888888,37.65861111111111],[-122.5936111111111,37.26361111111111],[-122.5936111111111,37.26361111111111],[-122.5936111111111,37.26361111111111],[-122.5936111111111,37.26361111111111],[-122.5936111111111,37.26361111111111],[-122.58083333333333,37.150555555555556],[-122.58083333333333,37.150555555555556],[-122.58083333333333,37.150555555555556],[-122.58,37.14472222222222],[-122.58,37.14472222222222],[-122.33666666666666,36.69638888888888],[-122.33666666666666,36.69638888888888],[-122.33666666666666,36.69638888888888],[-122.2525,36.581388888888895],[-122.2525,36.581388888888895],[-122.2525,36.581388888888895],[-122.2525,36.581388888888895],[-122.2525,36.581388888888895],[-121.82277777777777,35.998333333333335],[-121.82277777777777,35.998333333333335],[-121.82277777777777,35.998333333333335],[-121.82277777777777,35.998333333333335],[-121.82277777777777,35.998333333333335],[-121.68777777777778,35.90888888888889],[-121.68777777777778,35.90888888888889],[-121.68777777777778,35.90888888888889],[-121.56277777777777,35.82972222222222],[-121.56277777777777,35.82972222222222],[-121.43083333333334,35.74611111111111],[-121.43083333333334,35.74611111111111],[-121.43083333333334,35.74611111111111],[-121.30555555555556,35.66694444444444],[-121.30555555555556,35.66694444444444],[-121.30555555555556,35.66694444444444],[-121.30555555555556,35.66694444444444],[-121.1763888888889,35.585],[-121.1763888888889,35.585],[-121.1763888888889,35.585],[-121.1763888888889,35.585],[-120.61666666666666,35.078611111111115],[-120.61666666666666,35.078611111111115],[-120.61666666666666,35.078611111111115],[-120.53888888888889,34.98583333333333],[-120.53888888888889,34.98583333333333],[-120.53888888888889,34.98583333333333],[-120.43611111111112,34.863055555555555],[-120.43611111111112,34.863055555555555],[-120.43611111111112,34.863055555555555],[-120.35666666666665,34.76777777777777],[-120.35666666666665,34.76777777777777],[-120.35666666666665,34.76777777777777],[-120.35666666666665,34.76777777777777],[-120.35666666666665,34.76777777777777],[-120.07833333333333,34.431666666666665],[-120.07833333333333,34.431666666666665],[-120.07833333333333,34.431666666666665],[-119.89972222222222,34.21388888888889],[-119.89972222222222,34.21388888888889],[-119.89972222222222,34.21388888888889],[-119.80972222222222,34.10388888888889],[-119.80972222222222,34.10388888888889],[-119.80972222222222,34.10388888888889],[-119.80972222222222,34.10388888888889],[-119.80972222222222,34.10388888888889],[-119.68944444444445,34.026666666666664],[-119.68944444444445,34.026666666666664],[-119.68944444444445,34.026666666666664],[-119.56611111111111,33.96472222222223],[-119.56611111111111,33.96472222222223],[-119.56611111111111,33.96472222222223],[-119.44583333333334,33.90416666666667],[-119.44583333333334,33.90416666666667],[-119.325,33.845],[-119.325,33.845],[-119.21194444444444,33.79],[-119.21194444444444,33.79],[-118.93333333333334,33.65],[-118.93333333333334,33.65],[-118.83333333333333,33.6],[-118.83333333333333,33.6],[-118.83333333333333,33.6],[-118.83333333333333,33.6],[-118.80027777777778,33.58444444444444],[-118.80027777777778,33.58444444444444],[-118.69361111111111,33.558611111111105],[-118.69361111111111,33.558611111111105],[-118.69361111111111,33.558611111111105],[-118.69361111111111,33.558611111111105],[-118.61666666666666,33.55],[-118.35,33.516666666666666],[-118.35,33.516666666666666],[-118.35,33.516666666666666],[-118.30722222222222,33.52611111111111],[-118.30722222222222,33.52611111111111],[-118.30722222222222,33.52611111111111],[-118.30722222222222,33.52611111111111],[-118.30722222222222,33.52611111111111],[-118.15694444444445,33.57916666666667],[-118.15694444444445,33.57916666666667],[-118.15694444444445,33.57916666666667],[-118.06666666666666,33.63333333333333],[-118.06666666666666,33.63333333333333],[-117.91666666666667,33.75],[-117.91666666666667,33.75],[-117.89416666666668,33.77777777777778],[-117.89416666666668,33.77777777777778],[-117.89416666666668,33.77777777777778],[-117.88333333333334,33.8],[-117.88333333333334,33.8],[-117.88333333333334,33.8],[-117.88333333333334,33.8],[-117.8,33.78333333333333],[-117.8,33.78333333333333],[-117.8,33.78333333333333],[-117.8,33.78333333333333],[-117.8,33.78333333333333],[-117.8,33.78333333333333],[-117.8436111111111,33.715833333333336],[-117.8436111111111,33.715833333333336],[-117.85,33.7],[-117.85,33.7],[-117.85,33.7],[-117.85,33.7]],"type":"LineString"}
}
