{
  "id": 2031421863,
  "type": "Feature",
  "properties": {
    "geom:area": 0,
    "geom:bbox": "-122.340278,37.443333,-80.349167,41.548333",
    "geom:latitude": 40.14969233926977,
    "geom:longitude": -101.54166738288569,
    "src:alt_label": "swim-path",
    "src:geom": "swim",
    "swim:altitudes": [
      "042",
      "042",
      "073",
      "073",
      "073",
      "171",
      "171",
      "191",
      "191",
      "191",
      "191",
      "207",
      "207",
      "207",
      "221",
      "221",
      "236",
      "236",
      "236",
      "236",
      "270",
      "270",
      "300C",
      "300C",
      "300C",
      "300C",
      "300C",
      "300C",
      "300C",
      "308",
      "308",
      "308",
      "308",
      "339C",
      "339C",
      "339C",
      "340C",
      "340C",
      "340C",
      "340C",
      "340C",
      "340C",
      "340C",
      "340C",
      "340C",
      "340C",
      "340C",
      "340C",
      "340C",
      "340C",
      "340C",
      "340C",
      "340C",
      "340C",
      "340C",
      "340C",
      "340C",
      "340C",
      "340C",
      "340C",
      "340C",
      "340C",
      "339",
      "339",
      "339",
      "329",
      "320C",
      "320C",
      "320C",
      "320C",
      "320C",
      "320C",
      "320C",
      "320C",
      "320C",
      "320C",
      "320C",
      "320C",
      "320C",
      "320C",
      "320C",
      "320C",
      "320C",
      "320C",
      "320C",
      "320C",
      "320C",
      "320C",
      "320C",
      "320C",
      "320C",
      "320C",
      "320C",
      "320C",
      "320C",
      "320C",
      "320C",
      "320C",
      "320C",
      "320C",
      "320C",
      "320C",
      "320C",
      "320C",
      "320C",
      "320C",
      "320C",
      "320C",
      "320",
      "320",
      "323",
      "323",
      "344",
      "344",
      "344",
      "344",
      "344",
      "344",
      "360C",
      "360C",
      "360C",
      "360C",
      "360C",
      "360C",
      "360C",
      "360C",
      "360C",
      "360C",
      "360C",
      "360C",
      "360C",
      "360C",
      "360C",
      "360C",
      "360C",
      "360C",
      "360C",
      "360C",
      "360C",
      "360C",
      "360C",
      "360C",
      "360C",
      "360C",
      "360C",
      "360C",
      "360C",
      "360C",
      "360C",
      "360C",
      "360C",
      "360C",
      "360C",
      "360C",
      "360C",
      "360C",
      "360C",
      "360C",
      "360C",
      "360C",
      "360C",
      "360C",
      "360C",
      "360C",
      "360C",
      "360C",
      "360C",
      "360C",
      "360C",
      "360C",
      "360C",
      "360C",
      "360C",
      "360C",
      "360C",
      "360C",
      "360C",
      "360C",
      "360C",
      "360C",
      "360C",
      "360C",
      "360C",
      "360C",
      "360C",
      "360C",
      "360C",
      "360C",
      "360C",
      "360C",
      "360C",
      "360C",
      "360C",
      "360C",
      "360C",
      "360C",
      "360C",
      "360C",
      "360C",
      "360C",
      "360C",
      "360C",
      "360C",
      "360C",
      "360C",
      "360C",
      "360C",
      "360C",
      "360C",
      "360C",
      "360C",
      "360C",
      "360C",
      "360C",
      "360C",
      "360C",
      "360C",
      "360C",
      "360C",
      "360C",
      "360C",
      "360C",
      "360C",
      "360C",
      "360C",
      "360C",
      "360C",
      "360C",
      "360C",
      "360C",
      "360C",
      "360C",
      "360C",
      "360C",
      "360C",
      "360C",
      "360C",
      "360C",
      "360C",
      "360C",
      "360C",
      "360C",
      "360C",
      "360C",
      "360C",
      "360C",
      "360C",
      "360C",
      "360C",
      "360C",
      "360C",
      "360C",
      "360C",
      "360C",
      "360C",
      "360C",
      "360C",
      "360C",
      "360C",
      "360C",
      "360C",
      "360C",
      "360C",
      "360C",
      "360C",
      "360C",
      "360C",
      "360C",
      "360C",
      "360C",
      "360C",
      "360C",
      "360C",
      "360C",
      "360C",
      "360C",
      "360C",
      "360C",
      "360C",
      "360C",
      "360C",
      "360C",
      "360C",
      "360C",
      "360C",
      "360C",
      "360C",
      "360C",
      "360C",
      "360C",
      "360C",
      "360C",
      "360C",
      "360C",
      "360C",
      "360C",
      "360C",
      "360C",
      "360C",
      "360C",
      "360C",
      "360C",
      "360C",
      "360C",
      "360C",
      "360C",
      "360C",
      "360C",
      "360C",
      "360C",
      "360C",
      "360C",
      "360C",
      "360C",
      "360C",
      "360C",
      "360C",
      "360C",
      "360C",
      "360C",
      "360C",
      "360C",
      "360C",
      "360C",
      "360C",
      "360C",
      "360C",
      "360C",
      "360C",
      "360C",
      "360C",
      "360C",
      "360C",
      "360C",
      "360C",
      "360C",
      "360C",
      "360C",
      "360C",
      "360C",
      "360C",
      "360C",
      "360C",
      "360C",
      "360C",
      "360C",
      "360C",
      "360C",
      "360C",
      "360C",
      "360C",
      "360C",
      "360C",
      "360C",
      "360C",
      "360C",
      "360C",
      "360C",
      "360C",
      "360C",
      "360C",
      "360C",
      "360C",
      "360C",
      "360C",
      "360C",
      "360C",
      "360C",
      "360C",
      "360C",
      "360C",
      "360C",
      "360C",
      "360C",
      "360C",
      "360C",
      "360C",
      "360C",
      "360C",
      "360C",
      "360C",
      "360C",
      "360C",
      "360C",
      "360C",
      "360C",
      "360C",
      "360C",
      "360C",
      "360C",
      "360C",
      "360C",
      "360C",
      "360C",
      "360C",
      "360C",
      "360C",
      "360C",
      "360C",
      "360C",
      "360C",
      "360C",
      "360C",
      "360C",
      "360C",
      "360C",
      "360C",
      "360C",
      "360C",
      "360C",
      "360C",
      "360C",
      "360C",
      "360C",
      "360C",
      "360C",
      "360C",
      "360C",
      "360C",
      "360C",
      "360C",
      "360C",
      "360C",
      "360C",
      "360C",
      "360C",
      "360C",
      "360C",
      "360C",
      "360C",
      "360C",
      "360C",
      "360C",
      "360C",
      "360C",
      "360C",
      "359",
      "352C",
      "352C",
      "350C",
      "350C",
      "350C",
      "350C",
      "350C",
      "350C",
      "350C",
      "350C",
      "350C",
      "350C",
      "350",
      "350",
      "349",
      "349",
      "349",
      "340C",
      "340C",
      "340C",
      "340C",
      "340C",
      "340C",
      "340C",
      "340C",
      "340C",
      "340C",
      "340C",
      "340C",
      "340C",
      "340C",
      "340C",
      "340C",
      "340C",
      "340C",
      "340C",
      "340C",
      "340C",
      "340C",
      "340C",
      "340C",
      "340C",
      "340C",
      "340C",
      "340C",
      "340C",
      "340C",
      "340",
      "340",
      "340",
      "340",
      "340",
      "340",
      "340",
      "340",
      "340",
      "340",
      "340",
      "340",
      "340",
      "340",
      "328",
      "328",
      "319",
      "319",
      "319",
      "319",
      "295",
      "270",
      "270",
      "265",
      "265",
      "265",
      "219",
      "219",
      "219",
      "219",
      "219",
      "179",
      "179",
      "179",
      "162",
      "162",
      "160",
      "160",
      "160",
      "160",
      "131",
      "131",
      "131",
      "131",
      "131",
      "119",
      "119",
      "102",
      "102",
      "101",
      "101",
      "096",
      "096",
      "096",
      "090",
      "090",
      "075",
      "075",
      "074",
      "074",
      "074",
      "060",
      "060",
      "059",
      "059",
      "021",
      "021",
      "021",
      "021",
      "012",
      "012",
      "012",
      "012",
      "005",
      "005",
      "005",
      "005",
      "005",
      "003",
      "003"
    ],
    "swim:geom": "path",
    "swim:speeds": [
      225,
      225,
      256,
      256,
      256,
      361,
      361,
      371,
      371,
      371,
      371,
      378,
      378,
      378,
      387,
      387,
      394,
      394,
      394,
      394,
      416,
      416,
      420,
      420,
      420,
      420,
      422,
      422,
      423,
      428,
      428,
      428,
      428,
      421,
      421,
      421,
      418,
      418,
      418,
      416,
      416,
      416,
      416,
      414,
      414,
      414,
      414,
      414,
      415,
      415,
      415,
      415,
      415,
      409,
      409,
      409,
      409,
      406,
      406,
      406,
      404,
      403,
      400,
      400,
      400,
      398,
      417,
      417,
      417,
      417,
      417,
      417,
      417,
      417,
      417,
      422,
      422,
      422,
      422,
      422,
      420,
      420,
      420,
      420,
      415,
      415,
      415,
      415,
      415,
      414,
      417,
      417,
      417,
      417,
      423,
      423,
      426,
      426,
      426,
      428,
      428,
      430,
      430,
      430,
      430,
      429,
      429,
      429,
      429,
      429,
      429,
      429,
      426,
      426,
      426,
      426,
      426,
      426,
      422,
      422,
      422,
      417,
      417,
      417,
      417,
      414,
      414,
      415,
      415,
      415,
      415,
      415,
      414,
      414,
      412,
      412,
      412,
      412,
      408,
      408,
      408,
      407,
      407,
      407,
      408,
      409,
      409,
      409,
      410,
      410,
      410,
      411,
      411,
      411,
      411,
      410,
      410,
      410,
      410,
      409,
      409,
      406,
      406,
      405,
      405,
      405,
      404,
      404,
      404,
      404,
      411,
      407,
      407,
      407,
      401,
      401,
      399,
      399,
      401,
      401,
      400,
      400,
      400,
      400,
      396,
      392,
      392,
      392,
      393,
      393,
      395,
      397,
      397,
      397,
      398,
      399,
      399,
      399,
      399,
      399,
      399,
      399,
      399,
      399,
      399,
      400,
      400,
      400,
      399,
      402,
      402,
      402,
      400,
      400,
      400,
      400,
      400,
      403,
      403,
      403,
      402,
      402,
      402,
      402,
      401,
      401,
      401,
      396,
      396,
      395,
      395,
      398,
      401,
      401,
      401,
      401,
      403,
      403,
      403,
      403,
      400,
      400,
      400,
      400,
      400,
      400,
      400,
      400,
      399,
      398,
      398,
      396,
      396,
      394,
      394,
      394,
      394,
      392,
      392,
      392,
      388,
      388,
      388,
      388,
      388,
      388,
      387,
      387,
      387,
      387,
      387,
      387,
      387,
      388,
      387,
      387,
      387,
      387,
      387,
      387,
      387,
      387,
      386,
      386,
      386,
      386,
      386,
      386,
      386,
      385,
      385,
      385,
      385,
      385,
      385,
      385,
      385,
      385,
      385,
      385,
      385,
      385,
      384,
      384,
      384,
      384,
      384,
      383,
      383,
      383,
      383,
      382,
      382,
      382,
      382,
      382,
      382,
      382,
      382,
      382,
      382,
      382,
      382,
      382,
      383,
      383,
      383,
      383,
      384,
      385,
      385,
      385,
      387,
      387,
      387,
      387,
      388,
      388,
      388,
      388,
      388,
      388,
      388,
      388,
      388,
      388,
      388,
      388,
      388,
      388,
      388,
      387,
      387,
      387,
      387,
      387,
      387,
      387,
      387,
      388,
      389,
      389,
      389,
      389,
      390,
      390,
      390,
      390,
      415,
      415,
      415,
      415,
      421,
      421,
      421,
      421,
      421,
      421,
      421,
      421,
      388,
      388,
      388,
      388,
      388,
      391,
      391,
      391,
      389,
      389,
      390,
      390,
      390,
      393,
      393,
      394,
      393,
      393,
      395,
      395,
      395,
      395,
      396,
      396,
      396,
      397,
      397,
      396,
      398,
      398,
      398,
      398,
      398,
      398,
      398,
      398,
      398,
      394,
      394,
      395,
      395,
      399,
      401,
      401,
      401,
      401,
      401,
      401,
      398,
      398,
      398,
      398,
      382,
      380,
      379,
      379,
      378,
      390,
      390,
      394,
      394,
      394,
      397,
      397,
      397,
      397,
      397,
      397,
      397,
      399,
      399,
      399,
      399,
      399,
      391,
      391,
      391,
      391,
      389,
      389,
      389,
      388,
      388,
      388,
      388,
      388,
      388,
      388,
      388,
      388,
      389,
      389,
      391,
      391,
      391,
      391,
      393,
      393,
      393,
      393,
      400,
      400,
      400,
      400,
      401,
      401,
      401,
      401,
      401,
      401,
      401,
      401,
      401,
      402,
      402,
      402,
      402,
      402,
      405,
      405,
      404,
      404,
      404,
      404,
      415,
      421,
      421,
      420,
      420,
      420,
      398,
      398,
      398,
      398,
      398,
      365,
      365,
      365,
      354,
      354,
      358,
      358,
      358,
      358,
      308,
      308,
      308,
      308,
      308,
      273,
      273,
      243,
      243,
      244,
      244,
      240,
      240,
      240,
      241,
      241,
      237,
      237,
      237,
      237,
      237,
      231,
      231,
      230,
      230,
      210,
      210,
      210,
      210,
      164,
      164,
      164,
      164,
      149,
      149,
      149,
      149,
      149,
      153,
      153
    ],
    "swim:timestamps": [
      1780311596,
      1780311596,
      1780311689,
      1780311689,
      1780311689,
      1780311990,
      1780311990,
      1780312050,
      1780312050,
      1780312050,
      1780312050,
      1780312110,
      1780312110,
      1780312110,
      1780312170,
      1780312170,
      1780312230,
      1780312230,
      1780312230,
      1780312230,
      1780312410,
      1780312410,
      1780312650,
      1780312650,
      1780312650,
      1780312650,
      1780312831,
      1780312831,
      1780312891,
      1780313011,
      1780313011,
      1780313011,
      1780313011,
      1780313191,
      1780313191,
      1780313191,
      1780313251,
      1780313251,
      1780313251,
      1780313372,
      1780313372,
      1780313432,
      1780313432,
      1780313552,
      1780313552,
      1780313612,
      1780313612,
      1780313612,
      1780313792,
      1780313792,
      1780313792,
      1780313792,
      1780313792,
      1780314276,
      1780314276,
      1780314276,
      1780314276,
      1780314336,
      1780314336,
      1780314336,
      1780314396,
      1780314517,
      1780314697,
      1780314697,
      1780314697,
      1780314757,
      1780315238,
      1780315238,
      1780315238,
      1780315298,
      1780315298,
      1780315298,
      1780315418,
      1780315418,
      1780315418,
      1780315959,
      1780315959,
      1780315959,
      1780315959,
      1780316021,
      1780316079,
      1780316079,
      1780316202,
      1780316202,
      1780316259,
      1780316259,
      1780316259,
      1780316382,
      1780316382,
      1780316442,
      1780316560,
      1780316560,
      1780316560,
      1780316560,
      1780316682,
      1780316682,
      1780316802,
      1780316802,
      1780316802,
      1780316923,
      1780316923,
      1780317043,
      1780317043,
      1780317043,
      1780317043,
      1780317223,
      1780317223,
      1780317223,
      1780317283,
      1780317283,
      1780317343,
      1780317343,
      1780317463,
      1780317463,
      1780317463,
      1780317463,
      1780317463,
      1780317463,
      1780317704,
      1780317704,
      1780317704,
      1780317944,
      1780317944,
      1780317944,
      1780317944,
      1780318184,
      1780318184,
      1780318244,
      1780318244,
      1780318244,
      1780318244,
      1780318244,
      1780318545,
      1780318545,
      1780318605,
      1780318617,
      1780318617,
      1780318617,
      1780318725,
      1780318737,
      1780318737,
      1780318785,
      1780318785,
      1780318785,
      1780319025,
      1780319038,
      1780319038,
      1780319038,
      1780319098,
      1780319098,
      1780319098,
      1780319206,
      1780319218,
      1780319218,
      1780319218,
      1780319278,
      1780319278,
      1780319278,
      1780319278,
      1780319326,
      1780319326,
      1780319506,
      1780319506,
      1780319566,
      1780319626,
      1780319626,
      1780319759,
      1780319759,
      1780319759,
      1780319759,
      1780319819,
      1780319879,
      1780319879,
      1780319879,
      1780320018,
      1780320018,
      1780320059,
      1780320059,
      1780320179,
      1780320179,
      1780320239,
      1780320239,
      1780320239,
      1780320239,
      1780320359,
      1780320419,
      1780320419,
      1780320419,
      1780320479,
      1780320479,
      1780320540,
      1780320600,
      1780320600,
      1780320600,
      1780320619,
      1780320720,
      1780320720,
      1780320799,
      1780320799,
      1780320840,
      1780320840,
      1780320840,
      1780320919,
      1780320960,
      1780320960,
      1780321020,
      1780321020,
      1780321020,
      1780321040,
      1780321140,
      1780321140,
      1780321140,
      1780321280,
      1780321280,
      1780321280,
      1780321280,
      1780321280,
      1780321321,
      1780321381,
      1780321381,
      1780321441,
      1780321441,
      1780321441,
      1780321441,
      1780321460,
      1780321460,
      1780321520,
      1780321681,
      1780321681,
      1780321741,
      1780321741,
      1780321861,
      1780321921,
      1780321921,
      1780321921,
      1780321921,
      1780321982,
      1780321982,
      1780321982,
      1780321982,
      1780322121,
      1780322121,
      1780322121,
      1780322121,
      1780322222,
      1780322241,
      1780322241,
      1780322241,
      1780322282,
      1780322361,
      1780322361,
      1780322402,
      1780322402,
      1780322462,
      1780322481,
      1780322481,
      1780322481,
      1780322522,
      1780322522,
      1780322522,
      1780322642,
      1780322642,
      1780322642,
      1780322642,
      1780322662,
      1780322662,
      1780322782,
      1780322782,
      1780322782,
      1780322823,
      1780322823,
      1780322823,
      1780322823,
      1780322842,
      1780323003,
      1780323003,
      1780323082,
      1780323123,
      1780323123,
      1780323123,
      1780323123,
      1780323123,
      1780323202,
      1780323202,
      1780323202,
      1780323243,
      1780323243,
      1780323243,
      1780323243,
      1780323363,
      1780323363,
      1780323363,
      1780323363,
      1780323424,
      1780323424,
      1780323443,
      1780323443,
      1780323544,
      1780323544,
      1780323604,
      1780323604,
      1780323604,
      1780323664,
      1780323664,
      1780323724,
      1780323743,
      1780323743,
      1780323784,
      1780323784,
      1780323784,
      1780323784,
      1780323863,
      1780323863,
      1780323863,
      1780323863,
      1780323923,
      1780323923,
      1780323923,
      1780323923,
      1780323964,
      1780323964,
      1780324024,
      1780324024,
      1780324024,
      1780324043,
      1780324043,
      1780324084,
      1780324084,
      1780324104,
      1780324145,
      1780324145,
      1780324145,
      1780324224,
      1780324224,
      1780324224,
      1780324224,
      1780324344,
      1780324344,
      1780324344,
      1780324404,
      1780324404,
      1780324404,
      1780324404,
      1780324524,
      1780324524,
      1780324524,
      1780324584,
      1780324584,
      1780324584,
      1780324584,
      1780324584,
      1780324885,
      1780324885,
      1780324885,
      1780325005,
      1780325005,
      1780325005,
      1780325005,
      1780325005,
      1780325065,
      1780325125,
      1780325125,
      1780325125,
      1780325125,
      1780325425,
      1780325425,
      1780325425,
      1780325425,
      1780325606,
      1780325606,
      1780325606,
      1780325606,
      1780325726,
      1780325726,
      1780325726,
      1780325726,
      1780325726,
      1780325786,
      1780325786,
      1780325786,
      1780325981,
      1780325981,
      1780325981,
      1780325981,
      1780325981,
      1780326026,
      1780326026,
      1780326026,
      1780326041,
      1780326041,
      1780326101,
      1780326101,
      1780326101,
      1780326146,
      1780326146,
      1780326206,
      1780326222,
      1780326222,
      1780326266,
      1780326266,
      1780326266,
      1780326266,
      1780326326,
      1780326326,
      1780326326,
      1780326387,
      1780326387,
      1780326402,
      1780326447,
      1780326447,
      1780326507,
      1780326507,
      1780326507,
      1780326507,
      1780326507,
      1780326522,
      1780326522,
      1780326627,
      1780326627,
      1780326642,
      1780326642,
      1780326747,
      1780326822,
      1780326822,
      1780326822,
      1780326867,
      1780326867,
      1780326867,
      1780326942,
      1780326942,
      1780326942,
      1780326942,
      1780326987,
      1780327063,
      1780327108,
      1780327108,
      1780327183,
      1780327228,
      1780327228,
      1780327243,
      1780327243,
      1780327243,
      1780327303,
      1780327303,
      1780327303,
      1780327303,
      1780327303,
      1780327348,
      1780327348,
      1780327408,
      1780327408,
      1780327423,
      1780327423,
      1780327423,
      1780327483,
      1780327528,
      1780327528,
      1780327528,
      1780327603,
      1780327603,
      1780327603,
      1780327663,
      1780327663,
      1780327723,
      1780327723,
      1780327768,
      1780327768,
      1780327768,
      1780327768,
      1780327768,
      1780327844,
      1780327844,
      1780327904,
      1780327904,
      1780327904,
      1780327904,
      1780327964,
      1780327964,
      1780327964,
      1780327964,
      1780328204,
      1780328204,
      1780328204,
      1780328204,
      1780328264,
      1780328264,
      1780328264,
      1780328264,
      1780328264,
      1780328324,
      1780328324,
      1780328324,
      1780328324,
      1780328444,
      1780328444,
      1780328444,
      1780328444,
      1780328444,
      1780328539,
      1780328539,
      1780328564,
      1780328564,
      1780328564,
      1780328564,
      1780328606,
      1780328666,
      1780328666,
      1780328685,
      1780328685,
      1780328685,
      1780328805,
      1780328805,
      1780328805,
      1780328805,
      1780328805,
      1780328925,
      1780328925,
      1780328925,
      1780328972,
      1780328972,
      1780328985,
      1780328985,
      1780328985,
      1780328985,
      1780329092,
      1780329092,
      1780329092,
      1780329092,
      1780329092,
      1780329165,
      1780329165,
      1780329272,
      1780329272,
      1780329285,
      1780329285,
      1780329332,
      1780329332,
      1780329332,
      1780329406,
      1780329406,
      1780329458,
      1780329458,
      1780329466,
      1780329466,
      1780329466,
      1780329573,
      1780329573,
      1780329586,
      1780329586,
      1780329766,
      1780329766,
      1780329766,
      1780329766,
      1780329826,
      1780329826,
      1780329826,
      1780329826,
      1780329873,
      1780329873,
      1780329873,
      1780329873,
      1780329873,
      1780329886,
      1780329886
    ],
    "wof:geomhash": "29982d417aa3b2042a6c54c23dd73b88",
    "wof:id": 2031421863,
    "wof:repo": "sfomuseum-data-flights-2026-06"
  },
  "bbox": [
    -122.34027777777777,
    37.44333333333333,
    -80.34916666666666,
    41.54833333333333
  ],
  "geometry": {"coordinates":[[-80.34916666666666,40.46361111111111],[-80.34916666666666,40.46361111111111],[-80.46333333333334,40.495],[-80.46333333333334,40.495],[-80.46333333333334,40.495],[-81.01888888888888,40.636944444444445],[-81.01888888888888,40.636944444444445],[-81.16722222222222,40.67444444444444],[-81.16722222222222,40.67444444444444],[-81.16722222222222,40.67444444444444],[-81.16722222222222,40.67444444444444],[-81.30055555555555,40.70777777777778],[-81.30055555555555,40.70777777777778],[-81.30055555555555,40.70777777777778],[-81.43722222222223,40.742222222222225],[-81.43722222222223,40.742222222222225],[-81.57666666666667,40.774166666666666],[-81.57666666666667,40.774166666666666],[-81.57666666666667,40.774166666666666],[-81.57666666666667,40.774166666666666],[-82.02305555555556,40.838055555555556],[-82.02305555555556,40.838055555555556],[-82.60305555555556,40.91833333333333],[-82.60305555555556,40.91833333333333],[-82.60305555555556,40.91833333333333],[-82.60305555555556,40.91833333333333],[-83.06083333333333,40.97972222222222],[-83.06083333333333,40.97972222222222],[-83.21361111111112,40.999722222222225],[-83.55305555555556,41.04333333333333],[-83.55305555555556,41.04333333333333],[-83.55305555555556,41.04333333333333],[-83.55305555555556,41.04333333333333],[-83.99861111111112,41.09916666666667],[-83.99861111111112,41.09916666666667],[-83.99861111111112,41.09916666666667],[-84.14805555555556,41.117222222222225],[-84.14805555555556,41.117222222222225],[-84.14805555555556,41.117222222222225],[-84.45166666666667,41.153888888888886],[-84.45166666666667,41.153888888888886],[-84.60138888888888,41.17166666666667],[-84.60138888888888,41.17166666666667],[-84.90444444444445,41.206944444444446],[-84.90444444444445,41.206944444444446],[-85.05444444444444,41.223888888888894],[-85.05444444444444,41.223888888888894],[-85.05444444444444,41.223888888888894],[-85.5125,41.275],[-85.5125,41.275],[-85.5125,41.275],[-85.5125,41.275],[-85.5125,41.275],[-86.72666666666667,41.401111111111106],[-86.72666666666667,41.401111111111106],[-86.72666666666667,41.401111111111106],[-86.72666666666667,41.401111111111106],[-86.88222222222221,41.41638888888889],[-86.88222222222221,41.41638888888889],[-86.88222222222221,41.41638888888889],[-87.02888888888889,41.430277777777775],[-87.3236111111111,41.458333333333336],[-87.76194444444444,41.49805555555556],[-87.76194444444444,41.49805555555556],[-87.76194444444444,41.49805555555556],[-87.905,41.51083333333333],[-89.11583333333333,41.54833333333333],[-89.11583333333333,41.54833333333333],[-89.11583333333333,41.54833333333333],[-89.27027777777778,41.54805555555556],[-89.27027777777778,41.54805555555556],[-89.27027777777778,41.54805555555556],[-89.57916666666667,41.54472222222222],[-89.57916666666667,41.54472222222222],[-89.57916666666667,41.54472222222222],[-91.00111111111111,41.4575],[-91.00111111111111,41.4575],[-91.00111111111111,41.4575],[-91.00111111111111,41.4575],[-91.15305555555557,41.44638888888888],[-91.30944444444444,41.43611111111111],[-91.30944444444444,41.43611111111111],[-91.615,41.41416666666667],[-91.615,41.41416666666667],[-91.76722222222222,41.40333333333333],[-91.76722222222222,41.40333333333333],[-91.76722222222222,41.40333333333333],[-92.05527777777777,41.38138888888889],[-92.05527777777777,41.38138888888889],[-92.20555555555556,41.37],[-92.51194444444444,41.345555555555556],[-92.51194444444444,41.345555555555556],[-92.51194444444444,41.345555555555556],[-92.51194444444444,41.345555555555556],[-92.85166666666666,41.3175],[-92.85166666666666,41.3175],[-93.16611111111112,41.29083333333333],[-93.16611111111112,41.29083333333333],[-93.16611111111112,41.29083333333333],[-93.4775,41.26361111111111],[-93.4775,41.26361111111111],[-93.79333333333334,41.234722222222224],[-93.79333333333334,41.234722222222224],[-93.79333333333334,41.234722222222224],[-93.79333333333334,41.234722222222224],[-94.25277777777778,41.175555555555555],[-94.25277777777778,41.175555555555555],[-94.25277777777778,41.175555555555555],[-94.40527777777778,41.150277777777774],[-94.40527777777778,41.150277777777774],[-94.5675,41.12388888888889],[-94.5675,41.12388888888889],[-94.86833333333333,41.07944444444445],[-94.86833333333333,41.07944444444445],[-94.86833333333333,41.07944444444445],[-94.86833333333333,41.07944444444445],[-94.86833333333333,41.07944444444445],[-94.86833333333333,41.07944444444445],[-95.48583333333333,41.030277777777776],[-95.48583333333333,41.030277777777776],[-95.48583333333333,41.030277777777776],[-96.09944444444444,40.97972222222222],[-96.09944444444444,40.97972222222222],[-96.09944444444444,40.97972222222222],[-96.09944444444444,40.97972222222222],[-96.70694444444445,40.926944444444445],[-96.70694444444445,40.926944444444445],[-96.85833333333333,40.91305555555555],[-96.85833333333333,40.91305555555555],[-96.85833333333333,40.91305555555555],[-96.85833333333333,40.91305555555555],[-96.85833333333333,40.91305555555555],[-97.60777777777777,40.839444444444446],[-97.60777777777777,40.839444444444446],[-97.75611111111111,40.824444444444445],[-97.78472222222221,40.82138888888889],[-97.78472222222221,40.82138888888889],[-97.78472222222221,40.82138888888889],[-98.05277777777778,40.79361111111111],[-98.08222222222221,40.790277777777774],[-98.08222222222221,40.790277777777774],[-98.20083333333334,40.77777777777778],[-98.20083333333334,40.77777777777778],[-98.20083333333334,40.77777777777778],[-98.795,40.71277777777778],[-98.82527777777777,40.70944444444445],[-98.82527777777777,40.70944444444445],[-98.82527777777777,40.70944444444445],[-98.9738888888889,40.69277777777778],[-98.9738888888889,40.69277777777778],[-98.9738888888889,40.69277777777778],[-99.24527777777777,40.66166666666666],[-99.27166666666666,40.65861111111111],[-99.27166666666666,40.65861111111111],[-99.27166666666666,40.65861111111111],[-99.42111111111112,40.64083333333333],[-99.42111111111112,40.64083333333333],[-99.42111111111112,40.64083333333333],[-99.42111111111112,40.64083333333333],[-99.5411111111111,40.626666666666665],[-99.5411111111111,40.626666666666665],[-99.97666666666667,40.57416666666667],[-99.97666666666667,40.57416666666667],[-100.09305555555555,40.559999999999995],[-100.26527777777778,40.53861111111111],[-100.26527777777778,40.53861111111111],[-100.57833333333333,40.49861111111111],[-100.57833333333333,40.49861111111111],[-100.57833333333333,40.49861111111111],[-100.57833333333333,40.49861111111111],[-100.72694444444444,40.51305555555555],[-100.86833333333333,40.55361111111111],[-100.86833333333333,40.55361111111111],[-100.86833333333333,40.55361111111111],[-101.16722222222222,40.63972222222222],[-101.16722222222222,40.63972222222222],[-101.27888888888889,40.67388888888889],[-101.27888888888889,40.67388888888889],[-101.55333333333333,40.755833333333335],[-101.55333333333333,40.755833333333335],[-101.69472222222223,40.78583333333333],[-101.69472222222223,40.78583333333333],[-101.69472222222223,40.78583333333333],[-101.69472222222223,40.78583333333333],[-101.98138888888889,40.80361111111111],[-102.11972222222222,40.78666666666666],[-102.11972222222222,40.78666666666666],[-102.11972222222222,40.78666666666666],[-102.25972222222222,40.75666666666667],[-102.25972222222222,40.75666666666667],[-102.40194444444445,40.73444444444444],[-102.545,40.71416666666667],[-102.545,40.71416666666667],[-102.545,40.71416666666667],[-102.57277777777777,40.70861111111111],[-102.83305555555555,40.67333333333333],[-102.83305555555555,40.67333333333333],[-103.00333333333333,40.647777777777776],[-103.00333333333333,40.647777777777776],[-103.11944444444444,40.63388888888889],[-103.11944444444444,40.63388888888889],[-103.11944444444444,40.63388888888889],[-103.29083333333332,40.61055555555556],[-103.40583333333333,40.6],[-103.40583333333333,40.6],[-103.55166666666666,40.583333333333336],[-103.55166666666666,40.583333333333336],[-103.55166666666666,40.583333333333336],[-103.5786111111111,40.580000000000005],[-103.84055555555555,40.54972222222222],[-103.84055555555555,40.54972222222222],[-103.84055555555555,40.54972222222222],[-104.16194444444444,40.510555555555555],[-104.16194444444444,40.510555555555555],[-104.16194444444444,40.510555555555555],[-104.16194444444444,40.510555555555555],[-104.16194444444444,40.510555555555555],[-104.27333333333333,40.49805555555556],[-104.41888888888889,40.480555555555554],[-104.41888888888889,40.480555555555554],[-104.56305555555555,40.46277777777778],[-104.56305555555555,40.46277777777778],[-104.56305555555555,40.46277777777778],[-104.56305555555555,40.46277777777778],[-104.59555555555555,40.45888888888889],[-104.59555555555555,40.45888888888889],[-104.74,40.44],[-105.13,40.39111111111111],[-105.13,40.39111111111111],[-105.27083333333333,40.3725],[-105.27083333333333,40.3725],[-105.55472222222222,40.33527777777778],[-105.69972222222222,40.31583333333333],[-105.69972222222222,40.31583333333333],[-105.69972222222222,40.31583333333333],[-105.69972222222222,40.31583333333333],[-105.84388888888888,40.296388888888885],[-105.84388888888888,40.296388888888885],[-105.84388888888888,40.296388888888885],[-105.84388888888888,40.296388888888885],[-106.16583333333334,40.25055555555556],[-106.16583333333334,40.25055555555556],[-106.16583333333334,40.25055555555556],[-106.16583333333334,40.25055555555556],[-106.42305555555556,40.21638888888889],[-106.45222222222222,40.21194444444445],[-106.45222222222222,40.21194444444445],[-106.45222222222222,40.21194444444445],[-106.54972222222221,40.19833333333333],[-106.73416666666667,40.17055555555555],[-106.73416666666667,40.17055555555555],[-106.84694444444445,40.155833333333334],[-106.84694444444445,40.155833333333334],[-106.97055555555556,40.13777777777778],[-107.01305555555555,40.13055555555555],[-107.01305555555555,40.13055555555555],[-107.01305555555555,40.13055555555555],[-107.10888888888888,40.1175],[-107.10888888888888,40.1175],[-107.10888888888888,40.1175],[-107.39750000000001,40.074444444444445],[-107.39750000000001,40.074444444444445],[-107.39750000000001,40.074444444444445],[-107.39750000000001,40.074444444444445],[-107.42472222222223,40.07],[-107.42472222222223,40.07],[-107.69777777777779,40.02833333333333],[-107.69777777777779,40.02833333333333],[-107.69777777777779,40.02833333333333],[-107.80777777777777,40.01222222222222],[-107.80777777777777,40.01222222222222],[-107.80777777777777,40.01222222222222],[-107.80777777777777,40.01222222222222],[-107.85305555555556,40.00527777777778],[-108.21944444444445,39.948055555555555],[-108.21944444444445,39.948055555555555],[-108.38388888888889,39.92222222222222],[-108.49166666666667,39.90472222222222],[-108.49166666666667,39.90472222222222],[-108.49166666666667,39.90472222222222],[-108.49166666666667,39.90472222222222],[-108.49166666666667,39.90472222222222],[-108.68083333333334,39.87416666666667],[-108.68083333333334,39.87416666666667],[-108.68083333333334,39.87416666666667],[-108.75333333333333,39.862500000000004],[-108.75333333333333,39.862500000000004],[-108.75333333333333,39.862500000000004],[-108.75333333333333,39.862500000000004],[-109.03027777777778,39.81722222222223],[-109.03027777777778,39.81722222222223],[-109.03027777777778,39.81722222222223],[-109.03027777777778,39.81722222222223],[-109.16277777777778,39.79527777777778],[-109.16277777777778,39.79527777777778],[-109.21777777777778,39.78611111111111],[-109.21777777777778,39.78611111111111],[-109.43472222222222,39.74944444444444],[-109.43472222222222,39.74944444444444],[-109.56861111111111,39.72666666666667],[-109.56861111111111,39.72666666666667],[-109.56861111111111,39.72666666666667],[-109.7038888888889,39.703611111111115],[-109.7038888888889,39.703611111111115],[-109.83777777777777,39.68055555555555],[-109.89194444444445,39.671388888888885],[-109.89194444444445,39.671388888888885],[-109.97222222222223,39.657222222222224],[-109.97222222222223,39.657222222222224],[-109.97222222222223,39.657222222222224],[-109.97222222222223,39.657222222222224],[-110.15972222222223,39.62444444444444],[-110.15972222222223,39.62444444444444],[-110.15972222222223,39.62444444444444],[-110.15972222222223,39.62444444444444],[-110.29527777777777,39.60055555555556],[-110.29527777777777,39.60055555555556],[-110.29527777777777,39.60055555555556],[-110.29527777777777,39.60055555555556],[-110.37527777777777,39.58638888888889],[-110.37527777777777,39.58638888888889],[-110.50805555555556,39.5625],[-110.50805555555556,39.5625],[-110.50805555555556,39.5625],[-110.56333333333333,39.552499999999995],[-110.56333333333333,39.552499999999995],[-110.64333333333335,39.538333333333334],[-110.64333333333335,39.538333333333334],[-110.69777777777779,39.52833333333333],[-110.77722222222222,39.513888888888886],[-110.77722222222222,39.513888888888886],[-110.77722222222222,39.513888888888886],[-110.96861111111112,39.47888888888889],[-110.96861111111112,39.47888888888889],[-110.96861111111112,39.47888888888889],[-110.96861111111112,39.47888888888889],[-111.24,39.42861111111111],[-111.24,39.42861111111111],[-111.24,39.42861111111111],[-111.36666666666666,39.405],[-111.36666666666666,39.405],[-111.36666666666666,39.405],[-111.36666666666666,39.405],[-111.63805555555557,39.353611111111114],[-111.63805555555557,39.353611111111114],[-111.63805555555557,39.353611111111114],[-111.77333333333333,39.32805555555556],[-111.77333333333333,39.32805555555556],[-111.77333333333333,39.32805555555556],[-111.77333333333333,39.32805555555556],[-111.77333333333333,39.32805555555556],[-112.45444444444445,39.195277777777775],[-112.45444444444445,39.195277777777775],[-112.45444444444445,39.195277777777775],[-112.72222222222223,39.14194444444444],[-112.72222222222223,39.14194444444444],[-112.72222222222223,39.14194444444444],[-112.72222222222223,39.14194444444444],[-112.72222222222223,39.14194444444444],[-112.85583333333332,39.11527777777778],[-112.99166666666667,39.08777777777778],[-112.99166666666667,39.08777777777778],[-112.99166666666667,39.08777777777778],[-112.99166666666667,39.08777777777778],[-113.6613888888889,38.94944444444444],[-113.6613888888889,38.94944444444444],[-113.6613888888889,38.94944444444444],[-113.6613888888889,38.94944444444444],[-114.06361111111111,38.930277777777775],[-114.06361111111111,38.930277777777775],[-114.06361111111111,38.930277777777775],[-114.06361111111111,38.930277777777775],[-114.29722222222222,39.07972222222222],[-114.29722222222222,39.07972222222222],[-114.29722222222222,39.07972222222222],[-114.29722222222222,39.07972222222222],[-114.29722222222222,39.07972222222222],[-114.41388888888889,39.15472222222222],[-114.41388888888889,39.15472222222222],[-114.41388888888889,39.15472222222222],[-114.83611111111111,39.07416666666667],[-114.83611111111111,39.07416666666667],[-114.83611111111111,39.07416666666667],[-114.83611111111111,39.07416666666667],[-114.83611111111111,39.07416666666667],[-114.94111111111111,39.044444444444444],[-114.94111111111111,39.044444444444444],[-114.94111111111111,39.044444444444444],[-114.96805555555555,39.0375],[-114.96805555555555,39.0375],[-115.09972222222221,39],[-115.09972222222221,39],[-115.09972222222221,39],[-115.20527777777778,38.97],[-115.20527777777778,38.97],[-115.33777777777777,38.93222222222222],[-115.365,38.92388888888889],[-115.365,38.92388888888889],[-115.48472222222222,38.89055555555556],[-115.48472222222222,38.89055555555556],[-115.48472222222222,38.89055555555556],[-115.48472222222222,38.89055555555556],[-115.61805555555554,38.8525],[-115.61805555555554,38.8525],[-115.61805555555554,38.8525],[-115.75055555555555,38.814166666666665],[-115.75055555555555,38.814166666666665],[-115.7786111111111,38.805277777777775],[-115.88361111111112,38.77583333333333],[-115.88361111111112,38.77583333333333],[-116.01722222222222,38.73722222222222],[-116.01722222222222,38.73722222222222],[-116.01722222222222,38.73722222222222],[-116.01722222222222,38.73722222222222],[-116.01722222222222,38.73722222222222],[-116.04555555555555,38.72888888888889],[-116.04555555555555,38.72888888888889],[-116.27888888888889,38.660555555555554],[-116.27888888888889,38.660555555555554],[-116.30805555555555,38.651944444444446],[-116.30805555555555,38.651944444444446],[-116.545,38.581944444444446],[-116.70777777777778,38.53361111111111],[-116.70777777777778,38.53361111111111],[-116.70777777777778,38.53361111111111],[-116.81166666666667,38.5025],[-116.81166666666667,38.5025],[-116.81166666666667,38.5025],[-116.97111111111111,38.45444444444445],[-116.97111111111111,38.45444444444445],[-116.97111111111111,38.45444444444445],[-116.97111111111111,38.45444444444445],[-117.06972222222223,38.42472222222222],[-117.21888888888888,38.379444444444445],[-117.31583333333333,38.349722222222226],[-117.31583333333333,38.349722222222226],[-117.46222222222222,38.30138888888889],[-117.52583333333334,38.234722222222224],[-117.52583333333334,38.234722222222224],[-117.53527777777778,38.21277777777778],[-117.53527777777778,38.21277777777778],[-117.53527777777778,38.21277777777778],[-117.5786111111111,38.10916666666667],[-117.5786111111111,38.10916666666667],[-117.5786111111111,38.10916666666667],[-117.5786111111111,38.10916666666667],[-117.5786111111111,38.10916666666667],[-117.61277777777777,38.02583333333333],[-117.61277777777777,38.02583333333333],[-117.65694444444445,37.919444444444444],[-117.65694444444445,37.919444444444444],[-117.66638888888889,37.89722222222222],[-117.66638888888889,37.89722222222222],[-117.66638888888889,37.89722222222222],[-117.75944444444444,37.82888888888889],[-117.86833333333333,37.825],[-117.86833333333333,37.825],[-117.86833333333333,37.825],[-118.03222222222222,37.81777777777778],[-118.03222222222222,37.81777777777778],[-118.03222222222222,37.81777777777778],[-118.16833333333334,37.8125],[-118.16833333333334,37.8125],[-118.30611111111111,37.80638888888888],[-118.30611111111111,37.80638888888888],[-118.4113888888889,37.801944444444445],[-118.4113888888889,37.801944444444445],[-118.4113888888889,37.801944444444445],[-118.4113888888889,37.801944444444445],[-118.4113888888889,37.801944444444445],[-118.5786111111111,37.794999999999995],[-118.5786111111111,37.794999999999995],[-118.71777777777778,37.788333333333334],[-118.71777777777778,37.788333333333334],[-118.71777777777778,37.788333333333334],[-118.71777777777778,37.788333333333334],[-118.85916666666667,37.78194444444444],[-118.85916666666667,37.78194444444444],[-118.85916666666667,37.78194444444444],[-118.85916666666667,37.78194444444444],[-119.41972222222223,37.75416666666667],[-119.41972222222223,37.75416666666667],[-119.41972222222223,37.75416666666667],[-119.41972222222223,37.75416666666667],[-119.55944444444444,37.74666666666667],[-119.55944444444444,37.74666666666667],[-119.55944444444444,37.74666666666667],[-119.55944444444444,37.74666666666667],[-119.55944444444444,37.74666666666667],[-119.70027777777779,37.73916666666667],[-119.70027777777779,37.73916666666667],[-119.70027777777779,37.73916666666667],[-119.70027777777779,37.73916666666667],[-119.98333333333333,37.723888888888894],[-119.98333333333333,37.723888888888894],[-119.98333333333333,37.723888888888894],[-119.98333333333333,37.723888888888894],[-119.98333333333333,37.723888888888894],[-120.21666666666667,37.71666666666667],[-120.21666666666667,37.71666666666667],[-120.26583333333333,37.70722222222223],[-120.26583333333333,37.70722222222223],[-120.26583333333333,37.70722222222223],[-120.26583333333333,37.70722222222223],[-120.38333333333334,37.7],[-120.53333333333333,37.68333333333333],[-120.53333333333333,37.68333333333333],[-120.55944444444444,37.68138888888889],[-120.55944444444444,37.68138888888889],[-120.55944444444444,37.68138888888889],[-120.83944444444444,37.64805555555556],[-120.83944444444444,37.64805555555556],[-120.83944444444444,37.64805555555556],[-120.83944444444444,37.64805555555556],[-120.83944444444444,37.64805555555556],[-121.09527777777777,37.61527777777778],[-121.09527777777777,37.61527777777778],[-121.09527777777777,37.61527777777778],[-121.2,37.6],[-121.2,37.6],[-121.21861111111112,37.59861111111111],[-121.21861111111112,37.59861111111111],[-121.21861111111112,37.59861111111111],[-121.21861111111112,37.59861111111111],[-121.43333333333334,37.56666666666667],[-121.43333333333334,37.56666666666667],[-121.43333333333334,37.56666666666667],[-121.43333333333334,37.56666666666667],[-121.43333333333334,37.56666666666667],[-121.54444444444444,37.559999999999995],[-121.54444444444444,37.559999999999995],[-121.7,37.55],[-121.7,37.55],[-121.71361111111112,37.559444444444445],[-121.71361111111112,37.559444444444445],[-121.78333333333333,37.55],[-121.78333333333333,37.55],[-121.78333333333333,37.55],[-121.82055555555556,37.48222222222223],[-121.82055555555556,37.48222222222223],[-121.86666666666666,37.45],[-121.86666666666666,37.45],[-121.87777777777777,37.44333333333333],[-121.87777777777777,37.44333333333333],[-121.87777777777777,37.44333333333333],[-122.01666666666667,37.46666666666667],[-122.01666666666667,37.46666666666667],[-122.02916666666667,37.475],[-122.02916666666667,37.475],[-122.2363888888889,37.562777777777775],[-122.2363888888889,37.562777777777775],[-122.2363888888889,37.562777777777775],[-122.2363888888889,37.562777777777775],[-122.2911111111111,37.58583333333333],[-122.2911111111111,37.58583333333333],[-122.2911111111111,37.58583333333333],[-122.2911111111111,37.58583333333333],[-122.33333333333333,37.6],[-122.33333333333333,37.6],[-122.33333333333333,37.6],[-122.33333333333333,37.6],[-122.33333333333333,37.6],[-122.34027777777777,37.60666666666667],[-122.34027777777777,37.60666666666667]],"type":"LineString"}
}
