{
  "id": 2031604481,
  "type": "Feature",
  "properties": {
    "geom:area": 0,
    "geom:bbox": "-122.398620,37.629580,-121.293390,37.991460",
    "geom:latitude": 37.93553422702156,
    "geom:longitude": -121.96127113170732,
    "src:alt_label": "swim-takeoff",
    "src:geom": "swim",
    "swim:elevations": [
      370,
      452,
      724,
      1241,
      1714,
      2200,
      2654,
      2732,
      3045,
      3346,
      3476,
      3684,
      3952,
      4325,
      4449,
      4654,
      4838,
      5118,
      5269,
      5581,
      5958,
      6140,
      6280,
      6381,
      6725,
      6990,
      7049
    ],
    "swim:geom": "takeoff",
    "swim:timestamps": [
      1782090386,
      1782090395,
      1782090434,
      1782090478,
      1782090508,
      1782090535,
      1782090565,
      1782090572,
      1782090591,
      1782090624,
      1782090645,
      1782090686,
      1782090713,
      1782090743,
      1782090755,
      1782090776,
      1782090797,
      1782090830,
      1782090848,
      1782090880,
      1782090927,
      1782090957,
      1782090978,
      1782090993,
      1782091031,
      1782091070,
      1782091082
    ],
    "wof:geomhash": "c43cf326c156e3bd4e71b4eb1d05d80b",
    "wof:id": 2031604481,
    "wof:repo": "sfomuseum-data-flights-2026-06"
  },
  "bbox": [
    -122.39862,
    37.62958,
    -121.29339,
    37.99146
  ],
  "geometry": {"coordinates":[[-122.39583,37.62958],[-122.39862,37.63576],[-122.38158,37.66816],[-122.34606,37.71222],[-122.33497,37.74721],[-122.34921,37.78039],[-122.36946,37.81552],[-122.37435,37.8241],[-122.38603,37.84806],[-122.38694,37.89423],[-122.37497,37.92489],[-122.30219,37.95898],[-122.2418,37.97018],[-122.1738,37.98297],[-122.14613,37.98707],[-122.09638,37.98862],[-122.04599,37.98892],[-121.9638,37.98945],[-121.91876,37.98974],[-121.83719,37.9902],[-121.71505,37.99061],[-121.63639,37.99103],[-121.57978,37.99118],[-121.53886,37.99122],[-121.43462,37.9914],[-121.32692,37.99144],[-121.29339,37.99146]],"type":"LineString"}
}
