{
  "id": 2031501243,
  "type": "Feature",
  "properties": {
    "geom:area": 0,
    "geom:bbox": "-122.820000,37.620000,-74.170000,42.420000",
    "geom:latitude": 40.37943864744149,
    "geom:longitude": -99.38366369086167,
    "src:alt_label": "swim-route",
    "src:geom": "swim",
    "swim:geom": "route",
    "wof:geomhash": "3bfebf11ac9c4c7b03051aa953a60fde",
    "wof:id": 2031501243,
    "wof:repo": "sfomuseum-data-flights-2026-06"
  },
  "bbox": [
    -122.82,
    37.62,
    -74.17,
    42.42
  ],
  "geometry": {"coordinates":[[-74.17,40.69],[-74.26,40.77],[-74.31,40.81],[-74.32,40.82],[-74.34,40.84],[-74.36,40.85],[-74.38,40.87],[-74.4,40.88],[-74.43,40.91],[-74.45,40.93],[-74.46,40.94],[-74.48,40.96],[-74.5,40.97],[-74.51,40.98],[-74.55,41.01],[-74.57,41.03],[-74.62,41.07],[-74.64,41.09],[-74.66,41.1],[-74.69,41.13],[-74.7,41.14],[-74.74,41.15],[-74.78,41.17],[-74.78,41.17],[-74.84,41.2],[-74.97,41.26],[-75.1,41.31],[-75.19,41.35],[-75.34,41.42],[-75.35,41.42],[-75.48,41.48],[-75.54,41.49],[-75.64,41.52],[-75.73,41.55],[-75.74,41.55],[-75.86,41.58],[-75.96,41.61],[-76.22,41.69],[-76.26,41.7],[-76.52,41.77],[-76.93,41.88],[-76.93,41.88],[-77.21,41.96],[-77.35,41.99],[-77.39,42.01],[-77.41,42.01],[-78.27,42.24],[-78.61,42.33],[-78.99,42.42],[-79.24,42.34],[-79.66,42.32],[-80.37,42.08],[-80.47,42.06],[-81.23,41.79],[-81.32,41.76],[-81.55,41.69],[-81.65,41.65],[-81.84,41.5],[-82.25,41.22],[-82.46,41.09],[-82.65,41.05],[-83.06,40.95],[-83.74,40.78],[-85.25,40.39],[-85.62,40.29],[-86.44,40.07],[-86.69,40],[-87.17,39.87],[-87.34,39.82],[-88.14,39.59],[-88.15,39.58],[-88.19,39.57],[-88.43,39.61],[-88.67,39.64],[-88.75,39.29],[-89.05,39.12],[-89.22,39.07],[-89.32,39.08],[-89.54,39.12],[-90.07,39.21],[-90.21,39.24],[-90.67,39.3],[-91.47,39.39],[-92.22,39.47],[-93.18,39.41],[-93.25,39.41],[-93.44,39.41],[-93.89,39.5],[-94.25,39.5],[-94.34,39.51],[-94.55,39.54],[-94.91,39.57],[-95.55,39.73],[-95.63,39.74],[-95.66,39.74],[-95.73,39.79],[-95.83,39.87],[-95.9,39.87],[-96.12,39.9],[-96.58,39.95],[-96.81,39.97],[-98.3,40.11],[-98.35,40.11],[-99.06,40.17],[-99.93,40.24],[-101.6,40.36],[-102.37,40.4],[-102.68,40.41],[-104.08,40.48],[-104.62,40.5],[-105.1,40.51],[-105.43,40.52],[-106.12,40.54],[-106.54,40.55],[-107.33,40.56],[-107.64,40.58],[-108.37,40.64],[-108.62,40.66],[-109.11,40.69],[-109.11,40.69],[-109.4,40.71],[-110.3,40.76],[-110.88,40.8],[-111.12,40.81],[-111.43,40.82],[-111.97,40.85],[-111.98,40.85],[-112.1,40.85],[-114.44,40.74],[-116.72,40.59],[-116.92,40.57],[-117.2,40.5],[-118.03,40.27],[-118.58,40.13],[-119.06,39.98],[-120.56,39.78],[-120.79,39.75],[-121,39.46],[-121.1,39.34],[-121.22,39.26],[-121.35,39.85],[-121.94,39.78],[-122.06,39.56],[-122.43,39.45],[-122.46,39.35],[-122.48,39.29],[-122.53,39.28],[-122.82,39.2],[-122.81,38.95],[-122.78,38.52],[-122.78,38.38],[-122.77,38.33],[-122.77,38.32],[-122.77,38.22],[-122.75,38.16],[-122.71,38.02],[-122.69,37.95],[-122.67,37.9],[-122.65,37.87],[-122.59,37.82],[-122.58,37.81],[-122.57,37.8],[-122.53,37.77],[-122.51,37.74],[-122.5,37.73],[-122.44,37.68],[-122.37,37.62],[-122.38,37.62]],"type":"LineString"}
}
