{
  "id": 2031510849,
  "type": "Feature",
  "properties": {
    "geom:area": 0,
    "geom:bbox": "-123.463350,36.975410,-122.077030,37.612820",
    "geom:latitude": 37.300961542953246,
    "geom:longitude": -122.67237744427126,
    "src:alt_label": "swim-approach",
    "src:geom": "swim",
    "swim:elevations": [
      5595,
      5500,
      5325,
      5045,
      4924,
      4640,
      4219,
      4144,
      4012,
      3874,
      3653,
      3367,
      3168,
      3106,
      3068,
      3049,
      3048,
      3048,
      3046,
      3030,
      2935,
      2854,
      2837,
      2526,
      2441,
      2438,
      2438,
      2409,
      2362,
      2218,
      1978,
      1952,
      1854,
      1829,
      1829,
      1829,
      1829,
      1829,
      1829,
      1829,
      1698,
      1536,
      1389,
      1217,
      1219,
      1218,
      1219,
      1159,
      1053,
      925,
      882,
      808,
      700,
      665,
      555,
      396,
      248,
      141,
      37
    ],
    "swim:geom": "approach",
    "swim:timestamps": [
      1781245494,
      1781245500,
      1781245518,
      1781245552,
      1781245565,
      1781245594,
      1781245637,
      1781245645,
      1781245659,
      1781245675,
      1781245697,
      1781245727,
      1781245767,
      1781245791,
      1781245812,
      1781245816,
      1781245836,
      1781245855,
      1781245867,
      1781245870,
      1781245892,
      1781245918,
      1781245921,
      1781245976,
      1781246000,
      1781246012,
      1781246023,
      1781246041,
      1781246054,
      1781246075,
      1781246123,
      1781246131,
      1781246156,
      1781246167,
      1781246176,
      1781246194,
      1781246209,
      1781246226,
      1781246247,
      1781246267,
      1781246304,
      1781246328,
      1781246357,
      1781246389,
      1781246422,
      1781246426,
      1781246454,
      1781246487,
      1781246502,
      1781246521,
      1781246526,
      1781246546,
      1781246569,
      1781246577,
      1781246596,
      1781246634,
      1781246665,
      1781246695,
      1781246720
    ],
    "wof:geomhash": "d454fc4b35b4b63b3bc6cd87663900ad",
    "wof:id": 2031510849,
    "wof:repo": "sfomuseum-data-flights-2026-06"
  },
  "bbox": [
    -123.46335,
    36.97541,
    -122.07703,
    37.61282
  ],
  "geometry": {"coordinates":[[-123.46335,36.97541],[-123.45088,36.98147],[-123.41591,36.99803],[-123.34838,37.03042],[-123.32363,37.04216],[-123.2679,37.06834],[-123.18348,37.10825],[-123.16834,37.11537],[-123.142,37.12766],[-123.1119,37.14175],[-123.07163,37.16052],[-123.01614,37.18647],[-122.94425,37.21993],[-122.90425,37.23856],[-122.86936,37.25429],[-122.86243,37.25675],[-122.82928,37.26553],[-122.7991,37.27256],[-122.78086,37.27687],[-122.77618,37.27799],[-122.74087,37.28626],[-122.70234,37.29527],[-122.69799,37.2963],[-122.6197,37.31451],[-122.58631,37.32227],[-122.56905,37.32625],[-122.55258,37.33003],[-122.5278,37.33576],[-122.51004,37.33988],[-122.48158,37.34643],[-122.41625,37.3615],[-122.40576,37.3639],[-122.37365,37.3713],[-122.35915,37.37464],[-122.34756,37.37729],[-122.32421,37.38261],[-122.30477,37.3871],[-122.28252,37.39223],[-122.25514,37.39846],[-122.22955,37.4043],[-122.18253,37.41504],[-122.1513,37.42209],[-122.11546,37.43025],[-122.07957,37.44418],[-122.07703,37.47665],[-122.07995,37.48023],[-122.10263,37.50295],[-122.13998,37.52211],[-122.15768,37.52957],[-122.17788,37.53806],[-122.18401,37.54065],[-122.20323,37.5487],[-122.22589,37.55832],[-122.23319,37.56137],[-122.25237,37.56943],[-122.28541,37.58335],[-122.31113,37.59411],[-122.33522,37.60428],[-122.35557,37.61282]],"type":"LineString"}
}
