{
  "id": 2031438173,
  "type": "Feature",
  "properties": {
    "geom:area": 0,
    "geom:bbox": "-122.350000,26.166389,-80.050000,38.407222",
    "geom:latitude": 34.001115634837156,
    "geom:longitude": -100.62949285042124,
    "src:alt_label": "swim-path",
    "src:geom": "swim",
    "swim:altitudes": [
      "041",
      "106",
      "129",
      "129",
      "165",
      "165",
      "165",
      "180",
      "206",
      "206",
      "206",
      "217",
      "227",
      "238",
      "238",
      "246",
      "255",
      "265",
      "265",
      "275",
      "282",
      "288",
      "289",
      "289",
      "294",
      "306",
      "306",
      "306",
      "315",
      "329",
      "329",
      "338C",
      "338C",
      "340C",
      "340C",
      "340C",
      "340C",
      "340C",
      "340C",
      "340C",
      "340C",
      "340C",
      "340C",
      "340C",
      "340C",
      "340C",
      "340C",
      "340C",
      "340C",
      "340C",
      "341C",
      "341C",
      "341C",
      "340C",
      "340C",
      "340C",
      "340C",
      "340C",
      "340C",
      "340C",
      "340C",
      "340C",
      "340C",
      "340C",
      "340C",
      "340C",
      "341C",
      "341C",
      "341C",
      "341C",
      "341C",
      "341C",
      "341C",
      "340C",
      "340C",
      "340C",
      "340C",
      "340C",
      "340C",
      "340C",
      "340C",
      "340C",
      "340C",
      "340C",
      "340C",
      "340C",
      "340C",
      "340C",
      "340C",
      "340C",
      "340C",
      "340C",
      "340C",
      "340C",
      "340C",
      "340C",
      "340C",
      "340C",
      "340C",
      "340C",
      "340C",
      "340C",
      "340C",
      "340C",
      "340C",
      "340C",
      "340C",
      "340C",
      "340C",
      "340C",
      "340C",
      "340C",
      "340C",
      "340C",
      "340C",
      "340C",
      "340C",
      "340C",
      "340C",
      "340C",
      "340C",
      "340C",
      "340C",
      "340C",
      "340C",
      "340C",
      "340C",
      "340C",
      "340C",
      "340C",
      "340C",
      "340C",
      "340C",
      "340C",
      "340C",
      "340C",
      "341C",
      "341C",
      "341C",
      "340C",
      "340C",
      "340C",
      "340C",
      "340C",
      "340C",
      "340C",
      "340C",
      "340C",
      "340C",
      "340C",
      "340C",
      "340C",
      "340C",
      "340C",
      "340C",
      "340C",
      "340C",
      "340C",
      "340C",
      "340C",
      "340C",
      "340C",
      "340C",
      "340C",
      "340C",
      "340C",
      "340C",
      "340C",
      "340C",
      "340C",
      "340C",
      "340C",
      "340C",
      "340C",
      "340C",
      "340C",
      "340C",
      "340C",
      "340C",
      "340C",
      "340C",
      "340C",
      "340C",
      "340C",
      "340C",
      "340C",
      "340C",
      "340C",
      "340C",
      "340C",
      "340C",
      "340C",
      "340C",
      "340C",
      "340C",
      "340C",
      "340C",
      "340C",
      "340C",
      "340C",
      "340C",
      "340C",
      "340C",
      "340C",
      "340C",
      "340C",
      "340C",
      "340C",
      "340C",
      "340C",
      "340C",
      "340C",
      "340C",
      "340C",
      "340C",
      "340C",
      "340C",
      "340C",
      "340C",
      "340C",
      "340C",
      "340C",
      "340C",
      "340C",
      "340C",
      "340C",
      "340C",
      "340C",
      "340C",
      "340C",
      "340C",
      "340C",
      "340C",
      "340C",
      "340C",
      "340C",
      "340C",
      "340C",
      "340C",
      "340C",
      "340C",
      "340C",
      "340C",
      "340C",
      "340C",
      "340C",
      "340C",
      "340C",
      "340C",
      "340C",
      "340C",
      "340C",
      "340C",
      "340C",
      "340C",
      "340C",
      "340C",
      "340C",
      "340C",
      "340C",
      "340C",
      "340C",
      "340C",
      "340C",
      "340C",
      "340C",
      "340C",
      "340C",
      "340C",
      "340C",
      "340C",
      "340C",
      "340C",
      "340C",
      "340C",
      "340C",
      "340C",
      "340C",
      "340C",
      "340C",
      "340C",
      "340C",
      "340C",
      "340C",
      "340C",
      "340C",
      "340C",
      "340C",
      "340C",
      "340C",
      "340C",
      "340C",
      "340C",
      "340C",
      "340C",
      "340C",
      "340C",
      "340C",
      "340C",
      "340C",
      "340C",
      "340C",
      "340C",
      "340C",
      "340C",
      "340C",
      "340C",
      "340C",
      "340C",
      "340C",
      "340C",
      "340C",
      "340C",
      "340C",
      "341C",
      "341C",
      "340C",
      "340C",
      "340C",
      "340C",
      "340C",
      "340C",
      "340C",
      "340C",
      "340C",
      "340C",
      "340C",
      "340C",
      "340C",
      "340C",
      "340C",
      "340C",
      "340C",
      "340C",
      "340C",
      "340C",
      "348",
      "348",
      "348",
      "352",
      "352",
      "357",
      "360C",
      "360C",
      "360C",
      "360C",
      "360C",
      "360C",
      "360C",
      "360C",
      "360C",
      "360C",
      "360C",
      "360C",
      "360C",
      "360C",
      "360C",
      "360C",
      "360C",
      "361C",
      "360C",
      "360C",
      "360C",
      "360C",
      "360C",
      "360C",
      "361C",
      "361C",
      "361C",
      "361C",
      "360C",
      "360C",
      "360C",
      "360C",
      "361C",
      "360C",
      "360C",
      "360C",
      "360C",
      "360C",
      "360C",
      "360C",
      "360C",
      "360C",
      "360C",
      "360C",
      "360C",
      "360C",
      "360C",
      "360C",
      "360C",
      "360C",
      "360C",
      "360C",
      "361C",
      "360C",
      "360C",
      "360C",
      "360C",
      "360C",
      "360C",
      "360C",
      "360C",
      "360C",
      "360C",
      "361C",
      "361C",
      "361C",
      "360C",
      "360C",
      "360C",
      "360C",
      "360C",
      "360C",
      "360C",
      "360C",
      "360C",
      "360C",
      "360C",
      "360C",
      "360C",
      "360C",
      "360C",
      "360C",
      "360C",
      "360C",
      "360C",
      "360C",
      "360C",
      "360C",
      "360C",
      "360C",
      "360C",
      "360C",
      "360C",
      "360C",
      "360C",
      "360C",
      "360C",
      "360C",
      "360C",
      "360C",
      "360C",
      "360C",
      "360C",
      "360C",
      "360C",
      "360C",
      "360C",
      "360C",
      "360C",
      "360C",
      "360C",
      "360C",
      "360C",
      "360C",
      "360C",
      "360C",
      "360C",
      "360C",
      "360C",
      "360C",
      "360C",
      "360C",
      "360C",
      "360C",
      "360C",
      "360C",
      "360C",
      "360C",
      "360C",
      "360C",
      "360C",
      "360C",
      "360C",
      "360C",
      "360C",
      "360C",
      "360C",
      "360C",
      "360C",
      "359C",
      "359C",
      "359C",
      "359C",
      "359C",
      "359C",
      "359C",
      "360C",
      "360C",
      "360C",
      "360C",
      "360C",
      "360C",
      "360C",
      "360C",
      "360C",
      "360C",
      "360C",
      "360C",
      "360C",
      "360C",
      "360C",
      "360C",
      "360C",
      "360C",
      "360C",
      "360C",
      "360C",
      "360C",
      "360C",
      "360C",
      "360C",
      "360C",
      "360C",
      "360C",
      "360C",
      "360C",
      "360C",
      "360C",
      "360C",
      "360C",
      "358",
      "358",
      "340C",
      "340C",
      "340C",
      "340C",
      "340C",
      "340C",
      "340C",
      "340C",
      "340C",
      "340C",
      "340C",
      "340C",
      "340C",
      "340C",
      "340C",
      "340C",
      "340C",
      "340C",
      "340C",
      "340C",
      "340C",
      "340C",
      "340C",
      "340C",
      "340C",
      "340C",
      "340C",
      "308",
      "308",
      "308",
      "308",
      "288",
      "269",
      "269",
      "269",
      "269",
      "265",
      "265",
      "243",
      "225",
      "225",
      "208",
      "208",
      "208",
      "208",
      "184",
      "184",
      "184",
      "168",
      "168",
      "168",
      "168",
      "111",
      "111",
      "111",
      "111",
      "111",
      "111",
      "082",
      "082",
      "082",
      "082",
      "082",
      "059",
      "059",
      "059",
      "059",
      "059",
      "032",
      "032",
      "032",
      "032",
      "002",
      "002"
    ],
    "swim:geom": "path",
    "swim:speeds": [
      264,
      289,
      308,
      308,
      307,
      307,
      307,
      333,
      348,
      348,
      348,
      355,
      365,
      365,
      365,
      381,
      391,
      394,
      394,
      401,
      403,
      413,
      415,
      415,
      424,
      436,
      436,
      436,
      436,
      428,
      428,
      428,
      428,
      428,
      423,
      422,
      422,
      421,
      424,
      424,
      424,
      424,
      424,
      424,
      424,
      424,
      425,
      425,
      425,
      426,
      427,
      427,
      428,
      427,
      427,
      427,
      424,
      424,
      423,
      426,
      426,
      426,
      427,
      427,
      427,
      421,
      422,
      422,
      422,
      422,
      422,
      423,
      423,
      423,
      423,
      423,
      422,
      422,
      421,
      421,
      421,
      421,
      421,
      421,
      421,
      422,
      422,
      422,
      422,
      426,
      426,
      430,
      431,
      431,
      431,
      432,
      432,
      432,
      432,
      432,
      432,
      432,
      433,
      433,
      433,
      434,
      434,
      434,
      435,
      435,
      435,
      435,
      436,
      436,
      436,
      436,
      436,
      437,
      437,
      437,
      437,
      437,
      438,
      438,
      439,
      439,
      439,
      439,
      439,
      439,
      439,
      441,
      441,
      441,
      441,
      441,
      454,
      454,
      454,
      455,
      455,
      455,
      455,
      456,
      456,
      456,
      457,
      457,
      459,
      459,
      459,
      459,
      459,
      459,
      459,
      459,
      458,
      458,
      458,
      458,
      458,
      458,
      458,
      457,
      457,
      457,
      457,
      458,
      458,
      458,
      458,
      458,
      458,
      458,
      458,
      459,
      458,
      458,
      458,
      458,
      458,
      458,
      458,
      458,
      459,
      459,
      459,
      459,
      459,
      459,
      459,
      459,
      459,
      459,
      458,
      458,
      458,
      458,
      458,
      458,
      458,
      458,
      458,
      458,
      458,
      458,
      458,
      458,
      458,
      458,
      457,
      457,
      457,
      457,
      457,
      457,
      457,
      457,
      457,
      457,
      457,
      457,
      457,
      457,
      457,
      457,
      457,
      457,
      457,
      457,
      457,
      456,
      456,
      456,
      456,
      456,
      456,
      451,
      451,
      451,
      451,
      451,
      451,
      451,
      448,
      448,
      448,
      448,
      442,
      442,
      442,
      442,
      442,
      441,
      441,
      441,
      441,
      441,
      441,
      441,
      439,
      439,
      439,
      439,
      439,
      439,
      439,
      444,
      444,
      444,
      444,
      447,
      447,
      447,
      448,
      448,
      452,
      452,
      452,
      452,
      453,
      453,
      454,
      454,
      454,
      455,
      455,
      456,
      456,
      456,
      456,
      456,
      456,
      456,
      456,
      456,
      456,
      455,
      455,
      455,
      455,
      455,
      455,
      455,
      455,
      455,
      454,
      454,
      454,
      453,
      453,
      453,
      456,
      457,
      458,
      458,
      458,
      458,
      458,
      459,
      459,
      459,
      459,
      459,
      459,
      460,
      460,
      460,
      459,
      459,
      459,
      459,
      459,
      461,
      461,
      461,
      466,
      466,
      466,
      469,
      469,
      468,
      466,
      466,
      465,
      464,
      464,
      466,
      469,
      469,
      469,
      469,
      469,
      469,
      469,
      470,
      470,
      471,
      471,
      471,
      470,
      469,
      469,
      468,
      468,
      468,
      467,
      467,
      467,
      465,
      454,
      454,
      453,
      453,
      451,
      449,
      449,
      449,
      448,
      448,
      440,
      440,
      440,
      439,
      438,
      438,
      438,
      438,
      438,
      439,
      439,
      440,
      440,
      440,
      440,
      440,
      440,
      440,
      440,
      436,
      436,
      436,
      437,
      437,
      438,
      442,
      442,
      442,
      442,
      437,
      437,
      435,
      435,
      435,
      435,
      435,
      435,
      435,
      435,
      435,
      436,
      436,
      436,
      435,
      435,
      435,
      435,
      435,
      435,
      435,
      435,
      433,
      433,
      433,
      433,
      432,
      432,
      430,
      430,
      430,
      430,
      428,
      428,
      426,
      426,
      426,
      425,
      425,
      422,
      422,
      422,
      421,
      421,
      421,
      421,
      420,
      420,
      421,
      421,
      421,
      421,
      421,
      423,
      423,
      423,
      423,
      423,
      424,
      424,
      425,
      425,
      425,
      424,
      424,
      424,
      419,
      419,
      419,
      419,
      417,
      417,
      414,
      414,
      413,
      413,
      413,
      413,
      413,
      412,
      411,
      411,
      411,
      411,
      427,
      427,
      427,
      427,
      427,
      429,
      429,
      429,
      429,
      429,
      429,
      429,
      429,
      427,
      426,
      426,
      426,
      425,
      425,
      425,
      424,
      424,
      424,
      424,
      424,
      424,
      424,
      424,
      424,
      424,
      424,
      425,
      425,
      425,
      426,
      426,
      426,
      426,
      426,
      429,
      429,
      431,
      431,
      431,
      431,
      432,
      432,
      432,
      432,
      433,
      433,
      433,
      433,
      432,
      432,
      432,
      432,
      432,
      432,
      432,
      432,
      432,
      419,
      404,
      404,
      404,
      404,
      401,
      401,
      396,
      385,
      385,
      373,
      373,
      373,
      373,
      355,
      355,
      355,
      357,
      357,
      357,
      357,
      341,
      341,
      341,
      341,
      341,
      341,
      296,
      296,
      296,
      296,
      296,
      210,
      210,
      210,
      210,
      210,
      158,
      158,
      158,
      158,
      137,
      137
    ],
    "swim:timestamps": [
      1780485067,
      1780485247,
      1780485307,
      1780485307,
      1780485434,
      1780485434,
      1780485434,
      1780485494,
      1780485607,
      1780485607,
      1780485607,
      1780485668,
      1780485728,
      1780485795,
      1780485795,
      1780485848,
      1780485908,
      1780485975,
      1780485975,
      1780486035,
      1780486095,
      1780486148,
      1780486155,
      1780486155,
      1780486215,
      1780486336,
      1780486336,
      1780486336,
      1780486396,
      1780486509,
      1780486509,
      1780486636,
      1780486636,
      1780486689,
      1780486749,
      1780486809,
      1780486809,
      1780486816,
      1780486989,
      1780487117,
      1780487117,
      1780487117,
      1780487170,
      1780487170,
      1780487237,
      1780487237,
      1780487290,
      1780487290,
      1780487290,
      1780487350,
      1780487410,
      1780487410,
      1780487477,
      1780487537,
      1780487537,
      1780487537,
      1780487590,
      1780487590,
      1780487657,
      1780487743,
      1780487743,
      1780487743,
      1780487803,
      1780487803,
      1780487803,
      1780487983,
      1780488043,
      1780488043,
      1780488043,
      1780488078,
      1780488078,
      1780488103,
      1780488103,
      1780488163,
      1780488163,
      1780488163,
      1780488223,
      1780488223,
      1780488258,
      1780488284,
      1780488284,
      1780488284,
      1780488318,
      1780488404,
      1780488404,
      1780488439,
      1780488464,
      1780488464,
      1780488559,
      1780488764,
      1780488764,
      1780488884,
      1780488919,
      1780488919,
      1780488919,
      1780489004,
      1780489004,
      1780489125,
      1780489125,
      1780489185,
      1780489185,
      1780489185,
      1780489305,
      1780489305,
      1780489305,
      1780489340,
      1780489365,
      1780489365,
      1780489485,
      1780489485,
      1780489520,
      1780489520,
      1780489545,
      1780489545,
      1780489545,
      1780489580,
      1780489665,
      1780489700,
      1780489700,
      1780489700,
      1780489726,
      1780489726,
      1780489820,
      1780489820,
      1780489846,
      1780489846,
      1780490026,
      1780490026,
      1780490026,
      1780490026,
      1780490026,
      1780490206,
      1780490206,
      1780490206,
      1780490206,
      1780490206,
      1780490507,
      1780490507,
      1780490507,
      1780490567,
      1780490567,
      1780490567,
      1780490567,
      1780490667,
      1780490687,
      1780490687,
      1780490727,
      1780490727,
      1780490867,
      1780490867,
      1780490867,
      1780490867,
      1780490867,
      1780491088,
      1780491088,
      1780491107,
      1780491148,
      1780491148,
      1780491168,
      1780491168,
      1780491168,
      1780491168,
      1780491168,
      1780491228,
      1780491228,
      1780491228,
      1780491228,
      1780491388,
      1780491408,
      1780491408,
      1780491408,
      1780491408,
      1780491468,
      1780491468,
      1780491468,
      1780491508,
      1780491708,
      1780491708,
      1780491749,
      1780491749,
      1780491809,
      1780491809,
      1780491809,
      1780491809,
      1780491989,
      1780491989,
      1780491989,
      1780491989,
      1780491989,
      1780492049,
      1780492049,
      1780492049,
      1780492049,
      1780492049,
      1780492169,
      1780492169,
      1780492169,
      1780492229,
      1780492229,
      1780492229,
      1780492229,
      1780492249,
      1780492249,
      1780492249,
      1780492309,
      1780492309,
      1780492309,
      1780492309,
      1780492369,
      1780492369,
      1780492429,
      1780492429,
      1780492429,
      1780492429,
      1780492429,
      1780492530,
      1780492590,
      1780492650,
      1780492650,
      1780492650,
      1780492650,
      1780492650,
      1780492650,
      1780492650,
      1780492890,
      1780492890,
      1780492890,
      1780492890,
      1780492890,
      1780492890,
      1780492890,
      1780493251,
      1780493251,
      1780493251,
      1780493251,
      1780493251,
      1780493251,
      1780493491,
      1780493491,
      1780493491,
      1780493491,
      1780493491,
      1780493491,
      1780493491,
      1780493671,
      1780493671,
      1780493671,
      1780493671,
      1780493852,
      1780493852,
      1780493852,
      1780493852,
      1780493852,
      1780494152,
      1780494152,
      1780494152,
      1780494152,
      1780494152,
      1780494152,
      1780494152,
      1780494332,
      1780494332,
      1780494332,
      1780494332,
      1780494332,
      1780494332,
      1780494332,
      1780494633,
      1780494633,
      1780494633,
      1780494633,
      1780494680,
      1780494680,
      1780494680,
      1780494740,
      1780494740,
      1780494800,
      1780494800,
      1780494800,
      1780494800,
      1780494860,
      1780494860,
      1780494873,
      1780494873,
      1780494873,
      1780494933,
      1780494933,
      1780494980,
      1780494980,
      1780494980,
      1780494980,
      1780495040,
      1780495040,
      1780495053,
      1780495100,
      1780495100,
      1780495113,
      1780495173,
      1780495173,
      1780495173,
      1780495221,
      1780495221,
      1780495221,
      1780495233,
      1780495233,
      1780495233,
      1780495294,
      1780495294,
      1780495294,
      1780495341,
      1780495341,
      1780495341,
      1780495461,
      1780495474,
      1780495521,
      1780495521,
      1780495534,
      1780495534,
      1780495534,
      1780495594,
      1780495594,
      1780495594,
      1780495594,
      1780495594,
      1780495594,
      1780495641,
      1780495714,
      1780495714,
      1780495822,
      1780495822,
      1780495822,
      1780495822,
      1780495834,
      1780495942,
      1780495942,
      1780495942,
      1780496242,
      1780496242,
      1780496242,
      1780496277,
      1780496277,
      1780496302,
      1780496362,
      1780496362,
      1780496397,
      1780496457,
      1780496482,
      1780496578,
      1780496638,
      1780496698,
      1780496698,
      1780496698,
      1780496698,
      1780496698,
      1780496698,
      1780496758,
      1780496758,
      1780496818,
      1780496818,
      1780496843,
      1780496963,
      1780497023,
      1780497023,
      1780497083,
      1780497083,
      1780497083,
      1780497239,
      1780497239,
      1780497239,
      1780497264,
      1780497359,
      1780497359,
      1780497419,
      1780497419,
      1780497504,
      1780497599,
      1780497624,
      1780497624,
      1780497659,
      1780497659,
      1780498200,
      1780498200,
      1780498200,
      1780498320,
      1780498380,
      1780498380,
      1780498380,
      1780498380,
      1780498380,
      1780498560,
      1780498560,
      1780498621,
      1780498621,
      1780498621,
      1780498680,
      1780498749,
      1780498809,
      1780498809,
      1780498809,
      1780498861,
      1780498861,
      1780498861,
      1780498922,
      1780498922,
      1780498989,
      1780499041,
      1780499041,
      1780499041,
      1780499109,
      1780499222,
      1780499222,
      1780499353,
      1780499353,
      1780499353,
      1780499353,
      1780499353,
      1780499403,
      1780499410,
      1780499410,
      1780499470,
      1780499583,
      1780499583,
      1780499583,
      1780499654,
      1780499703,
      1780499703,
      1780499714,
      1780499714,
      1780499714,
      1780499774,
      1780499774,
      1780499883,
      1780499883,
      1780499883,
      1780499883,
      1780499943,
      1780499943,
      1780500003,
      1780500003,
      1780500003,
      1780500003,
      1780500063,
      1780500063,
      1780500244,
      1780500244,
      1780500244,
      1780500304,
      1780500304,
      1780500424,
      1780500424,
      1780500424,
      1780500484,
      1780500484,
      1780500484,
      1780500484,
      1780500544,
      1780500544,
      1780500604,
      1780500604,
      1780500664,
      1780500664,
      1780500664,
      1780500724,
      1780500724,
      1780500724,
      1780500724,
      1780500724,
      1780500784,
      1780500784,
      1780500844,
      1780500844,
      1780500844,
      1780500965,
      1780500965,
      1780500965,
      1780501058,
      1780501058,
      1780501058,
      1780501058,
      1780501085,
      1780501085,
      1780501178,
      1780501178,
      1780501238,
      1780501238,
      1780501238,
      1780501238,
      1780501238,
      1780501298,
      1780501358,
      1780501358,
      1780501358,
      1780501358,
      1780501445,
      1780501445,
      1780501445,
      1780501445,
      1780501445,
      1780501538,
      1780501598,
      1780501598,
      1780501598,
      1780501598,
      1780501626,
      1780501626,
      1780501626,
      1780501746,
      1780501779,
      1780501779,
      1780501779,
      1780501806,
      1780501806,
      1780501806,
      1780501839,
      1780501839,
      1780501899,
      1780501899,
      1780501899,
      1780501899,
      1780501986,
      1780501986,
      1780501986,
      1780502046,
      1780502046,
      1780502166,
      1780502166,
      1780502166,
      1780502226,
      1780502226,
      1780502226,
      1780502226,
      1780502226,
      1780502439,
      1780502439,
      1780502500,
      1780502500,
      1780502500,
      1780502500,
      1780502560,
      1780502560,
      1780502560,
      1780502560,
      1780502680,
      1780502680,
      1780502680,
      1780502680,
      1780502800,
      1780502800,
      1780502800,
      1780502800,
      1780502800,
      1780503040,
      1780503040,
      1780503040,
      1780503040,
      1780503100,
      1780503160,
      1780503160,
      1780503160,
      1780503160,
      1780503166,
      1780503166,
      1780503232,
      1780503286,
      1780503286,
      1780503341,
      1780503341,
      1780503341,
      1780503341,
      1780503411,
      1780503411,
      1780503411,
      1780503461,
      1780503461,
      1780503461,
      1780503461,
      1780503641,
      1780503641,
      1780503641,
      1780503641,
      1780503641,
      1780503641,
      1780503761,
      1780503761,
      1780503761,
      1780503761,
      1780503761,
      1780503941,
      1780503941,
      1780503941,
      1780503941,
      1780503941,
      1780504121,
      1780504121,
      1780504121,
      1780504121,
      1780504367,
      1780504367
    ],
    "wof:geomhash": "6617e6dac64399e7260b0c9247ecd535",
    "wof:id": 2031438173,
    "wof:repo": "sfomuseum-data-flights-2026-06"
  },
  "bbox": [
    -122.35,
    26.16638888888889,
    -80.05,
    38.407222222222224
  ],
  "geometry": {"coordinates":[[-80.05,26.16638888888889],[-80.25833333333334,26.260555555555555],[-80.36,26.274166666666666],[-80.36,26.274166666666666],[-80.55333333333333,26.290833333333335],[-80.55333333333333,26.290833333333335],[-80.55333333333333,26.290833333333335],[-80.63555555555556,26.348888888888887],[-80.79416666666667,26.46944444444444],[-80.79416666666667,26.46944444444444],[-80.79416666666667,26.46944444444444],[-80.88305555555554,26.530833333333334],[-80.9675,26.588055555555556],[-81.06694444444445,26.65972222222222],[-81.06694444444445,26.65972222222222],[-81.1438888888889,26.72972222222222],[-81.22805555555556,26.813055555555557],[-81.30972222222222,26.903333333333332],[-81.30972222222222,26.903333333333332],[-81.39027777777778,26.990277777777777],[-81.46166666666667,27.083888888888886],[-81.51083333333334,27.16444444444444],[-81.52416666666666,27.185],[-81.52416666666666,27.185],[-81.5911111111111,27.28888888888889],[-81.72666666666667,27.498055555555556],[-81.72666666666667,27.498055555555556],[-81.72666666666667,27.498055555555556],[-81.79444444444444,27.602222222222224],[-81.91611111111112,27.788611111111113],[-81.91611111111112,27.788611111111113],[-82.06222222222222,28.005555555555556],[-82.06222222222222,28.005555555555556],[-82.15611111111112,28.089166666666664],[-82.26694444444445,28.152777777777775],[-82.38527777777779,28.204166666666666],[-82.38527777777779,28.204166666666666],[-82.40833333333335,28.214166666666667],[-82.74305555555556,28.359444444444446],[-82.99111111111111,28.46638888888889],[-82.99111111111111,28.46638888888889],[-82.99111111111111,28.46638888888889],[-83.10249999999999,28.514166666666668],[-83.10249999999999,28.514166666666668],[-83.23138888888889,28.572222222222223],[-83.23138888888889,28.572222222222223],[-83.33916666666666,28.645555555555553],[-83.33916666666666,28.645555555555553],[-83.33916666666666,28.645555555555553],[-83.4475,28.719166666666666],[-83.55666666666666,28.79138888888889],[-83.55666666666666,28.79138888888889],[-83.665,28.86277777777778],[-83.77444444444444,28.930833333333336],[-83.77444444444444,28.930833333333336],[-83.77444444444444,28.930833333333336],[-83.88833333333334,28.99527777777778],[-83.88833333333334,28.99527777777778],[-84.00166666666667,29.055833333333332],[-84.17416666666666,29.12361111111111],[-84.17416666666666,29.12361111111111],[-84.17416666666666,29.12361111111111],[-84.30055555555555,29.17361111111111],[-84.30055555555555,29.17361111111111],[-84.30055555555555,29.17361111111111],[-84.66583333333334,29.315],[-84.78999999999999,29.36277777777778],[-84.78999999999999,29.36277777777778],[-84.78999999999999,29.36277777777778],[-84.86305555555555,29.390833333333333],[-84.86305555555555,29.390833333333333],[-84.91444444444446,29.410555555555554],[-84.91444444444446,29.410555555555554],[-85.03583333333333,29.456666666666667],[-85.03583333333333,29.456666666666667],[-85.03583333333333,29.456666666666667],[-85.16027777777778,29.503888888888888],[-85.16027777777778,29.503888888888888],[-85.23222222222222,29.53111111111111],[-85.28277777777778,29.55027777777778],[-85.28277777777778,29.55027777777778],[-85.28277777777778,29.55027777777778],[-85.3561111111111,29.578055555555554],[-85.52972222222222,29.643333333333334],[-85.52972222222222,29.643333333333334],[-85.60388888888889,29.671111111111113],[-85.65444444444445,29.690277777777776],[-85.65444444444445,29.690277777777776],[-85.85444444444444,29.764722222222222],[-86.27277777777778,29.919444444444444],[-86.27277777777778,29.919444444444444],[-86.52722222222222,30.012777777777778],[-86.60388888888889,30.040833333333335],[-86.60388888888889,30.040833333333335],[-86.60388888888889,30.040833333333335],[-86.78361111111111,30.10638888888889],[-86.78361111111111,30.10638888888889],[-87.03888888888889,30.198611111111113],[-87.03888888888889,30.198611111111113],[-87.1675,30.245],[-87.1675,30.245],[-87.1675,30.245],[-87.42527777777778,30.336944444444445],[-87.42527777777778,30.336944444444445],[-87.42527777777778,30.336944444444445],[-87.5025,30.364444444444445],[-87.55472222222222,30.38277777777778],[-87.55472222222222,30.38277777777778],[-87.81527777777778,30.47472222222222],[-87.81527777777778,30.47472222222222],[-87.89166666666668,30.501944444444444],[-87.89166666666668,30.501944444444444],[-87.94583333333334,30.520833333333332],[-87.94583333333334,30.520833333333332],[-87.94583333333334,30.520833333333332],[-88.02305555555556,30.547777777777778],[-88.2075,30.612222222222222],[-88.28666666666666,30.639444444444443],[-88.28666666666666,30.639444444444443],[-88.28666666666666,30.639444444444443],[-88.33999999999999,30.658055555555553],[-88.33999999999999,30.658055555555553],[-88.55027777777778,30.730833333333333],[-88.55027777777778,30.730833333333333],[-88.62083333333332,30.755555555555556],[-88.62083333333332,30.755555555555556],[-89.01416666666667,30.889722222222222],[-89.01416666666667,30.889722222222222],[-89.01416666666667,30.889722222222222],[-89.01416666666667,30.889722222222222],[-89.01416666666667,30.889722222222222],[-89.41250000000001,31.024444444444445],[-89.41250000000001,31.024444444444445],[-89.41250000000001,31.024444444444445],[-89.41250000000001,31.024444444444445],[-89.41250000000001,31.024444444444445],[-90.0886111111111,31.24888888888889],[-90.0886111111111,31.24888888888889],[-90.0886111111111,31.24888888888889],[-90.22638888888889,31.29416666666667],[-90.22638888888889,31.29416666666667],[-90.22638888888889,31.29416666666667],[-90.22638888888889,31.29416666666667],[-90.44666666666667,31.373333333333335],[-90.50027777777778,31.392777777777777],[-90.50027777777778,31.392777777777777],[-90.58388888888888,31.423055555555557],[-90.58388888888888,31.423055555555557],[-90.91083333333334,31.540833333333335],[-90.91083333333334,31.540833333333335],[-90.91083333333334,31.540833333333335],[-90.91083333333334,31.540833333333335],[-90.91083333333334,31.540833333333335],[-91.41055555555556,31.718888888888888],[-91.41055555555556,31.718888888888888],[-91.46722222222222,31.73888888888889],[-91.54944444444445,31.767777777777777],[-91.54944444444445,31.767777777777777],[-91.60249999999999,31.78638888888889],[-91.60249999999999,31.78638888888889],[-91.60249999999999,31.78638888888889],[-91.60249999999999,31.78638888888889],[-91.60249999999999,31.78638888888889],[-91.74,31.834722222222222],[-91.74,31.834722222222222],[-91.74,31.834722222222222],[-91.74,31.834722222222222],[-92.10111111111111,31.96],[-92.15416666666667,31.97833333333333],[-92.15416666666667,31.97833333333333],[-92.15416666666667,31.97833333333333],[-92.15416666666667,31.97833333333333],[-92.29277777777777,32.02611111111111],[-92.29277777777777,32.02611111111111],[-92.29277777777777,32.02611111111111],[-92.3786111111111,32.05555555555555],[-92.84472222222222,32.21388888888889],[-92.84472222222222,32.21388888888889],[-92.95555555555556,32.25111111111111],[-92.95555555555556,32.25111111111111],[-93.09472222222222,32.29833333333333],[-93.09472222222222,32.29833333333333],[-93.09472222222222,32.29833333333333],[-93.09472222222222,32.29833333333333],[-93.49361111111111,32.43138888888889],[-93.49361111111111,32.43138888888889],[-93.49361111111111,32.43138888888889],[-93.49361111111111,32.43138888888889],[-93.49361111111111,32.43138888888889],[-93.63527777777779,32.47833333333333],[-93.63527777777779,32.47833333333333],[-93.63527777777779,32.47833333333333],[-93.63527777777779,32.47833333333333],[-93.63527777777779,32.47833333333333],[-93.91638888888889,32.57055555555556],[-93.91638888888889,32.57055555555556],[-93.91638888888889,32.57055555555556],[-94.05666666666666,32.61638888888889],[-94.05666666666666,32.61638888888889],[-94.05666666666666,32.61638888888889],[-94.05666666666666,32.61638888888889],[-94.10416666666666,32.63194444444444],[-94.10416666666666,32.63194444444444],[-94.10416666666666,32.63194444444444],[-94.24333333333334,32.67638888888889],[-94.24333333333334,32.67638888888889],[-94.24333333333334,32.67638888888889],[-94.24333333333334,32.67638888888889],[-94.385,32.72166666666667],[-94.385,32.72166666666667],[-94.52472222222222,32.7675],[-94.52472222222222,32.7675],[-94.52472222222222,32.7675],[-94.52472222222222,32.7675],[-94.52472222222222,32.7675],[-94.76444444444445,32.84388888888889],[-94.9075,32.88916666666667],[-95.04916666666666,32.93416666666666],[-95.04916666666666,32.93416666666666],[-95.04916666666666,32.93416666666666],[-95.04916666666666,32.93416666666666],[-95.04916666666666,32.93416666666666],[-95.04916666666666,32.93416666666666],[-95.04916666666666,32.93416666666666],[-95.61555555555555,33.111111111111114],[-95.61555555555555,33.111111111111114],[-95.61555555555555,33.111111111111114],[-95.61555555555555,33.111111111111114],[-95.61555555555555,33.111111111111114],[-95.61555555555555,33.111111111111114],[-95.61555555555555,33.111111111111114],[-96.47277777777778,33.3725],[-96.47277777777778,33.3725],[-96.47277777777778,33.3725],[-96.47277777777778,33.3725],[-96.47277777777778,33.3725],[-96.47277777777778,33.3725],[-97.03833333333333,33.54083333333333],[-97.03833333333333,33.54083333333333],[-97.03833333333333,33.54083333333333],[-97.03833333333333,33.54083333333333],[-97.03833333333333,33.54083333333333],[-97.03833333333333,33.54083333333333],[-97.03833333333333,33.54083333333333],[-97.48055555555555,33.67055555555555],[-97.48055555555555,33.67055555555555],[-97.48055555555555,33.67055555555555],[-97.48055555555555,33.67055555555555],[-97.89611111111111,33.790277777777774],[-97.89611111111111,33.790277777777774],[-97.89611111111111,33.790277777777774],[-97.89611111111111,33.790277777777774],[-97.89611111111111,33.790277777777774],[-98.58916666666666,33.987500000000004],[-98.58916666666666,33.987500000000004],[-98.58916666666666,33.987500000000004],[-98.58916666666666,33.987500000000004],[-98.58916666666666,33.987500000000004],[-98.58916666666666,33.987500000000004],[-98.58916666666666,33.987500000000004],[-98.98333333333333,34.15083333333333],[-98.98333333333333,34.15083333333333],[-98.98333333333333,34.15083333333333],[-98.98333333333333,34.15083333333333],[-98.98333333333333,34.15083333333333],[-98.98333333333333,34.15083333333333],[-98.98333333333333,34.15083333333333],[-99.67055555555557,34.379444444444445],[-99.67055555555557,34.379444444444445],[-99.67055555555557,34.379444444444445],[-99.67055555555557,34.379444444444445],[-99.76805555555555,34.41083333333333],[-99.76805555555555,34.41083333333333],[-99.76805555555555,34.41083333333333],[-99.91055555555556,34.45638888888889],[-99.91055555555556,34.45638888888889],[-100.05277777777778,34.501666666666665],[-100.05277777777778,34.501666666666665],[-100.05277777777778,34.501666666666665],[-100.05277777777778,34.501666666666665],[-100.19472222222223,34.54666666666667],[-100.19472222222223,34.54666666666667],[-100.22805555555556,34.55694444444444],[-100.22805555555556,34.55694444444444],[-100.22805555555556,34.55694444444444],[-100.36916666666666,34.60138888888889],[-100.36916666666666,34.60138888888889],[-100.48277777777778,34.636944444444445],[-100.48277777777778,34.636944444444445],[-100.48277777777778,34.636944444444445],[-100.48277777777778,34.636944444444445],[-100.62666666666667,34.68194444444444],[-100.62666666666667,34.68194444444444],[-100.65555555555557,34.69083333333333],[-100.77277777777778,34.727222222222224],[-100.77277777777778,34.727222222222224],[-100.79833333333333,34.73527777777778],[-100.9413888888889,34.77972222222222],[-100.9413888888889,34.77972222222222],[-100.9413888888889,34.77972222222222],[-101.05749999999999,34.81527777777777],[-101.05749999999999,34.81527777777777],[-101.05749999999999,34.81527777777777],[-101.08611111111111,34.823888888888895],[-101.08611111111111,34.823888888888895],[-101.08611111111111,34.823888888888895],[-101.23027777777779,34.86833333333333],[-101.23027777777779,34.86833333333333],[-101.23027777777779,34.86833333333333],[-101.34638888888888,34.90361111111111],[-101.34638888888888,34.90361111111111],[-101.34638888888888,34.90361111111111],[-101.63916666666667,34.99194444444444],[-101.6675,35.00055555555556],[-101.78694444444444,35.03638888888889],[-101.78694444444444,35.03638888888889],[-101.81583333333333,35.044999999999995],[-101.81583333333333,35.044999999999995],[-101.81583333333333,35.044999999999995],[-101.965,35.089444444444446],[-101.965,35.089444444444446],[-101.965,35.089444444444446],[-101.965,35.089444444444446],[-101.965,35.089444444444446],[-101.965,35.089444444444446],[-102.08555555555554,35.125277777777775],[-102.26083333333334,35.176944444444445],[-102.26083333333334,35.176944444444445],[-102.52555555555556,35.254444444444445],[-102.52555555555556,35.254444444444445],[-102.52555555555556,35.254444444444445],[-102.52555555555556,35.254444444444445],[-102.55499999999999,35.26305555555555],[-102.8125,35.338055555555556],[-102.8125,35.338055555555556],[-102.8125,35.338055555555556],[-103.55749999999999,35.55],[-103.55749999999999,35.55],[-103.55749999999999,35.55],[-103.64750000000001,35.57472222222223],[-103.64750000000001,35.57472222222223],[-103.70944444444444,35.5925],[-103.85833333333333,35.634166666666665],[-103.85833333333333,35.634166666666665],[-103.94805555555556,35.657777777777774],[-104.0975,35.69888888888889],[-104.15805555555556,35.716944444444444],[-104.40055555555556,35.7825],[-104.55333333333333,35.825],[-104.70555555555556,35.865833333333335],[-104.70555555555556,35.865833333333335],[-104.70555555555556,35.865833333333335],[-104.70555555555556,35.865833333333335],[-104.70555555555556,35.865833333333335],[-104.70555555555556,35.865833333333335],[-104.85916666666667,35.907222222222224],[-104.85916666666667,35.907222222222224],[-105.01416666666667,35.948611111111106],[-105.01416666666667,35.948611111111106],[-105.0925,35.96944444444445],[-105.39722222222223,36.04972222222222],[-105.54833333333333,36.08916666666667],[-105.54833333333333,36.08916666666667],[-105.69500000000001,36.1275],[-105.69500000000001,36.1275],[-105.69500000000001,36.1275],[-106.10111111111111,36.231944444444444],[-106.10111111111111,36.231944444444444],[-106.10111111111111,36.231944444444444],[-106.15916666666668,36.24666666666667],[-106.39250000000001,36.30583333333333],[-106.39250000000001,36.30583333333333],[-106.51861111111111,36.337500000000006],[-106.51861111111111,36.337500000000006],[-106.73722222222223,36.39222222222222],[-106.97333333333333,36.450833333333335],[-107.02777777777777,36.46416666666667],[-107.02777777777777,36.46416666666667],[-107.11944444444444,36.486666666666665],[-107.11944444444444,36.486666666666665],[-108.44027777777778,36.80166666666666],[-108.44027777777778,36.80166666666666],[-108.44027777777778,36.80166666666666],[-108.73055555555555,36.868611111111115],[-108.905,36.90833333333333],[-108.905,36.90833333333333],[-108.905,36.90833333333333],[-108.905,36.90833333333333],[-108.905,36.90833333333333],[-109.3425,37.00694444444444],[-109.3425,37.00694444444444],[-109.46694444444445,37.035],[-109.46694444444445,37.035],[-109.46694444444445,37.035],[-109.63555555555556,37.07194444444445],[-109.7786111111111,37.10166666666667],[-109.92472222222223,37.13333333333333],[-109.92472222222223,37.13333333333333],[-109.92472222222223,37.13333333333333],[-110.07472222222222,37.16777777777777],[-110.07472222222222,37.16777777777777],[-110.07472222222222,37.16777777777777],[-110.21777777777778,37.198611111111106],[-110.21777777777778,37.198611111111106],[-110.36527777777778,37.2275],[-110.51944444444445,37.26277777777778],[-110.51944444444445,37.26277777777778],[-110.51944444444445,37.26277777777778],[-110.69444444444444,37.29972222222222],[-110.9588888888889,37.355000000000004],[-110.9588888888889,37.355000000000004],[-111.28305555555555,37.42194444444444],[-111.28305555555555,37.42194444444444],[-111.28305555555555,37.42194444444444],[-111.28305555555555,37.42194444444444],[-111.28305555555555,37.42194444444444],[-111.39777777777779,37.445277777777775],[-111.42833333333334,37.45138888888889],[-111.42833333333334,37.45138888888889],[-111.57472222222222,37.48111111111111],[-111.83916666666666,37.53805555555555],[-111.83916666666666,37.53805555555555],[-111.83916666666666,37.53805555555555],[-112.01361111111112,37.58916666666667],[-112.12388888888889,37.62111111111111],[-112.12388888888889,37.62111111111111],[-112.15666666666667,37.63055555555555],[-112.15666666666667,37.63055555555555],[-112.15666666666667,37.63055555555555],[-112.29944444444445,37.67166666666667],[-112.29944444444445,37.67166666666667],[-112.54944444444445,37.74333333333333],[-112.54944444444445,37.74333333333333],[-112.54944444444445,37.74333333333333],[-112.54944444444445,37.74333333333333],[-112.69027777777778,37.78333333333333],[-112.69027777777778,37.78333333333333],[-112.82777777777777,37.82194444444445],[-112.82777777777777,37.82194444444445],[-112.82777777777777,37.82194444444445],[-112.82777777777777,37.82194444444445],[-112.96805555555555,37.86138888888889],[-112.96805555555555,37.86138888888889],[-113.38861111111112,37.978611111111114],[-113.38861111111112,37.978611111111114],[-113.38861111111112,37.978611111111114],[-113.52888888888889,38.01722222222222],[-113.52888888888889,38.01722222222222],[-113.83583333333333,38.100833333333334],[-113.83583333333333,38.100833333333334],[-113.83583333333333,38.100833333333334],[-113.97500000000001,38.138333333333335],[-113.97500000000001,38.138333333333335],[-113.97500000000001,38.138333333333335],[-113.97500000000001,38.138333333333335],[-114.11666666666666,38.17666666666666],[-114.11666666666666,38.17666666666666],[-114.25666666666666,38.21388888888889],[-114.25666666666666,38.21388888888889],[-114.39777777777779,38.24916666666667],[-114.39777777777779,38.24916666666667],[-114.39777777777779,38.24916666666667],[-114.54638888888888,38.26583333333333],[-114.54638888888888,38.26583333333333],[-114.54638888888888,38.26583333333333],[-114.54638888888888,38.26583333333333],[-114.54638888888888,38.26583333333333],[-114.69444444444444,38.280833333333334],[-114.69444444444444,38.280833333333334],[-114.84444444444443,38.29611111111111],[-114.84444444444443,38.29611111111111],[-114.84444444444443,38.29611111111111],[-115.13972222222223,38.32472222222223],[-115.13972222222223,38.32472222222223],[-115.13972222222223,38.32472222222223],[-115.34194444444444,38.34388888888889],[-115.34194444444444,38.34388888888889],[-115.34194444444444,38.34388888888889],[-115.34194444444444,38.34388888888889],[-115.42694444444444,38.35166666666667],[-115.42694444444444,38.35166666666667],[-115.62972222222221,38.37138888888889],[-115.62972222222221,38.37138888888889],[-115.77444444444444,38.38388888888889],[-115.77444444444444,38.38388888888889],[-115.77444444444444,38.38388888888889],[-115.77444444444444,38.38388888888889],[-115.77444444444444,38.38388888888889],[-115.91916666666667,38.39666666666667],[-116.06222222222222,38.407222222222224],[-116.06222222222222,38.407222222222224],[-116.06222222222222,38.407222222222224],[-116.06222222222222,38.407222222222224],[-116.29805555555555,38.36638888888889],[-116.29805555555555,38.36638888888889],[-116.29805555555555,38.36638888888889],[-116.29805555555555,38.36638888888889],[-116.29805555555555,38.36638888888889],[-116.50805555555556,38.32888888888889],[-116.65666666666667,38.30166666666666],[-116.65666666666667,38.30166666666666],[-116.65666666666667,38.30166666666666],[-116.65666666666667,38.30166666666666],[-116.7425,38.28611111111111],[-116.7425,38.28611111111111],[-116.7425,38.28611111111111],[-117.0375,38.23861111111111],[-117.1236111111111,38.22638888888889],[-117.1236111111111,38.22638888888889],[-117.1236111111111,38.22638888888889],[-117.17861111111111,38.218333333333334],[-117.17861111111111,38.218333333333334],[-117.17861111111111,38.218333333333334],[-117.26972222222223,38.205000000000005],[-117.26972222222223,38.205000000000005],[-117.4175,38.18333333333333],[-117.4175,38.18333333333333],[-117.4175,38.18333333333333],[-117.4175,38.18333333333333],[-117.6125,38.153888888888886],[-117.6125,38.153888888888886],[-117.6125,38.153888888888886],[-117.76,38.13166666666667],[-117.76,38.13166666666667],[-118.05388888888889,38.08694444444445],[-118.05388888888889,38.08694444444445],[-118.05388888888889,38.08694444444445],[-118.20222222222222,38.06388888888888],[-118.20222222222222,38.06388888888888],[-118.20222222222222,38.06388888888888],[-118.20222222222222,38.06388888888888],[-118.20222222222222,38.06388888888888],[-118.7388888888889,37.97916666666667],[-118.7388888888889,37.97916666666667],[-118.88722222222223,37.955555555555556],[-118.88722222222223,37.955555555555556],[-118.88722222222223,37.955555555555556],[-118.88722222222223,37.955555555555556],[-119.0375,37.93111111111111],[-119.0375,37.93111111111111],[-119.0375,37.93111111111111],[-119.0375,37.93111111111111],[-119.32916666666667,37.88305555555556],[-119.32916666666667,37.88305555555556],[-119.32916666666667,37.88305555555556],[-119.32916666666667,37.88305555555556],[-119.62472222222222,37.83361111111111],[-119.62472222222222,37.83361111111111],[-119.62472222222222,37.83361111111111],[-119.62472222222222,37.83361111111111],[-119.62472222222222,37.83361111111111],[-120.2213888888889,37.73111111111111],[-120.2213888888889,37.73111111111111],[-120.2213888888889,37.73111111111111],[-120.2213888888889,37.73111111111111],[-120.36361111111111,37.70638888888889],[-120.5038888888889,37.687777777777775],[-120.5038888888889,37.687777777777775],[-120.5038888888889,37.687777777777775],[-120.5038888888889,37.687777777777775],[-120.53333333333333,37.68333333333333],[-120.53333333333333,37.68333333333333],[-120.68333333333334,37.666666666666664],[-120.8,37.65],[-120.8,37.65],[-120.91055555555556,37.63944444444444],[-120.91055555555556,37.63944444444444],[-120.91055555555556,37.63944444444444],[-120.91055555555556,37.63944444444444],[-121.06666666666666,37.61666666666667],[-121.06666666666666,37.61666666666667],[-121.06666666666666,37.61666666666667],[-121.1575,37.606944444444444],[-121.1575,37.606944444444444],[-121.1575,37.606944444444444],[-121.1575,37.606944444444444],[-121.50166666666667,37.56527777777777],[-121.50166666666667,37.56527777777777],[-121.50166666666667,37.56527777777777],[-121.50166666666667,37.56527777777777],[-121.50166666666667,37.56527777777777],[-121.50166666666667,37.56527777777777],[-121.71388888888889,37.53],[-121.71388888888889,37.53],[-121.71388888888889,37.53],[-121.71388888888889,37.53],[-121.71388888888889,37.53],[-121.96944444444445,37.49666666666667],[-121.96944444444445,37.49666666666667],[-121.96944444444445,37.49666666666667],[-121.96944444444445,37.49666666666667],[-121.96944444444445,37.49666666666667],[-122.155,37.52861111111111],[-122.155,37.52861111111111],[-122.155,37.52861111111111],[-122.155,37.52861111111111],[-122.35,37.61666666666667],[-122.35,37.61666666666667]],"type":"LineString"}
}
