{
  "id": 2031430075,
  "type": "Feature",
  "properties": {
    "geom:area": 0,
    "geom:bbox": "-122.380000,30.140000,-97.670000,37.870000",
    "geom:latitude": 34.82088387314472,
    "geom:longitude": -109.55048477520884,
    "src:alt_label": "swim-route",
    "src:geom": "swim",
    "swim:geom": "route",
    "wof:geomhash": "f82ed240fe38d89957dbe47b4b948b96",
    "wof:id": 2031430075,
    "wof:repo": "sfomuseum-data-flights-2026-06"
  },
  "bbox": [
    -122.38,
    30.14,
    -97.67,
    37.87
  ],
  "geometry": {"coordinates":[[-97.67,30.19],[-97.76,30.23],[-97.77,30.21],[-97.79,30.19],[-97.82,30.16],[-97.83,30.14],[-97.84,30.15],[-97.89,30.18],[-97.89,30.18],[-97.92,30.21],[-97.94,30.22],[-97.94,30.22],[-98.04,30.3],[-98.1,30.32],[-98.11,30.33],[-98.19,30.37],[-98.23,30.38],[-98.28,30.41],[-98.28,30.41],[-98.32,30.42],[-98.35,30.43],[-98.35,30.43],[-98.61,30.58],[-98.73,30.66],[-98.79,30.69],[-98.98,30.81],[-99.06,30.85],[-99.18,30.92],[-99.21,30.94],[-99.21,30.94],[-99.25,31.03],[-99.43,31.13],[-99.71,31.29],[-99.92,31.41],[-99.68,31.3],[-99.64,31.28],[-99.68,31.31],[-100.28,31.64],[-101.03,32.04],[-101.37,32.2],[-101.79,32.42],[-102.16,32.61],[-102.92,33.01],[-103.08,33.1],[-103.7,33.4],[-104.59,33.85],[-105.02,34.05],[-105.12,34.14],[-105.15,34.16],[-105.78,34.72],[-106.48,34.82],[-106.53,34.84],[-106.62,34.85],[-107.27,34.97],[-107.85,35.06],[-108.61,35.19],[-109.88,35.38],[-111.89,35.65],[-114.1,35.92],[-114.86,36],[-115.52,36.28],[-116.75,36.8],[-117.25,37.24],[-117.31,37.3],[-117.36,37.34],[-117.52,37.49],[-117.94,37.84],[-118.18,37.87],[-118.76,37.7],[-119.07,37.7],[-119.21,37.7],[-119.48,37.7],[-119.9,37.7],[-120,37.7],[-120.4,37.7],[-120.41,37.7],[-120.48,37.69],[-120.69,37.67],[-120.75,37.66],[-120.77,37.66],[-120.83,37.65],[-120.96,37.63],[-121,37.63],[-121.08,37.62],[-121.17,37.6],[-121.26,37.59],[-121.39,37.58],[-121.41,37.58],[-121.6,37.55],[-121.61,37.55],[-121.62,37.55],[-121.7,37.53],[-121.8,37.51],[-121.83,37.5],[-121.88,37.49],[-122.08,37.54],[-122.14,37.56],[-122.18,37.57],[-122.28,37.59],[-122.33,37.61],[-122.36,37.61],[-122.38,37.62]],"type":"LineString"}
}
