{
  "id": 2031421675,
  "type": "Feature",
  "properties": {
    "geom:area": 0,
    "geom:bbox": "-122.360190,37.434940,-121.247030,37.674410",
    "geom:latitude": 37.56637164179494,
    "geom:longitude": -121.84471275326094,
    "src:alt_label": "swim-approach",
    "src:geom": "swim",
    "swim:elevations": [
      5047,
      4870,
      4658,
      4440,
      4195,
      3980,
      3720,
      3614,
      3523,
      3387,
      3380,
      3174,
      3076,
      3048,
      3048,
      3048,
      3048,
      3024,
      2855,
      2743,
      2743,
      2743,
      2743,
      2743,
      2743,
      2743,
      2743,
      2743,
      2743,
      2473,
      2456,
      2437,
      2438,
      2287,
      2122,
      1994,
      1952,
      1907,
      1797,
      1671,
      1486,
      1307,
      1177,
      1028,
      948,
      783,
      667,
      559,
      529,
      447,
      308,
      181,
      42,
      0
    ],
    "swim:geom": "approach",
    "swim:timestamps": [
      1780326928,
      1780326952,
      1780326981,
      1780327010,
      1780327042,
      1780327070,
      1780327103,
      1780327114,
      1780327131,
      1780327167,
      1780327175,
      1780327227,
      1780327245,
      1780327270,
      1780327288,
      1780327319,
      1780327323,
      1780327359,
      1780327387,
      1780327428,
      1780327438,
      1780327467,
      1780327473,
      1780327500,
      1780327554,
      1780327581,
      1780327591,
      1780327634,
      1780327653,
      1780327708,
      1780327713,
      1780327734,
      1780327744,
      1780327787,
      1780327823,
      1780327854,
      1780327861,
      1780327875,
      1780327895,
      1780327934,
      1780327972,
      1780328006,
      1780328031,
      1780328064,
      1780328077,
      1780328115,
      1780328141,
      1780328167,
      1780328175,
      1780328200,
      1780328230,
      1780328265,
      1780328301,
      1780328310
    ],
    "wof:geomhash": "efa9ce54398d612e24b35fc4abe740f8",
    "wof:id": 2031421675,
    "wof:repo": "sfomuseum-data-flights-2026-06"
  },
  "bbox": [
    -122.36019,
    37.43494,
    -121.24703,
    37.67441
  ],
  "geometry": {"coordinates":[[-121.24703,37.59487],[-121.2919,37.58894],[-121.34541,37.58353],[-121.39847,37.57783],[-121.45581,37.57047],[-121.50753,37.56441],[-121.56466,37.55768],[-121.58323,37.55542],[-121.61303,37.55582],[-121.66598,37.57933],[-121.67672,37.58506],[-121.74071,37.61917],[-121.76156,37.63055],[-121.79111,37.64638],[-121.81329,37.65829],[-121.85528,37.666],[-121.86148,37.66642],[-121.91362,37.66985],[-121.95337,37.67218],[-122.01164,37.67441],[-122.02403,37.67047],[-122.03915,37.64211],[-122.03702,37.63528],[-122.01174,37.61423],[-121.93993,37.59128],[-121.90421,37.57945],[-121.89166,37.57518],[-121.83488,37.55637],[-121.81089,37.54725],[-121.80434,37.49018],[-121.80434,37.48487],[-121.80231,37.46239],[-121.80656,37.45184],[-121.86102,37.43494],[-121.91333,37.43645],[-121.9556,37.44609],[-121.96433,37.44854],[-121.98204,37.45474],[-122.00594,37.46519],[-122.04858,37.48363],[-122.08523,37.49905],[-122.1163,37.51199],[-122.13804,37.52138],[-122.16705,37.53358],[-122.17882,37.53869],[-122.21077,37.55189],[-122.23272,37.56127],[-122.25376,37.5701],[-122.26038,37.57289],[-122.27829,37.5804],[-122.30094,37.58993],[-122.32784,37.60127],[-122.35417,37.61226],[-122.36019,37.61473]],"type":"LineString"}
}
