{
  "id": 2031510243,
  "type": "Feature",
  "properties": {
    "geom:area": 0,
    "geom:bbox": "-122.372778,37.495278,-87.950000,42.471667",
    "geom:latitude": 40.63662231011363,
    "geom:longitude": -105.23948038945063,
    "src:alt_label": "swim-path",
    "src:geom": "swim",
    "swim:altitudes": [
      "022",
      "022",
      "054",
      "054",
      "054",
      "078",
      "078",
      "078",
      "113",
      "113",
      "113",
      "152",
      "152",
      "152",
      "152",
      "189",
      "189",
      "189",
      "212",
      "212",
      "212",
      "212",
      "219",
      "219",
      "226",
      "226",
      "226",
      "239",
      "239",
      "239",
      "258C",
      "258C",
      "258C",
      "258C",
      "260C",
      "260C",
      "260C",
      "260C",
      "260C",
      "260C",
      "260C",
      "260C",
      "260C",
      "260C",
      "260C",
      "260C",
      "260C",
      "260C",
      "260C",
      "260C",
      "260C",
      "260C",
      "260C",
      "260C",
      "260C",
      "260C",
      "260C",
      "260C",
      "260C",
      "260C",
      "260C",
      "260C",
      "260C",
      "260C",
      "260C",
      "260C",
      "260C",
      "260C",
      "260C",
      "260C",
      "260C",
      "260C",
      "260C",
      "260C",
      "260C",
      "260C",
      "260C",
      "260C",
      "260C",
      "260C",
      "260C",
      "260C",
      "260C",
      "260C",
      "260C",
      "260C",
      "260C",
      "260C",
      "260C",
      "260C",
      "260C",
      "260C",
      "260C",
      "260C",
      "260C",
      "260C",
      "260C",
      "260C",
      "260C",
      "260C",
      "260C",
      "260C",
      "260C",
      "260C",
      "260C",
      "260C",
      "260C",
      "260C",
      "260C",
      "260C",
      "260C",
      "260C",
      "260C",
      "260C",
      "260C",
      "260C",
      "260C",
      "260C",
      "260C",
      "260C",
      "260C",
      "260C",
      "260C",
      "260C",
      "260C",
      "260C",
      "260C",
      "260C",
      "260C",
      "260C",
      "260C",
      "260C",
      "260C",
      "260C",
      "260C",
      "260C",
      "260C",
      "260C",
      "260C",
      "260C",
      "260C",
      "260C",
      "260C",
      "260C",
      "260C",
      "260C",
      "260C",
      "260C",
      "260C",
      "260C",
      "260C",
      "260C",
      "260C",
      "260C",
      "260C",
      "260C",
      "260C",
      "260C",
      "260C",
      "260C",
      "260C",
      "260C",
      "260C",
      "260C",
      "260C",
      "260C",
      "260C",
      "260C",
      "260C",
      "260C",
      "260C",
      "260C",
      "260C",
      "260C",
      "260C",
      "260C",
      "260C",
      "260C",
      "260C",
      "260C",
      "260C",
      "260C",
      "260C",
      "260C",
      "260C",
      "260C",
      "260C",
      "260C",
      "260C",
      "260C",
      "260C",
      "260C",
      "260C",
      "260C",
      "260",
      "260",
      "260",
      "260",
      "267",
      "267",
      "267",
      "280C",
      "280C",
      "280C",
      "280C",
      "280C",
      "280C",
      "280C",
      "280C",
      "280C",
      "280C",
      "280C",
      "280C",
      "280C",
      "280C",
      "280C",
      "280C",
      "280C",
      "280C",
      "280C",
      "280C",
      "280C",
      "280C",
      "280C",
      "280C",
      "280C",
      "280C",
      "280C",
      "280C",
      "280C",
      "280C",
      "280C",
      "280C",
      "280C",
      "280C",
      "280C",
      "280C",
      "280C",
      "280C",
      "280C",
      "280C",
      "280C",
      "280C",
      "280C",
      "280C",
      "280C",
      "280C",
      "280C",
      "280C",
      "280C",
      "280C",
      "280C",
      "280C",
      "280C",
      "280C",
      "280C",
      "280C",
      "280C",
      "280C",
      "280C",
      "280C",
      "280C",
      "280C",
      "280C",
      "280C",
      "280C",
      "280C",
      "280C",
      "280C",
      "280C",
      "280C",
      "280C",
      "280C",
      "280C",
      "280C",
      "280C",
      "280C",
      "280C",
      "280C",
      "280C",
      "280C",
      "280C",
      "280C",
      "280C",
      "280C",
      "280C",
      "280",
      "280",
      "280",
      "275",
      "275",
      "170",
      "170",
      "170",
      "100",
      "061",
      "061",
      "049",
      "030",
      "012",
      "012",
      "011",
      "004",
      "70"
    ],
    "swim:geom": "path",
    "swim:speeds": [
      157,
      157,
      237,
      237,
      237,
      244,
      244,
      244,
      282,
      282,
      282,
      310,
      310,
      310,
      310,
      321,
      321,
      321,
      330,
      330,
      330,
      330,
      360,
      360,
      377,
      377,
      377,
      387,
      387,
      387,
      391,
      391,
      391,
      391,
      398,
      398,
      398,
      373,
      373,
      373,
      373,
      381,
      381,
      381,
      381,
      379,
      379,
      379,
      379,
      396,
      396,
      396,
      418,
      418,
      423,
      423,
      423,
      423,
      418,
      418,
      418,
      416,
      416,
      416,
      416,
      417,
      417,
      417,
      418,
      418,
      417,
      417,
      417,
      417,
      417,
      416,
      416,
      416,
      416,
      415,
      415,
      415,
      415,
      414,
      414,
      414,
      414,
      414,
      414,
      415,
      415,
      415,
      415,
      416,
      416,
      416,
      416,
      417,
      417,
      417,
      419,
      419,
      419,
      420,
      420,
      420,
      420,
      425,
      425,
      425,
      425,
      428,
      429,
      429,
      429,
      422,
      422,
      406,
      405,
      405,
      409,
      409,
      408,
      408,
      407,
      407,
      408,
      408,
      407,
      407,
      407,
      400,
      400,
      400,
      400,
      409,
      409,
      409,
      421,
      421,
      421,
      425,
      425,
      425,
      425,
      425,
      425,
      425,
      425,
      429,
      429,
      429,
      429,
      431,
      431,
      435,
      435,
      435,
      435,
      440,
      440,
      440,
      441,
      441,
      441,
      444,
      444,
      446,
      446,
      446,
      446,
      430,
      430,
      430,
      431,
      431,
      431,
      448,
      448,
      448,
      448,
      451,
      451,
      451,
      451,
      451,
      451,
      450,
      450,
      450,
      436,
      439,
      439,
      439,
      458,
      458,
      455,
      455,
      451,
      451,
      451,
      446,
      446,
      443,
      443,
      443,
      455,
      455,
      455,
      462,
      462,
      462,
      462,
      463,
      463,
      462,
      462,
      462,
      462,
      462,
      462,
      461,
      461,
      459,
      459,
      458,
      458,
      458,
      456,
      456,
      456,
      456,
      456,
      455,
      455,
      454,
      454,
      453,
      453,
      453,
      454,
      452,
      452,
      452,
      455,
      455,
      455,
      456,
      456,
      456,
      456,
      456,
      455,
      455,
      455,
      463,
      465,
      465,
      468,
      465,
      465,
      464,
      464,
      464,
      465,
      466,
      467,
      468,
      468,
      468,
      470,
      470,
      470,
      471,
      474,
      474,
      474,
      475,
      476,
      476,
      475,
      475,
      476,
      476,
      465,
      465,
      464,
      464,
      464,
      444,
      444,
      378,
      378,
      378,
      303,
      273,
      273,
      245,
      207,
      164,
      164,
      167,
      151,
      117
    ],
    "swim:timestamps": [
      1781232550,
      1781232550,
      1781232670,
      1781232670,
      1781232670,
      1781232730,
      1781232730,
      1781232730,
      1781232850,
      1781232850,
      1781232850,
      1781232970,
      1781232970,
      1781232970,
      1781232970,
      1781233090,
      1781233090,
      1781233090,
      1781233210,
      1781233210,
      1781233210,
      1781233210,
      1781233270,
      1781233270,
      1781233331,
      1781233331,
      1781233331,
      1781233391,
      1781233391,
      1781233391,
      1781233507,
      1781233507,
      1781233507,
      1781233507,
      1781233567,
      1781233567,
      1781233567,
      1781233747,
      1781233747,
      1781233747,
      1781233747,
      1781233867,
      1781233867,
      1781233867,
      1781233867,
      1781233987,
      1781233987,
      1781233987,
      1781233987,
      1781234108,
      1781234108,
      1781234108,
      1781234168,
      1781234168,
      1781234228,
      1781234228,
      1781234228,
      1781234228,
      1781234468,
      1781234468,
      1781234468,
      1781234528,
      1781234528,
      1781234588,
      1781234588,
      1781234648,
      1781234648,
      1781234648,
      1781234769,
      1781234769,
      1781235069,
      1781235069,
      1781235069,
      1781235129,
      1781235129,
      1781235189,
      1781235189,
      1781235189,
      1781235189,
      1781235249,
      1781235249,
      1781235249,
      1781235249,
      1781235610,
      1781235610,
      1781235610,
      1781235670,
      1781235670,
      1781235670,
      1781235790,
      1781235790,
      1781235790,
      1781235790,
      1781235910,
      1781235970,
      1781235970,
      1781235970,
      1781236030,
      1781236030,
      1781236030,
      1781236151,
      1781236151,
      1781236151,
      1781236211,
      1781236211,
      1781236211,
      1781236211,
      1781236451,
      1781236451,
      1781236451,
      1781236451,
      1781236571,
      1781236631,
      1781236631,
      1781236631,
      1781236664,
      1781236664,
      1781236904,
      1781236992,
      1781236992,
      1781237052,
      1781237052,
      1781237084,
      1781237084,
      1781237144,
      1781237144,
      1781237204,
      1781237204,
      1781237264,
      1781237264,
      1781237264,
      1781237412,
      1781237412,
      1781237412,
      1781237412,
      1781237565,
      1781237565,
      1781237565,
      1781237625,
      1781237625,
      1781237625,
      1781237745,
      1781237773,
      1781237773,
      1781237773,
      1781237805,
      1781237805,
      1781237805,
      1781237805,
      1781237985,
      1781237985,
      1781237985,
      1781237985,
      1781238045,
      1781238045,
      1781238165,
      1781238165,
      1781238165,
      1781238165,
      1781238406,
      1781238406,
      1781238406,
      1781238466,
      1781238466,
      1781238466,
      1781238646,
      1781238646,
      1781238706,
      1781238706,
      1781238706,
      1781238706,
      1781238886,
      1781238886,
      1781238886,
      1781239006,
      1781239006,
      1781239006,
      1781239066,
      1781239066,
      1781239066,
      1781239066,
      1781239427,
      1781239427,
      1781239427,
      1781239427,
      1781239487,
      1781239487,
      1781239607,
      1781239607,
      1781239607,
      1781239727,
      1781239787,
      1781239787,
      1781239787,
      1781239967,
      1781239967,
      1781240027,
      1781240027,
      1781240087,
      1781240087,
      1781240087,
      1781240147,
      1781240147,
      1781240267,
      1781240267,
      1781240267,
      1781240327,
      1781240327,
      1781240327,
      1781240508,
      1781240508,
      1781240508,
      1781240508,
      1781240628,
      1781240628,
      1781240688,
      1781240688,
      1781240688,
      1781240688,
      1781240748,
      1781240748,
      1781240808,
      1781240808,
      1781240868,
      1781240868,
      1781240928,
      1781240928,
      1781240928,
      1781241048,
      1781241048,
      1781241048,
      1781241168,
      1781241168,
      1781241228,
      1781241228,
      1781241348,
      1781241348,
      1781241468,
      1781241468,
      1781241468,
      1781241648,
      1781241772,
      1781241772,
      1781241772,
      1781242013,
      1781242013,
      1781242013,
      1781242313,
      1781242313,
      1781242373,
      1781242373,
      1781242373,
      1781242613,
      1781242613,
      1781242613,
      1781243034,
      1781243094,
      1781243094,
      1781243192,
      1781243214,
      1781243214,
      1781243454,
      1781243454,
      1781243454,
      1781243574,
      1781243634,
      1781243694,
      1781243754,
      1781243754,
      1781243793,
      1781243913,
      1781243913,
      1781243995,
      1781244055,
      1781244153,
      1781244153,
      1781244175,
      1781244235,
      1781244393,
      1781244453,
      1781244573,
      1781244573,
      1781244693,
      1781244693,
      1781244933,
      1781244933,
      1781245053,
      1781245053,
      1781245053,
      1781245294,
      1781245294,
      1781245594,
      1781245594,
      1781245594,
      1781245894,
      1781246074,
      1781246074,
      1781246128,
      1781246248,
      1781246368,
      1781246368,
      1781246374,
      1781246428,
      1781246495
    ],
    "wof:geomhash": "fc8cab319ad4694fe474edd9efe5d407",
    "wof:id": 2031510243,
    "wof:repo": "sfomuseum-data-flights-2026-06"
  },
  "bbox": [
    -122.37277777777777,
    37.49527777777778,
    -87.95,
    42.47166666666667
  ],
  "geometry": {"coordinates":[[-87.95,41.983333333333334],[-87.95,41.983333333333334],[-88.10722222222222,41.96944444444445],[-88.10722222222222,41.96944444444445],[-88.10722222222222,41.96944444444445],[-88.19361111111111,41.99305555555556],[-88.19361111111111,41.99305555555556],[-88.19361111111111,41.99305555555556],[-88.37472222222222,42.043055555555554],[-88.37472222222222,42.043055555555554],[-88.37472222222222,42.043055555555554],[-88.58888888888889,42.1025],[-88.58888888888889,42.1025],[-88.58888888888889,42.1025],[-88.58888888888889,42.1025],[-88.81305555555555,42.16222222222222],[-88.81305555555555,42.16222222222222],[-88.81305555555555,42.16222222222222],[-89.03972222222222,42.15694444444444],[-89.03972222222222,42.15694444444444],[-89.03972222222222,42.15694444444444],[-89.03972222222222,42.15694444444444],[-89.17083333333333,42.15416666666667],[-89.17083333333333,42.15416666666667],[-89.31083333333333,42.15],[-89.31083333333333,42.15],[-89.31083333333333,42.15],[-89.45722222222223,42.14611111111111],[-89.45722222222223,42.14611111111111],[-89.45722222222223,42.14611111111111],[-89.74666666666667,42.16083333333333],[-89.74666666666667,42.16083333333333],[-89.74666666666667,42.16083333333333],[-89.74666666666667,42.16083333333333],[-89.89555555555556,42.17305555555555],[-89.89555555555556,42.17305555555555],[-89.89555555555556,42.17305555555555],[-90.31333333333333,42.20333333333333],[-90.31333333333333,42.20333333333333],[-90.31333333333333,42.20333333333333],[-90.31333333333333,42.20333333333333],[-90.59861111111111,42.223888888888894],[-90.59861111111111,42.223888888888894],[-90.59861111111111,42.223888888888894],[-90.59861111111111,42.223888888888894],[-90.88333333333334,42.24277777777778],[-90.88333333333334,42.24277777777778],[-90.88333333333334,42.24277777777778],[-90.88333333333334,42.24277777777778],[-91.16722222222222,42.26083333333333],[-91.16722222222222,42.26083333333333],[-91.16722222222222,42.26083333333333],[-91.32249999999999,42.27027777777778],[-91.32249999999999,42.27027777777778],[-91.4825,42.27972222222222],[-91.4825,42.27972222222222],[-91.4825,42.27972222222222],[-91.4825,42.27972222222222],[-92.11305555555555,42.31444444444444],[-92.11305555555555,42.31444444444444],[-92.11305555555555,42.31444444444444],[-92.26888888888888,42.322500000000005],[-92.26888888888888,42.322500000000005],[-92.42277777777778,42.330555555555556],[-92.42277777777778,42.330555555555556],[-92.57972222222222,42.338055555555556],[-92.57972222222222,42.338055555555556],[-92.57972222222222,42.338055555555556],[-92.89416666666668,42.35305555555556],[-92.89416666666668,42.35305555555556],[-93.67777777777778,42.38611111111111],[-93.67777777777778,42.38611111111111],[-93.67777777777778,42.38611111111111],[-93.83277777777778,42.39194444444444],[-93.83277777777778,42.39194444444444],[-93.98972222222223,42.397777777777776],[-93.98972222222223,42.397777777777776],[-93.98972222222223,42.397777777777776],[-93.98972222222223,42.397777777777776],[-94.14250000000001,42.403055555555554],[-94.14250000000001,42.403055555555554],[-94.14250000000001,42.403055555555554],[-94.14250000000001,42.403055555555554],[-95.06555555555555,42.43138888888889],[-95.06555555555555,42.43138888888889],[-95.06555555555555,42.43138888888889],[-95.22,42.43555555555555],[-95.22,42.43555555555555],[-95.22,42.43555555555555],[-95.53138888888888,42.44277777777778],[-95.53138888888888,42.44277777777778],[-95.53138888888888,42.44277777777778],[-95.53138888888888,42.44277777777778],[-95.84083333333332,42.44944444444444],[-95.99694444444445,42.4525],[-95.99694444444445,42.4525],[-95.99694444444445,42.4525],[-96.15472222222223,42.455000000000005],[-96.15472222222223,42.455000000000005],[-96.15472222222223,42.455000000000005],[-96.4675,42.46],[-96.4675,42.46],[-96.4675,42.46],[-96.62472222222222,42.46222222222222],[-96.62472222222222,42.46222222222222],[-96.62472222222222,42.46222222222222],[-96.62472222222222,42.46222222222222],[-97.26194444444444,42.46888888888889],[-97.26194444444444,42.46888888888889],[-97.26194444444444,42.46888888888889],[-97.26194444444444,42.46888888888889],[-97.5825,42.470555555555556],[-97.74361111111111,42.471111111111114],[-97.74361111111111,42.471111111111114],[-97.74361111111111,42.471111111111114],[-97.85555555555555,42.47166666666667],[-97.85555555555555,42.47166666666667],[-98.46361111111112,42.47138888888889],[-98.67611111111111,42.468333333333334],[-98.67611111111111,42.468333333333334],[-98.82583333333334,42.442499999999995],[-98.82583333333334,42.442499999999995],[-98.91361111111112,42.43083333333333],[-98.91361111111112,42.43083333333333],[-99.06277777777777,42.404444444444444],[-99.06277777777777,42.404444444444444],[-99.21083333333334,42.37694444444445],[-99.21083333333334,42.37694444444445],[-99.35777777777777,42.349722222222226],[-99.35777777777777,42.349722222222226],[-99.35777777777777,42.349722222222226],[-99.70694444444445,42.28527777777778],[-99.70694444444445,42.28527777777778],[-99.70694444444445,42.28527777777778],[-99.70694444444445,42.28527777777778],[-100.08222222222221,42.214444444444446],[-100.08222222222221,42.214444444444446],[-100.08222222222221,42.214444444444446],[-100.23416666666667,42.18555555555555],[-100.23416666666667,42.18555555555555],[-100.23416666666667,42.18555555555555],[-100.54166666666667,42.12583333333333],[-100.60027777777778,42.114444444444445],[-100.60027777777778,42.114444444444445],[-100.60027777777778,42.114444444444445],[-100.69416666666667,42.096111111111114],[-100.69416666666667,42.096111111111114],[-100.69416666666667,42.096111111111114],[-100.69416666666667,42.096111111111114],[-101.1575,42.00416666666667],[-101.1575,42.00416666666667],[-101.1575,42.00416666666667],[-101.1575,42.00416666666667],[-101.31361111111111,41.972500000000004],[-101.31361111111111,41.972500000000004],[-101.625,41.909166666666664],[-101.625,41.909166666666664],[-101.625,41.909166666666664],[-101.625,41.909166666666664],[-102.2538888888889,41.77777777777778],[-102.2538888888889,41.77777777777778],[-102.2538888888889,41.77777777777778],[-102.39972222222222,41.74666666666667],[-102.39972222222222,41.74666666666667],[-102.39972222222222,41.74666666666667],[-102.87777777777777,41.64333333333333],[-102.87777777777777,41.64333333333333],[-103.03666666666666,41.60861111111111],[-103.03666666666666,41.60861111111111],[-103.03666666666666,41.60861111111111],[-103.03666666666666,41.60861111111111],[-103.4961111111111,41.506388888888885],[-103.4961111111111,41.506388888888885],[-103.4961111111111,41.506388888888885],[-103.80472222222222,41.436388888888885],[-103.80472222222222,41.436388888888885],[-103.80472222222222,41.436388888888885],[-103.96305555555556,41.400277777777774],[-103.96305555555556,41.400277777777774],[-103.96305555555556,41.400277777777774],[-103.96305555555556,41.400277777777774],[-104.92277777777778,41.18472222222222],[-104.92277777777778,41.18472222222222],[-104.92277777777778,41.18472222222222],[-104.92277777777778,41.18472222222222],[-105.08333333333333,41.15694444444444],[-105.08333333333333,41.15694444444444],[-105.40694444444445,41.099722222222226],[-105.40694444444445,41.099722222222226],[-105.40694444444445,41.099722222222226],[-105.72083333333333,41.04333333333333],[-105.8786111111111,41.014722222222225],[-105.8786111111111,41.014722222222225],[-105.8786111111111,41.014722222222225],[-106.35833333333333,40.92583333333333],[-106.35833333333333,40.92583333333333],[-106.51944444444445,40.89555555555555],[-106.51944444444445,40.89555555555555],[-106.68138888888889,40.86472222222223],[-106.68138888888889,40.86472222222223],[-106.68138888888889,40.86472222222223],[-106.8386111111111,40.83444444444444],[-106.8386111111111,40.83444444444444],[-107.1563888888889,40.77305555555555],[-107.1563888888889,40.77305555555555],[-107.1563888888889,40.77305555555555],[-107.3111111111111,40.74277777777778],[-107.3111111111111,40.74277777777778],[-107.3111111111111,40.74277777777778],[-107.81527777777778,40.64222222222222],[-107.81527777777778,40.64222222222222],[-107.81527777777778,40.64222222222222],[-107.81527777777778,40.64222222222222],[-108.14722222222223,40.57472222222223],[-108.14722222222223,40.57472222222223],[-108.2936111111111,40.544444444444444],[-108.2936111111111,40.544444444444444],[-108.2936111111111,40.544444444444444],[-108.2936111111111,40.544444444444444],[-108.45472222222223,40.51111111111111],[-108.45472222222223,40.51111111111111],[-108.61666666666666,40.477222222222224],[-108.61666666666666,40.477222222222224],[-108.77583333333334,40.44361111111111],[-108.77583333333334,40.44361111111111],[-108.93361111111112,40.41027777777778],[-108.93361111111112,40.41027777777778],[-108.93361111111112,40.41027777777778],[-109.25111111111111,40.342222222222226],[-109.25111111111111,40.342222222222226],[-109.25111111111111,40.342222222222226],[-109.59944444444444,40.26638888888889],[-109.59944444444444,40.26638888888889],[-109.75722222222223,40.23166666666667],[-109.75722222222223,40.23166666666667],[-110.07222222222222,40.16138888888889],[-110.07222222222222,40.16138888888889],[-110.375,40.064166666666665],[-110.375,40.064166666666665],[-110.375,40.064166666666665],[-110.82305555555556,39.90833333333333],[-111.11944444444444,39.80416666666667],[-111.11944444444444,39.80416666666667],[-111.11944444444444,39.80416666666667],[-111.70611111111111,39.594722222222224],[-111.70611111111111,39.594722222222224],[-111.70611111111111,39.594722222222224],[-112.44638888888889,39.32416666666667],[-112.44638888888889,39.32416666666667],[-112.59972222222221,39.280833333333334],[-112.59972222222221,39.280833333333334],[-112.59972222222221,39.280833333333334],[-113.23444444444445,39.13916666666667],[-113.23444444444445,39.13916666666667],[-113.23444444444445,39.13916666666667],[-114.33416666666666,38.88333333333333],[-114.49,38.84583333333334],[-114.49,38.84583333333334],[-114.74416666666667,38.78361111111111],[-114.80611111111111,38.76972222222222],[-114.80611111111111,38.76972222222222],[-115.45305555555557,38.61],[-115.45305555555557,38.61],[-115.45305555555557,38.61],[-115.76583333333333,38.53138888888889],[-115.92416666666666,38.49111111111111],[-116.08277777777778,38.45472222222222],[-116.24472222222222,38.42222222222222],[-116.24472222222222,38.42222222222222],[-116.34305555555555,38.403055555555554],[-116.66694444444445,38.33916666666667],[-116.66694444444445,38.33916666666667],[-116.8888888888889,38.29416666666666],[-117.04916666666666,38.26138888888889],[-117.31833333333333,38.20611111111111],[-117.31833333333333,38.20611111111111],[-117.36333333333333,38.196666666666665],[-117.52444444444444,38.16305555555555],[-117.94805555555556,38.07333333333334],[-118.1111111111111,38.038333333333334],[-118.4325,37.968611111111116],[-118.4325,37.968611111111116],[-118.75555555555556,37.89888888888889],[-118.75555555555556,37.89888888888889],[-119.41055555555556,37.821111111111115],[-119.41055555555556,37.821111111111115],[-119.73527777777778,37.782222222222224],[-119.73527777777778,37.782222222222224],[-119.73527777777778,37.782222222222224],[-120.37583333333333,37.70277777777778],[-120.37583333333333,37.70277777777778],[-121.07111111111111,37.618611111111115],[-121.07111111111111,37.618611111111115],[-121.07111111111111,37.618611111111115],[-121.67222222222223,37.53944444444444],[-121.95361111111112,37.49527777777778],[-121.95361111111112,37.49527777777778],[-122.03333333333333,37.5],[-122.18333333333334,37.53333333333333],[-122.3,37.583333333333336],[-122.3,37.583333333333336],[-122.2961111111111,37.58777777777778],[-122.33333333333333,37.6],[-122.37277777777777,37.62]],"type":"LineString"}
}
