{
  "id": 2031426073,
  "type": "Feature",
  "properties": {
    "geom:area": 0,
    "geom:bbox": "-122.503333,37.625000,-87.915833,43.929722",
    "geom:latitude": 42.076842481623636,
    "geom:longitude": -105.4102234815599,
    "src:alt_label": "swim-path",
    "src:geom": "swim",
    "swim:altitudes": [
      "008",
      "008",
      "039",
      "039",
      "039",
      "039",
      "039",
      "119",
      "119",
      "119",
      "119",
      "166",
      "166",
      "166",
      "166",
      "216",
      "216",
      "216",
      "216",
      "216",
      "216",
      "276",
      "276",
      "287",
      "287",
      "287",
      "287",
      "300",
      "300",
      "300",
      "309",
      "309",
      "324",
      "324",
      "330C",
      "330C",
      "330C",
      "330C",
      "330C",
      "330C",
      "330C",
      "330C",
      "330C",
      "330C",
      "330C",
      "330C",
      "330C",
      "330C",
      "330C",
      "330C",
      "330C",
      "337",
      "337",
      "337",
      "348C",
      "348C",
      "348C",
      "348C",
      "350C",
      "350C",
      "350C",
      "350C",
      "350C",
      "350C",
      "350C",
      "350C",
      "350C",
      "350C",
      "350C",
      "350C",
      "350C",
      "350C",
      "350C",
      "350C",
      "350C",
      "350C",
      "350C",
      "350C",
      "350C",
      "350C",
      "350C",
      "350C",
      "350C",
      "350C",
      "350C",
      "350C",
      "350C",
      "350C",
      "350C",
      "350C",
      "350C",
      "350C",
      "350C",
      "350C",
      "350C",
      "350C",
      "350C",
      "350C",
      "350C",
      "350C",
      "350C",
      "350C",
      "350C",
      "350C",
      "350C",
      "350C",
      "350C",
      "350C",
      "350C",
      "350C",
      "350C",
      "350C",
      "350C",
      "350C",
      "350C",
      "350C",
      "350C",
      "350C",
      "350C",
      "350C",
      "350C",
      "332C",
      "332C",
      "332C",
      "332C",
      "330C",
      "330C",
      "330C",
      "330C",
      "330C",
      "330C",
      "330C",
      "330C",
      "330C",
      "330C",
      "330C",
      "330C",
      "330C",
      "330C",
      "330C",
      "330C",
      "330C",
      "330C",
      "330C",
      "330C",
      "330C",
      "330C",
      "330C",
      "330C",
      "330C",
      "330C",
      "330C",
      "330C",
      "330C",
      "330C",
      "330C",
      "330C",
      "330C",
      "330C",
      "330C",
      "330C",
      "330C",
      "330C",
      "330C",
      "330C",
      "330C",
      "330C",
      "330C",
      "330C",
      "330C",
      "330C",
      "330C",
      "330C",
      "330C",
      "330C",
      "330C",
      "329C",
      "329C",
      "325",
      "325",
      "325",
      "325",
      "325",
      "325",
      "310C",
      "310C",
      "310C",
      "310C",
      "310C",
      "310C",
      "310C",
      "310C",
      "310C",
      "310C",
      "310C",
      "310C",
      "310C",
      "310C",
      "310C",
      "310C",
      "310C",
      "310C",
      "310C",
      "310C",
      "310C",
      "310C",
      "310C",
      "310C",
      "310C",
      "310C",
      "310C",
      "310C",
      "310C",
      "310C",
      "310C",
      "310C",
      "310C",
      "310C",
      "310C",
      "310C",
      "310C",
      "310C",
      "310C",
      "310C",
      "310C",
      "310C",
      "310C",
      "310C",
      "310C",
      "310C",
      "310C",
      "310C",
      "310C",
      "310C",
      "310C",
      "310C",
      "310C",
      "310C",
      "310C",
      "310C",
      "310C",
      "310C",
      "310C",
      "310C",
      "310C",
      "310C",
      "310C",
      "310C",
      "310C",
      "309C",
      "310C",
      "310C",
      "310C",
      "310C",
      "310",
      "310",
      "310",
      "313",
      "313",
      "313",
      "319",
      "319",
      "319",
      "330",
      "330",
      "333",
      "341",
      "341",
      "341",
      "344",
      "350C",
      "350C",
      "350C",
      "350C",
      "350C",
      "350C",
      "350C",
      "350C",
      "350C",
      "350C",
      "350C",
      "350C",
      "350C",
      "350C",
      "350C",
      "350C",
      "350C",
      "350C",
      "350C",
      "350C",
      "350C",
      "350C",
      "350C",
      "350C",
      "350C",
      "350C",
      "350C",
      "350C",
      "350C",
      "350C",
      "350C",
      "350C",
      "350C",
      "350C",
      "350C",
      "350C",
      "350C",
      "350C",
      "350C",
      "350C",
      "350C",
      "350C",
      "350C",
      "350C",
      "350C",
      "350C",
      "350C",
      "350C",
      "350C",
      "350C",
      "350C",
      "350C",
      "350C",
      "350C",
      "350C",
      "350C",
      "350C",
      "350C",
      "350C",
      "350C",
      "350C",
      "350C",
      "350C",
      "350C",
      "349C",
      "349C",
      "349C",
      "349C",
      "350C",
      "350C",
      "350C",
      "350C",
      "350C",
      "349C",
      "349C",
      "349C",
      "349C",
      "350C",
      "350C",
      "350C",
      "350C",
      "350C",
      "350C",
      "350C",
      "350C",
      "350C",
      "350C",
      "350C",
      "350C",
      "350C",
      "350C",
      "350C",
      "350C",
      "350C",
      "350C",
      "350C",
      "350C",
      "350C",
      "350C",
      "344",
      "344",
      "327",
      "327",
      "327",
      "327",
      "310C",
      "310C",
      "310C",
      "310C",
      "310C",
      "310C",
      "310C",
      "310C",
      "310C",
      "310C",
      "310C",
      "310C",
      "310C",
      "310C",
      "310C",
      "310C",
      "310C",
      "310C",
      "310",
      "310",
      "310",
      "310",
      "310",
      "310",
      "310",
      "310",
      "310",
      "310",
      "308",
      "308",
      "308",
      "298",
      "298",
      "298",
      "276",
      "276",
      "276",
      "227",
      "227",
      "227",
      "227",
      "151",
      "151",
      "127",
      "127",
      "127",
      "127",
      "127",
      "117",
      "117",
      "117",
      "117",
      "102",
      "102",
      "102",
      "065",
      "065",
      "065",
      "065",
      "065",
      "065",
      "040",
      "040",
      "040",
      "040",
      "040",
      "040",
      "029",
      "029",
      "029",
      "029",
      "029",
      "029",
      "007",
      "007",
      "007",
      "007"
    ],
    "swim:geom": "path",
    "swim:speeds": [
      147,
      147,
      240,
      240,
      240,
      240,
      240,
      365,
      365,
      365,
      365,
      370,
      370,
      370,
      370,
      403,
      403,
      403,
      403,
      403,
      403,
      444,
      444,
      451,
      451,
      451,
      451,
      455,
      455,
      455,
      461,
      461,
      470,
      470,
      467,
      467,
      467,
      466,
      467,
      467,
      467,
      467,
      467,
      467,
      470,
      470,
      469,
      469,
      469,
      469,
      469,
      476,
      476,
      476,
      476,
      476,
      476,
      476,
      475,
      475,
      475,
      475,
      475,
      475,
      475,
      474,
      475,
      475,
      476,
      476,
      476,
      477,
      477,
      478,
      478,
      482,
      484,
      484,
      484,
      484,
      485,
      485,
      485,
      486,
      486,
      487,
      487,
      487,
      487,
      487,
      487,
      487,
      487,
      486,
      486,
      486,
      486,
      486,
      486,
      486,
      486,
      490,
      491,
      491,
      491,
      491,
      491,
      497,
      497,
      497,
      497,
      497,
      497,
      502,
      502,
      502,
      502,
      503,
      503,
      503,
      503,
      501,
      501,
      501,
      501,
      502,
      502,
      502,
      502,
      500,
      500,
      500,
      500,
      500,
      500,
      500,
      500,
      500,
      500,
      500,
      500,
      500,
      502,
      502,
      502,
      504,
      504,
      504,
      504,
      504,
      505,
      505,
      505,
      508,
      508,
      508,
      508,
      510,
      510,
      510,
      510,
      510,
      510,
      510,
      512,
      512,
      512,
      512,
      512,
      512,
      512,
      513,
      513,
      513,
      513,
      513,
      516,
      516,
      519,
      519,
      519,
      519,
      519,
      519,
      515,
      515,
      515,
      512,
      512,
      512,
      512,
      512,
      510,
      509,
      509,
      509,
      509,
      509,
      508,
      508,
      508,
      508,
      508,
      508,
      508,
      508,
      508,
      508,
      508,
      508,
      508,
      507,
      507,
      507,
      507,
      507,
      506,
      506,
      506,
      506,
      506,
      504,
      504,
      504,
      502,
      502,
      502,
      502,
      504,
      504,
      504,
      504,
      504,
      503,
      503,
      503,
      502,
      502,
      502,
      502,
      502,
      501,
      501,
      501,
      499,
      499,
      499,
      499,
      499,
      499,
      501,
      501,
      501,
      501,
      502,
      502,
      504,
      504,
      504,
      504,
      511,
      511,
      511,
      516,
      516,
      516,
      518,
      518,
      518,
      517,
      518,
      518,
      517,
      517,
      516,
      516,
      516,
      517,
      517,
      517,
      517,
      516,
      516,
      516,
      516,
      516,
      516,
      516,
      516,
      513,
      513,
      511,
      511,
      511,
      511,
      511,
      511,
      511,
      509,
      509,
      509,
      509,
      503,
      503,
      503,
      503,
      500,
      500,
      500,
      498,
      498,
      498,
      498,
      498,
      498,
      493,
      493,
      493,
      493,
      492,
      492,
      493,
      493,
      493,
      493,
      493,
      493,
      493,
      493,
      493,
      493,
      493,
      493,
      493,
      481,
      481,
      481,
      481,
      482,
      482,
      482,
      482,
      482,
      483,
      483,
      483,
      483,
      482,
      484,
      484,
      484,
      484,
      486,
      486,
      486,
      487,
      487,
      487,
      487,
      487,
      487,
      487,
      487,
      487,
      487,
      487,
      487,
      487,
      487,
      487,
      487,
      487,
      487,
      487,
      487,
      469,
      469,
      469,
      469,
      469,
      496,
      496,
      496,
      496,
      496,
      496,
      496,
      496,
      495,
      495,
      495,
      495,
      495,
      496,
      497,
      497,
      497,
      497,
      502,
      502,
      502,
      503,
      503,
      504,
      504,
      504,
      500,
      500,
      500,
      486,
      486,
      486,
      494,
      494,
      494,
      494,
      437,
      437,
      395,
      395,
      395,
      395,
      395,
      345,
      345,
      345,
      345,
      298,
      298,
      298,
      259,
      259,
      259,
      259,
      259,
      259,
      228,
      228,
      228,
      228,
      228,
      228,
      179,
      179,
      179,
      179,
      179,
      179,
      134,
      134,
      134,
      134
    ],
    "swim:timestamps": [
      1780320288,
      1780320288,
      1780320408,
      1780320408,
      1780320408,
      1780320408,
      1780320408,
      1780320648,
      1780320648,
      1780320648,
      1780320648,
      1780320769,
      1780320769,
      1780320769,
      1780320769,
      1780320949,
      1780320949,
      1780320949,
      1780320949,
      1780320949,
      1780320949,
      1780321249,
      1780321249,
      1780321309,
      1780321309,
      1780321309,
      1780321309,
      1780321400,
      1780321400,
      1780321400,
      1780321460,
      1780321460,
      1780321549,
      1780321549,
      1780321669,
      1780321669,
      1780321669,
      1780321700,
      1780321789,
      1780321789,
      1780321789,
      1780321789,
      1780321821,
      1780321821,
      1780322030,
      1780322030,
      1780322061,
      1780322061,
      1780322061,
      1780322061,
      1780322061,
      1780322270,
      1780322270,
      1780322270,
      1780322330,
      1780322330,
      1780322330,
      1780322330,
      1780322390,
      1780322390,
      1780322390,
      1780322421,
      1780322421,
      1780322421,
      1780322421,
      1780322570,
      1780322602,
      1780322602,
      1780322662,
      1780322662,
      1780322662,
      1780322690,
      1780322690,
      1780322750,
      1780322750,
      1780322870,
      1780322902,
      1780322902,
      1780322930,
      1780322930,
      1780322962,
      1780322962,
      1780322990,
      1780323022,
      1780323022,
      1780323050,
      1780323082,
      1780323082,
      1780323082,
      1780323082,
      1780323142,
      1780323142,
      1780323142,
      1780323202,
      1780323202,
      1780323202,
      1780323202,
      1780323262,
      1780323262,
      1780323262,
      1780323262,
      1780323563,
      1780323623,
      1780323623,
      1780323623,
      1780323623,
      1780323623,
      1780323743,
      1780323743,
      1780323743,
      1780323743,
      1780323743,
      1780323743,
      1780323923,
      1780323923,
      1780323923,
      1780323923,
      1780323983,
      1780323983,
      1780323983,
      1780323983,
      1780324164,
      1780324164,
      1780324164,
      1780324164,
      1780324224,
      1780324224,
      1780324224,
      1780324224,
      1780324404,
      1780324404,
      1780324404,
      1780324404,
      1780324404,
      1780324404,
      1780324584,
      1780324584,
      1780324584,
      1780324584,
      1780324644,
      1780324644,
      1780324644,
      1780324704,
      1780324704,
      1780324704,
      1780324825,
      1780324825,
      1780324825,
      1780324825,
      1780324825,
      1780324885,
      1780324885,
      1780324885,
      1780325005,
      1780325005,
      1780325005,
      1780325005,
      1780325125,
      1780325125,
      1780325125,
      1780325185,
      1780325185,
      1780325185,
      1780325185,
      1780325305,
      1780325305,
      1780325365,
      1780325365,
      1780325365,
      1780325365,
      1780325365,
      1780325485,
      1780325485,
      1780325485,
      1780325485,
      1780325485,
      1780325606,
      1780325606,
      1780325666,
      1780325666,
      1780325666,
      1780325666,
      1780325666,
      1780325666,
      1780325786,
      1780325786,
      1780325786,
      1780325846,
      1780325846,
      1780325846,
      1780325846,
      1780325846,
      1780325906,
      1780325966,
      1780325966,
      1780325966,
      1780325966,
      1780325966,
      1780326026,
      1780326026,
      1780326026,
      1780326086,
      1780326086,
      1780326086,
      1780326206,
      1780326206,
      1780326206,
      1780326206,
      1780326206,
      1780326266,
      1780326266,
      1780326507,
      1780326507,
      1780326507,
      1780326507,
      1780326507,
      1780326687,
      1780326687,
      1780326687,
      1780326687,
      1780326687,
      1780326752,
      1780326752,
      1780326752,
      1780326932,
      1780326932,
      1780326932,
      1780326932,
      1780327052,
      1780327052,
      1780327052,
      1780327052,
      1780327052,
      1780327293,
      1780327293,
      1780327293,
      1780327353,
      1780327353,
      1780327353,
      1780327353,
      1780327353,
      1780327413,
      1780327413,
      1780327413,
      1780327533,
      1780327533,
      1780327533,
      1780327533,
      1780327533,
      1780327653,
      1780327713,
      1780327713,
      1780327713,
      1780327713,
      1780327738,
      1780327738,
      1780327773,
      1780327798,
      1780327798,
      1780327798,
      1780327833,
      1780327833,
      1780327833,
      1780327894,
      1780327894,
      1780327918,
      1780327954,
      1780327954,
      1780327954,
      1780327978,
      1780328038,
      1780328038,
      1780328074,
      1780328074,
      1780328134,
      1780328134,
      1780328134,
      1780328158,
      1780328194,
      1780328194,
      1780328194,
      1780328278,
      1780328278,
      1780328278,
      1780328278,
      1780328278,
      1780328314,
      1780328314,
      1780328314,
      1780328554,
      1780328554,
      1780328639,
      1780328639,
      1780328639,
      1780328639,
      1780328699,
      1780328699,
      1780328699,
      1780328819,
      1780328819,
      1780328819,
      1780328819,
      1780328999,
      1780328999,
      1780328999,
      1780328999,
      1780329120,
      1780329120,
      1780329120,
      1780329240,
      1780329240,
      1780329240,
      1780329240,
      1780329240,
      1780329240,
      1780329420,
      1780329420,
      1780329420,
      1780329420,
      1780329540,
      1780329540,
      1780329600,
      1780329600,
      1780329600,
      1780329600,
      1780329660,
      1780329660,
      1780329660,
      1780329720,
      1780329781,
      1780329781,
      1780329781,
      1780329781,
      1780329781,
      1780330141,
      1780330141,
      1780330141,
      1780330141,
      1780330201,
      1780330201,
      1780330201,
      1780330201,
      1780330201,
      1780330441,
      1780330441,
      1780330441,
      1780330441,
      1780330475,
      1780330502,
      1780330502,
      1780330502,
      1780330502,
      1780330622,
      1780330622,
      1780330622,
      1780330655,
      1780330682,
      1780330682,
      1780330682,
      1780330715,
      1780330715,
      1780330742,
      1780330742,
      1780330775,
      1780330775,
      1780330862,
      1780330862,
      1780330862,
      1780330862,
      1780330922,
      1780330922,
      1780330982,
      1780330982,
      1780330982,
      1780330982,
      1780331136,
      1780331136,
      1780331136,
      1780331136,
      1780331136,
      1780331316,
      1780331316,
      1780331316,
      1780331343,
      1780331343,
      1780331403,
      1780331403,
      1780331403,
      1780331436,
      1780331436,
      1780331436,
      1780331436,
      1780331436,
      1780331496,
      1780331523,
      1780331556,
      1780331556,
      1780331556,
      1780331677,
      1780331677,
      1780331677,
      1780331703,
      1780331703,
      1780331737,
      1780331737,
      1780331737,
      1780331797,
      1780331797,
      1780331797,
      1780331857,
      1780331857,
      1780331857,
      1780331977,
      1780331977,
      1780331977,
      1780331977,
      1780332157,
      1780332157,
      1780332220,
      1780332220,
      1780332220,
      1780332220,
      1780332220,
      1780332279,
      1780332279,
      1780332279,
      1780332279,
      1780332398,
      1780332398,
      1780332398,
      1780332578,
      1780332578,
      1780332578,
      1780332578,
      1780332578,
      1780332578,
      1780332879,
      1780332879,
      1780332879,
      1780332879,
      1780332879,
      1780332879,
      1780333059,
      1780333059,
      1780333059,
      1780333059,
      1780333059,
      1780333059,
      1780333239,
      1780333239,
      1780333239,
      1780333239
    ],
    "wof:geomhash": "fcc411a8a77dd3f1f685c6ae49043bcd",
    "wof:id": 2031426073,
    "wof:repo": "sfomuseum-data-flights-2026-06"
  },
  "bbox": [
    -122.50333333333333,
    37.625,
    -87.91583333333334,
    43.92972222222222
  ],
  "geometry": {"coordinates":[[-122.38972222222223,37.625],[-122.38972222222223,37.625],[-122.50333333333333,37.67388888888889],[-122.50333333333333,37.67388888888889],[-122.50333333333333,37.67388888888889],[-122.50333333333333,37.67388888888889],[-122.50333333333333,37.67388888888889],[-122.31777777777778,37.91861111111111],[-122.31777777777778,37.91861111111111],[-122.31777777777778,37.91861111111111],[-122.31777777777778,37.91861111111111],[-122.12249999999999,38.05361111111111],[-122.12249999999999,38.05361111111111],[-122.12249999999999,38.05361111111111],[-122.12249999999999,38.05361111111111],[-121.80694444444444,38.269999999999996],[-121.80694444444444,38.269999999999996],[-121.80694444444444,38.269999999999996],[-121.80694444444444,38.269999999999996],[-121.80694444444444,38.269999999999996],[-121.80694444444444,38.269999999999996],[-121.15944444444445,38.575833333333335],[-121.15944444444445,38.575833333333335],[-120.9925,38.6475],[-120.9925,38.6475],[-120.9925,38.6475],[-120.9925,38.6475],[-120.80472222222222,38.72527777777778],[-120.80472222222222,38.72527777777778],[-120.80472222222222,38.72527777777778],[-120.65944444444445,38.78722222222222],[-120.65944444444445,38.78722222222222],[-120.4075,38.894444444444446],[-120.4075,38.894444444444446],[-120.11361111111111,39.01694444444444],[-120.11361111111111,39.01694444444444],[-120.11361111111111,39.01694444444444],[-120.04083333333332,39.04527777777778],[-119.8325,39.13305555555556],[-119.8325,39.13305555555556],[-119.8325,39.13305555555556],[-119.8325,39.13305555555556],[-119.74583333333334,39.1675],[-119.74583333333334,39.1675],[-119.23694444444445,39.375277777777775],[-119.23694444444445,39.375277777777775],[-119.17833333333334,39.397777777777776],[-119.17833333333334,39.397777777777776],[-119.17833333333334,39.397777777777776],[-119.17833333333334,39.397777777777776],[-119.17833333333334,39.397777777777776],[-118.62194444444444,39.620555555555555],[-118.62194444444444,39.620555555555555],[-118.62194444444444,39.620555555555555],[-118.46722222222222,39.681666666666665],[-118.46722222222222,39.681666666666665],[-118.46722222222222,39.681666666666665],[-118.46722222222222,39.681666666666665],[-118.31388888888888,39.74166666666667],[-118.31388888888888,39.74166666666667],[-118.31388888888888,39.74166666666667],[-118.25583333333333,39.76444444444444],[-118.25583333333333,39.76444444444444],[-118.25583333333333,39.76444444444444],[-118.25583333333333,39.76444444444444],[-117.8561111111111,39.91916666666666],[-117.77305555555556,39.95111111111111],[-117.77305555555556,39.95111111111111],[-117.61861111111111,40.01027777777778],[-117.61861111111111,40.01027777777778],[-117.61861111111111,40.01027777777778],[-117.54583333333333,40.03805555555555],[-117.54583333333333,40.03805555555555],[-117.3913888888889,40.09666666666667],[-117.3913888888889,40.09666666666667],[-117.08555555555554,40.21222222222222],[-116.99166666666667,40.24722222222222],[-116.99166666666667,40.24722222222222],[-116.93583333333333,40.268055555555556],[-116.93583333333333,40.268055555555556],[-116.83638888888889,40.305277777777775],[-116.83638888888889,40.305277777777775],[-116.77666666666667,40.327222222222225],[-116.68333333333334,40.361666666666665],[-116.68333333333334,40.361666666666665],[-116.61749999999999,40.38611111111111],[-116.52388888888889,40.420833333333334],[-116.52388888888889,40.420833333333334],[-116.52388888888889,40.420833333333334],[-116.52388888888889,40.420833333333334],[-116.37277777777777,40.48888888888889],[-116.37277777777777,40.48888888888889],[-116.37277777777777,40.48888888888889],[-116.2286111111111,40.566111111111105],[-116.2286111111111,40.566111111111105],[-116.2286111111111,40.566111111111105],[-116.2286111111111,40.566111111111105],[-116.08416666666666,40.64333333333333],[-116.08416666666666,40.64333333333333],[-116.08416666666666,40.64333333333333],[-116.08416666666666,40.64333333333333],[-115.35444444444444,41.03666666666666],[-115.2075,41.11638888888889],[-115.2075,41.11638888888889],[-115.2075,41.11638888888889],[-115.2075,41.11638888888889],[-115.2075,41.11638888888889],[-114.88055555555555,41.23444444444444],[-114.88055555555555,41.23444444444444],[-114.88055555555555,41.23444444444444],[-114.88055555555555,41.23444444444444],[-114.88055555555555,41.23444444444444],[-114.88055555555555,41.23444444444444],[-114.33805555555556,41.35277777777778],[-114.33805555555556,41.35277777777778],[-114.33805555555556,41.35277777777778],[-114.33805555555556,41.35277777777778],[-114.15694444444445,41.39138888888889],[-114.15694444444445,41.39138888888889],[-114.15694444444445,41.39138888888889],[-114.15694444444445,41.39138888888889],[-113.62194444444444,41.50361111111111],[-113.62194444444444,41.50361111111111],[-113.62194444444444,41.50361111111111],[-113.62194444444444,41.50361111111111],[-113.44277777777778,41.54055555555556],[-113.44277777777778,41.54055555555556],[-113.44277777777778,41.54055555555556],[-113.44277777777778,41.54055555555556],[-112.90277777777779,41.65],[-112.90277777777779,41.65],[-112.90277777777779,41.65],[-112.90277777777779,41.65],[-112.90277777777779,41.65],[-112.90277777777779,41.65],[-112.365,41.75611111111111],[-112.365,41.75611111111111],[-112.365,41.75611111111111],[-112.365,41.75611111111111],[-112.18166666666667,41.791666666666664],[-112.18166666666667,41.791666666666664],[-112.18166666666667,41.791666666666664],[-112.00166666666667,41.82611111111112],[-112.00166666666667,41.82611111111112],[-112.00166666666667,41.82611111111112],[-111.63333333333334,41.895833333333336],[-111.63333333333334,41.895833333333336],[-111.63333333333334,41.895833333333336],[-111.63333333333334,41.895833333333336],[-111.63333333333334,41.895833333333336],[-111.45194444444445,41.92972222222222],[-111.45194444444445,41.92972222222222],[-111.45194444444445,41.92972222222222],[-111.08,41.99805555555556],[-111.08,41.99805555555556],[-111.08,41.99805555555556],[-111.08,41.99805555555556],[-110.73055555555555,42.06111111111111],[-110.73055555555555,42.06111111111111],[-110.73055555555555,42.06111111111111],[-110.54333333333334,42.09444444444445],[-110.54333333333334,42.09444444444445],[-110.54333333333334,42.09444444444445],[-110.54333333333334,42.09444444444445],[-110.1713888888889,42.159444444444446],[-110.1713888888889,42.159444444444446],[-109.9825,42.19194444444444],[-109.9825,42.19194444444444],[-109.9825,42.19194444444444],[-109.9825,42.19194444444444],[-109.9825,42.19194444444444],[-109.60722222222222,42.255833333333335],[-109.60722222222222,42.255833333333335],[-109.60722222222222,42.255833333333335],[-109.60722222222222,42.255833333333335],[-109.60722222222222,42.255833333333335],[-109.2275,42.31888888888889],[-109.2275,42.31888888888889],[-109.03527777777778,42.35027777777778],[-109.03527777777778,42.35027777777778],[-109.03527777777778,42.35027777777778],[-109.03527777777778,42.35027777777778],[-109.03527777777778,42.35027777777778],[-109.03527777777778,42.35027777777778],[-108.65777777777778,42.41083333333333],[-108.65777777777778,42.41083333333333],[-108.65777777777778,42.41083333333333],[-108.46972222222223,42.440555555555555],[-108.46972222222223,42.440555555555555],[-108.46972222222223,42.440555555555555],[-108.46972222222223,42.440555555555555],[-108.46972222222223,42.440555555555555],[-108.28333333333333,42.46805555555556],[-108.09416666666667,42.495],[-108.09416666666667,42.495],[-108.09416666666667,42.495],[-108.09416666666667,42.495],[-108.09416666666667,42.495],[-107.90805555555556,42.521388888888886],[-107.90805555555556,42.521388888888886],[-107.90805555555556,42.521388888888886],[-107.7213888888889,42.54722222222222],[-107.7213888888889,42.54722222222222],[-107.7213888888889,42.54722222222222],[-107.345,42.598888888888894],[-107.345,42.598888888888894],[-107.345,42.598888888888894],[-107.345,42.598888888888894],[-107.345,42.598888888888894],[-107.155,42.62444444444444],[-107.155,42.62444444444444],[-106.38555555555556,42.724444444444444],[-106.38555555555556,42.724444444444444],[-106.38555555555556,42.724444444444444],[-106.38555555555556,42.724444444444444],[-106.38555555555556,42.724444444444444],[-105.81777777777778,42.79472222222222],[-105.81777777777778,42.79472222222222],[-105.81777777777778,42.79472222222222],[-105.81777777777778,42.79472222222222],[-105.81777777777778,42.79472222222222],[-105.63194444444444,42.81722222222223],[-105.63194444444444,42.81722222222223],[-105.63194444444444,42.81722222222223],[-105.0675,42.88305555555556],[-105.0675,42.88305555555556],[-105.0675,42.88305555555556],[-105.0675,42.88305555555556],[-104.68611111111112,42.92611111111111],[-104.68611111111112,42.92611111111111],[-104.68611111111112,42.92611111111111],[-104.68611111111112,42.92611111111111],[-104.68611111111112,42.92611111111111],[-103.92833333333334,43.01027777777778],[-103.92833333333334,43.01027777777778],[-103.92833333333334,43.01027777777778],[-103.73944444444444,43.036944444444444],[-103.73944444444444,43.036944444444444],[-103.73944444444444,43.036944444444444],[-103.73944444444444,43.036944444444444],[-103.73944444444444,43.036944444444444],[-103.55361111111111,43.0625],[-103.55361111111111,43.0625],[-103.55361111111111,43.0625],[-103.18194444444445,43.113055555555555],[-103.18194444444445,43.113055555555555],[-103.18194444444445,43.113055555555555],[-103.18194444444445,43.113055555555555],[-103.18194444444445,43.113055555555555],[-102.81138888888889,43.161944444444444],[-102.6211111111111,43.18666666666666],[-102.6211111111111,43.18666666666666],[-102.6211111111111,43.18666666666666],[-102.6211111111111,43.18666666666666],[-102.55555555555556,43.195277777777775],[-102.55555555555556,43.195277777777775],[-102.43222222222222,43.21083333333333],[-102.36388888888888,43.21944444444445],[-102.36388888888888,43.21944444444445],[-102.36388888888888,43.21944444444445],[-102.23833333333333,43.23527777777778],[-102.23833333333333,43.23527777777778],[-102.23833333333333,43.23527777777778],[-102.045,43.25944444444445],[-102.045,43.25944444444445],[-101.97777777777777,43.26777777777777],[-101.85083333333333,43.283055555555556],[-101.85083333333333,43.283055555555556],[-101.85083333333333,43.283055555555556],[-101.78555555555555,43.29111111111111],[-101.5886111111111,43.31472222222222],[-101.5886111111111,43.31472222222222],[-101.47416666666666,43.328611111111115],[-101.47416666666666,43.328611111111115],[-101.28194444444445,43.352222222222224],[-101.28194444444445,43.352222222222224],[-101.28194444444445,43.352222222222224],[-101.20444444444445,43.361666666666665],[-101.08527777777778,43.37583333333333],[-101.08527777777778,43.37583333333333],[-101.08527777777778,43.37583333333333],[-100.81333333333333,43.408055555555556],[-100.81333333333333,43.408055555555556],[-100.81333333333333,43.408055555555556],[-100.81333333333333,43.408055555555556],[-100.81333333333333,43.408055555555556],[-100.69861111111112,43.421388888888885],[-100.69861111111112,43.421388888888885],[-100.69861111111112,43.421388888888885],[-99.92444444444445,43.505833333333335],[-99.92444444444445,43.505833333333335],[-99.65611111111112,43.52611111111111],[-99.65611111111112,43.52611111111111],[-99.65611111111112,43.52611111111111],[-99.65611111111112,43.52611111111111],[-99.46277777777777,43.540277777777774],[-99.46277777777777,43.540277777777774],[-99.46277777777777,43.540277777777774],[-99.07583333333334,43.56777777777778],[-99.07583333333334,43.56777777777778],[-99.07583333333334,43.56777777777778],[-99.07583333333334,43.56777777777778],[-98.48027777777779,43.6075],[-98.48027777777779,43.6075],[-98.48027777777779,43.6075],[-98.48027777777779,43.6075],[-98.09888888888888,43.630833333333335],[-98.09888888888888,43.630833333333335],[-98.09888888888888,43.630833333333335],[-97.72166666666666,43.653055555555554],[-97.72166666666666,43.653055555555554],[-97.72166666666666,43.653055555555554],[-97.72166666666666,43.653055555555554],[-97.72166666666666,43.653055555555554],[-97.72166666666666,43.653055555555554],[-97.19527777777778,43.68194444444444],[-97.19527777777778,43.68194444444444],[-97.19527777777778,43.68194444444444],[-97.19527777777778,43.68194444444444],[-96.78777777777778,43.72361111111111],[-96.78777777777778,43.72361111111111],[-96.60194444444444,43.744166666666665],[-96.60194444444444,43.744166666666665],[-96.60194444444444,43.744166666666665],[-96.60194444444444,43.744166666666665],[-96.41527777777779,43.76444444444444],[-96.41527777777779,43.76444444444444],[-96.41527777777779,43.76444444444444],[-96.23194444444445,43.784166666666664],[-96.045,43.803888888888885],[-96.045,43.803888888888885],[-96.045,43.803888888888885],[-96.045,43.803888888888885],[-96.045,43.803888888888885],[-94.94694444444445,43.91361111111111],[-94.94694444444445,43.91361111111111],[-94.94694444444445,43.91361111111111],[-94.94694444444445,43.91361111111111],[-94.76138888888889,43.92972222222222],[-94.76138888888889,43.92972222222222],[-94.76138888888889,43.92972222222222],[-94.76138888888889,43.92972222222222],[-94.76138888888889,43.92972222222222],[-94.0375,43.78527777777778],[-94.0375,43.78527777777778],[-94.0375,43.78527777777778],[-94.0375,43.78527777777778],[-93.94916666666667,43.763888888888886],[-93.8586111111111,43.742222222222225],[-93.8586111111111,43.742222222222225],[-93.8586111111111,43.742222222222225],[-93.8586111111111,43.742222222222225],[-93.50805555555556,43.657222222222224],[-93.50805555555556,43.657222222222224],[-93.50805555555556,43.657222222222224],[-93.4175,43.635],[-93.33055555555555,43.61361111111111],[-93.33055555555555,43.61361111111111],[-93.33055555555555,43.61361111111111],[-93.23972222222223,43.59111111111111],[-93.23972222222223,43.59111111111111],[-93.15694444444445,43.57055555555556],[-93.15694444444445,43.57055555555556],[-93.06388888888888,43.54722222222222],[-93.06388888888888,43.54722222222222],[-92.81555555555555,43.485],[-92.81555555555555,43.485],[-92.81555555555555,43.485],[-92.81555555555555,43.485],[-92.64111111111112,43.44083333333333],[-92.64111111111112,43.44083333333333],[-92.46416666666667,43.39555555555555],[-92.46416666666667,43.39555555555555],[-92.46416666666667,43.39555555555555],[-92.46416666666667,43.39555555555555],[-92.02638888888889,43.2825],[-92.02638888888889,43.2825],[-92.02638888888889,43.2825],[-92.02638888888889,43.2825],[-92.02638888888889,43.2825],[-91.49777777777778,43.146388888888886],[-91.49777777777778,43.146388888888886],[-91.49777777777778,43.146388888888886],[-91.42277777777778,43.12722222222222],[-91.42277777777778,43.12722222222222],[-91.24666666666667,43.081944444444446],[-91.24666666666667,43.081944444444446],[-91.24666666666667,43.081944444444446],[-91.1375,43.05361111111111],[-91.1375,43.05361111111111],[-91.1375,43.05361111111111],[-91.1375,43.05361111111111],[-91.1375,43.05361111111111],[-90.96083333333334,43.007777777777775],[-90.88611111111112,42.988055555555555],[-90.78083333333333,42.96055555555556],[-90.78083333333333,42.96055555555556],[-90.78083333333333,42.96055555555556],[-90.42166666666667,42.86555555555556],[-90.42166666666667,42.86555555555556],[-90.42166666666667,42.86555555555556],[-90.34888888888888,42.84583333333334],[-90.34888888888888,42.84583333333334],[-90.24027777777778,42.81666666666667],[-90.24027777777778,42.81666666666667],[-90.24027777777778,42.81666666666667],[-90.06388888888888,42.76916666666666],[-90.06388888888888,42.76916666666666],[-90.06388888888888,42.76916666666666],[-89.89333333333335,42.72277777777778],[-89.89333333333335,42.72277777777778],[-89.89333333333335,42.72277777777778],[-89.54583333333333,42.62722222222222],[-89.54583333333333,42.62722222222222],[-89.54583333333333,42.62722222222222],[-89.54583333333333,42.62722222222222],[-89.06333333333333,42.4925],[-89.06333333333333,42.4925],[-88.9,42.45],[-88.9,42.45],[-88.9,42.45],[-88.9,42.45],[-88.9,42.45],[-88.76666666666667,42.416666666666664],[-88.76666666666667,42.416666666666664],[-88.76666666666667,42.416666666666664],[-88.76666666666667,42.416666666666664],[-88.56611111111111,42.36694444444444],[-88.56611111111111,42.36694444444444],[-88.56611111111111,42.36694444444444],[-88.29166666666667,42.278055555555554],[-88.29166666666667,42.278055555555554],[-88.29166666666667,42.278055555555554],[-88.29166666666667,42.278055555555554],[-88.29166666666667,42.278055555555554],[-88.29166666666667,42.278055555555554],[-88.28777777777778,42.010555555555555],[-88.28777777777778,42.010555555555555],[-88.28777777777778,42.010555555555555],[-88.28777777777778,42.010555555555555],[-88.28777777777778,42.010555555555555],[-88.28777777777778,42.010555555555555],[-88.08138888888888,42.00277777777778],[-88.08138888888888,42.00277777777778],[-88.08138888888888,42.00277777777778],[-88.08138888888888,42.00277777777778],[-88.08138888888888,42.00277777777778],[-88.08138888888888,42.00277777777778],[-87.91583333333334,42.00277777777778],[-87.91583333333334,42.00277777777778],[-87.91583333333334,42.00277777777778],[-87.91583333333334,42.00277777777778]],"type":"LineString"}
}
