{
  "id": 2031457067,
  "type": "Feature",
  "properties": {
    "date:cessation_lower": "2026-06-05",
    "date:cessation_upper": "2026-06-05",
    "date:inception_lower": "2026-06-05",
    "date:inception_upper": "2026-06-05",
    "edtf:cessation": "2026-06-05T01:27:25-07:00",
    "edtf:inception": "2026-06-05T10:45:00Z",
    "flysfo:actual_timestamp": -1,
    "flysfo:airline": "UA",
    "flysfo:base_airline": "",
    "flysfo:base_flight_number": "2888",
    "flysfo:date": "2026-06-05",
    "flysfo:estimated_timestamp": 1780674060,
    "flysfo:event": "A",
    "flysfo:flight_number": "UA2664",
    "flysfo:gate": "E11",
    "flysfo:journey": "DTW-SFO",
    "flysfo:scheduled_timestamp": 1780674000,
    "flysfo:timestamp": 1780674060,
    "geom:area": 0,
    "geom:bbox": "-122.370943,37.617990,-83.351709,42.218860",
    "geom:latitude": 39.918425,
    "geom:longitude": -102.86132599999999,
    "iata:airline": "UA",
    "iata:base_airline": "",
    "icao:aircraft": "B39M",
    "icao:airline": "UAL",
    "icao:base_airline": "ANZ",
    "lbl:latitude": 37.619367,
    "lbl:longitude": -122.38387,
    "sfomuseum:aircraft_id": 1528104577,
    "sfomuseum:airline_id": 1159285413,
    "sfomuseum:arrival_id": 102527513,
    "sfomuseum:base_flight_id": "20260605-A-ANZ-2888",
    "sfomuseum:departure_id": 102525635,
    "sfomuseum:flight_id": "20260605-A-UAL-2664",
    "sfomuseum:flight_number": [
      "UAL2664",
      "UA2664"
    ],
    "sfomuseum:placetype": "flight",
    "src:geom": "flysfo",
    "src:geom_alt": [
      "swim-route",
      "swim-path",
      "swim-approach"
    ],
    "swim:tail_number": "N17444",
    "wof:belongsto": [
      1947304067,
      102527513,
      1947304511,
      102191575,
      85633793,
      102087579,
      85922583,
      554784711,
      85688637,
      1947304527,
      1947304447,
      102085387
    ],
    "wof:concordances": {
      "swim:flight_ref": "148444308",
      "swim:gufi": "KC3506461B"
    },
    "wof:country": "US",
    "wof:created": 1780762110,
    "wof:geomhash": "a23858bb4e93419105e139a22bd92749",
    "wof:hierarchy": [
      {
        "building_id": 1947304067,
        "campus_id": 102527513,
        "concourse_id": 1947304511,
        "continent_id": 102191575,
        "country_id": 85633793,
        "county_id": 102087579,
        "custom_id": 2031457067,
        "flight_id": 2031457067,
        "locality_id": 85922583,
        "postalcode_id": 554784711,
        "region_id": 85688637,
        "venue_id": 1947304527,
        "wing_id": 1947304447
      },
      {
        "building_id": 1947304067,
        "campus_id": 102527513,
        "concourse_id": 1947304511,
        "continent_id": 102191575,
        "country_id": 85633793,
        "county_id": 102085387,
        "custom_id": 2031457067,
        "flight_id": 2031457067,
        "region_id": 85688637,
        "venue_id": 1947304527,
        "wing_id": 1947304447
      }
    ],
    "wof:id": 2031457067,
    "wof:involves": [
      102525635,
      1159285413,
      1947304527,
      1159283697,
      1528104577,
      102527513
    ],
    "wof:lastmodified": 1780762746,
    "wof:name": "UA2664 (DTW-SFO)",
    "wof:parent_id": 1947304527,
    "wof:placetype": "custom",
    "wof:placetype_alt": [
      "flight"
    ],
    "wof:repo": "sfomuseum-data-flights-2026-06",
    "wof:superseded_by": [],
    "wof:supersedes": []
  },
  "bbox": [
    -122.370943,
    37.61799,
    -83.351709,
    42.21886
  ],
  "geometry": {"coordinates":[[-83.351709,42.21886],[-122.370943,37.61799]],"type":"MultiPoint"}
}
