{
  "id": 2031555945,
  "type": "Feature",
  "properties": {
    "geom:area": 0,
    "geom:bbox": "-122.380000,29.960000,-95.340000,37.700000",
    "geom:latitude": 34.30595698323376,
    "geom:longitude": -108.75502978572037,
    "src:alt_label": "swim-route",
    "src:geom": "swim",
    "swim:geom": "route",
    "wof:geomhash": "df184e7528a082090e38c78e8b76b7e8",
    "wof:id": 2031555945,
    "wof:repo": "sfomuseum-data-flights-2026-06"
  },
  "bbox": [
    -122.38,
    29.96,
    -95.34,
    37.7
  ],
  "geometry": {"coordinates":[[-95.34,29.98],[-95.45,29.96],[-95.5,29.96],[-95.53,29.96],[-95.57,29.97],[-95.6,29.97],[-95.63,29.98],[-95.64,29.98],[-95.81,30.02],[-95.82,30.02],[-95.93,30.04],[-96,30.06],[-96.05,30.06],[-96.15,30.08],[-96.19,30.09],[-96.41,30.13],[-96.54,30.15],[-96.61,30.16],[-96.63,30.17],[-96.64,30.17],[-96.72,30.22],[-96.8,30.24],[-96.88,30.26],[-97.04,30.29],[-97.05,30.3],[-97.36,30.32],[-97.48,30.33],[-97.89,30.41],[-97.98,30.43],[-98.04,30.44],[-98.08,30.45],[-98.53,30.56],[-99.64,30.82],[-101.33,31.18],[-101.55,31.35],[-103.8,33.04],[-105.26,34.08],[-105.41,34.18],[-105.68,34.37],[-106.11,34.45],[-106.64,34.55],[-106.85,34.59],[-107.98,34.79],[-108.45,34.87],[-108.64,34.91],[-110.06,35.14],[-111.51,35.35],[-111.99,35.42],[-112.21,35.45],[-113.54,35.62],[-113.72,35.67],[-114.25,35.82],[-114.86,36],[-115.52,36.28],[-116.75,36.8],[-117.24,37.25],[-117.52,37.49],[-119.05,37.61],[-119.41,37.64],[-119.53,37.64],[-119.98,37.67],[-120.04,37.68],[-120.26,37.69],[-120.28,37.69],[-120.38,37.7],[-120.4,37.7],[-120.75,37.66],[-120.78,37.66],[-120.83,37.65],[-120.96,37.63],[-121,37.63],[-121.08,37.62],[-121.18,37.6],[-121.26,37.59],[-121.39,37.58],[-121.41,37.58],[-121.6,37.55],[-121.61,37.55],[-121.62,37.55],[-121.7,37.53],[-121.8,37.51],[-121.83,37.5],[-121.88,37.49],[-122.08,37.54],[-122.14,37.56],[-122.18,37.57],[-122.28,37.59],[-122.33,37.61],[-122.36,37.61],[-122.38,37.62]],"type":"LineString"}
}
