{
  "id": 2031610157,
  "type": "Feature",
  "properties": {
    "geom:area": 0,
    "geom:bbox": "-123.240020,37.440520,-122.145730,38.517120",
    "geom:latitude": 37.910259738262326,
    "geom:longitude": -122.61852979999621,
    "src:alt_label": "swim-approach",
    "src:geom": "swim",
    "swim:elevations": [
      8250,
      7980,
      7641,
      7417,
      7199,
      6847,
      6655,
      6410,
      6256,
      5853,
      5396,
      5198,
      4872,
      4628,
      4412,
      4156,
      3960,
      3521,
      3464,
      3352,
      3353,
      3353,
      3353,
      3295,
      2971,
      2883,
      2541,
      2028,
      1932,
      1600,
      1305,
      1080,
      994,
      914,
      914,
      914,
      780,
      638,
      579,
      373,
      210,
      188,
      88
    ],
    "swim:geom": "approach",
    "swim:timestamps": [
      1782136616,
      1782136644,
      1782136678,
      1782136704,
      1782136729,
      1782136768,
      1782136792,
      1782136818,
      1782136830,
      1782136867,
      1782136916,
      1782136937,
      1782136974,
      1782137000,
      1782137025,
      1782137054,
      1782137073,
      1782137120,
      1782137132,
      1782137181,
      1782137200,
      1782137243,
      1782137267,
      1782137280,
      1782137330,
      1782137340,
      1782137371,
      1782137422,
      1782137435,
      1782137471,
      1782137510,
      1782137538,
      1782137550,
      1782137594,
      1782137618,
      1782137633,
      1782137661,
      1782137690,
      1782137700,
      1782137744,
      1782137784,
      1782137790,
      1782137821
    ],
    "wof:geomhash": "085a79a16552d63ccf942737255cd3ab",
    "wof:id": 2031610157,
    "wof:repo": "sfomuseum-data-flights-2026-06"
  },
  "bbox": [
    -123.24002,
    37.44052,
    -122.14573,
    38.51712
  ],
  "geometry": {"coordinates":[[-123.24002,38.51712],[-123.18326,38.48249],[-123.11471,38.43983],[-123.06282,38.40831],[-123.01465,38.37838],[-122.93922,38.33166],[-122.89681,38.30184],[-122.86217,38.26238],[-122.85115,38.24266],[-122.81928,38.18162],[-122.77865,38.10342],[-122.76034,38.06823],[-122.7302,38.00981],[-122.70882,37.96831],[-122.6879,37.9279],[-122.65707,37.88514],[-122.63102,37.85962],[-122.56848,37.80076],[-122.5526,37.78575],[-122.49459,37.73087],[-122.4726,37.71017],[-122.42331,37.66376],[-122.39749,37.63953],[-122.38303,37.62589],[-122.34223,37.57258],[-122.3358,37.56157],[-122.31564,37.52672],[-122.2841,37.47268],[-122.27591,37.45948],[-122.23193,37.44052],[-122.17949,37.44094],[-122.15761,37.46521],[-122.1504,37.47846],[-122.14573,37.52217],[-122.16891,37.53462],[-122.18491,37.54121],[-122.21267,37.5528],[-122.24044,37.56449],[-122.2506,37.56879],[-122.28978,37.58523],[-122.31965,37.59772],[-122.32385,37.59949],[-122.34475,37.60833]],"type":"LineString"}
}
