{
  "id": 2031676883,
  "type": "Feature",
  "properties": {
    "geom:area": 0,
    "geom:bbox": "-122.396950,37.626940,-121.286980,38.514820",
    "geom:latitude": 38.071344493705716,
    "geom:longitude": -121.85546640511684,
    "src:alt_label": "swim-takeoff",
    "src:geom": "swim",
    "swim:elevations": [
      244,
      766,
      1065,
      1644,
      1871,
      2115,
      2417,
      2787,
      3023,
      3128,
      3202,
      3203,
      3556,
      3730,
      4128,
      4406,
      4529,
      4736,
      4867,
      5075,
      5392,
      5691,
      5731,
      5866,
      6080,
      6125,
      6275,
      6322,
      6611
    ],
    "swim:geom": "takeoff",
    "swim:timestamps": [
      1782737173,
      1782737215,
      1782737278,
      1782737334,
      1782737350,
      1782737370,
      1782737394,
      1782737420,
      1782737442,
      1782737470,
      1782737517,
      1782737521,
      1782737576,
      1782737595,
      1782737633,
      1782737659,
      1782737672,
      1782737697,
      1782737716,
      1782737738,
      1782737780,
      1782737818,
      1782737825,
      1782737846,
      1782737875,
      1782737908,
      1782737935,
      1782737942,
      1782737989
    ],
    "wof:geomhash": "ac58d9fbdde9737e9ae534401db8fb06",
    "wof:id": 2031676883,
    "wof:repo": "sfomuseum-data-flights-2026-06"
  },
  "bbox": [
    -122.39695,
    37.62694,
    -121.28698,
    38.51482
  ],
  "geometry": {"coordinates":[[-122.39433,37.62694],[-122.39695,37.6548],[-122.3322,37.67752],[-122.25261,37.70492],[-122.22964,37.71283],[-122.20611,37.72792],[-122.18485,37.7537],[-122.16013,37.77919],[-122.13982,37.8011],[-122.11281,37.83099],[-122.05993,37.88907],[-122.05512,37.89435],[-121.98435,37.97261],[-121.95959,37.9999],[-121.90786,38.05677],[-121.87271,38.09402],[-121.8526,38.11106],[-121.80941,38.14277],[-121.77771,38.16608],[-121.73897,38.19436],[-121.6659,38.24707],[-121.59819,38.29588],[-121.58578,38.30477],[-121.54922,38.33088],[-121.49705,38.3677],[-121.4361,38.41056],[-121.38746,38.44491],[-121.37465,38.45395],[-121.28698,38.51482]],"type":"LineString"}
}
