{
  "id": 2031435015,
  "type": "Feature",
  "properties": {
    "geom:area": 0,
    "geom:bbox": "-122.383333,37.616667,-87.957500,42.698056",
    "geom:latitude": 40.76018823276134,
    "geom:longitude": -105.09883156449872,
    "src:alt_label": "swim-path",
    "src:geom": "swim",
    "swim:altitudes": [
      "005",
      "005",
      "005",
      "045",
      "045",
      "045",
      "086",
      "086",
      "107",
      "107",
      "141",
      "141",
      "141",
      "141",
      "158",
      "158",
      "158",
      "158",
      "222",
      "222",
      "222",
      "233",
      "233",
      "233",
      "255",
      "255",
      "255",
      "265",
      "265",
      "285",
      "285",
      "293",
      "293",
      "293",
      "302",
      "302",
      "310C",
      "310C",
      "310C",
      "310C",
      "310C",
      "310C",
      "310C",
      "310C",
      "310C",
      "330C",
      "330C",
      "330C",
      "330C",
      "330C",
      "330C",
      "330C",
      "330C",
      "330C",
      "330C",
      "330C",
      "330C",
      "330C",
      "330C",
      "330C",
      "330C",
      "330C",
      "330C",
      "330C",
      "330C",
      "330C",
      "330C",
      "330C",
      "330C",
      "330C",
      "330C",
      "330C",
      "330C",
      "330C",
      "330C",
      "330C",
      "330C",
      "330C",
      "330C",
      "330C",
      "330C",
      "330C",
      "330C",
      "330C",
      "330C",
      "330C",
      "330C",
      "330C",
      "330C",
      "330C",
      "330C",
      "330C",
      "330C",
      "330C",
      "330C",
      "330C",
      "330C",
      "330C",
      "330C",
      "330C",
      "330C",
      "330C",
      "330C",
      "330C",
      "330C",
      "330C",
      "330C",
      "330C",
      "330C",
      "330C",
      "330C",
      "330C",
      "330C",
      "330C",
      "330C",
      "330C",
      "330C",
      "330C",
      "330C",
      "330C",
      "330C",
      "330C",
      "330C",
      "330C",
      "330C",
      "330C",
      "330C",
      "330C",
      "330C",
      "330C",
      "330C",
      "330C",
      "330C",
      "330C",
      "330C",
      "330C",
      "330C",
      "330C",
      "330C",
      "330C",
      "330C",
      "330C",
      "330C",
      "330C",
      "330C",
      "330C",
      "330C",
      "330C",
      "330C",
      "330C",
      "330C",
      "330C",
      "330C",
      "330C",
      "330C",
      "330C",
      "330C",
      "330C",
      "330C",
      "330C",
      "330C",
      "330C",
      "330C",
      "330C",
      "330C",
      "330C",
      "330C",
      "330C",
      "330C",
      "330C",
      "330C",
      "330C",
      "330C",
      "330C",
      "330C",
      "330C",
      "330C",
      "330C",
      "330C",
      "330C",
      "330C",
      "330C",
      "330C",
      "330C",
      "330C",
      "330C",
      "330C",
      "330C",
      "330C",
      "330C",
      "330C",
      "330C",
      "330C",
      "330C",
      "330C",
      "330C",
      "330C",
      "330C",
      "330C",
      "330C",
      "330C",
      "330C",
      "330C",
      "330C",
      "330C",
      "330C",
      "330C",
      "330C",
      "330C",
      "330C",
      "330C",
      "330C",
      "330C",
      "330C",
      "330C",
      "330C",
      "330C",
      "330C",
      "330C",
      "330C",
      "330C",
      "330C",
      "330C",
      "331C",
      "331C",
      "331C",
      "330C",
      "330C",
      "330C",
      "330C",
      "330C",
      "330C",
      "330C",
      "330C",
      "330C",
      "330C",
      "330C",
      "330C",
      "330C",
      "330C",
      "330C",
      "330C",
      "330C",
      "330C",
      "330C",
      "330C",
      "330C",
      "330C",
      "330C",
      "331C",
      "331C",
      "331C",
      "331C",
      "331C",
      "331C",
      "330C",
      "330C",
      "330C",
      "330C",
      "330C",
      "330C",
      "330C",
      "330C",
      "330C",
      "330C",
      "330C",
      "330C",
      "330C",
      "330C",
      "330C",
      "330C",
      "330C",
      "330C",
      "330C",
      "330C",
      "330C",
      "330C",
      "330C",
      "330C",
      "330C",
      "330C",
      "330C",
      "330C",
      "330C",
      "330C",
      "330C",
      "330C",
      "330C",
      "330C",
      "330C",
      "326",
      "326",
      "318",
      "318",
      "290",
      "290",
      "283",
      "283",
      "283",
      "283",
      "259",
      "259",
      "259",
      "259",
      "240",
      "240",
      "240",
      "240",
      "240",
      "240",
      "203",
      "203",
      "164",
      "164",
      "157",
      "132",
      "132",
      "132",
      "115",
      "106",
      "101",
      "101",
      "077",
      "077",
      "072",
      "070",
      "070",
      "070",
      "048",
      "039",
      "039",
      "030",
      "030",
      "014",
      "011"
    ],
    "swim:geom": "path",
    "swim:speeds": [
      151,
      151,
      151,
      226,
      226,
      226,
      284,
      284,
      301,
      301,
      344,
      344,
      344,
      344,
      353,
      353,
      353,
      353,
      394,
      394,
      394,
      408,
      408,
      408,
      426,
      426,
      426,
      433,
      433,
      442,
      442,
      450,
      450,
      450,
      459,
      459,
      460,
      460,
      460,
      460,
      465,
      465,
      465,
      465,
      465,
      462,
      462,
      462,
      462,
      462,
      457,
      457,
      457,
      459,
      457,
      457,
      457,
      457,
      459,
      459,
      460,
      460,
      461,
      461,
      461,
      463,
      463,
      463,
      463,
      467,
      467,
      467,
      467,
      467,
      468,
      468,
      468,
      468,
      468,
      468,
      467,
      467,
      467,
      465,
      465,
      465,
      465,
      465,
      465,
      465,
      465,
      465,
      465,
      465,
      466,
      466,
      466,
      466,
      467,
      467,
      467,
      467,
      467,
      469,
      471,
      471,
      472,
      472,
      475,
      475,
      475,
      475,
      475,
      478,
      478,
      478,
      478,
      477,
      477,
      477,
      477,
      477,
      477,
      477,
      477,
      478,
      478,
      478,
      478,
      479,
      479,
      481,
      481,
      483,
      483,
      483,
      484,
      484,
      484,
      484,
      483,
      483,
      483,
      483,
      483,
      483,
      483,
      483,
      485,
      485,
      485,
      485,
      485,
      486,
      486,
      486,
      483,
      483,
      483,
      482,
      482,
      482,
      482,
      482,
      483,
      483,
      483,
      482,
      482,
      482,
      483,
      483,
      483,
      483,
      483,
      484,
      484,
      484,
      484,
      484,
      484,
      484,
      484,
      484,
      484,
      484,
      484,
      484,
      484,
      483,
      483,
      484,
      484,
      484,
      484,
      485,
      485,
      485,
      485,
      489,
      489,
      489,
      490,
      490,
      490,
      490,
      493,
      493,
      493,
      493,
      495,
      495,
      495,
      493,
      493,
      493,
      493,
      495,
      494,
      494,
      494,
      492,
      492,
      493,
      493,
      493,
      490,
      495,
      495,
      495,
      495,
      497,
      497,
      501,
      501,
      501,
      505,
      505,
      498,
      498,
      498,
      500,
      500,
      500,
      500,
      499,
      499,
      497,
      497,
      497,
      497,
      497,
      498,
      498,
      498,
      490,
      490,
      490,
      490,
      484,
      484,
      484,
      484,
      479,
      477,
      474,
      474,
      474,
      472,
      471,
      471,
      484,
      492,
      492,
      492,
      481,
      481,
      481,
      481,
      477,
      477,
      480,
      480,
      479,
      479,
      479,
      479,
      479,
      479,
      479,
      480,
      480,
      475,
      475,
      450,
      450,
      440,
      440,
      440,
      440,
      416,
      416,
      416,
      416,
      427,
      427,
      427,
      427,
      425,
      425,
      404,
      404,
      365,
      365,
      363,
      341,
      341,
      341,
      335,
      303,
      304,
      304,
      286,
      286,
      285,
      282,
      274,
      233,
      179,
      173,
      173,
      170,
      170,
      132,
      135
    ],
    "swim:timestamps": [
      1780435454,
      1780435454,
      1780435454,
      1780435594,
      1780435594,
      1780435594,
      1780435714,
      1780435714,
      1780435774,
      1780435774,
      1780435894,
      1780435894,
      1780435894,
      1780435894,
      1780435954,
      1780435954,
      1780435954,
      1780435954,
      1780436195,
      1780436195,
      1780436195,
      1780436255,
      1780436255,
      1780436255,
      1780436375,
      1780436375,
      1780436375,
      1780436435,
      1780436435,
      1780436561,
      1780436561,
      1780436621,
      1780436621,
      1780436621,
      1780436675,
      1780436675,
      1780436736,
      1780436736,
      1780436736,
      1780436736,
      1780436856,
      1780436856,
      1780436856,
      1780436856,
      1780436856,
      1780437042,
      1780437042,
      1780437042,
      1780437042,
      1780437042,
      1780437102,
      1780437102,
      1780437102,
      1780437156,
      1780437162,
      1780437162,
      1780437162,
      1780437162,
      1780437216,
      1780437216,
      1780437276,
      1780437276,
      1780437336,
      1780437336,
      1780437342,
      1780437402,
      1780437402,
      1780437402,
      1780437402,
      1780437517,
      1780437517,
      1780437517,
      1780437534,
      1780437534,
      1780437577,
      1780437577,
      1780437594,
      1780437697,
      1780437697,
      1780437697,
      1780437757,
      1780437757,
      1780437757,
      1780437877,
      1780437895,
      1780437895,
      1780437895,
      1780437955,
      1780437955,
      1780437955,
      1780437997,
      1780437997,
      1780437997,
      1780437997,
      1780438075,
      1780438075,
      1780438117,
      1780438117,
      1780438195,
      1780438195,
      1780438195,
      1780438195,
      1780438195,
      1780438315,
      1780438375,
      1780438375,
      1780438436,
      1780438436,
      1780438496,
      1780438496,
      1780438496,
      1780438496,
      1780438496,
      1780438676,
      1780438676,
      1780438676,
      1780438676,
      1780438736,
      1780438736,
      1780438856,
      1780438856,
      1780438856,
      1780438916,
      1780438916,
      1780438916,
      1780438976,
      1780438976,
      1780438976,
      1780438976,
      1780439036,
      1780439036,
      1780439156,
      1780439156,
      1780439217,
      1780439217,
      1780439217,
      1780439277,
      1780439277,
      1780439277,
      1780439277,
      1780439457,
      1780439457,
      1780439457,
      1780439577,
      1780439577,
      1780439577,
      1780439577,
      1780439577,
      1780439817,
      1780439817,
      1780439817,
      1780439817,
      1780439817,
      1780440101,
      1780440101,
      1780440101,
      1780440190,
      1780440190,
      1780440190,
      1780440250,
      1780440250,
      1780440401,
      1780440401,
      1780440401,
      1780440430,
      1780440430,
      1780440430,
      1780440521,
      1780440610,
      1780440610,
      1780440671,
      1780440671,
      1780440671,
      1780440731,
      1780440731,
      1780440762,
      1780440762,
      1780440882,
      1780440882,
      1780440882,
      1780440942,
      1780440942,
      1780441002,
      1780441002,
      1780441031,
      1780441031,
      1780441031,
      1780441031,
      1780441062,
      1780441091,
      1780441091,
      1780441122,
      1780441122,
      1780441122,
      1780441211,
      1780441242,
      1780441242,
      1780441242,
      1780441242,
      1780441423,
      1780441423,
      1780441423,
      1780441543,
      1780441543,
      1780441543,
      1780441543,
      1780441723,
      1780441723,
      1780441723,
      1780441723,
      1780442204,
      1780442204,
      1780442204,
      1780442264,
      1780442384,
      1780442384,
      1780442384,
      1780442624,
      1780442684,
      1780442684,
      1780442684,
      1780442744,
      1780442744,
      1780443003,
      1780443003,
      1780443003,
      1780443123,
      1780443243,
      1780443243,
      1780443303,
      1780443303,
      1780443345,
      1780443345,
      1780443424,
      1780443424,
      1780443424,
      1780443525,
      1780443525,
      1780443646,
      1780443646,
      1780443646,
      1780443826,
      1780443826,
      1780443886,
      1780443886,
      1780444024,
      1780444024,
      1780444084,
      1780444145,
      1780444246,
      1780444246,
      1780444246,
      1780444325,
      1780444325,
      1780444325,
      1780444565,
      1780444565,
      1780444565,
      1780444565,
      1780444806,
      1780444806,
      1780444806,
      1780444806,
      1780444986,
      1780445046,
      1780445106,
      1780445106,
      1780445106,
      1780445166,
      1780445226,
      1780445226,
      1780445406,
      1780445478,
      1780445478,
      1780445478,
      1780445587,
      1780445658,
      1780445707,
      1780445707,
      1780445899,
      1780445899,
      1780445959,
      1780445959,
      1780446127,
      1780446139,
      1780446187,
      1780446187,
      1780446308,
      1780446308,
      1780446308,
      1780446379,
      1780446379,
      1780446428,
      1780446428,
      1780446620,
      1780446620,
      1780446728,
      1780446728,
      1780446728,
      1780446728,
      1780446969,
      1780446969,
      1780446969,
      1780446980,
      1780447221,
      1780447221,
      1780447221,
      1780447221,
      1780447281,
      1780447281,
      1780447401,
      1780447401,
      1780447550,
      1780447550,
      1780447581,
      1780447670,
      1780447670,
      1780447670,
      1780447730,
      1780447850,
      1780447882,
      1780447882,
      1780447970,
      1780447970,
      1780448002,
      1780448062,
      1780448090,
      1780448182,
      1780448330,
      1780448390,
      1780448390,
      1780448450,
      1780448450,
      1780448570,
      1780448600
    ],
    "wof:geomhash": "590ce58ccb75541d832a3a4e2c644049",
    "wof:id": 2031435015,
    "wof:repo": "sfomuseum-data-flights-2026-06"
  },
  "bbox": [
    -122.38333333333334,
    37.61666666666667,
    -87.9575,
    42.698055555555555
  ],
  "geometry": {"coordinates":[[-122.38333333333334,37.61666666666667],[-122.38333333333334,37.61666666666667],[-122.38333333333334,37.61666666666667],[-122.29916666666666,37.68666666666666],[-122.29916666666666,37.68666666666666],[-122.29916666666666,37.68666666666666],[-122.13222222222221,37.76],[-122.13222222222221,37.76],[-122.04138888888889,37.80083333333333],[-122.04138888888889,37.80083333333333],[-121.83083333333333,37.88666666666666],[-121.83083333333333,37.88666666666666],[-121.83083333333333,37.88666666666666],[-121.83083333333333,37.88666666666666],[-121.73055555555555,37.92722222222222],[-121.73055555555555,37.92722222222222],[-121.73055555555555,37.92722222222222],[-121.73055555555555,37.92722222222222],[-121.25416666666666,38.11888888888889],[-121.25416666666666,38.11888888888889],[-121.25416666666666,38.11888888888889],[-121.12694444444443,38.16972222222222],[-121.12694444444443,38.16972222222222],[-121.12694444444443,38.16972222222222],[-120.8436111111111,38.23305555555556],[-120.8436111111111,38.23305555555556],[-120.8436111111111,38.23305555555556],[-120.69388888888889,38.25416666666667],[-120.69388888888889,38.25416666666667],[-120.37305555555555,38.29805555555556],[-120.37305555555555,38.29805555555556],[-120.21472222222222,38.31916666666667],[-120.21472222222222,38.31916666666667],[-120.21472222222222,38.31916666666667],[-120.03888888888889,38.344166666666666],[-120.03888888888889,38.344166666666666],[-119.87583333333333,38.36611111111111],[-119.87583333333333,38.36611111111111],[-119.87583333333333,38.36611111111111],[-119.87583333333333,38.36611111111111],[-119.55166666666666,38.40861111111111],[-119.55166666666666,38.40861111111111],[-119.55166666666666,38.40861111111111],[-119.55166666666666,38.40861111111111],[-119.55166666666666,38.40861111111111],[-119.05611111111111,38.47083333333334],[-119.05611111111111,38.47083333333334],[-119.05611111111111,38.47083333333334],[-119.05611111111111,38.47083333333334],[-119.05611111111111,38.47083333333334],[-118.89722222222223,38.49111111111111],[-118.89722222222223,38.49111111111111],[-118.89722222222223,38.49111111111111],[-118.77027777777778,38.5075],[-118.73722222222223,38.51083333333333],[-118.73722222222223,38.51083333333333],[-118.73722222222223,38.51083333333333],[-118.73722222222223,38.51083333333333],[-118.60805555555555,38.52722222222222],[-118.60805555555555,38.52722222222222],[-118.44694444444445,38.54666666666667],[-118.44694444444445,38.54666666666667],[-118.2863888888889,38.56583333333333],[-118.2863888888889,38.56583333333333],[-118.26694444444445,38.56805555555556],[-118.10249999999999,38.587500000000006],[-118.10249999999999,38.587500000000006],[-118.10249999999999,38.587500000000006],[-118.10249999999999,38.587500000000006],[-117.76888888888888,38.626111111111115],[-117.76888888888888,38.626111111111115],[-117.76888888888888,38.626111111111115],[-117.7388888888889,38.62972222222222],[-117.7388888888889,38.62972222222222],[-117.63555555555556,38.64138888888889],[-117.63555555555556,38.64138888888889],[-117.57249999999999,38.64861111111111],[-117.30388888888889,38.67861111111111],[-117.30388888888889,38.67861111111111],[-117.30388888888889,38.67861111111111],[-117.14111111111112,38.70611111111111],[-117.14111111111112,38.70611111111111],[-117.14111111111112,38.70611111111111],[-116.8175,38.76083333333333],[-116.75444444444445,38.771388888888886],[-116.75444444444445,38.771388888888886],[-116.75444444444445,38.771388888888886],[-116.59166666666667,38.79833333333333],[-116.59166666666667,38.79833333333333],[-116.59166666666667,38.79833333333333],[-116.49055555555556,38.815],[-116.49055555555556,38.815],[-116.49055555555556,38.815],[-116.49055555555556,38.815],[-116.265,38.85194444444445],[-116.265,38.85194444444445],[-116.15972222222223,38.86888888888889],[-116.15972222222223,38.86888888888889],[-115.93916666666667,38.904444444444444],[-115.93916666666667,38.904444444444444],[-115.93916666666667,38.904444444444444],[-115.93916666666667,38.904444444444444],[-115.93916666666667,38.904444444444444],[-115.61027777777777,38.95638888888889],[-115.44333333333334,38.9825],[-115.44333333333334,38.9825],[-115.27805555555555,39.007777777777775],[-115.27805555555555,39.007777777777775],[-115.10972222222222,39.03333333333333],[-115.10972222222222,39.03333333333333],[-115.10972222222222,39.03333333333333],[-115.10972222222222,39.03333333333333],[-115.10972222222222,39.03333333333333],[-114.6061111111111,39.10861111111111],[-114.6061111111111,39.10861111111111],[-114.6061111111111,39.10861111111111],[-114.6061111111111,39.10861111111111],[-114.44,39.13305555555556],[-114.44,39.13305555555556],[-114.1036111111111,39.181666666666665],[-114.1036111111111,39.181666666666665],[-114.1036111111111,39.181666666666665],[-113.93666666666667,39.20527777777778],[-113.93666666666667,39.20527777777778],[-113.93666666666667,39.20527777777778],[-113.7675,39.22888888888889],[-113.7675,39.22888888888889],[-113.7675,39.22888888888889],[-113.7675,39.22888888888889],[-113.59694444444445,39.25277777777778],[-113.59694444444445,39.25277777777778],[-113.25638888888889,39.299166666666665],[-113.25638888888889,39.299166666666665],[-113.08777777777777,39.327222222222225],[-113.08777777777777,39.327222222222225],[-113.08777777777777,39.327222222222225],[-112.91694444444445,39.355555555555554],[-112.91694444444445,39.355555555555554],[-112.91694444444445,39.355555555555554],[-112.91694444444445,39.355555555555554],[-112.41916666666667,39.43694444444444],[-112.41916666666667,39.43694444444444],[-112.41916666666667,39.43694444444444],[-112.085,39.50111111111111],[-112.085,39.50111111111111],[-112.085,39.50111111111111],[-112.085,39.50111111111111],[-112.085,39.50111111111111],[-111.42055555555557,39.664722222222224],[-111.42055555555557,39.664722222222224],[-111.42055555555557,39.664722222222224],[-111.42055555555557,39.664722222222224],[-111.42055555555557,39.664722222222224],[-110.64222222222223,39.85111111111111],[-110.64222222222223,39.85111111111111],[-110.64222222222223,39.85111111111111],[-110.37388888888889,39.91361111111111],[-110.37388888888889,39.91361111111111],[-110.37388888888889,39.91361111111111],[-110.20944444444444,39.95166666666667],[-110.20944444444444,39.95166666666667],[-109.81027777777777,40.049166666666665],[-109.81027777777777,40.049166666666665],[-109.81027777777777,40.049166666666665],[-109.70805555555556,40.07555555555556],[-109.70805555555556,40.07555555555556],[-109.70805555555556,40.07555555555556],[-109.47611111111111,40.135],[-109.20805555555556,40.20277777777778],[-109.20805555555556,40.20277777777778],[-109.04166666666667,40.24472222222222],[-109.04166666666667,40.24472222222222],[-109.04166666666667,40.24472222222222],[-108.87388888888889,40.28666666666666],[-108.87388888888889,40.28666666666666],[-108.80749999999999,40.30305555555555],[-108.80749999999999,40.30305555555555],[-108.47055555555556,40.38611111111111],[-108.47055555555556,40.38611111111111],[-108.47055555555556,40.38611111111111],[-108.30277777777778,40.42666666666666],[-108.30277777777778,40.42666666666666],[-108.13555555555556,40.4675],[-108.13555555555556,40.4675],[-108.03027777777778,40.49277777777778],[-108.03027777777778,40.49277777777778],[-108.03027777777778,40.49277777777778],[-108.03027777777778,40.49277777777778],[-107.97166666666666,40.50666666666667],[-107.86444444444444,40.535],[-107.86444444444444,40.535],[-107.7975,40.552499999999995],[-107.7975,40.552499999999995],[-107.7975,40.552499999999995],[-107.53,40.62111111111111],[-107.44333333333334,40.64333333333333],[-107.44333333333334,40.64333333333333],[-107.44333333333334,40.64333333333333],[-107.44333333333334,40.64333333333333],[-106.93611111111112,40.77111111111111],[-106.93611111111112,40.77111111111111],[-106.93611111111112,40.77111111111111],[-106.61305555555555,40.85111111111111],[-106.61305555555555,40.85111111111111],[-106.61305555555555,40.85111111111111],[-106.61305555555555,40.85111111111111],[-106.06861111111111,40.983333333333334],[-106.06861111111111,40.983333333333334],[-106.06861111111111,40.983333333333334],[-106.06861111111111,40.983333333333334],[-104.68722222222223,41.281666666666666],[-104.68722222222223,41.281666666666666],[-104.68722222222223,41.281666666666666],[-104.51305555555555,41.31777777777778],[-104.16388888888889,41.38916666666667],[-104.16388888888889,41.38916666666667],[-104.16388888888889,41.38916666666667],[-103.42416666666666,41.53638888888889],[-103.24638888888889,41.571111111111115],[-103.24638888888889,41.571111111111115],[-103.24638888888889,41.571111111111115],[-103.07166666666666,41.60472222222222],[-103.07166666666666,41.60472222222222],[-102.32083333333333,41.71944444444445],[-102.32083333333333,41.71944444444445],[-102.32083333333333,41.71944444444445],[-101.96388888888889,41.763888888888886],[-101.59777777777778,41.81055555555555],[-101.59777777777778,41.81055555555555],[-101.41638888888889,41.83305555555556],[-101.41638888888889,41.83305555555556],[-101.29694444444445,41.84666666666667],[-101.29694444444445,41.84666666666667],[-101.04694444444445,41.87833333333333],[-101.04694444444445,41.87833333333333],[-101.04694444444445,41.87833333333333],[-100.73722222222223,41.914722222222224],[-100.73722222222223,41.914722222222224],[-100.3711111111111,41.95777777777778],[-100.3711111111111,41.95777777777778],[-100.3711111111111,41.95777777777778],[-99.82111111111111,42.032777777777774],[-99.82111111111111,42.032777777777774],[-99.64027777777778,42.06527777777777],[-99.64027777777778,42.06527777777777],[-99.2038888888889,42.13944444444444],[-99.2038888888889,42.13944444444444],[-99.0175,42.155],[-98.83527777777778,42.17027777777778],[-98.53666666666666,42.19444444444444],[-98.53666666666666,42.19444444444444],[-98.53666666666666,42.19444444444444],[-98.27583333333334,42.21472222222223],[-98.27583333333334,42.21472222222223],[-98.27583333333334,42.21472222222223],[-97.56805555555555,42.26722222222222],[-97.56805555555555,42.26722222222222],[-97.56805555555555,42.26722222222222],[-97.56805555555555,42.26722222222222],[-96.84416666666667,42.316111111111105],[-96.84416666666667,42.316111111111105],[-96.84416666666667,42.316111111111105],[-96.84416666666667,42.316111111111105],[-96.30416666666666,42.349722222222226],[-96.12527777777777,42.36027777777778],[-95.94972222222222,42.37],[-95.94972222222222,42.37],[-95.94972222222222,42.37],[-95.77305555555556,42.38],[-95.59777777777778,42.38944444444444],[-95.59777777777778,42.38944444444444],[-95.06333333333333,42.41694444444444],[-94.83305555555555,42.426944444444445],[-94.83305555555555,42.426944444444445],[-94.83305555555555,42.426944444444445],[-94.52027777777778,42.44194444444444],[-94.29388888888889,42.45166666666667],[-94.14944444444446,42.45777777777778],[-94.14944444444446,42.45777777777778],[-93.57944444444443,42.47944444444445],[-93.57944444444443,42.47944444444445],[-93.39916666666667,42.48555555555556],[-93.39916666666667,42.48555555555556],[-92.89583333333334,42.50194444444445],[-92.86,42.503055555555555],[-92.71694444444445,42.50694444444444],[-92.71694444444445,42.50694444444444],[-92.35583333333332,42.516666666666666],[-92.35583333333332,42.516666666666666],[-92.35583333333332,42.516666666666666],[-92.14055555555557,42.52194444444444],[-92.14055555555557,42.52194444444444],[-91.99916666666667,42.52472222222222],[-91.99916666666667,42.52472222222222],[-91.46111111111111,42.526666666666664],[-91.46111111111111,42.526666666666664],[-91.16527777777779,42.526944444444446],[-91.16527777777779,42.526944444444446],[-91.16527777777779,42.526944444444446],[-91.16527777777779,42.526944444444446],[-90.57333333333332,42.698055555555555],[-90.57333333333332,42.698055555555555],[-90.57333333333332,42.698055555555555],[-90.57333333333332,42.698055555555555],[-89.95166666666667,42.55833333333333],[-89.95166666666667,42.55833333333333],[-89.95166666666667,42.55833333333333],[-89.95166666666667,42.55833333333333],[-89.78,42.51972222222222],[-89.78,42.51972222222222],[-89.47527777777778,42.48166666666667],[-89.47527777777778,42.48166666666667],[-89.13333333333334,42.43333333333333],[-89.13333333333334,42.43333333333333],[-89.07083333333333,42.43138888888889],[-88.86666666666666,42.4],[-88.86666666666666,42.4],[-88.86666666666666,42.4],[-88.73333333333333,42.38333333333333],[-88.63333333333334,42.233333333333334],[-88.6375,42.20416666666667],[-88.6375,42.20416666666667],[-88.65,42.083333333333336],[-88.65,42.083333333333336],[-88.64027777777778,42.04472222222222],[-88.59666666666666,41.97083333333334],[-88.55,41.96666666666667],[-88.41194444444444,41.96361111111111],[-88.21666666666667,41.96666666666667],[-88.15,41.96666666666667],[-88.15,41.96666666666667],[-88.1,41.96666666666667],[-88.1,41.96666666666667],[-87.98333333333333,41.96666666666667],[-87.9575,41.96555555555556]],"type":"LineString"}
}
