{
  "id": 2031558539,
  "type": "Feature",
  "properties": {
    "geom:area": 0,
    "geom:bbox": "-122.399610,37.630440,-121.252940,38.421340",
    "geom:latitude": 38.08652824705209,
    "geom:longitude": -121.93148823558799,
    "src:alt_label": "swim-takeoff",
    "src:geom": "swim",
    "swim:elevations": [
      389,
      521,
      769,
      1098,
      1230,
      1253,
      1350,
      1658,
      2123,
      2610,
      2820,
      2931,
      3234,
      3297,
      3444,
      3537,
      3695,
      3837,
      4103,
      4292,
      4477,
      4763,
      5246,
      5496,
      5728,
      5886,
      5991,
      6369,
      6525,
      6815,
      6928,
      7016
    ],
    "swim:geom": "takeoff",
    "swim:timestamps": [
      1781676473,
      1781676485,
      1781676511,
      1781676567,
      1781676598,
      1781676610,
      1781676632,
      1781676660,
      1781676702,
      1781676745,
      1781676763,
      1781676772,
      1781676809,
      1781676820,
      1781676855,
      1781676875,
      1781676905,
      1781676923,
      1781676953,
      1781676975,
      1781676994,
      1781677027,
      1781677067,
      1781677098,
      1781677131,
      1781677156,
      1781677171,
      1781677224,
      1781677244,
      1781677286,
      1781677315,
      1781677329
    ],
    "wof:geomhash": "8e3e70cb323dec54d1611f11147013cb",
    "wof:id": 2031558539,
    "wof:repo": "sfomuseum-data-flights-2026-06"
  },
  "bbox": [
    -122.39961,
    37.63044,
    -121.25294,
    38.42134
  ],
  "geometry": {"coordinates":[[-122.39653,37.63044],[-122.39961,37.63878],[-122.38954,37.65627],[-122.35852,37.69476],[-122.33958,37.7203],[-122.33562,37.73275],[-122.34411,37.75819],[-122.36034,37.79213],[-122.38371,37.8431],[-122.38429,37.90148],[-122.38095,37.92523],[-122.37558,37.9352],[-122.32538,37.96412],[-122.30583,37.97193],[-122.24589,37.99625],[-122.20849,38.01144],[-122.15057,38.03476],[-122.11429,38.04928],[-122.0542,38.07328],[-122.00894,38.09141],[-121.96912,38.10732],[-121.89936,38.1352],[-121.81359,38.1693],[-121.74918,38.19485],[-121.67868,38.2227],[-121.62269,38.24479],[-121.59054,38.25749],[-121.47301,38.30376],[-121.42668,38.32193],[-121.33978,38.36763],[-121.28036,38.40443],[-121.25294,38.42134]],"type":"LineString"}
}
