{
  "id": 2031524011,
  "type": "Feature",
  "properties": {
    "geom:area": 0,
    "geom:bbox": "-122.549167,32.695556,-116.964444,37.664167",
    "geom:latitude": 35.02291906612999,
    "geom:longitude": -119.96216010623891,
    "src:alt_label": "swim-path",
    "src:geom": "swim",
    "swim:altitudes": [
      "007",
      "007",
      "012",
      "021",
      "021",
      "021",
      "021",
      "021",
      "021",
      "032",
      "032",
      "032",
      "032",
      "076",
      "076",
      "076",
      "076",
      "102",
      "102",
      "102",
      "102",
      "102",
      "102",
      "102",
      "102",
      "195",
      "195",
      "195",
      "195",
      "195",
      "195",
      "195",
      "195",
      "195",
      "219",
      "219",
      "219",
      "219",
      "219",
      "219",
      "219",
      "240",
      "240",
      "240",
      "240",
      "270",
      "270",
      "270",
      "270",
      "286",
      "286",
      "286",
      "286",
      "286",
      "286",
      "286",
      "286",
      "330C",
      "330C",
      "330C",
      "330C",
      "330C",
      "330C",
      "330C",
      "330C",
      "330C",
      "330C",
      "330C",
      "330C",
      "330C",
      "330C",
      "330C",
      "330C",
      "330C",
      "330C",
      "330C",
      "330C",
      "330C",
      "330C",
      "330C",
      "330C",
      "330C",
      "330C",
      "330C",
      "330C",
      "330C",
      "330C",
      "330C",
      "330C",
      "330C",
      "330C",
      "330C",
      "330C",
      "330C",
      "330C",
      "330C",
      "330C",
      "330C",
      "330C",
      "330C",
      "330C",
      "330C",
      "330C",
      "330C",
      "330C",
      "330C",
      "330C",
      "330C",
      "330C",
      "330C",
      "330C",
      "330C",
      "330C",
      "330C",
      "330C",
      "330C",
      "330C",
      "330C",
      "330C",
      "330C",
      "330C",
      "330C",
      "330C",
      "330C",
      "330C",
      "330C",
      "330C",
      "330C",
      "330C",
      "330C",
      "330C",
      "330C",
      "330C",
      "330C",
      "330C",
      "330C",
      "330C",
      "330C",
      "330C",
      "330C",
      "330C",
      "330C",
      "330C",
      "330C",
      "330C",
      "330C",
      "330C",
      "330C",
      "330C",
      "330C",
      "330C",
      "330C",
      "330C",
      "330C",
      "330C",
      "330C",
      "330C",
      "289",
      "289",
      "289",
      "289",
      "289",
      "289",
      "268",
      "268",
      "268",
      "268",
      "268",
      "268",
      "268",
      "224",
      "224",
      "224",
      "224",
      "199",
      "199",
      "199",
      "199",
      "160",
      "160",
      "160",
      "140",
      "140",
      "140",
      "140",
      "140",
      "140",
      "140",
      "140",
      "076",
      "076",
      "076",
      "076",
      "064",
      "064",
      "064",
      "064",
      "064",
      "064",
      "064",
      "049",
      "049",
      "049",
      "049",
      "049",
      "039",
      "039",
      "039",
      "039",
      "039",
      "039",
      "039",
      "029",
      "029",
      "029",
      "029",
      "009",
      "009",
      "009"
    ],
    "swim:geom": "path",
    "swim:speeds": [
      177,
      177,
      184,
      193,
      193,
      193,
      193,
      193,
      193,
      214,
      214,
      214,
      214,
      283,
      283,
      283,
      283,
      312,
      312,
      312,
      312,
      312,
      312,
      312,
      312,
      393,
      393,
      393,
      393,
      393,
      393,
      393,
      393,
      393,
      409,
      409,
      409,
      409,
      409,
      409,
      409,
      416,
      416,
      416,
      416,
      452,
      452,
      452,
      452,
      460,
      460,
      460,
      460,
      460,
      460,
      460,
      460,
      455,
      455,
      455,
      455,
      455,
      455,
      455,
      455,
      455,
      452,
      452,
      452,
      452,
      452,
      452,
      452,
      452,
      452,
      447,
      447,
      447,
      447,
      447,
      447,
      447,
      446,
      446,
      446,
      446,
      446,
      446,
      446,
      446,
      446,
      453,
      453,
      453,
      453,
      453,
      455,
      455,
      455,
      455,
      455,
      455,
      455,
      455,
      455,
      455,
      455,
      455,
      464,
      464,
      464,
      464,
      464,
      464,
      470,
      470,
      470,
      470,
      470,
      470,
      470,
      472,
      472,
      472,
      472,
      472,
      473,
      473,
      473,
      473,
      473,
      473,
      473,
      472,
      472,
      472,
      472,
      472,
      472,
      472,
      472,
      472,
      468,
      468,
      468,
      468,
      468,
      468,
      468,
      473,
      473,
      473,
      473,
      473,
      473,
      473,
      473,
      460,
      460,
      460,
      460,
      460,
      460,
      453,
      453,
      453,
      453,
      453,
      453,
      453,
      420,
      420,
      420,
      420,
      398,
      398,
      398,
      398,
      373,
      373,
      373,
      359,
      359,
      359,
      359,
      359,
      359,
      359,
      359,
      264,
      264,
      264,
      264,
      244,
      244,
      244,
      244,
      244,
      244,
      244,
      222,
      222,
      222,
      222,
      222,
      212,
      212,
      212,
      212,
      212,
      212,
      212,
      190,
      190,
      190,
      190,
      156,
      156,
      156
    ],
    "swim:timestamps": [
      1781271099,
      1781271099,
      1781271117,
      1781271136,
      1781271136,
      1781271136,
      1781271136,
      1781271136,
      1781271136,
      1781271177,
      1781271177,
      1781271177,
      1781271177,
      1781271297,
      1781271297,
      1781271297,
      1781271297,
      1781271357,
      1781271357,
      1781271357,
      1781271357,
      1781271357,
      1781271357,
      1781271357,
      1781271357,
      1781271598,
      1781271598,
      1781271598,
      1781271598,
      1781271598,
      1781271598,
      1781271598,
      1781271598,
      1781271598,
      1781271657,
      1781271657,
      1781271657,
      1781271657,
      1781271657,
      1781271657,
      1781271657,
      1781271717,
      1781271717,
      1781271717,
      1781271717,
      1781271837,
      1781271837,
      1781271837,
      1781271837,
      1781271898,
      1781271898,
      1781271898,
      1781271898,
      1781271898,
      1781271898,
      1781271898,
      1781271898,
      1781272078,
      1781272078,
      1781272078,
      1781272078,
      1781272078,
      1781272078,
      1781272078,
      1781272078,
      1781272078,
      1781272198,
      1781272198,
      1781272198,
      1781272198,
      1781272198,
      1781272198,
      1781272198,
      1781272198,
      1781272198,
      1781272378,
      1781272378,
      1781272378,
      1781272378,
      1781272378,
      1781272378,
      1781272378,
      1781272498,
      1781272498,
      1781272498,
      1781272498,
      1781272498,
      1781272498,
      1781272498,
      1781272498,
      1781272498,
      1781272679,
      1781272679,
      1781272679,
      1781272679,
      1781272679,
      1781272739,
      1781272739,
      1781272739,
      1781272739,
      1781272739,
      1781272739,
      1781272739,
      1781272739,
      1781272799,
      1781272799,
      1781272799,
      1781272799,
      1781272859,
      1781272859,
      1781272859,
      1781272859,
      1781272859,
      1781272859,
      1781272979,
      1781272979,
      1781272979,
      1781272979,
      1781272979,
      1781272979,
      1781272979,
      1781273039,
      1781273039,
      1781273039,
      1781273039,
      1781273039,
      1781273099,
      1781273099,
      1781273099,
      1781273099,
      1781273099,
      1781273099,
      1781273099,
      1781273340,
      1781273340,
      1781273340,
      1781273340,
      1781273340,
      1781273340,
      1781273340,
      1781273340,
      1781273340,
      1781273520,
      1781273520,
      1781273520,
      1781273520,
      1781273520,
      1781273520,
      1781273520,
      1781273700,
      1781273700,
      1781273700,
      1781273700,
      1781273700,
      1781273700,
      1781273700,
      1781273700,
      1781273941,
      1781273941,
      1781273941,
      1781273941,
      1781273941,
      1781273941,
      1781274001,
      1781274001,
      1781274001,
      1781274001,
      1781274001,
      1781274001,
      1781274001,
      1781274121,
      1781274121,
      1781274121,
      1781274121,
      1781274181,
      1781274181,
      1781274181,
      1781274181,
      1781274301,
      1781274301,
      1781274301,
      1781274361,
      1781274361,
      1781274361,
      1781274361,
      1781274361,
      1781274361,
      1781274361,
      1781274361,
      1781274662,
      1781274662,
      1781274662,
      1781274662,
      1781274722,
      1781274722,
      1781274722,
      1781274722,
      1781274722,
      1781274722,
      1781274722,
      1781274842,
      1781274842,
      1781274842,
      1781274842,
      1781274842,
      1781274902,
      1781274902,
      1781274902,
      1781274902,
      1781274902,
      1781274902,
      1781274902,
      1781274962,
      1781274962,
      1781274962,
      1781274962,
      1781275082,
      1781275082,
      1781275082
    ],
    "wof:geomhash": "23e6bc14ae4b46abe5ad66aff8a17d5e",
    "wof:id": 2031524011,
    "wof:repo": "sfomuseum-data-flights-2026-06"
  },
  "bbox": [
    -122.54916666666666,
    32.69555555555555,
    -116.96444444444445,
    37.66416666666667
  ],
  "geometry": {"coordinates":[[-122.4,37.63333333333333],[-122.4,37.63333333333333],[-122.41944444444445,37.63777777777778],[-122.43333333333334,37.65],[-122.43333333333334,37.65],[-122.43333333333334,37.65],[-122.43333333333334,37.65],[-122.43333333333334,37.65],[-122.43333333333334,37.65],[-122.48111111111112,37.66416666666667],[-122.48111111111112,37.66416666666667],[-122.48111111111112,37.66416666666667],[-122.48111111111112,37.66416666666667],[-122.51861111111111,37.57277777777778],[-122.51861111111111,37.57277777777778],[-122.51861111111111,37.57277777777778],[-122.51861111111111,37.57277777777778],[-122.48027777777779,37.49333333333333],[-122.48027777777779,37.49333333333333],[-122.48027777777779,37.49333333333333],[-122.48027777777779,37.49333333333333],[-122.48027777777779,37.49333333333333],[-122.48027777777779,37.49333333333333],[-122.48027777777779,37.49333333333333],[-122.48027777777779,37.49333333333333],[-122.54916666666666,37.086666666666666],[-122.54916666666666,37.086666666666666],[-122.54916666666666,37.086666666666666],[-122.54916666666666,37.086666666666666],[-122.54916666666666,37.086666666666666],[-122.54916666666666,37.086666666666666],[-122.54916666666666,37.086666666666666],[-122.54916666666666,37.086666666666666],[-122.54916666666666,37.086666666666666],[-122.53527777777778,36.967222222222226],[-122.53527777777778,36.967222222222226],[-122.53527777777778,36.967222222222226],[-122.53527777777778,36.967222222222226],[-122.53527777777778,36.967222222222226],[-122.53527777777778,36.967222222222226],[-122.53527777777778,36.967222222222226],[-122.46222222222222,36.867222222222225],[-122.46222222222222,36.867222222222225],[-122.46222222222222,36.867222222222225],[-122.46222222222222,36.867222222222225],[-122.28,36.669444444444444],[-122.28,36.669444444444444],[-122.28,36.669444444444444],[-122.28,36.669444444444444],[-122.17666666666668,36.573055555555555],[-122.17666666666668,36.573055555555555],[-122.17666666666668,36.573055555555555],[-122.17666666666668,36.573055555555555],[-122.17666666666668,36.573055555555555],[-122.17666666666668,36.573055555555555],[-122.17666666666668,36.573055555555555],[-122.17666666666668,36.573055555555555],[-121.86972222222222,36.284166666666664],[-121.86972222222222,36.284166666666664],[-121.86972222222222,36.284166666666664],[-121.86972222222222,36.284166666666664],[-121.86972222222222,36.284166666666664],[-121.86972222222222,36.284166666666664],[-121.86972222222222,36.284166666666664],[-121.86972222222222,36.284166666666664],[-121.86972222222222,36.284166666666664],[-121.64722222222223,36.111666666666665],[-121.64722222222223,36.111666666666665],[-121.64722222222223,36.111666666666665],[-121.64722222222223,36.111666666666665],[-121.64722222222223,36.111666666666665],[-121.64722222222223,36.111666666666665],[-121.64722222222223,36.111666666666665],[-121.64722222222223,36.111666666666665],[-121.64722222222223,36.111666666666665],[-121.28888888888889,35.87861111111111],[-121.28888888888889,35.87861111111111],[-121.28888888888889,35.87861111111111],[-121.28888888888889,35.87861111111111],[-121.28888888888889,35.87861111111111],[-121.28888888888889,35.87861111111111],[-121.28888888888889,35.87861111111111],[-121.04833333333333,35.721111111111114],[-121.04833333333333,35.721111111111114],[-121.04833333333333,35.721111111111114],[-121.04833333333333,35.721111111111114],[-121.04833333333333,35.721111111111114],[-121.04833333333333,35.721111111111114],[-121.04833333333333,35.721111111111114],[-121.04833333333333,35.721111111111114],[-121.04833333333333,35.721111111111114],[-120.69,35.48388888888889],[-120.69,35.48388888888889],[-120.69,35.48388888888889],[-120.69,35.48388888888889],[-120.69,35.48388888888889],[-120.56777777777778,35.40277777777778],[-120.56777777777778,35.40277777777778],[-120.56777777777778,35.40277777777778],[-120.56777777777778,35.40277777777778],[-120.56777777777778,35.40277777777778],[-120.56777777777778,35.40277777777778],[-120.56777777777778,35.40277777777778],[-120.56777777777778,35.40277777777778],[-120.44972222222222,35.32361111111111],[-120.44972222222222,35.32361111111111],[-120.44972222222222,35.32361111111111],[-120.44972222222222,35.32361111111111],[-120.32472222222222,35.23972222222222],[-120.32472222222222,35.23972222222222],[-120.32472222222222,35.23972222222222],[-120.32472222222222,35.23972222222222],[-120.32472222222222,35.23972222222222],[-120.32472222222222,35.23972222222222],[-120.07416666666666,35.07083333333334],[-120.07416666666666,35.07083333333334],[-120.07416666666666,35.07083333333334],[-120.07416666666666,35.07083333333334],[-120.07416666666666,35.07083333333334],[-120.07416666666666,35.07083333333334],[-120.07416666666666,35.07083333333334],[-119.94194444444445,34.981388888888894],[-119.94194444444445,34.981388888888894],[-119.94194444444445,34.981388888888894],[-119.94194444444445,34.981388888888894],[-119.94194444444445,34.981388888888894],[-119.81861111111111,34.89722222222222],[-119.81861111111111,34.89722222222222],[-119.81861111111111,34.89722222222222],[-119.81861111111111,34.89722222222222],[-119.81861111111111,34.89722222222222],[-119.81861111111111,34.89722222222222],[-119.81861111111111,34.89722222222222],[-119.32805555555555,34.56055555555555],[-119.32805555555555,34.56055555555555],[-119.32805555555555,34.56055555555555],[-119.32805555555555,34.56055555555555],[-119.32805555555555,34.56055555555555],[-119.32805555555555,34.56055555555555],[-119.32805555555555,34.56055555555555],[-119.32805555555555,34.56055555555555],[-119.32805555555555,34.56055555555555],[-118.96722222222222,34.30972222222222],[-118.96722222222222,34.30972222222222],[-118.96722222222222,34.30972222222222],[-118.96722222222222,34.30972222222222],[-118.96722222222222,34.30972222222222],[-118.96722222222222,34.30972222222222],[-118.96722222222222,34.30972222222222],[-118.60666666666665,34.05638888888888],[-118.60666666666665,34.05638888888888],[-118.60666666666665,34.05638888888888],[-118.60666666666665,34.05638888888888],[-118.60666666666665,34.05638888888888],[-118.60666666666665,34.05638888888888],[-118.60666666666665,34.05638888888888],[-118.60666666666665,34.05638888888888],[-118.15,33.71611111111111],[-118.15,33.71611111111111],[-118.15,33.71611111111111],[-118.15,33.71611111111111],[-118.15,33.71611111111111],[-118.15,33.71611111111111],[-118.0363888888889,33.629444444444445],[-118.0363888888889,33.629444444444445],[-118.0363888888889,33.629444444444445],[-118.0363888888889,33.629444444444445],[-118.0363888888889,33.629444444444445],[-118.0363888888889,33.629444444444445],[-118.0363888888889,33.629444444444445],[-117.83222222222221,33.46361111111111],[-117.83222222222221,33.46361111111111],[-117.83222222222221,33.46361111111111],[-117.83222222222221,33.46361111111111],[-117.73333333333333,33.36666666666667],[-117.73333333333333,33.36666666666667],[-117.73333333333333,33.36666666666667],[-117.73333333333333,33.36666666666667],[-117.57277777777777,33.22222222222222],[-117.57277777777777,33.22222222222222],[-117.57277777777777,33.22222222222222],[-117.49361111111111,33.14666666666667],[-117.49361111111111,33.14666666666667],[-117.49361111111111,33.14666666666667],[-117.49361111111111,33.14666666666667],[-117.49361111111111,33.14666666666667],[-117.49361111111111,33.14666666666667],[-117.49361111111111,33.14666666666667],[-117.49361111111111,33.14666666666667],[-117.18722222222223,32.80611111111111],[-117.18722222222223,32.80611111111111],[-117.18722222222223,32.80611111111111],[-117.18722222222223,32.80611111111111],[-117.11027777777777,32.78916666666667],[-117.11027777777777,32.78916666666667],[-117.11027777777777,32.78916666666667],[-117.11027777777777,32.78916666666667],[-117.11027777777777,32.78916666666667],[-117.11027777777777,32.78916666666667],[-117.11027777777777,32.78916666666667],[-116.96444444444445,32.74777777777778],[-116.96444444444445,32.74777777777778],[-116.96444444444445,32.74777777777778],[-116.96444444444445,32.74777777777778],[-116.96444444444445,32.74777777777778],[-116.97194444444445,32.69555555555555],[-116.97194444444445,32.69555555555555],[-116.97194444444445,32.69555555555555],[-116.97194444444445,32.69555555555555],[-116.97194444444445,32.69555555555555],[-116.97194444444445,32.69555555555555],[-116.97194444444445,32.69555555555555],[-117.03333333333333,32.69555555555555],[-117.03333333333333,32.69555555555555],[-117.03333333333333,32.69555555555555],[-117.03333333333333,32.69555555555555],[-117.14083333333333,32.72166666666667],[-117.14083333333333,32.72166666666667],[-117.14083333333333,32.72166666666667]],"type":"LineString"}
}
