{
  "id": 2031421871,
  "type": "Feature",
  "properties": {
    "geom:area": 0,
    "geom:bbox": "-123.258056,37.433333,-122.083333,47.560556",
    "geom:latitude": 42.32229111226307,
    "geom:longitude": -123.00351547818619,
    "src:alt_label": "swim-path",
    "src:geom": "swim",
    "swim:altitudes": [
      "017",
      "041",
      "041",
      "104",
      "164",
      "225",
      "240",
      "240",
      "271",
      "307",
      "347",
      "350C",
      "350C",
      "350C",
      "350C",
      "350",
      "350",
      "310C",
      "310C",
      "310C",
      "310C",
      "310C",
      "310C",
      "310C",
      "310C",
      "310C",
      "310C",
      "310C",
      "310C",
      "310C",
      "310C",
      "310C",
      "310C",
      "310C",
      "310C",
      "310C",
      "310C",
      "310C",
      "310C",
      "310C",
      "310C",
      "310C",
      "310C",
      "310C",
      "310C",
      "310C",
      "310C",
      "310C",
      "310C",
      "310C",
      "310C",
      "310C",
      "310C",
      "310",
      "310",
      "310",
      "310",
      "286",
      "286",
      "230",
      "230",
      "218",
      "199",
      "190",
      "190",
      "180",
      "170",
      "150",
      "140",
      "140",
      "125",
      "122",
      "112",
      "111C",
      "110C",
      "106",
      "106",
      "094",
      "094",
      "055",
      "050",
      "042",
      "040"
    ],
    "swim:geom": "path",
    "swim:speeds": [
      179,
      220,
      220,
      297,
      409,
      456,
      462,
      462,
      481,
      469,
      459,
      455,
      455,
      455,
      458,
      459,
      459,
      461,
      461,
      469,
      476,
      502,
      505,
      508,
      505,
      505,
      502,
      500,
      500,
      499,
      498,
      497,
      479,
      461,
      459,
      457,
      457,
      454,
      445,
      445,
      437,
      434,
      434,
      432,
      432,
      429,
      428,
      412,
      412,
      417,
      422,
      422,
      429,
      428,
      426,
      426,
      425,
      454,
      454,
      396,
      396,
      382,
      376,
      374,
      374,
      371,
      366,
      359,
      351,
      351,
      341,
      344,
      315,
      316,
      251,
      250,
      250,
      242,
      242,
      211,
      199,
      194,
      198
    ],
    "swim:timestamps": [
      1780369383,
      1780369443,
      1780369443,
      1780369623,
      1780369803,
      1780369984,
      1780370044,
      1780370044,
      1780370164,
      1780370284,
      1780370464,
      1780370705,
      1780370705,
      1780370765,
      1780370945,
      1780371005,
      1780371005,
      1780371186,
      1780371186,
      1780371487,
      1780371547,
      1780371727,
      1780371787,
      1780372011,
      1780372071,
      1780372071,
      1780372268,
      1780372328,
      1780372328,
      1780372388,
      1780372432,
      1780372448,
      1780372508,
      1780372552,
      1780372568,
      1780372628,
      1780372628,
      1780372688,
      1780372732,
      1780372732,
      1780372792,
      1780372852,
      1780372866,
      1780372912,
      1780372912,
      1780372972,
      1780372986,
      1780373092,
      1780373106,
      1780373213,
      1780373226,
      1780373226,
      1780373406,
      1780373453,
      1780373513,
      1780373513,
      1780373573,
      1780373933,
      1780373933,
      1780374113,
      1780374113,
      1780374174,
      1780374294,
      1780374354,
      1780374354,
      1780374414,
      1780374474,
      1780374594,
      1780374645,
      1780374645,
      1780374705,
      1780374714,
      1780374765,
      1780374774,
      1780374894,
      1780374954,
      1780374954,
      1780375005,
      1780375005,
      1780375246,
      1780375306,
      1780375366,
      1780375375
    ],
    "wof:geomhash": "fb27f28de4b29931e2bdedbe93eac660",
    "wof:id": 2031421871,
    "wof:repo": "sfomuseum-data-flights-2026-06"
  },
  "bbox": [
    -123.25805555555556,
    37.43333333333333,
    -122.08333333333333,
    47.56055555555555
  ],
  "geometry": {"coordinates":[[-122.30777777777777,47.48166666666667],[-122.31,47.54],[-122.31,47.54],[-122.55972222222222,47.56055555555555],[-122.89416666666668,47.34055555555556],[-123.21611111111112,47.04666666666667],[-123.21361111111112,46.925555555555555],[-123.21361111111112,46.925555555555555],[-123.20472222222223,46.66027777777778],[-123.19611111111111,46.40555555555555],[-123.18361111111112,46.019999999999996],[-123.16777777777779,45.51611111111111],[-123.16777777777779,45.51611111111111],[-123.16333333333334,45.388888888888886],[-123.15138888888889,45.00361111111111],[-123.14722222222223,44.87444444444444],[-123.14722222222223,44.87444444444444],[-123.13527777777779,44.48861111111111],[-123.13527777777779,44.48861111111111],[-123.11222222222221,43.8325],[-123.10749999999999,43.700833333333335],[-123.09305555555555,43.28583333333333],[-123.08833333333332,43.14472222222222],[-123.07194444444444,42.63944444444444],[-123.06666666666666,42.472500000000004],[-123.06666666666666,42.472500000000004],[-123.05138888888888,42.02861111111111],[-123.04694444444445,41.89111111111111],[-123.04694444444445,41.89111111111111],[-123.0425,41.755],[-123.03888888888889,41.64361111111111],[-123.03805555555556,41.61805555555556],[-123.03388888888888,41.48111111111111],[-123.03055555555555,41.37888888888889],[-123.02944444444444,41.3425],[-123.02583333333334,41.217777777777776],[-123.02583333333334,41.217777777777776],[-123.02194444444444,41.090833333333336],[-123.01944444444445,41.013333333333335],[-123.01944444444445,41.013333333333335],[-123.01583333333333,40.89361111111111],[-123.0125,40.77638888888889],[-123.0111111111111,40.72916666666667],[-123.00888888888889,40.657777777777774],[-123.00888888888889,40.657777777777774],[-123.00527777777778,40.53944444444444],[-123.00444444444445,40.49138888888889],[-123.11749999999999,40.30888888888889],[-123.11749999999999,40.308611111111105],[-123.25666666666666,40.12444444444444],[-123.25805555555556,40.1025],[-123.25805555555556,40.1025],[-123.16777777777779,39.75],[-123.14083333333333,39.644999999999996],[-123.11138888888888,39.52861111111111],[-123.11138888888888,39.52861111111111],[-123.08388888888888,39.42027777777778],[-122.90138888888889,38.69083333333333],[-122.90138888888889,38.69083333333333],[-122.815,38.34722222222222],[-122.815,38.34722222222222],[-122.90777777777778,38.276666666666664],[-123.13194444444444,38.17444444444444],[-123.20611111111111,38.08916666666667],[-123.20611111111111,38.08916666666667],[-123.18527777777778,37.992222222222225],[-123.11361111111111,37.9125],[-122.87805555555555,37.8425],[-122.76666666666667,37.81666666666667],[-122.76666666666667,37.81666666666667],[-122.65,37.78333333333333],[-122.63055555555555,37.77166666666667],[-122.53333333333333,37.75],[-122.52444444444444,37.74138888888889],[-122.39694444444446,37.63916666666667],[-122.34722222222221,37.58277777777778],[-122.34722222222221,37.58277777777778],[-122.31666666666666,37.53333333333333],[-122.31666666666666,37.53333333333333],[-122.1,37.43333333333333],[-122.08333333333333,37.483333333333334],[-122.13333333333334,37.516666666666666],[-122.13583333333334,37.52055555555555]],"type":"LineString"}
}
