{
  "id": 2031537433,
  "type": "Feature",
  "properties": {
    "geom:area": 0,
    "geom:bbox": "-122.770000,37.620000,-74.170000,43.650000",
    "geom:latitude": 42.32916513412695,
    "geom:longitude": -98.99965113620837,
    "src:alt_label": "swim-route",
    "src:geom": "swim",
    "swim:geom": "route",
    "wof:geomhash": "17020c08d8320a53bb09961f92e00cb8",
    "wof:id": 2031537433,
    "wof:repo": "sfomuseum-data-flights-2026-06"
  },
  "bbox": [
    -122.77,
    37.62,
    -74.17,
    43.65
  ],
  "geometry": {"coordinates":[[-74.17,40.69],[-74.26,40.77],[-74.31,40.81],[-74.32,40.82],[-74.34,40.84],[-74.36,40.85],[-74.38,40.87],[-74.4,40.88],[-74.43,40.91],[-74.45,40.93],[-74.46,40.94],[-74.48,40.96],[-74.5,40.97],[-74.51,40.98],[-74.55,41.01],[-74.57,41.03],[-74.62,41.07],[-74.64,41.09],[-74.66,41.1],[-74.69,41.13],[-74.7,41.14],[-74.74,41.15],[-74.78,41.17],[-74.78,41.17],[-74.84,41.2],[-74.97,41.26],[-75.1,41.31],[-75.19,41.35],[-75.34,41.42],[-75.35,41.42],[-75.48,41.48],[-75.54,41.49],[-75.64,41.52],[-75.73,41.55],[-75.74,41.55],[-75.86,41.58],[-75.96,41.61],[-76.22,41.69],[-76.26,41.7],[-76.52,41.77],[-76.53,41.77],[-76.93,41.88],[-77.35,41.99],[-77.41,42.01],[-77.63,42.07],[-77.84,42.13],[-78.27,42.24],[-78.91,42.4],[-79.62,42.57],[-79.79,42.61],[-80.5,42.64],[-80.6,42.65],[-81.27,42.67],[-82.48,42.8],[-82.55,42.81],[-82.71,42.83],[-83.3,42.91],[-84.59,43.02],[-85,43.03],[-85.03,43.04],[-87,43.1],[-88.28,43.12],[-89.65,43.25],[-90.2,43.29],[-91.09,43.36],[-92.74,43.48],[-93.84,43.54],[-96.41,43.64],[-96.78,43.65],[-98.44,43.61],[-100.78,43.51],[-101.72,43.46],[-106.28,43.09],[-107.14,42.99],[-109.82,42.62],[-111.87,42.3],[-112.45,42.2],[-113.36,41.95],[-114.5,41.62],[-114.77,41.54],[-116.15,41.12],[-118.3,40.41],[-118.37,40.39],[-118.63,40.28],[-119.42,39.96],[-120.51,39.56],[-121.1,39.34],[-121.13,39.32],[-121.22,39.26],[-121.52,39.09],[-121.6,39.04],[-121.67,39],[-121.95,38.84],[-122.01,38.8],[-122.24,38.66],[-122.29,38.63],[-122.44,38.54],[-122.68,38.31],[-122.69,38.3],[-122.77,38.22],[-122.75,38.16],[-122.71,38.02],[-122.69,37.95],[-122.67,37.9],[-122.65,37.87],[-122.59,37.82],[-122.58,37.81],[-122.57,37.8],[-122.53,37.77],[-122.51,37.74],[-122.5,37.73],[-122.44,37.68],[-122.37,37.62],[-122.38,37.62]],"type":"LineString"}
}
