{
  "id": 2031468065,
  "type": "Feature",
  "properties": {
    "geom:area": 0,
    "geom:bbox": "-122.740000,37.620000,-121.400000,47.510000",
    "geom:latitude": 42.40018156625547,
    "geom:longitude": -122.11223238840196,
    "src:alt_label": "swim-route",
    "src:geom": "swim",
    "swim:geom": "route",
    "wof:geomhash": "198c2ee2b3c651c3d3a206bed8c97e23",
    "wof:id": 2031468065,
    "wof:repo": "sfomuseum-data-flights-2026-06"
  },
  "bbox": [
    -122.74,
    37.62,
    -121.4,
    47.51
  ],
  "geometry": {"coordinates":[[-122.38,37.62],[-122.28,37.68],[-122.27,37.69],[-122.27,37.69],[-122.21,37.72],[-122.21,37.73],[-122.21,37.73],[-122.21,37.76],[-122.2,37.81],[-122.2,37.83],[-122.17,37.97],[-122.15,38.14],[-122.14,38.17],[-122.13,38.2],[-122.12,38.27],[-122.11,38.34],[-122.12,38.4],[-122.12,38.49],[-122.13,38.61],[-122.14,38.67],[-122.14,38.69],[-122.1,38.7],[-122.08,38.71],[-121.89,38.77],[-121.81,38.83],[-121.86,38.82],[-121.9,38.81],[-121.74,38.88],[-121.68,38.93],[-121.61,38.98],[-121.4,39.13],[-121.41,39.26],[-121.42,39.34],[-121.83,39.83],[-121.83,40.01],[-121.89,41.19],[-121.94,42.19],[-121.97,42.76],[-122,43.35],[-122.04,43.48],[-122.09,43.74],[-122.12,43.83],[-122.47,45.26],[-122.48,45.32],[-122.51,45.41],[-122.59,45.75],[-122.6,45.76],[-122.61,45.81],[-122.65,45.98],[-122.65,45.99],[-122.65,46],[-122.67,46.07],[-122.68,46.09],[-122.72,46.32],[-122.72,46.39],[-122.73,46.63],[-122.74,46.78],[-122.67,46.84],[-122.64,46.87],[-122.57,46.93],[-122.56,46.94],[-122.53,47.01],[-122.5,47.08],[-122.5,47.08],[-122.48,47.19],[-122.47,47.23],[-122.46,47.35],[-122.46,47.39],[-122.46,47.41],[-122.46,47.44],[-122.46,47.45],[-122.46,47.48],[-122.46,47.51],[-122.39,47.49],[-122.31,47.45]],"type":"LineString"}
}
