{
  "id": 2031537765,
  "type": "Feature",
  "properties": {
    "geom:area": 0,
    "geom:bbox": "-122.380000,37.490000,-77.460000,38.950000",
    "geom:latitude": 38.360174530835096,
    "geom:longitude": -100.10156289437688,
    "src:alt_label": "swim-route",
    "src:geom": "swim",
    "swim:geom": "route",
    "wof:geomhash": "10962a180958593c9e3947c5ce4669bf",
    "wof:id": 2031537765,
    "wof:repo": "sfomuseum-data-flights-2026-06"
  },
  "bbox": [
    -122.38,
    37.49,
    -77.46,
    38.95
  ],
  "geometry": {"coordinates":[[-77.46,38.95],[-77.55,38.93],[-77.58,38.92],[-77.58,38.92],[-77.61,38.92],[-77.64,38.91],[-77.67,38.9],[-77.67,38.9],[-77.68,38.9],[-77.71,38.9],[-77.71,38.9],[-77.73,38.88],[-77.76,38.87],[-77.78,38.86],[-77.91,38.78],[-77.93,38.79],[-78.13,38.84],[-78.14,38.84],[-78.18,38.85],[-78.21,38.85],[-78.22,38.85],[-78.26,38.85],[-78.37,38.85],[-78.38,38.85],[-78.59,38.85],[-78.67,38.85],[-78.81,38.85],[-78.82,38.85],[-78.84,38.85],[-78.98,38.84],[-79.04,38.84],[-79.2,38.84],[-79.31,38.84],[-79.42,38.84],[-79.55,38.81],[-79.66,38.79],[-79.68,38.79],[-80.53,38.59],[-80.61,38.59],[-81.27,38.57],[-81.37,38.58],[-81.66,38.59],[-82.59,38.61],[-82.9,38.62],[-82.93,38.62],[-83.03,38.62],[-83.26,38.63],[-83.34,38.63],[-84.31,38.65],[-84.58,38.67],[-84.94,38.62],[-85.18,38.64],[-86.37,38.71],[-86.39,38.71],[-86.49,38.72],[-86.78,38.73],[-87.46,38.76],[-87.68,38.77],[-87.79,38.78],[-88.11,38.79],[-88.45,38.8],[-88.56,38.81],[-88.91,38.82],[-89.96,38.85],[-90.48,38.86],[-91.31,38.75],[-91.74,38.69],[-92.13,38.64],[-92.19,38.63],[-92.21,38.62],[-92.15,38.63],[-92.09,38.64],[-92.83,38.53],[-94.04,38.34],[-94.49,38.27],[-94.59,38.27],[-96.81,38.18],[-97.38,38.15],[-97.81,38.13],[-98.4,38.09],[-99.65,38],[-100.73,37.92],[-100.93,37.94],[-101.6,38.02],[-101.83,38.04],[-103.37,38.2],[-103.5,38.2],[-104.23,38.39],[-105.66,38.43],[-105.74,38.41],[-108.07,38.46],[-108.25,38.46],[-108.43,38.46],[-108.48,38.46],[-108.65,38.46],[-108.44,38.45],[-108.14,38.4],[-108.56,38.4],[-109.23,38.45],[-109.6,38.45],[-109.64,38.45],[-109.98,38.44],[-111.9,38.4],[-112.46,38.38],[-113.01,38.36],[-113.56,38.32],[-113.97,38.29],[-114.39,38.25],[-114.68,38.23],[-116.27,38.12],[-116.7,38.09],[-116.81,38.08],[-117.24,38.05],[-117.77,38],[-118.19,37.96],[-118.55,37.93],[-119.1,37.86],[-119.24,37.63],[-119.46,37.62],[-119.62,37.63],[-119.8,37.65],[-119.96,37.66],[-120.4,37.7],[-120.58,37.68],[-120.69,37.67],[-120.75,37.66],[-120.78,37.66],[-120.83,37.65],[-120.96,37.63],[-121,37.63],[-121.08,37.62],[-121.18,37.6],[-121.26,37.59],[-121.39,37.58],[-121.41,37.58],[-121.6,37.55],[-121.61,37.55],[-121.62,37.55],[-121.7,37.53],[-121.8,37.51],[-121.83,37.5],[-121.88,37.49],[-122.08,37.54],[-122.14,37.56],[-122.18,37.57],[-122.28,37.59],[-122.33,37.61],[-122.36,37.61],[-122.38,37.62]],"type":"LineString"}
}
