{
  "id": 2031555989,
  "type": "Feature",
  "properties": {
    "geom:area": 0,
    "geom:bbox": "-122.763860,37.426190,-122.090480,38.481690",
    "geom:latitude": 37.811192656749206,
    "geom:longitude": -122.47607207185237,
    "src:alt_label": "swim-approach",
    "src:geom": "swim",
    "swim:elevations": [
      7498,
      7360,
      7234,
      7017,
      6513,
      6329,
      6154,
      5937,
      5690,
      5389,
      5014,
      4813,
      4475,
      4149,
      3822,
      3699,
      3627,
      3479,
      3353,
      3353,
      3353,
      3353,
      3183,
      3059,
      2961,
      2861,
      2791,
      2532,
      2306,
      2194,
      2049,
      1812,
      1708,
      1537,
      1495,
      1418,
      1109,
      980,
      838,
      608,
      428,
      273,
      259,
      154,
      59,
      0
    ],
    "swim:geom": "approach",
    "swim:timestamps": [
      1781640447,
      1781640475,
      1781640491,
      1781640513,
      1781640562,
      1781640581,
      1781640602,
      1781640625,
      1781640651,
      1781640679,
      1781640717,
      1781640735,
      1781640769,
      1781640801,
      1781640836,
      1781640862,
      1781640887,
      1781640905,
      1781640947,
      1781640965,
      1781641000,
      1781641035,
      1781641072,
      1781641094,
      1781641113,
      1781641131,
      1781641144,
      1781641192,
      1781641228,
      1781641250,
      1781641272,
      1781641312,
      1781641331,
      1781641361,
      1781641404,
      1781641422,
      1781641466,
      1781641490,
      1781641514,
      1781641540,
      1781641579,
      1781641617,
      1781641620,
      1781641646,
      1781641674,
      1781641686
    ],
    "wof:geomhash": "461261caa065fa012ef0105cacc9466f",
    "wof:id": 2031555989,
    "wof:repo": "sfomuseum-data-flights-2026-06"
  },
  "bbox": [
    -122.76386,
    37.42619,
    -122.09048,
    38.48169
  ],
  "geometry": {"coordinates":[[-122.69772,38.48169],[-122.7122,38.42888],[-122.72011,38.39957],[-122.73122,38.35874],[-122.75572,38.26905],[-122.76386,38.23507],[-122.75954,38.19866],[-122.74845,38.15932],[-122.73617,38.1159],[-122.72242,38.06844],[-122.70455,38.00683],[-122.6959,37.97704],[-122.67987,37.9209],[-122.64789,37.87568],[-122.60222,37.83219],[-122.56968,37.80128],[-122.54053,37.77377],[-122.52081,37.75517],[-122.47575,37.71268],[-122.45695,37.69508],[-122.42187,37.66218],[-122.38874,37.63098],[-122.36073,37.59433],[-122.34601,37.57097],[-122.33389,37.55182],[-122.3222,37.53253],[-122.3139,37.51898],[-122.2837,37.47],[-122.24302,37.4475],[-122.21511,37.43657],[-122.18696,37.42619],[-122.13524,37.43678],[-122.11282,37.44551],[-122.09048,37.4713],[-122.11082,37.50813],[-122.12822,37.51694],[-122.17186,37.53551],[-122.1951,37.54554],[-122.21737,37.55476],[-122.2421,37.56507],[-122.28095,37.58151],[-122.31139,37.59431],[-122.31344,37.59519],[-122.33142,37.60277],[-122.351,37.61095],[-122.35889,37.61413]],"type":"LineString"}
}
