{
  "id": 2031483525,
  "type": "Feature",
  "properties": {
    "geom:area": 0,
    "geom:bbox": "-122.380000,35.880000,-78.790000,38.430000",
    "geom:latitude": 38.01873517532506,
    "geom:longitude": -100.87998363819351,
    "src:alt_label": "swim-route",
    "src:geom": "swim",
    "swim:geom": "route",
    "wof:geomhash": "8cd9a67dcbfe726c33700cec40d8bab8",
    "wof:id": 2031483525,
    "wof:repo": "sfomuseum-data-flights-2026-06"
  },
  "bbox": [
    -122.38,
    35.88,
    -78.79,
    38.43
  ],
  "geometry": {"coordinates":[[-78.79,35.88],[-78.89,35.91],[-78.97,35.93],[-79.03,35.95],[-79.06,35.96],[-79.08,35.97],[-79.23,36.06],[-79.36,36.13],[-79.4,36.15],[-79.44,36.17],[-79.47,36.19],[-79.5,36.2],[-79.56,36.24],[-79.68,36.31],[-79.71,36.32],[-79.74,36.34],[-79.81,36.38],[-79.94,36.44],[-80.09,36.52],[-80.15,36.56],[-80.2,36.59],[-80.3,36.64],[-80.32,36.65],[-80.36,36.67],[-80.39,36.69],[-80.66,36.83],[-81.32,37.17],[-81.7,37.35],[-81.78,37.42],[-83.28,37.59],[-83.51,37.66],[-83.65,37.63],[-83.71,37.64],[-83.86,37.7],[-84.3,37.74],[-84.99,37.81],[-85.44,37.85],[-86.5,37.94],[-86.92,37.97],[-88.25,38.06],[-90.66,38.18],[-90.74,38.18],[-91.89,38.22],[-91.91,38.22],[-92.1,38.23],[-93.59,38.26],[-94.49,38.27],[-94.59,38.27],[-96.25,38.21],[-96.71,38.24],[-96.89,38.2],[-97.69,38.26],[-97.85,38.28],[-98.22,38.29],[-100.88,38.41],[-101.2,38.43],[-101.5,38.42],[-101.8,38.41],[-102.33,38.4],[-103.03,38.38],[-103.71,38.35],[-104.07,38.34],[-104.49,38.32],[-104.65,38.31],[-105.09,38.33],[-105.68,38.35],[-105.78,38.35],[-108.14,38.4],[-108.54,38.41],[-109.41,38.41],[-109.86,38.41],[-109.98,38.41],[-110.19,38.41],[-110.8,38.41],[-110.84,38.4],[-111.43,38.4],[-111.92,38.39],[-113.01,38.36],[-113.97,38.29],[-114.39,38.25],[-116.51,38.11],[-116.73,38.09],[-116.85,38.08],[-117.13,38.06],[-117.24,38.05],[-117.62,38.02],[-117.77,38],[-118.27,37.95],[-118.41,37.94],[-118.76,37.9],[-119.1,37.86],[-119.27,37.84],[-119.38,37.82],[-119.94,37.76],[-120.04,37.75],[-120.22,37.72],[-120.4,37.7],[-120.41,37.7],[-120.48,37.69],[-120.69,37.67],[-120.75,37.66],[-120.77,37.66],[-120.83,37.65],[-120.96,37.63],[-121,37.63],[-121.08,37.62],[-121.17,37.6],[-121.26,37.59],[-121.39,37.58],[-121.41,37.58],[-121.6,37.55],[-121.61,37.55],[-121.62,37.55],[-121.7,37.53],[-121.8,37.51],[-121.83,37.5],[-121.88,37.49],[-122.08,37.54],[-122.14,37.56],[-121.94,37.56],[-121.86,37.56],[-121.79,37.57],[-121.73,37.57],[-121.79,37.57],[-121.86,37.57],[-121.84,37.46],[-122.07,37.53],[-122.33,37.61],[-122.36,37.61],[-122.38,37.62]],"type":"LineString"}
}
