{
  "id": 2031507341,
  "type": "Feature",
  "properties": {
    "geom:area": 0,
    "geom:bbox": "-122.761290,37.357390,-122.128940,38.394910",
    "geom:latitude": 37.73918492263459,
    "geom:longitude": -122.45729026340832,
    "src:alt_label": "swim-approach",
    "src:geom": "swim",
    "swim:elevations": [
      7319,
      7035,
      6822,
      6374,
      6180,
      5800,
      5668,
      5112,
      4834,
      4472,
      4404,
      4132,
      4058,
      3583,
      3430,
      3353,
      3353,
      3353,
      3353,
      3386,
      3353,
      3114,
      3053,
      2996,
      2905,
      2850,
      2568,
      2383,
      2339,
      2234,
      2098,
      1853,
      1829,
      1829,
      1829,
      1690,
      1468,
      1342,
      1312,
      1191,
      1124,
      878,
      852,
      792,
      766,
      718,
      647,
      479,
      335,
      217,
      203,
      153,
      66,
      0
    ],
    "swim:geom": "approach",
    "swim:timestamps": [
      1781210816,
      1781210842,
      1781210862,
      1781210906,
      1781210924,
      1781210960,
      1781210972,
      1781211023,
      1781211050,
      1781211082,
      1781211088,
      1781211116,
      1781211122,
      1781211174,
      1781211208,
      1781211224,
      1781211243,
      1781211268,
      1781211288,
      1781211314,
      1781211342,
      1781211383,
      1781211392,
      1781211405,
      1781211421,
      1781211433,
      1781211476,
      1781211504,
      1781211511,
      1781211528,
      1781211548,
      1781211587,
      1781211616,
      1781211653,
      1781211681,
      1781211707,
      1781211739,
      1781211757,
      1781211771,
      1781211806,
      1781211818,
      1781211865,
      1781211877,
      1781211909,
      1781211928,
      1781211941,
      1781211962,
      1781212007,
      1781212046,
      1781212077,
      1781212083,
      1781212095,
      1781212119,
      1781212142
    ],
    "wof:geomhash": "7a928b21cda31497f6773f32ea86921b",
    "wof:id": 2031507341,
    "wof:repo": "sfomuseum-data-flights-2026-06"
  },
  "bbox": [
    -122.76129,
    37.35739,
    -122.12894,
    38.39491
  ],
  "geometry": {"coordinates":[[-122.70728,38.39491],[-122.72406,38.34758],[-122.73725,38.31003],[-122.76129,38.23151],[-122.75913,38.19687],[-122.74084,38.13263],[-122.73426,38.10974],[-122.70833,38.02103],[-122.69485,37.97448],[-122.67837,37.91994],[-122.67385,37.9103],[-122.64271,37.87073],[-122.63419,37.86277],[-122.56357,37.79555],[-122.52025,37.75474],[-122.50105,37.73661],[-122.47848,37.71543],[-122.45219,37.69098],[-122.43108,37.67125],[-122.40565,37.64745],[-122.37731,37.62041],[-122.34552,37.57766],[-122.341,37.56706],[-122.3345,37.55242],[-122.32386,37.53494],[-122.31574,37.52195],[-122.31654,37.47188],[-122.33255,37.44113],[-122.33669,37.43337],[-122.34686,37.41422],[-122.35463,37.39181],[-122.32481,37.35739],[-122.28843,37.35951],[-122.24122,37.36724],[-122.20506,37.37319],[-122.17593,37.38574],[-122.14302,37.40429],[-122.13453,37.42192],[-122.13354,37.43599],[-122.1302,37.46866],[-122.12894,37.47938],[-122.14882,37.51529],[-122.15652,37.52365],[-122.18259,37.53783],[-122.19812,37.54447],[-122.20866,37.54877],[-122.22607,37.55612],[-122.26259,37.57154],[-122.29223,37.58388],[-122.31553,37.59373],[-122.32016,37.59572],[-122.32964,37.59964],[-122.34828,37.6074],[-122.36469,37.61529]],"type":"LineString"}
}
