{
  "id": 2031637505,
  "type": "Feature",
  "properties": {
    "geom:area": 0,
    "geom:bbox": "-122.755430,37.374100,-122.099230,38.482530",
    "geom:latitude": 37.81743336089157,
    "geom:longitude": -122.46202025499421,
    "src:alt_label": "swim-approach",
    "src:geom": "swim",
    "swim:elevations": [
      8199,
      7930,
      7397,
      7158,
      6756,
      6572,
      6397,
      5949,
      5612,
      5338,
      5038,
      4659,
      4580,
      4264,
      3979,
      3780,
      3685,
      3463,
      3352,
      3353,
      3353,
      3353,
      3353,
      3353,
      3353,
      3208,
      2929,
      2747,
      2495,
      2228,
      2070,
      2038,
      1779,
      1558,
      1443,
      1288,
      1248,
      1126,
      1056,
      1021,
      912,
      791,
      654,
      618,
      422,
      357,
      182,
      120
    ],
    "swim:geom": "approach",
    "swim:timestamps": [
      1782377515,
      1782377546,
      1782377577,
      1782377597,
      1782377638,
      1782377657,
      1782377676,
      1782377715,
      1782377745,
      1782377771,
      1782377803,
      1782377844,
      1782377854,
      1782377887,
      1782377920,
      1782377941,
      1782377952,
      1782377981,
      1782378013,
      1782378038,
      1782378076,
      1782378095,
      1782378122,
      1782378158,
      1782378180,
      1782378216,
      1782378263,
      1782378288,
      1782378324,
      1782378358,
      1782378383,
      1782378391,
      1782378433,
      1782378470,
      1782378503,
      1782378538,
      1782378550,
      1782378579,
      1782378597,
      1782378608,
      1782378638,
      1782378679,
      1782378710,
      1782378721,
      1782378766,
      1782378780,
      1782378825,
      1782378840
    ],
    "wof:geomhash": "195f4c3ee58b68c37923239568fb2ad1",
    "wof:id": 2031637505,
    "wof:repo": "sfomuseum-data-flights-2026-06"
  },
  "bbox": [
    -122.75543,
    37.3741,
    -122.09923,
    38.48253
  ],
  "geometry": {"coordinates":[[-122.50336,38.48253],[-122.54797,38.43927],[-122.5915,38.39607],[-122.62179,38.36674],[-122.68228,38.30793],[-122.71111,38.27968],[-122.73728,38.25374],[-122.75543,38.18638],[-122.74109,38.13467],[-122.72871,38.09062],[-122.71329,38.03716],[-122.69367,37.96894],[-122.68901,37.95296],[-122.66908,37.90111],[-122.62889,37.85778],[-122.60183,37.83192],[-122.58666,37.81754],[-122.54959,37.78252],[-122.50906,37.74437],[-122.48019,37.71709],[-122.438,37.67766],[-122.41816,37.65907],[-122.39184,37.63428],[-122.35911,37.60039],[-122.34601,37.57669],[-122.32539,37.53751],[-122.29485,37.48776],[-122.28941,37.46058],[-122.29953,37.42245],[-122.29273,37.38666],[-122.26265,37.37431],[-122.25048,37.3741],[-122.19767,37.39268],[-122.15224,37.41112],[-122.12214,37.43496],[-122.10453,37.46682],[-122.09923,37.47675],[-122.10765,37.5008],[-122.12358,37.51095],[-122.13281,37.51624],[-122.1616,37.52898],[-122.20079,37.54545],[-122.22889,37.55734],[-122.23904,37.56158],[-122.27946,37.5786],[-122.29149,37.5836],[-122.32685,37.5985],[-122.33838,37.60327]],"type":"LineString"}
}
