{
  "id": 2031505197,
  "type": "Feature",
  "properties": {
    "geom:area": 0,
    "geom:bbox": "-122.133333,30.260556,-97.680556,38.510833",
    "geom:latitude": 35.608930113619415,
    "geom:longitude": -109.57109556084554,
    "src:alt_label": "swim-path",
    "src:geom": "swim",
    "swim:altitudes": [
      "085",
      "085",
      "108",
      "108",
      "146",
      "183",
      "183",
      "222",
      "222",
      "251",
      "273",
      "273",
      "292",
      "325",
      "325",
      "325",
      "334",
      "340",
      "358",
      "370C",
      "370C",
      "370C",
      "370C",
      "370C",
      "370C",
      "370C",
      "370C",
      "370C",
      "370C",
      "370C",
      "370C",
      "370C",
      "370C",
      "370C",
      "370C",
      "370C",
      "370C",
      "370C",
      "370C",
      "370C",
      "370C",
      "370C",
      "370C",
      "370C",
      "370C",
      "370C",
      "370C",
      "370C",
      "370C",
      "370C",
      "370C",
      "370C",
      "370C",
      "370C",
      "370C",
      "370C",
      "370C",
      "370C",
      "370C",
      "370C",
      "370C",
      "370C",
      "370C",
      "370C",
      "370C",
      "370C",
      "370C",
      "370C",
      "370C",
      "370C",
      "370C",
      "370C",
      "370C",
      "370C",
      "370C",
      "370C",
      "370C",
      "370C",
      "370C",
      "370C",
      "370C",
      "370C",
      "370C",
      "370C",
      "370C",
      "370C",
      "370C",
      "370C",
      "370C",
      "370C",
      "370C",
      "370C",
      "370C",
      "370C",
      "370C",
      "370C",
      "370C",
      "370C",
      "370C",
      "370C",
      "370C",
      "370C",
      "370C",
      "370C",
      "370C",
      "370C",
      "370C",
      "370C",
      "370C",
      "370C",
      "370C",
      "370C",
      "370C",
      "370C",
      "370C",
      "370C",
      "370C",
      "370C",
      "370C",
      "370C",
      "370C",
      "370C",
      "370C",
      "370C",
      "370C",
      "370C",
      "370C",
      "370C",
      "370C",
      "370C",
      "370C",
      "370C",
      "370C",
      "370C",
      "370C",
      "370C",
      "370C",
      "370C",
      "370C",
      "370C",
      "370C",
      "370C",
      "370C",
      "370C",
      "370C",
      "370C",
      "370C",
      "370C",
      "370",
      "355",
      "355",
      "355",
      "349",
      "330",
      "330",
      "315",
      "299",
      "299",
      "277",
      "277",
      "268",
      "253",
      "220",
      "220",
      "206",
      "159",
      "159",
      "148",
      "110",
      "096",
      "096",
      "080",
      "080",
      "080",
      "060",
      "060",
      "037",
      "023",
      "023",
      "015",
      "015"
    ],
    "swim:geom": "path",
    "swim:speeds": [
      282,
      282,
      317,
      317,
      345,
      374,
      374,
      428,
      428,
      450,
      453,
      453,
      470,
      467,
      467,
      467,
      493,
      500,
      499,
      497,
      497,
      497,
      496,
      495,
      495,
      493,
      492,
      492,
      492,
      495,
      495,
      497,
      498,
      498,
      498,
      498,
      498,
      497,
      496,
      494,
      494,
      494,
      493,
      493,
      494,
      496,
      496,
      496,
      496,
      496,
      497,
      497,
      497,
      496,
      496,
      496,
      494,
      494,
      494,
      489,
      489,
      489,
      489,
      499,
      500,
      504,
      504,
      504,
      505,
      505,
      505,
      504,
      503,
      503,
      499,
      494,
      492,
      492,
      492,
      496,
      496,
      496,
      497,
      498,
      498,
      498,
      496,
      496,
      493,
      493,
      492,
      491,
      491,
      491,
      491,
      492,
      493,
      493,
      493,
      498,
      502,
      502,
      503,
      503,
      511,
      511,
      511,
      514,
      514,
      514,
      514,
      514,
      514,
      512,
      512,
      512,
      509,
      509,
      509,
      508,
      508,
      508,
      508,
      508,
      507,
      506,
      506,
      506,
      505,
      505,
      505,
      503,
      503,
      503,
      503,
      503,
      504,
      504,
      505,
      505,
      507,
      501,
      501,
      500,
      499,
      501,
      501,
      499,
      500,
      502,
      502,
      502,
      504,
      507,
      507,
      502,
      490,
      490,
      494,
      494,
      494,
      484,
      457,
      457,
      447,
      416,
      416,
      410,
      366,
      308,
      308,
      278,
      278,
      278,
      268,
      268,
      212,
      180,
      180,
      152,
      152
    ],
    "swim:timestamps": [
      1781125590,
      1781125590,
      1781125680,
      1781125680,
      1781125800,
      1781125921,
      1781125921,
      1781126101,
      1781126101,
      1781126221,
      1781126314,
      1781126314,
      1781126401,
      1781126555,
      1781126555,
      1781126555,
      1781126647,
      1781126675,
      1781126774,
      1781126915,
      1781126915,
      1781126975,
      1781127067,
      1781127155,
      1781127187,
      1781127276,
      1781127368,
      1781127368,
      1781127375,
      1781127516,
      1781127516,
      1781127576,
      1781127675,
      1781127696,
      1781127855,
      1781127855,
      1781127855,
      1781127997,
      1781128057,
      1781128177,
      1781128177,
      1781128221,
      1781128281,
      1781128281,
      1781128297,
      1781128357,
      1781128357,
      1781128401,
      1781128417,
      1781128461,
      1781128641,
      1781128658,
      1781128658,
      1781128718,
      1781128778,
      1781128778,
      1781128882,
      1781128937,
      1781128937,
      1781129122,
      1781129177,
      1781129177,
      1781129177,
      1781129422,
      1781129478,
      1781129598,
      1781129658,
      1781129658,
      1781129718,
      1781129778,
      1781129778,
      1781129898,
      1781129959,
      1781129959,
      1781130031,
      1781130091,
      1781130211,
      1781130265,
      1781130331,
      1781130391,
      1781130391,
      1781130446,
      1781130506,
      1781130571,
      1781130571,
      1781130571,
      1781130752,
      1781130752,
      1781130866,
      1781130866,
      1781130926,
      1781131047,
      1781131047,
      1781131047,
      1781131107,
      1781131227,
      1781131287,
      1781131287,
      1781131287,
      1781131347,
      1781131527,
      1781131527,
      1781131587,
      1781131587,
      1781131768,
      1781131768,
      1781131768,
      1781131948,
      1781131948,
      1781132008,
      1781132188,
      1781132188,
      1781132188,
      1781132313,
      1781132313,
      1781132313,
      1781132489,
      1781132489,
      1781132489,
      1781132674,
      1781132674,
      1781132734,
      1781132734,
      1781132734,
      1781132854,
      1781132909,
      1781132909,
      1781132909,
      1781132969,
      1781133034,
      1781133034,
      1781133215,
      1781133215,
      1781133335,
      1781133335,
      1781133335,
      1781133395,
      1781133395,
      1781133515,
      1781133575,
      1781133608,
      1781133695,
      1781133695,
      1781133755,
      1781133848,
      1781133876,
      1781133876,
      1781133968,
      1781134116,
      1781134209,
      1781134209,
      1781134209,
      1781134236,
      1781134329,
      1781134329,
      1781134476,
      1781134569,
      1781134569,
      1781134689,
      1781134689,
      1781134717,
      1781134749,
      1781134837,
      1781134837,
      1781134870,
      1781134990,
      1781134990,
      1781135017,
      1781135137,
      1781135230,
      1781135230,
      1781135318,
      1781135318,
      1781135318,
      1781135410,
      1781135410,
      1781135561,
      1781135651,
      1781135651,
      1781135711,
      1781135711
    ],
    "wof:geomhash": "d670e297fb3f3a55faf52dcac57aa196",
    "wof:id": 2031505197,
    "wof:repo": "sfomuseum-data-flights-2026-06"
  },
  "bbox": [
    -122.13333333333334,
    30.260555555555555,
    -97.68055555555556,
    38.51083333333333
  ],
  "geometry": {"coordinates":[[-122.13333333333334,37.766666666666666],[-122.13333333333334,37.766666666666666],[-122.00833333333334,37.822500000000005],[-122.00833333333334,37.822500000000005],[-121.77583333333334,37.868611111111115],[-121.52694444444444,37.91444444444444],[-121.52694444444444,37.91444444444444],[-121.11138888888888,37.989444444444445],[-121.11138888888888,37.989444444444445],[-120.80444444444444,38.036944444444444],[-120.55499999999999,38.07527777777778],[-120.55499999999999,38.07527777777778],[-120.32138888888889,38.11055555555556],[-119.91388888888889,38.23416666666667],[-119.91388888888889,38.23416666666667],[-119.91388888888889,38.23416666666667],[-119.66194444444444,38.264722222222225],[-119.565,38.276944444444446],[-119.2786111111111,38.30972222222222],[-118.86999999999999,38.355555555555554],[-118.86999999999999,38.355555555555554],[-118.69388888888889,38.375277777777775],[-118.45166666666667,38.40138888888889],[-118.17333333333333,38.43083333333333],[-118.10666666666665,38.43805555555555],[-117.82555555555555,38.466944444444444],[-117.58611111111111,38.49111111111111],[-117.58611111111111,38.49111111111111],[-117.54694444444445,38.495],[-117.16000000000001,38.51083333333333],[-117.16000000000001,38.51083333333333],[-116.98333333333333,38.498333333333335],[-116.6613888888889,38.47361111111111],[-116.62666666666667,38.47083333333334],[-116.16944444444445,38.43416666666666],[-116.16944444444445,38.43416666666666],[-116.16944444444445,38.43416666666666],[-115.72722222222222,38.3975],[-115.55555555555556,38.3825],[-115.20972222222223,38.35194444444445],[-115.20972222222223,38.35194444444445],[-115.10527777777777,38.342222222222226],[-114.93388888888889,38.321111111111115],[-114.93388888888889,38.321111111111115],[-114.86472222222221,38.30305555555555],[-114.69833333333334,38.25944444444445],[-114.69833333333334,38.25944444444445],[-114.59944444444444,38.233333333333334],[-114.5325,38.21527777777778],[-114.43361111111112,38.18861111111111],[-113.9375,38.05416666666667],[-113.87138888888889,38.03583333333333],[-113.87138888888889,38.03583333333333],[-113.705,37.99027777777778],[-113.54305555555555,37.945277777777775],[-113.54305555555555,37.945277777777775],[-113.28444444444445,37.86416666666667],[-113.12694444444443,37.808055555555555],[-113.12694444444443,37.808055555555555],[-112.65583333333333,37.62138888888889],[-112.53444444444445,37.572500000000005],[-112.53444444444445,37.572500000000005],[-112.53444444444445,37.572500000000005],[-111.88305555555554,37.30472222222222],[-111.72944444444444,37.240833333333335],[-111.41694444444445,37.11],[-111.26305555555555,37.044999999999995],[-111.26305555555555,37.044999999999995],[-111.10749999999999,36.97888888888889],[-110.95305555555557,36.91305555555555],[-110.95305555555557,36.91305555555555],[-110.6438888888889,36.78055555555555],[-110.49194444444444,36.715],[-110.49194444444444,36.715],[-110.31277777777777,36.636944444444445],[-110.16194444444444,36.57083333333334],[-109.86388888888888,36.44027777777777],[-109.74833333333333,36.38972222222222],[-109.56666666666666,36.30972222222222],[-109.41611111111112,36.24333333333333],[-109.41611111111112,36.24333333333333],[-109.29916666666666,36.191111111111105],[-109.14611111111111,36.12277777777778],[-108.97,36.04388888888889],[-108.97,36.04388888888889],[-108.97,36.04388888888889],[-108.535,35.846944444444446],[-108.535,35.846944444444446],[-108.24305555555556,35.71361111111111],[-108.24305555555556,35.71361111111111],[-108.09722222222221,35.64611111111111],[-107.80499999999999,35.510555555555555],[-107.80499999999999,35.510555555555555],[-107.80499999999999,35.510555555555555],[-107.66000000000001,35.44305555555555],[-107.37055555555555,35.30722222222222],[-107.22611111111111,35.23888888888889],[-107.22611111111111,35.23888888888889],[-107.22611111111111,35.23888888888889],[-107.07944444444443,35.169444444444444],[-106.6413888888889,34.96277777777778],[-106.6413888888889,34.96277777777778],[-106.49027777777778,34.89277777777778],[-106.49027777777778,34.89277777777778],[-106.04277777777777,34.68222222222222],[-106.04277777777777,34.68222222222222],[-106.04277777777777,34.68222222222222],[-105.6125,34.47805555555556],[-105.6125,34.47805555555556],[-105.43416666666667,34.3925],[-104.98694444444445,34.17638888888889],[-104.98694444444445,34.17638888888889],[-104.98694444444445,34.17638888888889],[-104.7,34.03583333333333],[-104.7,34.03583333333333],[-104.7,34.03583333333333],[-104.25722222222223,33.8175],[-104.25722222222223,33.8175],[-104.25722222222223,33.8175],[-103.82416666666666,33.600833333333334],[-103.82416666666666,33.600833333333334],[-103.68111111111112,33.528888888888886],[-103.68111111111112,33.528888888888886],[-103.68111111111112,33.528888888888886],[-103.39333333333335,33.382777777777775],[-103.2475,33.308611111111105],[-103.2475,33.308611111111105],[-103.2475,33.308611111111105],[-103.10472222222222,33.23555555555556],[-102.96305555555556,33.16277777777778],[-102.96305555555556,33.16277777777778],[-102.53833333333333,32.94277777777778],[-102.53833333333333,32.94277777777778],[-102.25138888888888,32.79277777777778],[-102.25138888888888,32.79277777777778],[-102.25138888888888,32.79277777777778],[-102.10833333333333,32.7175],[-102.10833333333333,32.7175],[-101.82333333333332,32.56666666666667],[-101.68444444444445,32.49277777777778],[-101.61999999999999,32.45805555555556],[-101.41222222222223,32.33166666666667],[-101.41222222222223,32.33166666666667],[-101.28222222222222,32.24638888888889],[-101.08444444444444,32.134166666666665],[-100.99861111111112,32.086111111111116],[-100.99861111111112,32.086111111111116],[-100.80583333333333,31.97694444444444],[-100.47027777777778,31.785],[-100.25916666666667,31.66333333333333],[-100.25916666666667,31.66333333333333],[-100.25916666666667,31.66333333333333],[-100.17666666666668,31.61527777777778],[-99.98388888888888,31.503333333333334],[-99.98388888888888,31.503333333333334],[-99.63916666666667,31.33972222222222],[-99.41583333333334,31.237222222222222],[-99.41583333333334,31.237222222222222],[-99.13333333333334,31.1075],[-99.13333333333334,31.1075],[-99.07527777777777,31.080833333333334],[-98.99333333333334,31.04277777777778],[-98.80833333333334,30.956944444444442],[-98.80833333333334,30.956944444444442],[-98.7325,30.921666666666667],[-98.49694444444445,30.811666666666667],[-98.49694444444445,30.811666666666667],[-98.44500000000001,30.787222222222223],[-98.22611111111111,30.684166666666666],[-98.08472222222221,30.621666666666666],[-98.08472222222221,30.621666666666666],[-97.97944444444444,30.549166666666668],[-97.97944444444444,30.549166666666668],[-97.97944444444444,30.549166666666668],[-97.87916666666666,30.474999999999998],[-97.87916666666666,30.474999999999998],[-97.72333333333333,30.359444444444446],[-97.68194444444445,30.30527777777778],[-97.68194444444445,30.30527777777778],[-97.68055555555556,30.260555555555555],[-97.68055555555556,30.260555555555555]],"type":"LineString"}
}
