{
  "id": 2031542117,
  "type": "Feature",
  "properties": {
    "geom:area": 0,
    "geom:bbox": "-122.530000,29.980000,-95.290000,38.400000",
    "geom:latitude": 35.63458445098206,
    "geom:longitude": -108.39823202569875,
    "src:alt_label": "swim-route",
    "src:geom": "swim",
    "swim:geom": "route",
    "wof:geomhash": "59a100297914e3812064a248e4801823",
    "wof:id": 2031542117,
    "wof:repo": "sfomuseum-data-flights-2026-06"
  },
  "bbox": [
    -122.53,
    29.98,
    -95.29,
    38.4
  ],
  "geometry": {"coordinates":[[-122.38,37.62],[-122.49,37.67],[-122.49,37.67],[-122.52,37.68],[-122.53,37.72],[-122.53,37.72],[-122.53,37.75],[-122.53,37.8],[-122.51,37.81],[-122.43,37.84],[-122.34,37.85],[-122.13,37.87],[-122.04,37.88],[-121.96,37.89],[-121.86,37.91],[-121.8,37.91],[-121.77,37.92],[-121.68,37.93],[-121.56,37.94],[-121.53,37.94],[-121.46,37.95],[-121.43,37.95],[-121.23,37.98],[-121.14,37.99],[-121.1,37.99],[-121.05,38],[-120.96,38.01],[-120.82,38.03],[-120.73,38.05],[-120.64,38.06],[-120.55,38.07],[-120.45,38.09],[-120.1,38.11],[-119.16,38.18],[-119.15,38.18],[-118.7,38.21],[-117.28,38.29],[-114.33,38.4],[-113.95,38.31],[-112.57,37.97],[-112,37.83],[-112,37.83],[-111.72,37.71],[-111.43,37.6],[-111.23,37.51],[-110.41,37.17],[-110.16,37.07],[-110,37],[-109.2,36.81],[-108,36.5],[-107.24,36.29],[-105.43,35.75],[-105.14,35.66],[-104.43,35.4],[-103.49,35.04],[-103.08,34.88],[-102.3,34.58],[-102.26,34.56],[-101.5,34.26],[-101.25,34.06],[-100.44,32.85],[-100.39,32.77],[-100.3,32.59],[-99.56,31.48],[-99.5,31.38],[-99.49,31.38],[-99.15,31.17],[-98.33,30.97],[-97.93,30.88],[-97.82,30.86],[-97.17,30.8],[-97.12,30.79],[-97.04,30.78],[-96.8,30.76],[-96.55,30.73],[-96.4,30.71],[-96.33,30.7],[-96.32,30.7],[-96.13,30.61],[-96.09,30.59],[-96.03,30.57],[-95.98,30.54],[-95.98,30.54],[-95.87,30.49],[-95.82,30.44],[-95.74,30.36],[-95.62,30.23],[-95.58,30.19],[-95.48,30.09],[-95.43,30.09],[-95.34,30.09],[-95.29,30.09],[-95.31,30.05],[-95.34,29.98]],"type":"LineString"}
}
