{
  "id": 2031519103,
  "type": "Feature",
  "properties": {
    "geom:area": 0,
    "geom:bbox": "-122.359167,32.621389,-96.758333,38.046111",
    "geom:latitude": 35.247304301193836,
    "geom:longitude": -109.76341346152648,
    "src:alt_label": "swim-path",
    "src:geom": "swim",
    "swim:altitudes": [
      "095",
      "095",
      "123",
      "147",
      "202",
      "259",
      "259",
      "285",
      "297",
      "297",
      "320C",
      "320C",
      "320C",
      "320C",
      "320C",
      "320C",
      "320C",
      "320C",
      "320C",
      "320C",
      "320C",
      "320C",
      "320C",
      "320C",
      "320C",
      "320C",
      "320C",
      "320C",
      "320C",
      "320C",
      "320C",
      "320C",
      "320C",
      "320C",
      "320C",
      "320C",
      "320C",
      "320C",
      "320C",
      "320C",
      "320C",
      "320C",
      "324",
      "324",
      "330",
      "342",
      "360C",
      "360C",
      "360C",
      "360C",
      "360C",
      "360C",
      "360C",
      "360C",
      "360C",
      "360C",
      "360C",
      "360C",
      "360C",
      "360C",
      "360C",
      "360C",
      "360C",
      "360C",
      "360C",
      "360C",
      "360C",
      "360C",
      "360C",
      "360C",
      "360C",
      "360C",
      "360C",
      "360C",
      "360C",
      "360C",
      "360C",
      "360C",
      "360C",
      "360C",
      "360C",
      "360C",
      "360C",
      "360C",
      "360C",
      "360C",
      "360C",
      "360C",
      "360C",
      "360C",
      "360C",
      "360C",
      "360C",
      "360C",
      "360C",
      "360C",
      "360C",
      "360C",
      "360C",
      "360C",
      "360C",
      "360C",
      "360C",
      "360C",
      "360C",
      "360C",
      "360C",
      "360C",
      "360C",
      "360C",
      "360C",
      "360C",
      "360C",
      "349",
      "340",
      "333",
      "286",
      "286",
      "242",
      "235",
      "196",
      "196",
      "182",
      "154",
      "154",
      "116",
      "108",
      "108",
      "096",
      "096",
      "079",
      "079",
      "070",
      "070",
      "059",
      "042",
      "025",
      "014",
      "014",
      "009",
      "001"
    ],
    "swim:geom": "path",
    "swim:speeds": [
      287,
      287,
      380,
      383,
      422,
      446,
      446,
      458,
      451,
      451,
      452,
      452,
      443,
      438,
      438,
      440,
      440,
      438,
      438,
      439,
      439,
      441,
      441,
      440,
      439,
      437,
      437,
      434,
      434,
      434,
      434,
      433,
      433,
      430,
      430,
      430,
      431,
      431,
      432,
      432,
      432,
      431,
      431,
      431,
      431,
      430,
      416,
      416,
      416,
      416,
      418,
      417,
      417,
      417,
      418,
      420,
      423,
      423,
      429,
      430,
      429,
      430,
      429,
      429,
      427,
      427,
      428,
      427,
      434,
      437,
      437,
      438,
      438,
      434,
      434,
      434,
      434,
      434,
      435,
      435,
      436,
      436,
      436,
      436,
      436,
      437,
      437,
      438,
      438,
      440,
      440,
      438,
      438,
      440,
      440,
      444,
      446,
      446,
      419,
      414,
      412,
      412,
      411,
      411,
      412,
      409,
      407,
      405,
      404,
      399,
      399,
      400,
      400,
      402,
      406,
      408,
      410,
      410,
      400,
      392,
      370,
      370,
      368,
      351,
      351,
      338,
      244,
      244,
      251,
      251,
      251,
      251,
      234,
      234,
      241,
      235,
      199,
      162,
      162,
      161,
      160
    ],
    "swim:timestamps": [
      1781269743,
      1781269743,
      1781269863,
      1781269923,
      1781270104,
      1781270344,
      1781270344,
      1781270464,
      1781270524,
      1781270524,
      1781270705,
      1781270705,
      1781270945,
      1781271125,
      1781271125,
      1781271332,
      1781271332,
      1781271426,
      1781271486,
      1781271546,
      1781271546,
      1781271786,
      1781271786,
      1781271933,
      1781271966,
      1781272087,
      1781272087,
      1781272207,
      1781272207,
      1781272234,
      1781272267,
      1781272327,
      1781272354,
      1781272507,
      1781272507,
      1781272534,
      1781272594,
      1781272627,
      1781272714,
      1781272714,
      1781272895,
      1781272928,
      1781273015,
      1781273015,
      1781273048,
      1781273108,
      1781273228,
      1781273255,
      1781273315,
      1781273348,
      1781273435,
      1781273529,
      1781273616,
      1781273676,
      1781273796,
      1781273916,
      1781273976,
      1781273976,
      1781274156,
      1781274217,
      1781274817,
      1781274878,
      1781274998,
      1781274998,
      1781275359,
      1781275359,
      1781275478,
      1781275539,
      1781276140,
      1781276200,
      1781276200,
      1781276320,
      1781276320,
      1781276681,
      1781276741,
      1781276741,
      1781276801,
      1781276801,
      1781277041,
      1781277041,
      1781277222,
      1781277222,
      1781277342,
      1781277342,
      1781277582,
      1781277642,
      1781277642,
      1781277762,
      1781277762,
      1781278003,
      1781278003,
      1781278109,
      1781278109,
      1781278243,
      1781278289,
      1781278349,
      1781278423,
      1781278483,
      1781278649,
      1781278724,
      1781278784,
      1781278784,
      1781278904,
      1781278904,
      1781279010,
      1781279070,
      1781279144,
      1781279204,
      1781279250,
      1781279611,
      1781279611,
      1781279731,
      1781279731,
      1781279911,
      1781279971,
      1781280031,
      1781280152,
      1781280152,
      1781280272,
      1781280280,
      1781280400,
      1781280400,
      1781280452,
      1781280525,
      1781280525,
      1781280645,
      1781280766,
      1781280766,
      1781280826,
      1781280826,
      1781280946,
      1781280946,
      1781281006,
      1781281006,
      1781281126,
      1781281187,
      1781281293,
      1781281367,
      1781281367,
      1781281413,
      1781281473
    ],
    "wof:geomhash": "64d3f0d57adfc88e38deacfbe2b362ef",
    "wof:id": 2031519103,
    "wof:repo": "sfomuseum-data-flights-2026-06"
  },
  "bbox": [
    -122.35916666666667,
    32.62138888888889,
    -96.75833333333334,
    38.04611111111111
  ],
  "geometry": {"coordinates":[[-96.75833333333334,32.62138888888889],[-96.75833333333334,32.62138888888889],[-96.97944444444444,32.63472222222222],[-97.10333333333332,32.65833333333333],[-97.49833333333333,32.73388888888889],[-98.05166666666666,32.852222222222224],[-98.05166666666666,32.852222222222224],[-98.3425,32.919444444444444],[-98.48722222222223,32.95277777777778],[-98.48722222222223,32.95277777777778],[-98.92305555555556,33.05138888888889],[-98.92305555555556,33.05138888888889],[-99.49138888888889,33.17805555555555],[-99.9113888888889,33.272777777777776],[-99.9113888888889,33.272777777777776],[-100.38944444444445,33.37972222222222],[-100.38944444444445,33.37972222222222],[-100.6036111111111,33.42611111111111],[-100.74472222222222,33.456944444444446],[-100.88722222222223,33.48777777777778],[-100.88722222222223,33.48777777777778],[-101.46805555555555,33.606944444444444],[-101.46805555555555,33.606944444444444],[-101.81166666666667,33.67472222222222],[-101.89416666666668,33.691111111111105],[-102.17666666666668,33.74583333333334],[-102.17666666666668,33.74583333333334],[-102.45722222222223,33.79972222222222],[-102.45722222222223,33.79972222222222],[-102.51222222222222,33.809999999999995],[-102.59555555555555,33.825833333333335],[-102.73527777777778,33.852222222222224],[-102.7936111111111,33.86333333333334],[-103.15555555555557,33.93055555555555],[-103.15555555555557,33.93055555555555],[-103.21194444444444,33.94083333333333],[-103.35249999999999,33.96638888888889],[-103.43694444444445,33.981944444444444],[-103.63222222222221,34.0175],[-103.63222222222221,34.0175],[-104.05749999999999,34.09305555555556],[-104.1413888888889,34.10777777777778],[-104.34083333333332,34.14277777777778],[-104.34083333333332,34.14277777777778],[-104.42277777777778,34.15694444444444],[-104.56444444444445,34.18111111111111],[-104.83638888888889,34.22777777777778],[-104.89555555555556,34.237500000000004],[-105.03222222222222,34.260555555555555],[-105.11,34.27361111111111],[-105.3086111111111,34.306666666666665],[-105.52,34.34111111111111],[-105.71944444444445,34.37361111111111],[-105.85722222222222,34.39527777777778],[-106.135,34.43805555555555],[-106.41722222222222,34.481388888888894],[-106.56638888888888,34.50388888888889],[-106.56638888888888,34.50388888888889],[-106.99638888888889,34.56777777777778],[-107.13861111111112,34.58833333333334],[-108.54194444444444,34.78361111111111],[-108.68444444444445,34.802499999999995],[-108.97166666666666,34.84],[-108.97166666666666,34.84],[-109.85472222222222,34.95444444444445],[-109.85472222222222,34.95444444444445],[-110.11916666666666,34.98305555555556],[-110.28305555555555,35.006388888888885],[-111.71611111111112,35.159166666666664],[-111.85916666666667,35.19916666666666],[-111.85916666666667,35.19916666666666],[-112.13916666666667,35.27722222222222],[-112.13916666666667,35.27722222222222],[-113.00222222222222,35.51305555555555],[-113.14416666666668,35.55083333333333],[-113.14416666666668,35.55083333333333],[-113.28277777777778,35.58777777777778],[-113.28277777777778,35.58777777777778],[-113.84916666666666,35.73694444444445],[-113.84916666666666,35.73694444444445],[-114.275,35.84666666666667],[-114.275,35.84666666666667],[-114.55805555555555,35.91888888888889],[-114.55805555555555,35.91888888888889],[-115.1086111111111,36.10305555555556],[-115.24055555555556,36.160555555555554],[-115.24055555555556,36.160555555555554],[-115.50611111111111,36.275555555555556],[-115.50611111111111,36.275555555555556],[-116.04527777777777,36.505833333333335],[-116.04527777777777,36.505833333333335],[-116.25944444444444,36.59638888888889],[-116.25944444444444,36.59638888888889],[-116.58305555555555,36.731944444444444],[-116.66694444444445,36.76694444444444],[-116.79055555555556,36.83888888888889],[-116.93583333333333,36.96805555555556],[-117.03999999999999,37.06027777777778],[-117.27972222222222,37.30222222222222],[-117.40361111111112,37.42805555555555],[-117.47583333333334,37.49916666666667],[-117.47583333333334,37.49916666666667],[-117.65777777777778,37.67777777777778],[-117.65777777777778,37.67777777777778],[-117.82194444444444,37.84055555555556],[-117.92500000000001,37.91972222222222],[-118.08111111111111,37.97527777777778],[-118.21083333333334,38.02194444444444],[-118.31916666666666,38.04611111111111],[-119.16194444444444,37.91138888888889],[-119.16194444444444,37.91138888888889],[-119.43694444444445,37.865833333333335],[-119.43694444444445,37.865833333333335],[-119.82583333333334,37.8],[-119.96638888888889,37.775555555555556],[-120.10722222222222,37.75138888888889],[-120.3888888888889,37.702222222222225],[-120.3888888888889,37.702222222222225],[-120.66805555555555,37.66833333333333],[-120.71666666666667,37.666666666666664],[-120.96666666666667,37.63333333333333],[-120.96666666666667,37.63333333333333],[-121.06,37.62027777777778],[-121.23333333333333,37.6],[-121.23333333333333,37.6],[-121.46666666666667,37.56666666666667],[-121.65,37.583333333333336],[-121.65,37.583333333333336],[-121.73333333333333,37.583333333333336],[-121.73333333333333,37.583333333333336],[-121.78333333333333,37.45],[-121.78333333333333,37.45],[-121.86666666666666,37.43333333333333],[-121.86666666666666,37.43333333333333],[-122.01666666666667,37.46666666666667],[-122.1,37.5],[-122.20805555555556,37.54833333333333],[-122.26666666666667,37.583333333333336],[-122.26666666666667,37.583333333333336],[-122.31,37.59138888888889],[-122.35916666666667,37.61194444444445]],"type":"LineString"}
}
