{
  "id": 2031456993,
  "type": "Feature",
  "properties": {
    "geom:area": 0,
    "geom:bbox": "-122.346600,36.739700,-121.889500,37.606750",
    "geom:latitude": 37.22243262905389,
    "geom:longitude": -122.07609536408238,
    "src:alt_label": "swim-approach",
    "src:geom": "swim",
    "swim:elevations": [
      5942,
      5670,
      5475,
      5209,
      4859,
      4449,
      4239,
      4037,
      3731,
      3660,
      3573,
      3401,
      3093,
      2933,
      2477,
      2352,
      2201,
      1987,
      1715,
      1628,
      1490,
      1133,
      1026,
      915,
      880,
      806,
      792,
      614,
      482,
      412,
      214,
      182,
      90
    ],
    "swim:geom": "approach",
    "swim:timestamps": [
      1780667968,
      1780667992,
      1780668010,
      1780668042,
      1780668075,
      1780668116,
      1780668139,
      1780668160,
      1780668206,
      1780668235,
      1780668249,
      1780668270,
      1780668314,
      1780668332,
      1780668380,
      1780668395,
      1780668412,
      1780668438,
      1780668475,
      1780668500,
      1780668529,
      1780668591,
      1780668607,
      1780668633,
      1780668675,
      1780668707,
      1780668727,
      1780668768,
      1780668799,
      1780668814,
      1780668868,
      1780668878,
      1780668908
    ],
    "wof:geomhash": "eed00221835fab5686a43c280c01b256",
    "wof:id": 2031456993,
    "wof:repo": "sfomuseum-data-flights-2026-06"
  },
  "bbox": [
    -122.3466,
    36.7397,
    -121.8895,
    37.60675
  ],
  "geometry": {"coordinates":[[-121.8895,36.7397],[-121.9037,36.77596],[-121.91126,36.80294],[-121.92482,36.85092],[-121.93828,36.89885],[-121.95525,36.95739],[-121.96803,36.99038],[-121.97939,37.01977],[-122.00356,37.08123],[-122.01697,37.11586],[-122.02364,37.1324],[-122.03302,37.15574],[-122.0592,37.19904],[-122.07743,37.21224],[-122.12527,37.24881],[-122.13754,37.26165],[-122.14016,37.28098],[-122.13771,37.30811],[-122.13372,37.34767],[-122.13063,37.37302],[-122.12668,37.40018],[-122.10797,37.45426],[-122.10739,37.46833],[-122.12242,37.48805],[-122.14916,37.51929],[-122.17803,37.53599],[-122.19751,37.54406],[-122.23742,37.56073],[-122.26539,37.57269],[-122.27751,37.57776],[-122.31817,37.59487],[-122.3255,37.59794],[-122.3466,37.60675]],"type":"LineString"}
}
