{
  "id": 2031554255,
  "type": "Feature",
  "properties": {
    "geom:area": 0,
    "geom:bbox": "-122.757650,37.439590,-122.120150,38.503110",
    "geom:latitude": 37.863501315918604,
    "geom:longitude": -122.48137937947898,
    "src:alt_label": "swim-approach",
    "src:geom": "swim",
    "swim:elevations": [
      7772,
      7589,
      7529,
      7393,
      7249,
      7100,
      6841,
      6567,
      6417,
      5856,
      5657,
      5174,
      4840,
      4631,
      4222,
      3926,
      3661,
      3411,
      3384,
      3353,
      3353,
      3353,
      3193,
      3061,
      3044,
      2660,
      2523,
      2445,
      2311,
      2086,
      1820,
      1568,
      1354,
      1324,
      1026,
      928,
      792,
      792,
      746,
      679,
      488,
      386,
      314,
      180,
      56,
      7
    ],
    "swim:geom": "approach",
    "swim:timestamps": [
      1781647515,
      1781647549,
      1781647560,
      1781647587,
      1781647615,
      1781647643,
      1781647676,
      1781647699,
      1781647712,
      1781647762,
      1781647781,
      1781647825,
      1781647856,
      1781647875,
      1781647913,
      1781647945,
      1781647971,
      1781648002,
      1781648016,
      1781648066,
      1781648070,
      1781648115,
      1781648157,
      1781648187,
      1781648190,
      1781648232,
      1781648247,
      1781648258,
      1781648273,
      1781648300,
      1781648330,
      1781648360,
      1781648398,
      1781648404,
      1781648457,
      1781648475,
      1781648512,
      1781648531,
      1781648574,
      1781648593,
      1781648634,
      1781648664,
      1781648683,
      1781648719,
      1781648754,
      1781648763
    ],
    "wof:geomhash": "abb295d1bb2d13cc5844dac211d8d174",
    "wof:id": 2031554255,
    "wof:repo": "sfomuseum-data-flights-2026-06"
  },
  "bbox": [
    -122.75765,
    37.43959,
    -122.12015,
    38.50311
  ],
  "geometry": {"coordinates":[[-122.48192,38.50311],[-122.53535,38.45036],[-122.55196,38.43419],[-122.59414,38.39353],[-122.6374,38.3516],[-122.68109,38.30903],[-122.73016,38.26108],[-122.755,38.22257],[-122.75765,38.19849],[-122.73478,38.11186],[-122.72598,38.08123],[-122.7042,38.00639],[-122.68925,37.95549],[-122.67976,37.92346],[-122.64313,37.87048],[-122.60419,37.83338],[-122.5709,37.80261],[-122.53087,37.76546],[-122.51318,37.74874],[-122.45508,37.69371],[-122.45114,37.69004],[-122.4037,37.6454],[-122.36616,37.60437],[-122.34672,37.57255],[-122.34484,37.56945],[-122.31904,37.52655],[-122.30942,37.51104],[-122.30227,37.49969],[-122.2927,37.48446],[-122.2633,37.46749],[-122.22631,37.45282],[-122.18844,37.43959],[-122.13996,37.44177],[-122.13254,37.4424],[-122.12015,37.48171],[-122.13165,37.49601],[-122.15525,37.52405],[-122.17275,37.53358],[-122.20969,37.5492],[-122.22591,37.55605],[-122.26171,37.57106],[-122.28503,37.5809],[-122.29952,37.58706],[-122.32616,37.59811],[-122.35179,37.60898],[-122.3584,37.61165]],"type":"LineString"}
}
