{
  "id": 2031438563,
  "type": "Feature",
  "properties": {
    "date:cessation_lower": "2026-06-03",
    "date:cessation_upper": "2026-06-03",
    "date:inception_lower": "2026-06-03",
    "date:inception_upper": "2026-06-03",
    "edtf:cessation": "2026-06-03T10:33:31-07:00",
    "edtf:inception": "2026-06-03T22:18:00Z",
    "flysfo:actual_timestamp": -1,
    "flysfo:airline": "WN",
    "flysfo:date": "2026-06-03",
    "flysfo:estimated_timestamp": 1780533600,
    "flysfo:event": "A",
    "flysfo:flight_number": "WN700",
    "flysfo:gate": "D4",
    "flysfo:journey": "DEN-SFO",
    "flysfo:scheduled_timestamp": 1780533000,
    "flysfo:timestamp": 1780533600,
    "geom:area": 0,
    "geom:bbox": "-122.370943,37.617990,-104.672219,39.864939",
    "geom:latitude": 38.7414645,
    "geom:longitude": -113.521581,
    "iata:airline": "WN",
    "icao:aircraft": "B737",
    "icao:airline": "SWA",
    "lbl:latitude": 37.616969,
    "lbl:longitude": -122.381363,
    "sfomuseum:aircraft_id": 1159289869,
    "sfomuseum:airline_id": 1159285591,
    "sfomuseum:arrival_id": 102527513,
    "sfomuseum:departure_id": 102531189,
    "sfomuseum:flight_id": "20260603-A-SWA-700",
    "sfomuseum:flight_number": [
      "SWA700",
      "WN700"
    ],
    "sfomuseum:placetype": "flight",
    "src:geom": "flysfo",
    "src:geom_alt": [
      "swim-route",
      "swim-path",
      "swim-approach"
    ],
    "swim:tail_number": "N7873A",
    "wof:belongsto": [
      1947304067,
      102527513,
      1947304595,
      102191575,
      85633793,
      102087579,
      85922583,
      554784711,
      85688637,
      1947304599,
      1947304591,
      102085387
    ],
    "wof:concordances": {
      "swim:flight_ref": "148318522",
      "swim:gufi": "KD666224cK"
    },
    "wof:country": "US",
    "wof:created": 1780589240,
    "wof:geomhash": "736fe0d2ebd38878be6950e82908a686",
    "wof:hierarchy": [
      {
        "building_id": 1947304067,
        "campus_id": 102527513,
        "concourse_id": 1947304595,
        "continent_id": 102191575,
        "country_id": 85633793,
        "county_id": 102087579,
        "custom_id": 2031438563,
        "flight_id": 2031438563,
        "locality_id": 85922583,
        "postalcode_id": 554784711,
        "region_id": 85688637,
        "venue_id": 1947304599,
        "wing_id": 1947304591
      },
      {
        "building_id": 1947304067,
        "campus_id": 102527513,
        "concourse_id": 1947304595,
        "continent_id": 102191575,
        "country_id": 85633793,
        "county_id": 102085387,
        "custom_id": 2031438563,
        "flight_id": 2031438563,
        "region_id": 85688637,
        "venue_id": 1947304599,
        "wing_id": 1947304591
      }
    ],
    "wof:id": 2031438563,
    "wof:involves": [
      102527513,
      102531189,
      1159285591,
      1947304599,
      1159289869
    ],
    "wof:lastmodified": 1780589955,
    "wof:name": "WN700 (DEN-SFO)",
    "wof:parent_id": 1947304599,
    "wof:placetype": "custom",
    "wof:placetype_alt": [
      "flight"
    ],
    "wof:repo": "sfomuseum-data-flights-2026-06",
    "wof:superseded_by": [],
    "wof:supersedes": []
  },
  "bbox": [
    -122.370943,
    37.61799,
    -104.672219,
    39.864939
  ],
  "geometry": {"coordinates":[[-104.672219,39.864939],[-122.370943,37.61799]],"type":"MultiPoint"}
}
