{
  "id": 2031662651,
  "type": "Feature",
  "properties": {
    "geom:area": 0,
    "geom:bbox": "-122.849080,37.216140,-122.095280,38.501980",
    "geom:latitude": 37.669195841293245,
    "geom:longitude": -122.46156440326678,
    "src:alt_label": "swim-approach",
    "src:geom": "swim",
    "swim:elevations": [
      7323,
      7112,
      7069,
      6883,
      6613,
      6408,
      5951,
      5696,
      5456,
      5395,
      5358,
      5124,
      4960,
      4606,
      4416,
      4179,
      3801,
      3678,
      3559,
      3455,
      3360,
      3353,
      3353,
      3353,
      3353,
      3353,
      3284,
      3154,
      3049,
      3048,
      3048,
      3048,
      2992,
      2888,
      2747,
      2743,
      2743,
      2638,
      2597,
      2440,
      2438,
      2194,
      2121,
      1975,
      1855,
      1829,
      1829,
      1829,
      1829,
      1829,
      1829,
      1829,
      1829,
      1829,
      1831,
      1829,
      1829,
      1715,
      1621,
      1279,
      1249,
      1219,
      1219,
      1187,
      1096,
      1067,
      1027,
      915,
      859,
      790,
      717,
      678,
      605,
      516,
      364,
      263,
      156,
      62,
      29
    ],
    "swim:geom": "approach",
    "swim:timestamps": [
      1782689316,
      1782689338,
      1782689344,
      1782689361,
      1782689390,
      1782689410,
      1782689458,
      1782689486,
      1782689510,
      1782689518,
      1782689521,
      1782689543,
      1782689561,
      1782689603,
      1782689625,
      1782689654,
      1782689691,
      1782689703,
      1782689717,
      1782689755,
      1782689777,
      1782689810,
      1782689822,
      1782689852,
      1782689877,
      1782689889,
      1782689904,
      1782689931,
      1782689961,
      1782689989,
      1782690005,
      1782690046,
      1782690067,
      1782690088,
      1782690118,
      1782690145,
      1782690151,
      1782690205,
      1782690211,
      1782690256,
      1782690274,
      1782690319,
      1782690336,
      1782690364,
      1782690387,
      1782690414,
      1782690420,
      1782690435,
      1782690450,
      1782690468,
      1782690492,
      1782690522,
      1782690555,
      1782690581,
      1782690625,
      1782690632,
      1782690653,
      1782690673,
      1782690691,
      1782690746,
      1782690752,
      1782690806,
      1782690813,
      1782690838,
      1782690868,
      1782690892,
      1782690915,
      1782690938,
      1782690953,
      1782690968,
      1782690985,
      1782690995,
      1782691018,
      1782691036,
      1782691075,
      1782691107,
      1782691134,
      1782691164,
      1782691170
    ],
    "wof:geomhash": "7313acde83a235c2e86294e4382d2851",
    "wof:id": 2031662651,
    "wof:repo": "sfomuseum-data-flights-2026-06"
  },
  "bbox": [
    -122.84908,
    37.21614,
    -122.09528,
    38.50198
  ],
  "geometry": {"coordinates":[[-122.84908,38.50198],[-122.83636,38.45882],[-122.83283,38.44673],[-122.82252,38.41153],[-122.80594,38.35592],[-122.79414,38.3162],[-122.76723,38.22412],[-122.75274,38.1742],[-122.7399,38.12982],[-122.7359,38.11591],[-122.73438,38.11054],[-122.72292,38.07076],[-122.71363,38.03847],[-122.69274,37.96722],[-122.68171,37.92918],[-122.65608,37.88449],[-122.60599,37.83597],[-122.58931,37.82014],[-122.57039,37.8022],[-122.52074,37.75547],[-122.49269,37.72904],[-122.4537,37.69258],[-122.44059,37.68032],[-122.40974,37.65124],[-122.38507,37.62783],[-122.37321,37.61658],[-122.3599,37.60163],[-122.34363,37.57154],[-122.32596,37.53834],[-122.30772,37.50843],[-122.29705,37.49093],[-122.27854,37.44505],[-122.28399,37.42201],[-122.29003,37.39719],[-122.29864,37.36324],[-122.30624,37.33346],[-122.30797,37.32689],[-122.32293,37.26778],[-122.32463,37.26105],[-122.35275,37.2178],[-122.37629,37.21614],[-122.43583,37.22645],[-122.45768,37.23049],[-122.49542,37.23752],[-122.51997,37.25117],[-122.52131,37.27859],[-122.51816,37.28446],[-122.50985,37.29902],[-122.50085,37.3132],[-122.48251,37.32587],[-122.45627,37.34072],[-122.42389,37.35916],[-122.38871,37.37936],[-122.36075,37.39529],[-122.31095,37.41151],[-122.3013,37.4107],[-122.27394,37.40824],[-122.24837,37.4059],[-122.2254,37.40744],[-122.15902,37.4313],[-122.15168,37.43397],[-122.09674,37.46044],[-122.09528,37.4667],[-122.10121,37.48644],[-122.11477,37.50708],[-122.13426,37.51759],[-122.15444,37.52614],[-122.17478,37.53447],[-122.18749,37.53971],[-122.20002,37.54496],[-122.21375,37.55079],[-122.22176,37.55413],[-122.24096,37.56217],[-122.25597,37.56848],[-122.28485,37.58082],[-122.30836,37.59073],[-122.32872,37.59921],[-122.35058,37.60837],[-122.355,37.61027]],"type":"LineString"}
}
