{
  "id": 2031466017,
  "type": "Feature",
  "properties": {
    "geom:area": 0,
    "geom:bbox": "-122.282500,37.466667,-70.724722,43.303611",
    "geom:latitude": 41.624461503090714,
    "geom:longitude": -96.53202095222643,
    "src:alt_label": "swim-path",
    "src:geom": "swim",
    "swim:altitudes": [
      "039",
      "039",
      "039",
      "082",
      "082",
      "082",
      "132",
      "148",
      "148",
      "196",
      "196",
      "196",
      "210",
      "223",
      "223",
      "223",
      "267",
      "267",
      "279",
      "279",
      "302",
      "302",
      "320C",
      "320C",
      "320C",
      "320C",
      "320C",
      "320C",
      "320C",
      "320C",
      "320C",
      "320C",
      "320C",
      "320C",
      "320C",
      "320C",
      "320C",
      "320C",
      "320C",
      "320C",
      "320C",
      "320C",
      "320C",
      "320C",
      "320C",
      "320C",
      "320C",
      "320C",
      "320C",
      "320C",
      "320C",
      "320C",
      "320C",
      "320C",
      "320C",
      "320C",
      "320C",
      "320C",
      "320C",
      "320C",
      "320C",
      "320C",
      "320C",
      "320C",
      "320C",
      "320C",
      "320C",
      "320C",
      "320C",
      "320C",
      "320C",
      "320C",
      "320C",
      "320C",
      "320C",
      "320C",
      "320C",
      "320C",
      "320C",
      "320C",
      "320C",
      "320C",
      "320C",
      "320C",
      "320C",
      "320C",
      "320C",
      "320C",
      "320C",
      "320C",
      "320C",
      "320C",
      "320C",
      "320C",
      "320C",
      "320C",
      "320C",
      "320C",
      "320C",
      "320C",
      "320C",
      "320C",
      "320C",
      "320C",
      "320C",
      "320C",
      "320C",
      "320C",
      "320C",
      "320C",
      "320C",
      "320C",
      "320C",
      "320C",
      "320C",
      "320C",
      "320C",
      "320C",
      "320C",
      "320C",
      "320C",
      "320C",
      "320C",
      "320C",
      "320C",
      "320C",
      "320C",
      "320C",
      "320C",
      "320C",
      "320C",
      "320C",
      "320C",
      "320C",
      "320C",
      "320C",
      "320C",
      "320C",
      "320C",
      "320C",
      "320C",
      "320C",
      "320C",
      "320C",
      "320C",
      "320C",
      "320C",
      "320C",
      "320C",
      "320C",
      "320C",
      "320C",
      "320C",
      "320C",
      "320C",
      "320C",
      "320C",
      "320C",
      "320C",
      "320C",
      "320C",
      "320C",
      "320C",
      "320C",
      "320C",
      "320C",
      "320C",
      "320C",
      "320C",
      "320C",
      "320C",
      "320C",
      "320C",
      "320C",
      "320C",
      "320C",
      "320C",
      "320C",
      "320C",
      "320C",
      "320C",
      "320C",
      "320C",
      "320C",
      "320C",
      "320C",
      "320C",
      "320C",
      "320C",
      "320C",
      "320C",
      "320C",
      "320C",
      "320C",
      "320C",
      "320C",
      "320C",
      "320C",
      "320C",
      "320C",
      "320C",
      "320C",
      "320C",
      "320C",
      "320C",
      "320C",
      "320C",
      "320C",
      "320C",
      "320C",
      "320C",
      "320C",
      "320C",
      "320C",
      "320C",
      "320C",
      "320C",
      "320C",
      "320C",
      "320C",
      "320C",
      "320C",
      "320C",
      "320C",
      "320C",
      "320C",
      "320C",
      "320C",
      "320C",
      "320C",
      "320C",
      "320C",
      "320C",
      "320C",
      "320C",
      "320C",
      "320C",
      "320C",
      "320C",
      "320C",
      "320C",
      "320C",
      "320C",
      "320C",
      "320C",
      "320C",
      "320C",
      "320C",
      "320C",
      "320C",
      "320C",
      "320C",
      "320C",
      "320C",
      "320C",
      "320C",
      "320C",
      "320C",
      "320C",
      "320C",
      "320C",
      "320C",
      "320C",
      "320C",
      "320C",
      "320C",
      "320C",
      "320C",
      "320C",
      "320C",
      "320C",
      "320C",
      "320C",
      "320C",
      "320C",
      "320C",
      "320C",
      "320C",
      "320C",
      "320C",
      "320C",
      "320C",
      "320C",
      "320C",
      "320C",
      "320C",
      "320C",
      "320C",
      "320C",
      "320C",
      "320C",
      "320C",
      "320C",
      "320C",
      "320C",
      "320C",
      "320C",
      "320C",
      "320C",
      "320C",
      "320C",
      "320C",
      "320C",
      "320C",
      "320C",
      "320C",
      "320C",
      "320C",
      "320C",
      "320C",
      "320C",
      "320C",
      "320C",
      "320C",
      "320C",
      "320C",
      "320C",
      "320C",
      "320C",
      "320C",
      "320C",
      "320C",
      "320C",
      "320C",
      "320C",
      "320C",
      "320C",
      "320C",
      "320C",
      "320C",
      "320",
      "320",
      "320",
      "333",
      "340C",
      "340C",
      "340C",
      "340C",
      "340C",
      "340C",
      "340C",
      "340",
      "340",
      "340",
      "340",
      "340",
      "340",
      "341",
      "341",
      "350",
      "359C",
      "359C",
      "360C",
      "360C",
      "360C",
      "360C",
      "360C",
      "360C",
      "360C",
      "360C",
      "360C",
      "360C",
      "360C",
      "360C",
      "360C",
      "360C",
      "360C",
      "360C",
      "360C",
      "360C",
      "360C",
      "360C",
      "360C",
      "360C",
      "360C",
      "360C",
      "360C",
      "360C",
      "360C",
      "360C",
      "360C",
      "360C",
      "360C",
      "360C",
      "360C",
      "360C",
      "360C",
      "360C",
      "360C",
      "360C",
      "360C",
      "360C",
      "360C",
      "360C",
      "360C",
      "360C",
      "360C",
      "360C",
      "360C",
      "360C",
      "360C",
      "360C",
      "360C",
      "360C",
      "360C",
      "360C",
      "360C",
      "360C",
      "360C",
      "360C",
      "360C",
      "360C",
      "360C",
      "360C",
      "360C",
      "360C",
      "360C",
      "360C",
      "360C",
      "360C",
      "360C",
      "360C",
      "360C",
      "360C",
      "360C",
      "360C",
      "360C",
      "360C",
      "360C",
      "360C",
      "360C",
      "360C",
      "360C",
      "360C",
      "360C",
      "360C",
      "360C",
      "360C",
      "360C",
      "360C",
      "360C",
      "360C",
      "360C",
      "360C",
      "360C",
      "360C",
      "360C",
      "360C",
      "360C",
      "360C",
      "360C",
      "360C",
      "360C",
      "350",
      "350",
      "342",
      "342",
      "313",
      "302",
      "302",
      "302",
      "292",
      "282",
      "261",
      "261",
      "241",
      "177",
      "156",
      "156",
      "156",
      "136",
      "122",
      "121",
      "121",
      "097",
      "097",
      "085",
      "070",
      "070",
      "066",
      "065",
      "052",
      "052",
      "052",
      "031",
      "026",
      "026",
      "026",
      "013"
    ],
    "swim:geom": "path",
    "swim:speeds": [
      277,
      277,
      277,
      293,
      293,
      293,
      324,
      344,
      344,
      370,
      370,
      370,
      374,
      383,
      383,
      383,
      402,
      402,
      404,
      404,
      409,
      409,
      394,
      394,
      394,
      392,
      392,
      392,
      392,
      391,
      391,
      386,
      386,
      386,
      386,
      379,
      379,
      376,
      376,
      376,
      376,
      376,
      378,
      378,
      378,
      376,
      376,
      376,
      376,
      376,
      376,
      377,
      377,
      378,
      378,
      378,
      378,
      378,
      378,
      378,
      378,
      378,
      378,
      378,
      378,
      378,
      378,
      378,
      378,
      378,
      378,
      378,
      385,
      386,
      386,
      386,
      393,
      393,
      406,
      406,
      406,
      406,
      423,
      423,
      423,
      423,
      420,
      420,
      420,
      420,
      416,
      416,
      416,
      416,
      416,
      416,
      418,
      418,
      418,
      417,
      417,
      416,
      416,
      416,
      416,
      415,
      415,
      415,
      415,
      415,
      410,
      410,
      410,
      407,
      407,
      407,
      405,
      405,
      405,
      405,
      405,
      405,
      408,
      410,
      410,
      410,
      410,
      410,
      413,
      411,
      411,
      411,
      411,
      414,
      414,
      414,
      415,
      415,
      415,
      415,
      415,
      415,
      416,
      416,
      416,
      416,
      417,
      417,
      417,
      417,
      417,
      417,
      417,
      417,
      418,
      418,
      418,
      418,
      418,
      418,
      423,
      423,
      423,
      426,
      426,
      425,
      425,
      427,
      428,
      428,
      428,
      428,
      428,
      428,
      428,
      427,
      427,
      427,
      427,
      427,
      428,
      428,
      428,
      428,
      428,
      428,
      428,
      428,
      429,
      429,
      429,
      429,
      429,
      429,
      429,
      429,
      429,
      431,
      431,
      431,
      432,
      432,
      431,
      431,
      431,
      430,
      430,
      430,
      430,
      430,
      430,
      433,
      433,
      432,
      432,
      432,
      432,
      432,
      432,
      432,
      432,
      432,
      432,
      433,
      433,
      433,
      433,
      434,
      434,
      435,
      434,
      434,
      434,
      433,
      433,
      432,
      432,
      431,
      431,
      431,
      430,
      430,
      430,
      430,
      431,
      431,
      431,
      431,
      431,
      435,
      435,
      435,
      434,
      434,
      434,
      433,
      433,
      431,
      431,
      431,
      428,
      428,
      428,
      427,
      425,
      425,
      425,
      425,
      426,
      426,
      426,
      427,
      427,
      427,
      431,
      433,
      433,
      433,
      433,
      433,
      433,
      433,
      433,
      433,
      433,
      435,
      435,
      435,
      434,
      434,
      434,
      435,
      435,
      435,
      435,
      435,
      442,
      442,
      442,
      437,
      437,
      437,
      437,
      441,
      441,
      438,
      438,
      438,
      438,
      437,
      437,
      438,
      438,
      438,
      438,
      437,
      437,
      437,
      437,
      437,
      438,
      438,
      438,
      441,
      441,
      441,
      441,
      441,
      441,
      441,
      440,
      440,
      440,
      445,
      443,
      443,
      443,
      443,
      441,
      441,
      443,
      443,
      435,
      435,
      432,
      428,
      428,
      430,
      430,
      435,
      436,
      436,
      435,
      435,
      434,
      434,
      433,
      430,
      430,
      429,
      429,
      429,
      428,
      424,
      424,
      423,
      423,
      424,
      425,
      425,
      425,
      425,
      425,
      425,
      423,
      423,
      418,
      418,
      418,
      416,
      416,
      417,
      420,
      420,
      420,
      415,
      415,
      413,
      411,
      410,
      410,
      403,
      405,
      404,
      404,
      400,
      400,
      403,
      403,
      401,
      401,
      400,
      400,
      425,
      427,
      427,
      404,
      404,
      402,
      402,
      402,
      399,
      399,
      399,
      397,
      396,
      396,
      395,
      395,
      395,
      393,
      393,
      392,
      391,
      391,
      391,
      392,
      394,
      394,
      392,
      392,
      390,
      390,
      390,
      390,
      391,
      391,
      390,
      390,
      388,
      388,
      387,
      387,
      388,
      388,
      392,
      392,
      393,
      393,
      399,
      399,
      398,
      401,
      398,
      398,
      398,
      398,
      394,
      388,
      388,
      388,
      385,
      382,
      373,
      373,
      368,
      350,
      344,
      344,
      344,
      342,
      318,
      321,
      321,
      254,
      254,
      237,
      224,
      224,
      223,
      225,
      223,
      223,
      223,
      175,
      148,
      148,
      148,
      137
    ],
    "swim:timestamps": [
      1780778291,
      1780778291,
      1780778291,
      1780778404,
      1780778404,
      1780778404,
      1780778584,
      1780778644,
      1780778644,
      1780778824,
      1780778824,
      1780778824,
      1780778884,
      1780778944,
      1780778944,
      1780778944,
      1780779185,
      1780779185,
      1780779245,
      1780779245,
      1780779425,
      1780779425,
      1780779545,
      1780779545,
      1780779545,
      1780779605,
      1780779605,
      1780779605,
      1780779605,
      1780779725,
      1780779725,
      1780779906,
      1780779906,
      1780779906,
      1780779906,
      1780780086,
      1780780086,
      1780780146,
      1780780146,
      1780780206,
      1780780206,
      1780780206,
      1780780447,
      1780780447,
      1780780447,
      1780780567,
      1780780567,
      1780780687,
      1780780747,
      1780780747,
      1780780747,
      1780780759,
      1780780807,
      1780780867,
      1780780867,
      1780780927,
      1780780927,
      1780780939,
      1780780988,
      1780780999,
      1780780999,
      1780780999,
      1780781059,
      1780781059,
      1780781119,
      1780781119,
      1780781240,
      1780781240,
      1780781288,
      1780781288,
      1780781300,
      1780781300,
      1780781348,
      1780781372,
      1780781372,
      1780781372,
      1780781408,
      1780781408,
      1780781649,
      1780781649,
      1780781649,
      1780781649,
      1780782213,
      1780782213,
      1780782213,
      1780782274,
      1780782334,
      1780782334,
      1780782334,
      1780782334,
      1780782514,
      1780782514,
      1780782514,
      1780782634,
      1780782634,
      1780782634,
      1780782754,
      1780782754,
      1780782754,
      1780782935,
      1780782995,
      1780783055,
      1780783055,
      1780783055,
      1780783055,
      1780783115,
      1780783235,
      1780783235,
      1780783235,
      1780783235,
      1780783415,
      1780783415,
      1780783415,
      1780783475,
      1780783475,
      1780783475,
      1780783577,
      1780783577,
      1780783577,
      1780783577,
      1780783637,
      1780783637,
      1780783656,
      1780783761,
      1780783761,
      1780783761,
      1780783776,
      1780783776,
      1780783814,
      1780783896,
      1780783896,
      1780783941,
      1780783941,
      1780784016,
      1780784055,
      1780784061,
      1780784076,
      1780784076,
      1780784115,
      1780784115,
      1780784121,
      1780784121,
      1780784136,
      1780784175,
      1780784175,
      1780784181,
      1780784235,
      1780784235,
      1780784241,
      1780784253,
      1780784295,
      1780784295,
      1780784301,
      1780784301,
      1780784355,
      1780784374,
      1780784374,
      1780784422,
      1780784422,
      1780784422,
      1780784614,
      1780784614,
      1780784614,
      1780784655,
      1780784655,
      1780784674,
      1780784674,
      1780784716,
      1780784782,
      1780784782,
      1780784782,
      1780784782,
      1780784836,
      1780784842,
      1780784896,
      1780784956,
      1780784962,
      1780784962,
      1780784962,
      1780785022,
      1780785083,
      1780785083,
      1780785083,
      1780785083,
      1780785136,
      1780785136,
      1780785136,
      1780785143,
      1780785203,
      1780785263,
      1780785316,
      1780785316,
      1780785316,
      1780785377,
      1780785377,
      1780785377,
      1780785383,
      1780785503,
      1780785503,
      1780785503,
      1780785804,
      1780785804,
      1780785864,
      1780785864,
      1780785864,
      1780785990,
      1780785990,
      1780786110,
      1780786110,
      1780786110,
      1780786110,
      1780786230,
      1780786230,
      1780786290,
      1780786290,
      1780786290,
      1780786350,
      1780786350,
      1780786350,
      1780786350,
      1780786591,
      1780786591,
      1780786591,
      1780786645,
      1780786711,
      1780786711,
      1780786711,
      1780786771,
      1780786771,
      1780786885,
      1780786951,
      1780786951,
      1780786951,
      1780787005,
      1780787011,
      1780787065,
      1780787065,
      1780787125,
      1780787125,
      1780787131,
      1780787246,
      1780787246,
      1780787246,
      1780787252,
      1780787306,
      1780787306,
      1780787312,
      1780787366,
      1780787366,
      1780787546,
      1780787546,
      1780787546,
      1780787606,
      1780787606,
      1780787606,
      1780787666,
      1780787666,
      1780787726,
      1780787726,
      1780787726,
      1780787967,
      1780787967,
      1780787967,
      1780788027,
      1780788147,
      1780788147,
      1780788147,
      1780788147,
      1780788327,
      1780788327,
      1780788327,
      1780788387,
      1780788387,
      1780788387,
      1780788507,
      1780788627,
      1780788627,
      1780788627,
      1780788748,
      1780788748,
      1780788808,
      1780788808,
      1780788808,
      1780788808,
      1780789048,
      1780789131,
      1780789131,
      1780789131,
      1780789191,
      1780789191,
      1780789251,
      1780789311,
      1780789311,
      1780789409,
      1780789409,
      1780789409,
      1780789567,
      1780789567,
      1780789567,
      1780789649,
      1780789732,
      1780789732,
      1780789732,
      1780789807,
      1780789807,
      1780789852,
      1780789889,
      1780789889,
      1780789912,
      1780789987,
      1780789987,
      1780790009,
      1780790009,
      1780790009,
      1780790032,
      1780790048,
      1780790272,
      1780790288,
      1780790288,
      1780790288,
      1780790332,
      1780790332,
      1780790348,
      1780790513,
      1780790573,
      1780790573,
      1780790693,
      1780790693,
      1780790813,
      1780790813,
      1780790829,
      1780791009,
      1780791069,
      1780791174,
      1780791249,
      1780791294,
      1780791309,
      1780791429,
      1780791474,
      1780791474,
      1780791489,
      1780791550,
      1780791654,
      1780791654,
      1780791670,
      1780791835,
      1780791835,
      1780791970,
      1780791970,
      1780792030,
      1780792090,
      1780792090,
      1780792255,
      1780792255,
      1780792315,
      1780792315,
      1780792391,
      1780792495,
      1780792495,
      1780792571,
      1780792571,
      1780792571,
      1780792736,
      1780792916,
      1780792916,
      1780792991,
      1780792991,
      1780793036,
      1780793112,
      1780793216,
      1780793277,
      1780793277,
      1780793277,
      1780793412,
      1780793457,
      1780793457,
      1780793592,
      1780793592,
      1780793592,
      1780793712,
      1780793817,
      1780793833,
      1780793937,
      1780793953,
      1780793953,
      1780794193,
      1780794193,
      1780794253,
      1780794493,
      1780794554,
      1780794554,
      1780794674,
      1780794794,
      1780794914,
      1780794914,
      1780795034,
      1780795034,
      1780795274,
      1780795274,
      1780795395,
      1780795395,
      1780795455,
      1780795455,
      1780795575,
      1780795635,
      1780795635,
      1780795755,
      1780795755,
      1780795815,
      1780795815,
      1780795815,
      1780795982,
      1780795982,
      1780796042,
      1780796102,
      1780796116,
      1780796116,
      1780796176,
      1780796176,
      1780796222,
      1780796236,
      1780796236,
      1780796342,
      1780796402,
      1780796402,
      1780796402,
      1780796476,
      1780796522,
      1780796522,
      1780796822,
      1780796822,
      1780796883,
      1780796883,
      1780796897,
      1780796957,
      1780797017,
      1780797017,
      1780797137,
      1780797137,
      1780797197,
      1780797197,
      1780797255,
      1780797255,
      1780797317,
      1780797317,
      1780797435,
      1780797435,
      1780797495,
      1780797495,
      1780797735,
      1780797735,
      1780797796,
      1780797856,
      1780797976,
      1780797976,
      1780798036,
      1780798036,
      1780798216,
      1780798276,
      1780798276,
      1780798276,
      1780798336,
      1780798396,
      1780798456,
      1780798456,
      1780798508,
      1780798697,
      1780798757,
      1780798757,
      1780798757,
      1780798817,
      1780798869,
      1780798877,
      1780798877,
      1780798997,
      1780798997,
      1780799057,
      1780799169,
      1780799169,
      1780799229,
      1780799237,
      1780799297,
      1780799297,
      1780799297,
      1780799417,
      1780799477,
      1780799477,
      1780799477,
      1780799597
    ],
    "wof:geomhash": "7d940f74bdc8ad9c5d51417bd265616c",
    "wof:id": 2031466017,
    "wof:repo": "sfomuseum-data-flights-2026-06"
  },
  "bbox": [
    -122.2825,
    37.46666666666667,
    -70.72472222222223,
    43.30361111111111
  ],
  "geometry": {"coordinates":[[-70.86666666666666,42.333333333333336],[-70.86666666666666,42.333333333333336],[-70.86666666666666,42.333333333333336],[-70.72472222222223,42.41222222222222],[-70.72472222222223,42.41222222222222],[-70.72472222222223,42.41222222222222],[-70.90472222222223,42.600833333333334],[-71.01305555555555,42.653888888888886],[-71.01305555555555,42.653888888888886],[-71.375,42.79972222222222],[-71.375,42.79972222222222],[-71.375,42.79972222222222],[-71.51361111111112,42.825833333333335],[-71.65555555555557,42.852222222222224],[-71.65555555555557,42.852222222222224],[-71.65555555555557,42.852222222222224],[-72.20777777777778,42.953611111111115],[-72.20777777777778,42.953611111111115],[-72.37916666666666,42.98416666666667],[-72.37916666666666,42.98416666666667],[-72.82583333333334,43.06305555555555],[-72.82583333333334,43.06305555555555],[-73.1275,43.11555555555556],[-73.1275,43.11555555555556],[-73.1275,43.11555555555556],[-73.27222222222223,43.140277777777776],[-73.27222222222223,43.140277777777776],[-73.27222222222223,43.140277777777776],[-73.27222222222223,43.140277777777776],[-73.55444444444444,43.18805555555555],[-73.55444444444444,43.18805555555555],[-73.9786111111111,43.223888888888894],[-73.9786111111111,43.223888888888894],[-73.9786111111111,43.223888888888894],[-73.9786111111111,43.223888888888894],[-74.40833333333335,43.251666666666665],[-74.40833333333335,43.251666666666665],[-74.55166666666666,43.25527777777778],[-74.55166666666666,43.25527777777778],[-74.69305555555556,43.25944444444445],[-74.69305555555556,43.25944444444445],[-74.69305555555556,43.25944444444445],[-75.27972222222222,43.27222222222222],[-75.27972222222222,43.27222222222222],[-75.27972222222222,43.27222222222222],[-75.56944444444444,43.277499999999996],[-75.56944444444444,43.277499999999996],[-75.85333333333332,43.28194444444444],[-75.99694444444445,43.28444444444444],[-75.99694444444445,43.28444444444444],[-75.99694444444445,43.28444444444444],[-76.02666666666667,43.28472222222222],[-76.14111111111112,43.28583333333333],[-76.28611111111111,43.28722222222222],[-76.28611111111111,43.28722222222222],[-76.43055555555556,43.28861111111111],[-76.43055555555556,43.28861111111111],[-76.45861111111111,43.288888888888884],[-76.57583333333334,43.29],[-76.60194444444444,43.290277777777774],[-76.60194444444444,43.290277777777774],[-76.60194444444444,43.290277777777774],[-76.73972222222223,43.29194444444444],[-76.73972222222223,43.29194444444444],[-76.88361111111112,43.29416666666666],[-76.88361111111112,43.29416666666666],[-77.16861111111112,43.297777777777775],[-77.16861111111112,43.297777777777775],[-77.28472222222221,43.299166666666665],[-77.28472222222221,43.299166666666665],[-77.31138888888889,43.29944444444444],[-77.31138888888889,43.29944444444444],[-77.43111111111112,43.300555555555555],[-77.45944444444444,43.301111111111105],[-77.45944444444444,43.301111111111105],[-77.45944444444444,43.301111111111105],[-77.58055555555555,43.301944444444445],[-77.58055555555555,43.301944444444445],[-78.19222222222223,43.30361111111111],[-78.19222222222223,43.30361111111111],[-78.19222222222223,43.30361111111111],[-78.19222222222223,43.30361111111111],[-79.71888888888888,43.28861111111111],[-79.71888888888888,43.28861111111111],[-79.71888888888888,43.28861111111111],[-79.87777777777777,43.28916666666667],[-80.03611111111111,43.28944444444444],[-80.03611111111111,43.28944444444444],[-80.03611111111111,43.28944444444444],[-80.03611111111111,43.28944444444444],[-80.51166666666667,43.28916666666667],[-80.51166666666667,43.28916666666667],[-80.51166666666667,43.28916666666667],[-80.8261111111111,43.28777777777778],[-80.8261111111111,43.28777777777778],[-80.8261111111111,43.28777777777778],[-81.11722222222221,43.28583333333333],[-81.11722222222221,43.28583333333333],[-81.11722222222221,43.28583333333333],[-81.59916666666666,43.280833333333334],[-81.75833333333334,43.278888888888886],[-81.91666666666667,43.276666666666664],[-81.91666666666667,43.276666666666664],[-81.91666666666667,43.276666666666664],[-81.91666666666667,43.276666666666664],[-82.07305555555556,43.27444444444444],[-82.3888888888889,43.26861111111111],[-82.3888888888889,43.26861111111111],[-82.3888888888889,43.26861111111111],[-82.3888888888889,43.26861111111111],[-82.85694444444444,43.26166666666666],[-82.85694444444444,43.26166666666666],[-82.85694444444444,43.26166666666666],[-83.01055555555556,43.26111111111111],[-83.01055555555556,43.26111111111111],[-83.01055555555556,43.26111111111111],[-83.26694444444445,43.25944444444445],[-83.26694444444445,43.25944444444445],[-83.26694444444445,43.25944444444445],[-83.26694444444445,43.25944444444445],[-83.42194444444445,43.25861111111111],[-83.42194444444445,43.25861111111111],[-83.47555555555556,43.25833333333333],[-83.76805555555555,43.25555555555555],[-83.76805555555555,43.25555555555555],[-83.76805555555555,43.25555555555555],[-83.81166666666667,43.255],[-83.81166666666667,43.255],[-83.89333333333335,43.25388888888889],[-84.11055555555555,43.25111111111111],[-84.11055555555555,43.25111111111111],[-84.23694444444445,43.24916666666667],[-84.23694444444445,43.24916666666667],[-84.42444444444445,43.24638888888889],[-84.55444444444444,43.244166666666665],[-84.55444444444444,43.244166666666665],[-84.58472222222221,43.243611111111115],[-84.58472222222221,43.243611111111115],[-84.71138888888889,43.24138888888889],[-84.71138888888889,43.24138888888889],[-84.71138888888889,43.24138888888889],[-84.71138888888889,43.24138888888889],[-84.7425,43.240833333333335],[-84.86777777777777,43.23833333333334],[-84.86777777777777,43.23833333333334],[-84.87166666666666,43.238055555555555],[-85.02972222222222,43.234722222222224],[-85.02972222222222,43.234722222222224],[-85.02972222222222,43.234722222222224],[-85.05749999999999,43.23416666666667],[-85.18444444444445,43.23111111111111],[-85.18444444444445,43.23111111111111],[-85.18944444444445,43.23111111111111],[-85.18944444444445,43.23111111111111],[-85.34694444444445,43.227222222222224],[-85.37666666666667,43.22638888888889],[-85.37666666666667,43.22638888888889],[-85.50666666666666,43.223333333333336],[-85.50666666666666,43.223333333333336],[-85.50666666666666,43.223333333333336],[-86.01333333333334,43.20888888888889],[-86.01333333333334,43.20888888888889],[-86.01333333333334,43.20888888888889],[-86.14083333333333,43.205000000000005],[-86.14083333333333,43.205000000000005],[-86.20361111111112,43.20277777777778],[-86.20361111111112,43.20277777777778],[-86.30333333333333,43.19972222222222],[-86.49861111111112,43.19305555555555],[-86.49861111111112,43.19305555555555],[-86.49861111111112,43.19305555555555],[-86.49861111111112,43.19305555555555],[-86.62666666666667,43.18861111111111],[-86.65944444444445,43.18722222222222],[-86.78694444444444,43.18277777777777],[-86.95027777777779,43.17638888888889],[-86.9825,43.175],[-86.9825,43.175],[-86.9825,43.175],[-87.14527777777778,43.16833333333333],[-87.30555555555556,43.161944444444444],[-87.30555555555556,43.161944444444444],[-87.30555555555556,43.161944444444444],[-87.30555555555556,43.161944444444444],[-87.43777777777778,43.156388888888884],[-87.43777777777778,43.156388888888884],[-87.43777777777778,43.156388888888884],[-87.44055555555556,43.156388888888884],[-87.60416666666666,43.149166666666666],[-87.76694444444445,43.141666666666666],[-87.92694444444444,43.134166666666665],[-87.92694444444444,43.134166666666665],[-87.92694444444444,43.134166666666665],[-88.09027777777777,43.12638888888889],[-88.09027777777777,43.12638888888889],[-88.09027777777777,43.12638888888889],[-88.09277777777777,43.12638888888889],[-88.41666666666667,43.1175],[-88.41666666666667,43.1175],[-88.41666666666667,43.1175],[-89.24388888888889,43.12916666666667],[-89.24388888888889,43.12916666666667],[-89.40694444444445,43.13027777777778],[-89.40694444444445,43.13027777777778],[-89.40694444444445,43.13027777777778],[-89.76694444444445,43.13333333333333],[-89.76694444444445,43.13333333333333],[-90.09527777777777,43.13444444444444],[-90.09527777777777,43.13444444444444],[-90.09527777777777,43.13444444444444],[-90.09527777777777,43.13444444444444],[-90.42750000000001,43.13472222222222],[-90.42750000000001,43.13472222222222],[-90.58972222222222,43.134166666666665],[-90.58972222222222,43.134166666666665],[-90.58972222222222,43.134166666666665],[-90.75361111111111,43.13361111111111],[-90.75361111111111,43.13361111111111],[-90.75361111111111,43.13361111111111],[-90.75361111111111,43.13361111111111],[-91.40861111111111,43.12916666666667],[-91.40861111111111,43.12916666666667],[-91.40861111111111,43.12916666666667],[-91.53999999999999,43.128055555555555],[-91.73333333333333,43.12583333333333],[-91.73333333333333,43.12583333333333],[-91.73333333333333,43.12583333333333],[-91.89722222222223,43.12361111111111],[-91.89722222222223,43.12361111111111],[-92.22555555555556,43.118611111111115],[-92.3888888888889,43.115833333333335],[-92.3888888888889,43.115833333333335],[-92.3888888888889,43.115833333333335],[-92.55194444444444,43.11277777777778],[-92.55194444444444,43.112500000000004],[-92.71527777777779,43.10944444444445],[-92.71527777777779,43.10944444444445],[-92.87694444444443,43.10583333333334],[-92.87694444444443,43.10583333333334],[-92.87694444444443,43.10583333333334],[-93.20444444444445,43.09805555555556],[-93.20444444444445,43.09805555555556],[-93.20444444444445,43.09805555555556],[-93.20444444444445,43.09777777777778],[-93.36611111111111,43.09138888888889],[-93.36611111111111,43.09138888888889],[-93.36638888888888,43.09138888888889],[-93.53,43.07611111111112],[-93.53,43.07611111111112],[-94.01805555555555,43.029444444444444],[-94.01805555555555,43.029444444444444],[-94.01805555555555,43.029444444444444],[-94.18305555555555,43.01305555555555],[-94.18305555555555,43.01305555555555],[-94.18305555555555,43.01305555555555],[-94.34277777777777,42.99666666666667],[-94.34277777777777,42.99666666666667],[-94.50277777777778,42.980555555555554],[-94.50277777777778,42.980555555555554],[-94.50277777777778,42.980555555555554],[-95.15277777777779,42.91166666666666],[-95.15277777777779,42.91166666666666],[-95.15277777777779,42.91166666666666],[-95.31083333333333,42.894444444444446],[-95.62833333333333,42.85916666666667],[-95.62833333333333,42.85916666666667],[-95.62833333333333,42.85916666666667],[-95.62833333333333,42.85916666666667],[-96.10499999999999,42.80416666666667],[-96.10499999999999,42.80416666666667],[-96.10499999999999,42.80416666666667],[-96.26527777777778,42.78527777777778],[-96.26527777777778,42.78527777777778],[-96.26527777777778,42.78527777777778],[-96.58833333333332,42.74638888888889],[-96.91083333333334,42.70666666666667],[-96.91083333333334,42.70666666666667],[-96.91083333333334,42.70666666666667],[-97.20694444444445,42.669444444444444],[-97.20694444444445,42.669444444444444],[-97.36666666666666,42.64861111111111],[-97.36666666666666,42.64861111111111],[-97.36666666666666,42.64861111111111],[-97.36666666666666,42.64861111111111],[-98.00833333333334,42.564166666666665],[-98.23027777777779,42.534166666666664],[-98.23027777777779,42.534166666666664],[-98.23027777777779,42.534166666666664],[-98.3913888888889,42.511944444444445],[-98.3913888888889,42.511944444444445],[-98.55,42.48972222222222],[-98.71055555555556,42.46638888888889],[-98.71055555555556,42.46638888888889],[-98.99777777777778,42.415],[-98.99777777777778,42.415],[-98.99777777777778,42.415],[-99.3938888888889,42.342222222222226],[-99.3938888888889,42.342222222222226],[-99.3938888888889,42.342222222222226],[-99.63166666666666,42.299166666666665],[-99.83916666666666,42.260555555555555],[-99.83916666666666,42.260555555555555],[-99.83916666666666,42.260555555555555],[-100.03027777777778,42.224444444444444],[-100.03027777777778,42.224444444444444],[-100.15777777777778,42.2],[-100.26611111111112,42.17916666666667],[-100.26611111111112,42.17916666666667],[-100.31666666666666,42.16972222222222],[-100.52027777777778,42.12833333333333],[-100.52027777777778,42.12833333333333],[-100.57666666666667,42.119166666666665],[-100.57666666666667,42.119166666666665],[-100.57666666666667,42.119166666666665],[-100.63027777777778,42.10861111111111],[-100.67722222222223,42.09777777777778],[-101.25888888888889,41.98361111111111],[-101.30749999999999,41.97166666666667],[-101.30749999999999,41.97166666666667],[-101.30749999999999,41.97166666666667],[-101.41694444444445,41.95166666666667],[-101.41694444444445,41.95166666666667],[-101.4675,41.94027777777777],[-101.88944444444445,41.85444444444445],[-102.04777777777778,41.821111111111115],[-102.04777777777778,41.821111111111115],[-102.38361111111112,41.75],[-102.38361111111112,41.75],[-102.69888888888889,41.6825],[-102.69888888888889,41.6825],[-102.73111111111112,41.674166666666665],[-103.20111111111112,41.57027777777778],[-103.35694444444444,41.53666666666666],[-103.6413888888889,41.47361111111111],[-103.83388888888888,41.42972222222222],[-103.955,41.401944444444446],[-103.98944444444444,41.39361111111111],[-104.30194444444444,41.321111111111115],[-104.41777777777779,41.28333333333333],[-104.41777777777779,41.28333333333333],[-104.4525,41.27388888888889],[-104.59888888888888,41.22361111111111],[-104.83138888888888,41.14944444444444],[-104.83138888888888,41.14944444444444],[-104.8888888888889,41.13583333333333],[-105.28972222222222,41.05916666666666],[-105.28972222222222,41.05916666666666],[-105.65277777777779,40.9825],[-105.65277777777779,40.9825],[-105.80777777777777,40.94916666666666],[-105.96277777777777,40.91694444444444],[-105.96277777777777,40.91694444444444],[-106.39166666666668,40.82527777777778],[-106.39166666666668,40.82527777777778],[-106.54222222222222,40.7925],[-106.54222222222222,40.7925],[-106.72444444444444,40.75111111111111],[-106.98861111111111,40.69361111111111],[-106.98861111111111,40.69361111111111],[-107.17583333333334,40.650277777777774],[-107.17583333333334,40.650277777777774],[-107.17583333333334,40.650277777777774],[-107.59305555555555,40.55694444444444],[-108.04222222222222,40.4525],[-108.04222222222222,40.4525],[-108.21805555555555,40.41138888888889],[-108.21805555555555,40.41138888888889],[-108.33138888888888,40.384166666666665],[-108.51305555555555,40.340833333333336],[-108.7713888888889,40.278888888888886],[-108.91861111111112,40.24305555555556],[-108.91861111111112,40.24305555555556],[-108.91861111111112,40.24305555555556],[-109.24027777777778,40.16444444444444],[-109.35444444444444,40.13611111111111],[-109.35444444444444,40.13611111111111],[-109.66944444444445,40.0575],[-109.66944444444445,40.0575],[-109.66944444444445,40.0575],[-109.95277777777778,39.98583333333333],[-110.20861111111111,39.92055555555555],[-110.23944444444444,39.9125],[-110.49722222222222,39.84583333333334],[-110.52666666666667,39.83833333333334],[-110.52666666666667,39.83833333333334],[-111.09888888888888,39.6875],[-111.09888888888888,39.6875],[-111.23694444444445,39.650555555555556],[-111.81583333333333,39.49388888888889],[-111.95472222222223,39.455555555555556],[-111.95472222222223,39.455555555555556],[-112.22833333333334,39.38],[-112.50083333333333,39.30361111111111],[-112.75944444444444,39.245],[-112.75944444444444,39.245],[-113.03361111111111,39.1825],[-113.03361111111111,39.1825],[-113.58416666666666,39.05472222222222],[-113.58416666666666,39.05472222222222],[-113.88472222222222,38.98361111111111],[-113.88472222222222,38.98361111111111],[-114.02111111111111,38.95166666666667],[-114.02111111111111,38.95166666666667],[-114.27527777777777,39.05611111111111],[-114.39972222222222,39.125],[-114.39972222222222,39.125],[-114.67666666666668,39.07027777777778],[-114.67666666666668,39.07027777777778],[-114.81055555555555,39.035],[-114.81055555555555,39.035],[-114.81055555555555,39.035],[-115.16333333333334,38.94027777777777],[-115.16333333333334,38.94027777777777],[-115.2961111111111,38.904444444444444],[-115.42833333333334,38.868611111111115],[-115.46972222222223,38.85666666666667],[-115.46972222222223,38.85666666666667],[-115.60194444444444,38.82055555555556],[-115.60194444444444,38.82055555555556],[-115.70805555555556,38.79055555555556],[-115.73277777777778,38.784166666666664],[-115.73277777777778,38.784166666666664],[-115.97111111111111,38.71805555555556],[-116.10138888888888,38.68194444444444],[-116.10138888888888,38.68194444444444],[-116.10138888888888,38.68194444444444],[-116.25611111111111,38.63805555555555],[-116.36444444444444,38.6075],[-116.36444444444444,38.6075],[-117.02694444444444,38.44083333333333],[-117.02694444444444,38.44083333333333],[-117.16027777777778,38.413333333333334],[-117.16027777777778,38.413333333333334],[-117.18416666666667,38.40833333333333],[-117.315,38.38138888888889],[-117.44777777777779,38.35416666666667],[-117.44777777777779,38.35416666666667],[-117.71388888888889,38.29888888888889],[-117.71388888888889,38.29888888888889],[-117.84333333333333,38.271388888888886],[-117.84333333333333,38.271388888888886],[-117.97694444444444,38.24333333333333],[-117.97694444444444,38.24333333333333],[-118.10888888888888,38.21527777777778],[-118.10888888888888,38.21527777777778],[-118.38777777777779,38.155277777777776],[-118.38777777777779,38.155277777777776],[-118.5213888888889,38.12638888888889],[-118.5213888888889,38.12638888888889],[-119.05333333333333,38.009166666666665],[-119.05333333333333,38.009166666666665],[-119.18805555555556,37.97888888888889],[-119.325,37.94833333333333],[-119.5961111111111,37.886944444444445],[-119.5961111111111,37.886944444444445],[-119.7286111111111,37.85638888888889],[-119.7286111111111,37.85638888888889],[-120.13166666666666,37.763333333333335],[-120.26166666666667,37.73277777777778],[-120.26166666666667,37.73277777777778],[-120.26166666666667,37.73277777777778],[-120.38972222222223,37.7025],[-120.52166666666666,37.68555555555555],[-120.65055555555556,37.67055555555555],[-120.65055555555556,37.67055555555555],[-120.76666666666667,37.65],[-121.15055555555556,37.60777777777778],[-121.26694444444445,37.592222222222226],[-121.26694444444445,37.592222222222226],[-121.26694444444445,37.592222222222226],[-121.38583333333334,37.57888888888889],[-121.5,37.56666666666667],[-121.49861111111112,37.56583333333333],[-121.49861111111112,37.56583333333333],[-121.68916666666667,37.53527777777778],[-121.68916666666667,37.53527777777778],[-121.74944444444445,37.49583333333334],[-121.86666666666666,37.46666666666667],[-121.86666666666666,37.46666666666667],[-121.93333333333334,37.483333333333334],[-121.94638888888889,37.4775],[-122.02083333333333,37.49166666666667],[-122.02083333333333,37.49166666666667],[-122.02083333333333,37.49166666666667],[-122.15138888888889,37.52444444444444],[-122.19722222222222,37.54388888888889],[-122.19722222222222,37.54388888888889],[-122.19722222222222,37.54388888888889],[-122.2825,37.57972222222222]],"type":"LineString"}
}
