{
  "id": 2031563055,
  "type": "Feature",
  "properties": {
    "geom:area": 0,
    "geom:bbox": "-123.504860,37.261840,-122.144000,37.615940",
    "geom:latitude": 37.37215722019542,
    "geom:longitude": -122.71707474645447,
    "src:alt_label": "swim-approach",
    "src:geom": "swim",
    "swim:elevations": [
      5439,
      5309,
      5154,
      5068,
      4705,
      4529,
      4436,
      4018,
      3905,
      3744,
      3643,
      3297,
      3198,
      3074,
      3048,
      3048,
      3048,
      2939,
      2726,
      2559,
      2405,
      2359,
      2286,
      2259,
      2036,
      1947,
      1829,
      1829,
      1820,
      1735,
      1673,
      1404,
      1232,
      1128,
      1036,
      966,
      870,
      756,
      612,
      531,
      273,
      236,
      111,
      44
    ],
    "swim:geom": "approach",
    "swim:timestamps": [
      1781735936,
      1781735950,
      1781735969,
      1781735979,
      1781736024,
      1781736048,
      1781736061,
      1781736113,
      1781736127,
      1781736147,
      1781736160,
      1781736206,
      1781736219,
      1781736262,
      1781736290,
      1781736323,
      1781736349,
      1781736363,
      1781736398,
      1781736440,
      1781736476,
      1781736488,
      1781736504,
      1781736510,
      1781736563,
      1781736582,
      1781736625,
      1781736654,
      1781736660,
      1781736677,
      1781736692,
      1781736741,
      1781736773,
      1781736789,
      1781736815,
      1781736848,
      1781736867,
      1781736891,
      1781736916,
      1781736932,
      1781736988,
      1781736996,
      1781737031,
      1781737052
    ],
    "wof:geomhash": "55afb9a4bd1c5171f9b977845a127ea5",
    "wof:id": 2031563055,
    "wof:repo": "sfomuseum-data-flights-2026-06"
  },
  "bbox": [
    -123.50486,
    37.26184,
    -122.144,
    37.61594
  ],
  "geometry": {"coordinates":[[-123.50486,37.38561],[-123.4769,37.38006],[-123.4384,37.37238],[-123.41669,37.36813],[-123.32729,37.35055],[-123.28039,37.34122],[-123.25606,37.33641],[-123.15622,37.31652],[-123.12891,37.31107],[-123.09169,37.30362],[-123.068,37.29886],[-122.98336,37.28182],[-122.95842,37.27676],[-122.88336,37.26184],[-122.83726,37.2638],[-122.78621,37.27543],[-122.74407,37.28563],[-122.7219,37.29084],[-122.66669,37.30376],[-122.6009,37.31888],[-122.54556,37.33172],[-122.52701,37.33599],[-122.50108,37.34191],[-122.49169,37.34405],[-122.41022,37.36293],[-122.38079,37.36963],[-122.31343,37.38506],[-122.27353,37.39425],[-122.26537,37.39616],[-122.24117,37.40166],[-122.22009,37.40649],[-122.16851,37.43924],[-122.15037,37.47296],[-122.144,37.4905],[-122.1511,37.51764],[-122.17317,37.54215],[-122.19382,37.54504],[-122.21852,37.55524],[-122.244,37.56602],[-122.26042,37.57289],[-122.31141,37.59432],[-122.3173,37.59677],[-122.34482,37.60837],[-122.36234,37.61594]],"type":"LineString"}
}
