{
  "id": 2031664823,
  "type": "Feature",
  "properties": {
    "geom:area": 0,
    "geom:bbox": "-123.494390,36.971530,-122.115700,37.615030",
    "geom:latitude": 37.29157547589148,
    "geom:longitude": -122.71038952887822,
    "src:alt_label": "swim-approach",
    "src:geom": "swim",
    "swim:elevations": [
      6248,
      5761,
      5612,
      5313,
      4993,
      4660,
      4461,
      4118,
      3505,
      3153,
      3057,
      3048,
      3048,
      3048,
      3016,
      2762,
      2723,
      2440,
      2438,
      2438,
      2438,
      2438,
      2438,
      2363,
      2166,
      2095,
      2022,
      1865,
      1389,
      1190,
      1165,
      1016,
      966,
      775,
      725,
      610,
      372,
      247,
      197,
      60,
      0
    ],
    "swim:geom": "approach",
    "swim:timestamps": [
      1782656790,
      1782656838,
      1782656856,
      1782656888,
      1782656923,
      1782656957,
      1782656978,
      1782657014,
      1782657079,
      1782657114,
      1782657127,
      1782657153,
      1782657194,
      1782657216,
      1782657241,
      1782657296,
      1782657300,
      1782657355,
      1782657374,
      1782657391,
      1782657438,
      1782657460,
      1782657502,
      1782657514,
      1782657545,
      1782657572,
      1782657581,
      1782657601,
      1782657654,
      1782657687,
      1782657691,
      1782657717,
      1782657738,
      1782657774,
      1782657786,
      1782657818,
      1782657867,
      1782657895,
      1782657910,
      1782657951,
      1782657968
    ],
    "wof:geomhash": "91d8c9760fc632b4fbb45a927020b3ce",
    "wof:id": 2031664823,
    "wof:repo": "sfomuseum-data-flights-2026-06"
  },
  "bbox": [
    -123.49439,
    36.97153,
    -122.1157,
    37.61503
  ],
  "geometry": {"coordinates":[[-123.49439,36.97153],[-123.39858,37.01592],[-123.36297,37.03138],[-123.3006,37.05963],[-123.23394,37.09001],[-123.1694,37.11939],[-123.13115,37.13676],[-123.06565,37.16644],[-122.95114,37.21825],[-122.89014,37.24564],[-122.86784,37.25475],[-122.82027,37.26732],[-122.7546,37.28281],[-122.71993,37.29104],[-122.68137,37.3001],[-122.59801,37.31965],[-122.59057,37.32136],[-122.50754,37.34047],[-122.47734,37.34731],[-122.45146,37.35347],[-122.38071,37.36993],[-122.34772,37.37737],[-122.28555,37.39145],[-122.26928,37.3952],[-122.22321,37.40585],[-122.18752,37.41379],[-122.1759,37.41658],[-122.14919,37.42317],[-122.1157,37.46846],[-122.13135,37.49672],[-122.13395,37.49942],[-122.15188,37.51834],[-122.16697,37.53056],[-122.20096,37.54558],[-122.21244,37.55034],[-122.24401,37.56367],[-122.29022,37.58317],[-122.31139,37.59204],[-122.32304,37.59697],[-122.35263,37.60928],[-122.36559,37.61503]],"type":"LineString"}
}
