{
  "id": 2031487937,
  "type": "Feature",
  "properties": {
    "geom:area": 0,
    "geom:bbox": "-122.384167,25.773056,-80.474167,38.518889",
    "geom:latitude": 33.62936847712167,
    "geom:longitude": -101.19049324301994,
    "src:alt_label": "swim-path",
    "src:geom": "swim",
    "swim:altitudes": [
      "038",
      "038",
      "054",
      "106",
      "136",
      "136",
      "152",
      "230",
      "240",
      "240",
      "250",
      "260",
      "260",
      "268",
      "285",
      "290",
      "296",
      "299",
      "305",
      "315",
      "315",
      "335",
      "350C",
      "350C",
      "350C",
      "350C",
      "350C",
      "350C",
      "350C",
      "350C",
      "350C",
      "350C",
      "350C",
      "350C",
      "350C",
      "350C",
      "350C",
      "350C",
      "350C",
      "350C",
      "350C",
      "350C",
      "350C",
      "350C",
      "350C",
      "350C",
      "350",
      "340",
      "339",
      "322",
      "322",
      "320",
      "320",
      "320",
      "317",
      "310C",
      "310C",
      "310C",
      "310C",
      "310C",
      "310C",
      "310C",
      "310",
      "321",
      "329",
      "331",
      "340",
      "350C",
      "350C",
      "350C",
      "350C",
      "350C",
      "350C",
      "350C",
      "350C",
      "350C",
      "350C",
      "350C",
      "350C",
      "350C",
      "350C",
      "350C",
      "350C",
      "350C",
      "350C",
      "350C",
      "350C",
      "350C",
      "350C",
      "350C",
      "350C",
      "350C",
      "350C",
      "350C",
      "350C",
      "350C",
      "350C",
      "350C",
      "350C",
      "350C",
      "350C",
      "350C",
      "350C",
      "350C",
      "350C",
      "350C",
      "350C",
      "350C",
      "350C",
      "350C",
      "350C",
      "350C",
      "350C",
      "350C",
      "350C",
      "350C",
      "350C",
      "350C",
      "350C",
      "350C",
      "350C",
      "350C",
      "350C",
      "350C",
      "350C",
      "350C",
      "350C",
      "350C",
      "350C",
      "350C",
      "350C",
      "350C",
      "350C",
      "350C",
      "350C",
      "350C",
      "350C",
      "350C",
      "350C",
      "350C",
      "350C",
      "350C",
      "350C",
      "350C",
      "350C",
      "350C",
      "350C",
      "350C",
      "350C",
      "350C",
      "350C",
      "350C",
      "350C",
      "350C",
      "350C",
      "350C",
      "350C",
      "350C",
      "350C",
      "350C",
      "350C",
      "350C",
      "350C",
      "350C",
      "350C",
      "350C",
      "350C",
      "350C",
      "350C",
      "350C",
      "350C",
      "350C",
      "350C",
      "350C",
      "350C",
      "350C",
      "350C",
      "350C",
      "350C",
      "350C",
      "350C",
      "350C",
      "350C",
      "350C",
      "350C",
      "350C",
      "350C",
      "350C",
      "350C",
      "353",
      "365",
      "367",
      "370C",
      "370C",
      "370C",
      "370C",
      "370C",
      "370C",
      "370C",
      "370C",
      "370C",
      "370C",
      "370C",
      "370C",
      "370C",
      "370C",
      "370C",
      "370C",
      "370C",
      "370C",
      "370C",
      "370C",
      "370C",
      "370C",
      "370C",
      "370C",
      "370C",
      "370C",
      "370C",
      "369",
      "350",
      "321",
      "321",
      "312C",
      "310C",
      "310C",
      "310C",
      "310C",
      "310C",
      "310C",
      "310",
      "310",
      "310",
      "310",
      "310",
      "310",
      "310",
      "310",
      "290",
      "267",
      "208",
      "190",
      "152",
      "131",
      "131",
      "116",
      "102",
      "102",
      "090",
      "091",
      "080",
      "054",
      "044",
      "038",
      "028",
      "028"
    ],
    "swim:geom": "path",
    "swim:speeds": [
      232,
      232,
      259,
      290,
      395,
      395,
      424,
      481,
      489,
      489,
      497,
      502,
      502,
      511,
      522,
      523,
      523,
      523,
      524,
      527,
      527,
      533,
      528,
      526,
      526,
      527,
      527,
      527,
      527,
      527,
      525,
      525,
      526,
      528,
      529,
      534,
      534,
      534,
      534,
      535,
      535,
      535,
      537,
      537,
      537,
      531,
      526,
      504,
      500,
      484,
      484,
      480,
      473,
      471,
      467,
      473,
      474,
      474,
      474,
      473,
      473,
      473,
      474,
      476,
      475,
      474,
      473,
      469,
      474,
      482,
      476,
      476,
      476,
      479,
      474,
      472,
      471,
      471,
      472,
      473,
      482,
      483,
      485,
      487,
      489,
      490,
      490,
      490,
      491,
      492,
      494,
      494,
      495,
      496,
      496,
      501,
      501,
      508,
      508,
      508,
      505,
      501,
      501,
      504,
      507,
      509,
      507,
      510,
      509,
      509,
      511,
      511,
      511,
      512,
      512,
      514,
      514,
      509,
      509,
      503,
      503,
      503,
      501,
      501,
      499,
      499,
      498,
      496,
      497,
      498,
      502,
      502,
      504,
      510,
      512,
      512,
      512,
      509,
      509,
      507,
      507,
      506,
      506,
      506,
      506,
      504,
      504,
      504,
      505,
      500,
      505,
      505,
      504,
      499,
      499,
      498,
      493,
      493,
      491,
      490,
      490,
      491,
      492,
      494,
      499,
      501,
      502,
      502,
      504,
      505,
      504,
      504,
      503,
      505,
      507,
      507,
      508,
      509,
      511,
      512,
      512,
      513,
      513,
      513,
      513,
      513,
      513,
      513,
      513,
      514,
      511,
      505,
      506,
      506,
      505,
      510,
      507,
      514,
      514,
      507,
      507,
      503,
      489,
      477,
      477,
      476,
      475,
      474,
      472,
      469,
      470,
      471,
      471,
      471,
      471,
      471,
      471,
      471,
      471,
      471,
      470,
      473,
      473,
      474,
      478,
      480,
      483,
      485,
      486,
      486,
      486,
      487,
      487,
      489,
      489,
      488,
      488,
      487,
      484,
      465,
      404,
      390,
      371,
      355,
      355,
      348,
      328,
      324,
      297,
      297,
      280,
      260,
      246,
      241,
      224,
      227
    ],
    "swim:timestamps": [
      1780988234,
      1780988234,
      1780988287,
      1780988407,
      1780988527,
      1780988527,
      1780988587,
      1780988947,
      1780989007,
      1780989007,
      1780989067,
      1780989127,
      1780989127,
      1780989187,
      1780989307,
      1780989331,
      1780989367,
      1780989391,
      1780989427,
      1780989487,
      1780989487,
      1780989631,
      1780989751,
      1780989811,
      1780989848,
      1780989908,
      1780989931,
      1780989968,
      1780989991,
      1780990028,
      1780990148,
      1780990172,
      1780990208,
      1780990232,
      1780990268,
      1780990448,
      1780990472,
      1780990508,
      1780990568,
      1780990592,
      1780990652,
      1780990652,
      1780990712,
      1780990832,
      1780990892,
      1780991192,
      1780991312,
      1780991372,
      1780991433,
      1780991493,
      1780991493,
      1780991613,
      1780991733,
      1780991782,
      1780992033,
      1780992093,
      1780992142,
      1780992202,
      1780992213,
      1780992273,
      1780992273,
      1780992393,
      1780992442,
      1780992513,
      1780992563,
      1780992573,
      1780992623,
      1780992693,
      1780992743,
      1780992803,
      1780992923,
      1780992923,
      1780992983,
      1780993163,
      1780993223,
      1780993283,
      1780993325,
      1780993325,
      1780993403,
      1780993446,
      1780993623,
      1780993643,
      1780993763,
      1780993805,
      1780993864,
      1780993883,
      1780993926,
      1780993926,
      1780993943,
      1780993984,
      1780994045,
      1780994045,
      1780994104,
      1780994166,
      1780994225,
      1780994284,
      1780994284,
      1780994584,
      1780994584,
      1780994704,
      1780994945,
      1780995041,
      1780995041,
      1780995221,
      1780995244,
      1780995304,
      1780995341,
      1780995365,
      1780995401,
      1780995401,
      1780995521,
      1780995546,
      1780995664,
      1780995701,
      1780995724,
      1780995761,
      1780995784,
      1780995821,
      1780995821,
      1780996181,
      1780996207,
      1780996241,
      1780996301,
      1780996325,
      1780996421,
      1780996421,
      1780996507,
      1780996601,
      1780996625,
      1780996662,
      1780996902,
      1780996902,
      1780996962,
      1780997202,
      1780997262,
      1780997262,
      1780997322,
      1780997502,
      1780997562,
      1780997622,
      1780997622,
      1780997802,
      1780997821,
      1780997862,
      1780997922,
      1780997940,
      1780998001,
      1780998061,
      1780998102,
      1780998121,
      1780998162,
      1780998222,
      1780998282,
      1780998360,
      1780998360,
      1780998402,
      1780998582,
      1780998582,
      1780998642,
      1780998660,
      1780998779,
      1780998839,
      1780998900,
      1780998959,
      1780999020,
      1780999080,
      1780999183,
      1780999183,
      1780999303,
      1780999381,
      1780999423,
      1780999423,
      1780999499,
      1780999603,
      1780999680,
      1780999680,
      1780999740,
      1780999800,
      1780999859,
      1780999980,
      1781000040,
      1781000100,
      1781000148,
      1781000160,
      1781000160,
      1781000220,
      1781000268,
      1781000281,
      1781000400,
      1781000460,
      1781000508,
      1781000520,
      1781000688,
      1781000688,
      1781000700,
      1781000748,
      1781000760,
      1781000808,
      1781000868,
      1781000881,
      1781000941,
      1781001061,
      1781001349,
      1781001420,
      1781001420,
      1781001589,
      1781001601,
      1781001649,
      1781001709,
      1781001949,
      1781002070,
      1781002190,
      1781002201,
      1781002250,
      1781002261,
      1781002261,
      1781002321,
      1781002370,
      1781002550,
      1781002610,
      1781002730,
      1781002912,
      1781002912,
      1781002971,
      1781003031,
      1781003092,
      1781003211,
      1781003331,
      1781003452,
      1781003572,
      1781003753,
      1781003813,
      1781003813,
      1781003933,
      1781003993,
      1781004053,
      1781004053,
      1781004113,
      1781004173,
      1781004233,
      1781004414,
      1781004474,
      1781004594,
      1781004645,
      1781004645,
      1781004694,
      1781004760,
      1781004774,
      1781004820,
      1781004834,
      1781004886,
      1781005015,
      1781005075,
      1781005135,
      1781005187,
      1781005195
    ],
    "wof:geomhash": "510fb16f6a53068adca58555a2a4d0f7",
    "wof:id": 2031487937,
    "wof:repo": "sfomuseum-data-flights-2026-06"
  },
  "bbox": [
    -122.38416666666667,
    25.773055555555555,
    -80.47416666666666,
    38.51888888888889
  ],
  "geometry": {"coordinates":[[-122.36666666666666,37.7],[-122.36666666666666,37.7],[-122.34027777777777,37.75111111111111],[-122.38416666666667,37.899166666666666],[-122.16194444444444,37.98444444444444],[-122.16194444444444,37.98444444444444],[-122.01444444444445,37.98972222222222],[-121.05027777777778,37.99944444444444],[-120.88194444444444,38.025555555555556],[-120.88194444444444,38.025555555555556],[-120.70972222222223,38.05222222222222],[-120.5375,38.07805555555556],[-120.5375,38.07805555555556],[-120.36083333333333,38.10444444444445],[-119.99888888888889,38.158055555555556],[-119.93138888888889,38.16583333333333],[-119.8175,38.18444444444444],[-119.75055555555555,38.19333333333333],[-119.63472222222222,38.21055555555556],[-119.43944444444445,38.23833333333334],[-119.43944444444445,38.23833333333334],[-119.01416666666667,38.29555555555555],[-118.64750000000001,38.34527777777778],[-118.46777777777778,38.37083333333334],[-118.35638888888889,38.38527777777778],[-118.1725,38.40972222222222],[-118.08083333333333,38.421388888888885],[-117.96972222222223,38.43555555555555],[-117.89611111111111,38.44499999999999],[-117.78166666666667,38.45944444444445],[-117.41277777777778,38.50527777777778],[-117.34055555555555,38.51416666666667],[-117.22472222222223,38.51888888888889],[-117.15166666666667,38.51638888888889],[-117.07055555555556,38.51416666666667],[-116.49888888888889,38.495555555555555],[-116.42527777777778,38.49305555555556],[-116.31083333333333,38.48888888888889],[-116.11861111111111,38.48166666666667],[-116.04472222222222,38.47888888888889],[-115.85833333333333,38.47166666666667],[-115.85833333333333,38.47166666666667],[-115.66444444444446,38.46333333333334],[-115.28305555555555,38.446666666666665],[-115.0936111111111,38.43805555555555],[-114.15833333333335,38.35916666666667],[-113.80055555555555,38.27444444444444],[-113.6325,38.23416666666667],[-113.46444444444445,38.19333333333333],[-113.29972222222221,38.15361111111111],[-113.29972222222221,38.15361111111111],[-112.97666666666667,38.07361111111111],[-112.65222222222222,37.993611111111115],[-112.52444444444444,37.96138888888889],[-111.86611111111111,37.797777777777775],[-111.705,37.76138888888889],[-111.57805555555555,37.73222222222223],[-111.41833333333334,37.695277777777775],[-111.38611111111112,37.687777777777775],[-111.2275,37.65083333333333],[-111.2275,37.65083333333333],[-110.90972222222223,37.57611111111112],[-110.78138888888888,37.545833333333334],[-110.58944444444444,37.5],[-110.46388888888889,37.469722222222224],[-110.43138888888889,37.46194444444445],[-110.30722222222222,37.43194444444444],[-110.11916666666666,37.38638888888889],[-109.9875,37.35388888888889],[-109.8275,37.31472222222222],[-109.50694444444444,37.23444444444444],[-109.50694444444444,37.23444444444444],[-109.35,37.19555555555555],[-108.8711111111111,37.07361111111111],[-108.715,37.03333333333333],[-108.56027777777777,36.99333333333333],[-108.46666666666667,36.968611111111116],[-108.46666666666667,36.968611111111116],[-108.24722222222222,36.91138888888889],[-108.1525,36.88666666666666],[-107.67555555555556,36.759166666666665],[-107.61166666666666,36.74166666666667],[-107.29388888888889,36.65555555555555],[-107.19666666666667,36.62888888888889],[-107.03527777777778,36.584722222222226],[-106.9713888888889,36.56722222222223],[-106.87416666666665,36.540277777777774],[-106.87416666666665,36.540277777777774],[-106.81,36.52222222222222],[-106.71416666666667,36.495555555555555],[-106.55111111111111,36.45],[-106.55111111111111,36.45],[-106.38055555555555,36.401944444444446],[-106.22611111111111,36.358333333333334],[-106.06166666666667,36.311388888888885],[-105.89583333333334,36.2675],[-105.89583333333334,36.2675],[-105.08138888888888,36.08027777777778],[-105.08138888888888,36.08027777777778],[-104.7461111111111,36.001666666666665],[-104.08138888888888,35.841944444444444],[-103.79916666666666,35.77472222222222],[-103.79916666666666,35.77472222222222],[-103.30388888888889,35.65],[-103.24944444444445,35.63638888888889],[-103.08305555555555,35.59444444444445],[-102.97111111111111,35.56583333333333],[-102.91611111111112,35.55222222222222],[-102.80611111111111,35.524166666666666],[-102.80611111111111,35.524166666666666],[-102.47500000000001,35.43888888888888],[-102.40583333333333,35.420833333333334],[-102.07694444444444,35.335],[-101.9786111111111,35.30916666666666],[-101.91833333333334,35.29333333333333],[-101.80972222222222,35.264722222222225],[-101.75138888888888,35.24916666666667],[-101.66000000000001,35.215833333333336],[-101.66000000000001,35.215833333333336],[-100.79027777777777,34.786944444444444],[-100.73027777777779,34.75694444444444],[-100.64611111111111,34.715],[-100.5025,34.6425],[-100.44277777777778,34.612500000000004],[-100.19666666666667,34.488055555555555],[-100.19666666666667,34.488055555555555],[-99.99555555555555,34.385555555555555],[-99.76777777777778,34.26916666666666],[-99.7125,34.240833333333335],[-99.6261111111111,34.19611111111111],[-99.06333333333333,33.90361111111111],[-99.06333333333333,33.90361111111111],[-98.9213888888889,33.828611111111115],[-98.34888888888888,33.525],[-98.205,33.44777777777777],[-98.205,33.44777777777777],[-98.06027777777777,33.37],[-97.63722222222223,33.14055555555556],[-97.49472222222222,33.062777777777775],[-97.35666666666665,32.98694444444445],[-97.35666666666665,32.98694444444445],[-96.93777777777778,32.77611111111111],[-96.8938888888889,32.7575],[-96.79083333333332,32.706944444444446],[-96.64750000000001,32.63916666666667],[-96.60305555555556,32.61944444444445],[-96.45722222222223,32.55138888888889],[-96.31388888888888,32.48222222222223],[-96.21277777777777,32.433055555555555],[-96.16722222222222,32.41111111111111],[-96.0675,32.363055555555555],[-95.92527777777778,32.29472222222222],[-95.78,32.224444444444444],[-95.5961111111111,32.135],[-95.5961111111111,32.135],[-95.4775,32.077222222222225],[-95.05805555555555,31.87138888888889],[-95.05805555555555,31.87138888888889],[-94.91805555555555,31.802500000000002],[-94.89333333333335,31.790277777777778],[-94.61583333333333,31.65138888888889],[-94.47666666666667,31.581666666666667],[-94.33638888888889,31.511666666666667],[-94.19555555555556,31.440555555555555],[-94.05555555555556,31.37],[-93.91333333333334,31.297500000000003],[-93.69250000000001,31.184722222222224],[-93.69250000000001,31.184722222222224],[-93.41222222222223,31.040833333333335],[-93.2175,30.940277777777776],[-93.10694444444444,30.883055555555558],[-93.10694444444444,30.883055555555558],[-92.93583333333333,30.79388888888889],[-92.69166666666668,30.66583333333333],[-92.52472222222222,30.578055555555554],[-92.52472222222222,30.578055555555554],[-92.38472222222222,30.504166666666666],[-92.24444444444444,30.429722222222225],[-92.10638888888889,30.35638888888889],[-91.81388888888888,30.199722222222224],[-91.7025,30.139722222222222],[-91.53027777777778,30.046944444444446],[-91.41916666666667,29.980555555555554],[-91.39055555555557,29.97111111111111],[-91.39055555555557,29.97111111111111],[-91.25305555555556,29.895833333333332],[-91.14194444444445,29.829722222222223],[-91.11416666666666,29.82027777777778],[-90.83638888888889,29.668055555555558],[-90.70694444444445,29.5825],[-90.60333333333332,29.510555555555555],[-90.57972222222222,29.497222222222224],[-90.22583333333334,29.25638888888889],[-90.22583333333334,29.25638888888889],[-90.19916666666667,29.240000000000002],[-90.0886111111111,29.178611111111113],[-90.06083333333333,29.17138888888889],[-89.93833333333333,29.13138888888889],[-89.7863888888889,29.083888888888886],[-89.76,29.076666666666668],[-89.60694444444444,29.028333333333332],[-89.31055555555555,28.933888888888887],[-88.61194444444443,28.708055555555553],[-88.44194444444445,28.652777777777775],[-88.44194444444445,28.652777777777775],[-88.05055555555555,28.52361111111111],[-88.0125,28.511111111111113],[-87.91083333333334,28.4775],[-87.76444444444445,28.428333333333335],[-87.21388888888889,28.243055555555557],[-86.93833333333333,28.149166666666666],[-86.66277777777778,28.054722222222225],[-86.63416666666667,28.044722222222223],[-86.52583333333334,28.00722222222222],[-86.49583333333334,27.996666666666666],[-86.49583333333334,27.996666666666666],[-86.35972222222222,27.949444444444445],[-86.24861111111112,27.91111111111111],[-85.83833333333332,27.766944444444444],[-85.70055555555555,27.71833333333333],[-85.42972222222222,27.620555555555555],[-85.01416666666667,27.46972222222222],[-85.01416666666667,27.46972222222222],[-84.87583333333333,27.41916666666667],[-84.73805555555556,27.368055555555557],[-84.6,27.31722222222222],[-84.32027777777778,27.21388888888889],[-84.04194444444444,27.109722222222224],[-83.76555555555555,27.00583333333333],[-83.4863888888889,26.9],[-83.07138888888889,26.74138888888889],[-82.93166666666667,26.68777777777778],[-82.93166666666667,26.68777777777778],[-82.65416666666667,26.580277777777777],[-82.51583333333333,26.52638888888889],[-82.37722222222222,26.472499999999997],[-82.37722222222222,26.472499999999997],[-82.24083333333333,26.41916666666667],[-82.10555555555555,26.365833333333335],[-81.97277777777778,26.313333333333333],[-81.61777777777777,26.16638888888889],[-81.50916666666667,26.11916666666667],[-81.30166666666666,26.028888888888886],[-81.19944444444445,25.982777777777777],[-81.19944444444445,25.982777777777777],[-81.12027777777777,25.950555555555553],[-81.01694444444445,25.905277777777776],[-81.01166666666667,25.903333333333332],[-80.93055555555556,25.871111111111112],[-80.92583333333334,25.870555555555555],[-80.84444444444443,25.83722222222222],[-80.69555555555556,25.781944444444445],[-80.62055555555555,25.773055555555555],[-80.5475,25.77611111111111],[-80.47416666666666,25.779999999999998],[-80.47555555555556,25.779166666666665]],"type":"LineString"}
}
