{
  "id": 2031536065,
  "type": "Feature",
  "properties": {
    "geom:area": 0,
    "geom:bbox": "-122.283333,33.433333,-112.130833,37.700000",
    "geom:latitude": 36.37899484619829,
    "geom:longitude": -116.86352283728905,
    "src:alt_label": "swim-path",
    "src:geom": "swim",
    "swim:altitudes": [
      "056",
      "072",
      "080",
      "080",
      "080",
      "134",
      "170",
      "192",
      "213",
      "256",
      "275",
      "275",
      "278",
      "278",
      "278",
      "290",
      "290",
      "325",
      "325",
      "325",
      "328",
      "328",
      "345",
      "348",
      "348",
      "360",
      "379",
      "379",
      "379",
      "379",
      "400C",
      "400C",
      "400C",
      "400C",
      "400C",
      "400C",
      "400C",
      "400C",
      "400C",
      "400C",
      "400C",
      "400C",
      "400C",
      "400C",
      "400C",
      "400C",
      "400C",
      "400C",
      "400C",
      "400C",
      "400C",
      "400C",
      "400C",
      "400C",
      "400C",
      "400C",
      "400C",
      "400C",
      "400C",
      "400C",
      "400C",
      "400C",
      "400C",
      "400C",
      "400C",
      "400C",
      "400C",
      "400C",
      "400C",
      "400C",
      "400C",
      "400C",
      "400C",
      "400C",
      "400C",
      "400C",
      "400C",
      "400C",
      "400C",
      "400C",
      "400C",
      "400C",
      "400C",
      "400C",
      "400C",
      "400C",
      "400C",
      "400C",
      "400C",
      "400C",
      "400C",
      "400C",
      "400C",
      "400C",
      "385",
      "382",
      "382",
      "382",
      "382",
      "368",
      "368",
      "354",
      "354",
      "354",
      "340",
      "340",
      "340",
      "340",
      "340",
      "331",
      "331",
      "319",
      "319",
      "295",
      "295",
      "256",
      "256",
      "256",
      "256",
      "214",
      "214",
      "214",
      "179",
      "179",
      "161",
      "161",
      "161",
      "161",
      "161",
      "103",
      "103",
      "103",
      "103",
      "103",
      "099",
      "099",
      "089",
      "089",
      "080",
      "080",
      "076",
      "076",
      "076",
      "066",
      "066",
      "066",
      "046",
      "033",
      "033",
      "013",
      "013",
      "013",
      "013"
    ],
    "swim:geom": "path",
    "swim:speeds": [
      241,
      263,
      273,
      273,
      273,
      367,
      382,
      395,
      412,
      437,
      463,
      463,
      459,
      459,
      459,
      469,
      470,
      469,
      469,
      469,
      466,
      466,
      445,
      444,
      444,
      438,
      433,
      433,
      433,
      433,
      431,
      431,
      428,
      428,
      428,
      428,
      429,
      432,
      432,
      436,
      436,
      436,
      436,
      437,
      442,
      442,
      442,
      442,
      442,
      438,
      437,
      437,
      436,
      436,
      436,
      435,
      435,
      435,
      434,
      434,
      432,
      432,
      435,
      435,
      435,
      443,
      446,
      447,
      447,
      447,
      447,
      451,
      452,
      452,
      452,
      437,
      437,
      425,
      425,
      424,
      423,
      423,
      422,
      422,
      422,
      421,
      421,
      421,
      421,
      420,
      420,
      420,
      420,
      420,
      422,
      426,
      426,
      426,
      426,
      420,
      420,
      430,
      430,
      430,
      447,
      447,
      447,
      450,
      454,
      452,
      452,
      463,
      463,
      450,
      450,
      430,
      430,
      430,
      430,
      394,
      394,
      394,
      338,
      338,
      336,
      336,
      336,
      336,
      336,
      261,
      261,
      261,
      261,
      261,
      258,
      258,
      235,
      235,
      231,
      231,
      241,
      241,
      241,
      244,
      244,
      244,
      240,
      231,
      231,
      160,
      160,
      160,
      160
    ],
    "swim:timestamps": [
      1781463589,
      1781463610,
      1781463649,
      1781463649,
      1781463649,
      1781463820,
      1781463889,
      1781463940,
      1781464000,
      1781464120,
      1781464180,
      1781464180,
      1781464190,
      1781464190,
      1781464190,
      1781464250,
      1781464310,
      1781464421,
      1781464421,
      1781464421,
      1781464430,
      1781464430,
      1781464481,
      1781464490,
      1781464490,
      1781464550,
      1781464661,
      1781464661,
      1781464661,
      1781464661,
      1781464788,
      1781464788,
      1781464902,
      1781464902,
      1781464902,
      1781464902,
      1781464908,
      1781465022,
      1781465022,
      1781465142,
      1781465142,
      1781465142,
      1781465142,
      1781465202,
      1781465502,
      1781465502,
      1781465502,
      1781465502,
      1781465502,
      1781465623,
      1781465683,
      1781465683,
      1781465743,
      1781465743,
      1781465743,
      1781465803,
      1781465863,
      1781465983,
      1781466103,
      1781466103,
      1781466119,
      1781466119,
      1781466163,
      1781466223,
      1781466239,
      1781466284,
      1781466344,
      1781466360,
      1781466360,
      1781466360,
      1781466360,
      1781466480,
      1781466524,
      1781466524,
      1781466524,
      1781466644,
      1781466644,
      1781466720,
      1781466720,
      1781466764,
      1781466824,
      1781466824,
      1781466840,
      1781466884,
      1781466960,
      1781467005,
      1781467005,
      1781467065,
      1781467141,
      1781467185,
      1781467185,
      1781467185,
      1781467245,
      1781467245,
      1781467501,
      1781467508,
      1781467508,
      1781467508,
      1781467508,
      1781467572,
      1781467572,
      1781467633,
      1781467633,
      1781467633,
      1781467692,
      1781467692,
      1781467692,
      1781467741,
      1781467753,
      1781467801,
      1781467801,
      1781467873,
      1781467873,
      1781467933,
      1781467933,
      1781467993,
      1781467993,
      1781467993,
      1781467993,
      1781468053,
      1781468053,
      1781468053,
      1781468173,
      1781468173,
      1781468233,
      1781468233,
      1781468233,
      1781468233,
      1781468233,
      1781468528,
      1781468528,
      1781468528,
      1781468528,
      1781468528,
      1781468594,
      1781468594,
      1781468654,
      1781468654,
      1781468714,
      1781468714,
      1781468773,
      1781468773,
      1781468773,
      1781468834,
      1781468834,
      1781468834,
      1781468954,
      1781469014,
      1781469014,
      1781469134,
      1781469134,
      1781469134,
      1781469134
    ],
    "wof:geomhash": "4d18762fa6cb91b7947f0bf234385b5d",
    "wof:id": 2031536065,
    "wof:repo": "sfomuseum-data-flights-2026-06"
  },
  "bbox": [
    -122.28333333333333,
    33.43333333333333,
    -112.13083333333333,
    37.7
  ],
  "geometry": {"coordinates":[[-112.13083333333333,33.43333333333333],[-112.16666666666667,33.43333333333333],[-112.20194444444445,33.46333333333334],[-112.20194444444445,33.46333333333334],[-112.20194444444445,33.46333333333334],[-112.17222222222223,33.719722222222224],[-112.22833333333334,33.82527777777778],[-112.27694444444444,33.91888888888889],[-112.33416666666666,34.02472222222222],[-112.5125,34.20527777777778],[-112.61333333333333,34.30416666666667],[-112.61333333333333,34.30416666666667],[-112.63333333333334,34.323888888888895],[-112.63333333333334,34.323888888888895],[-112.63333333333334,34.323888888888895],[-112.73416666666667,34.42361111111111],[-112.83527777777778,34.52333333333333],[-113.02222222222223,34.70638888888889],[-113.02222222222223,34.70638888888889],[-113.02222222222223,34.70638888888889],[-113.0411111111111,34.724722222222226],[-113.0411111111111,34.724722222222226],[-113.13777777777779,34.78638888888889],[-113.16416666666667,34.79666666666667],[-113.16416666666667,34.79666666666667],[-113.2975,34.84638888888889],[-113.53722222222223,34.94305555555555],[-113.53722222222223,34.94305555555555],[-113.53722222222223,34.94305555555555],[-113.53722222222223,34.94305555555555],[-113.82138888888889,35.05888888888889],[-113.82138888888889,35.05888888888889],[-114.07111111111111,35.15861111111111],[-114.07111111111111,35.15861111111111],[-114.07111111111111,35.15861111111111],[-114.07111111111111,35.15861111111111],[-114.07,35.15833333333333],[-114.33583333333333,35.26444444444444],[-114.33583333333333,35.26444444444444],[-114.60416666666666,35.370555555555555],[-114.60416666666666,35.370555555555555],[-114.60416666666666,35.370555555555555],[-114.60416666666666,35.370555555555555],[-114.73722222222223,35.422777777777775],[-115.32055555555556,35.81666666666667],[-115.32055555555556,35.81666666666667],[-115.32055555555556,35.81666666666667],[-115.32055555555556,35.81666666666667],[-115.32055555555556,35.81666666666667],[-115.54666666666667,35.97555555555556],[-115.66166666666668,36.05583333333333],[-115.66166666666668,36.05583333333333],[-115.7761111111111,36.135555555555555],[-115.7761111111111,36.135555555555555],[-115.7761111111111,36.135555555555555],[-115.89194444444445,36.215833333333336],[-115.99833333333333,36.28916666666667],[-116.22472222222223,36.44499999999999],[-116.45527777777778,36.6025],[-116.45527777777778,36.6025],[-116.47888888888889,36.61833333333333],[-116.47888888888889,36.61833333333333],[-116.57,36.68055555555555],[-116.6863888888889,36.75944444444445],[-116.70972222222223,36.775277777777774],[-116.78833333333333,36.849444444444444],[-116.87638888888888,36.95444444444445],[-116.89361111111111,36.97527777777778],[-116.89361111111111,36.97527777777778],[-116.89361111111111,36.97527777777778],[-116.89361111111111,36.97527777777778],[-117.06972222222223,37.18472222222222],[-117.14027777777778,37.268055555555556],[-117.14027777777778,37.268055555555556],[-117.14027777777778,37.268055555555556],[-117.34305555555555,37.45416666666667],[-117.34305555555555,37.45416666666667],[-117.52111111111111,37.47638888888889],[-117.52111111111111,37.47638888888889],[-117.63777777777779,37.486666666666665],[-117.78388888888888,37.49944444444444],[-117.78388888888888,37.49944444444444],[-117.81472222222222,37.50222222222222],[-117.93138888888889,37.51222222222222],[-118.10944444444443,37.527499999999996],[-118.22444444444444,37.53722222222222],[-118.22444444444444,37.53722222222222],[-118.35527777777777,37.54805555555556],[-118.54916666666666,37.56388888888888],[-118.66527777777779,37.573055555555555],[-118.66527777777779,37.573055555555555],[-118.66527777777779,37.573055555555555],[-118.81138888888889,37.584722222222226],[-118.81138888888889,37.584722222222226],[-119.41305555555556,37.63055555555555],[-119.45,37.63333333333333],[-119.45,37.63333333333333],[-119.45,37.63333333333333],[-119.45,37.63333333333333],[-119.61666666666666,37.65],[-119.61666666666666,37.65],[-119.75,37.65],[-119.75,37.65],[-119.75,37.65],[-119.91666666666667,37.666666666666664],[-119.91666666666667,37.666666666666664],[-119.91666666666667,37.666666666666664],[-120.02055555555556,37.67361111111111],[-120.08333333333333,37.68333333333333],[-120.17833333333334,37.68444444444444],[-120.17833333333334,37.68444444444444],[-120.38333333333334,37.7],[-120.38333333333334,37.7],[-120.55,37.68333333333333],[-120.55,37.68333333333333],[-120.7,37.666666666666664],[-120.7,37.666666666666664],[-120.7,37.666666666666664],[-120.7,37.666666666666664],[-120.85,37.65],[-120.85,37.65],[-120.85,37.65],[-121.08333333333333,37.61666666666667],[-121.08333333333333,37.61666666666667],[-121.2,37.6],[-121.2,37.6],[-121.2,37.6],[-121.2,37.6],[-121.2,37.6],[-121.7,37.583333333333336],[-121.7,37.583333333333336],[-121.7,37.583333333333336],[-121.7,37.583333333333336],[-121.7,37.583333333333336],[-121.78333333333333,37.61666666666667],[-121.78333333333333,37.61666666666667],[-121.83333333333333,37.583333333333336],[-121.83333333333333,37.583333333333336],[-121.81666666666666,37.516666666666666],[-121.81666666666666,37.516666666666666],[-121.85,37.46666666666667],[-121.85,37.46666666666667],[-121.85,37.46666666666667],[-121.93333333333334,37.45],[-121.93333333333334,37.45],[-121.93333333333334,37.45],[-122.08333333333333,37.5],[-122.16666666666667,37.53333333333333],[-122.16666666666667,37.53333333333333],[-122.28333333333333,37.583333333333336],[-122.28333333333333,37.583333333333336],[-122.28333333333333,37.583333333333336],[-122.28333333333333,37.583333333333336]],"type":"LineString"}
}
