{
  "id": 2031544541,
  "type": "Feature",
  "properties": {
    "geom:area": 0,
    "geom:bbox": "-122.385000,37.441667,-73.570833,43.860000",
    "geom:latitude": 41.48550535505278,
    "geom:longitude": -98.11979695580428,
    "src:alt_label": "swim-path",
    "src:geom": "swim",
    "swim:altitudes": [
      "035",
      "035",
      "098",
      "098",
      "112",
      "112",
      "151",
      "151",
      "166",
      "166",
      "166",
      "212",
      "212",
      "241",
      "241",
      "249",
      "249",
      "249",
      "250",
      "250",
      "250",
      "250",
      "250",
      "250",
      "250",
      "250",
      "251",
      "265",
      "265",
      "275",
      "275",
      "275",
      "275",
      "295",
      "309",
      "309",
      "309",
      "315",
      "315",
      "320C",
      "320C",
      "320C",
      "320C",
      "320C",
      "320C",
      "320C",
      "320C",
      "320C",
      "320C",
      "320C",
      "320C",
      "320C",
      "320C",
      "320C",
      "320C",
      "320C",
      "320C",
      "320C",
      "320C",
      "320C",
      "320C",
      "320C",
      "333",
      "333",
      "340C",
      "340C",
      "340C",
      "340C",
      "340C",
      "340C",
      "340C",
      "340C",
      "340C",
      "340C",
      "340C",
      "340C",
      "340C",
      "340C",
      "340C",
      "340C",
      "340C",
      "340C",
      "340C",
      "340C",
      "340C",
      "340C",
      "340C",
      "340C",
      "340C",
      "340C",
      "340C",
      "340C",
      "340C",
      "340C",
      "340C",
      "340C",
      "340C",
      "340C",
      "340C",
      "340C",
      "340C",
      "340C",
      "340C",
      "340C",
      "340C",
      "340C",
      "340C",
      "340C",
      "340C",
      "340C",
      "340C",
      "340C",
      "340C",
      "340C",
      "340C",
      "340C",
      "340C",
      "340C",
      "340C",
      "340C",
      "340C",
      "340C",
      "340C",
      "340C",
      "340C",
      "340C",
      "340C",
      "340C",
      "340C",
      "340C",
      "340C",
      "340C",
      "340C",
      "340C",
      "340C",
      "340C",
      "340C",
      "340C",
      "340C",
      "340C",
      "340C",
      "340C",
      "340C",
      "340C",
      "340C",
      "340C",
      "340C",
      "340C",
      "340C",
      "340C",
      "340C",
      "340C",
      "340C",
      "340C",
      "340C",
      "340C",
      "340C",
      "340C",
      "340C",
      "340C",
      "340C",
      "340C",
      "340C",
      "340C",
      "340C",
      "340C",
      "340C",
      "340C",
      "340C",
      "340C",
      "340C",
      "340C",
      "340C",
      "340C",
      "340C",
      "340C",
      "340C",
      "340C",
      "340C",
      "340C",
      "340C",
      "340C",
      "340C",
      "340C",
      "340C",
      "340C",
      "340C",
      "340C",
      "340C",
      "340C",
      "340C",
      "340C",
      "340C",
      "340C",
      "340C",
      "340C",
      "340C",
      "340C",
      "340C",
      "340C",
      "340C",
      "340C",
      "340C",
      "340C",
      "340C",
      "340C",
      "340C",
      "340C",
      "340C",
      "340C",
      "340C",
      "340C",
      "340C",
      "340C",
      "340C",
      "340C",
      "340C",
      "340C",
      "340C",
      "340C",
      "340C",
      "340C",
      "340C",
      "340C",
      "340C",
      "340C",
      "340C",
      "340C",
      "340C",
      "340C",
      "340C",
      "340C",
      "340C",
      "340C",
      "340C",
      "340C",
      "340C",
      "340C",
      "340C",
      "340C",
      "340C",
      "340C",
      "340C",
      "340C",
      "340C",
      "340C",
      "340C",
      "340C",
      "340C",
      "340C",
      "340C",
      "340C",
      "340C",
      "340C",
      "340C",
      "340C",
      "340C",
      "340C",
      "340C",
      "340C",
      "340C",
      "340C",
      "340C",
      "340C",
      "340C",
      "340C",
      "340C",
      "340C",
      "340C",
      "340C",
      "340C",
      "340C",
      "340C",
      "340C",
      "340C",
      "340C",
      "340C",
      "340C",
      "340C",
      "340C",
      "340C",
      "340C",
      "340C",
      "340C",
      "340C",
      "340C",
      "340C",
      "340C",
      "340C",
      "340C",
      "340",
      "340",
      "347",
      "347",
      "360C",
      "360C",
      "360C",
      "360C",
      "360C",
      "360C",
      "360C",
      "360C",
      "360C",
      "360C",
      "360C",
      "360C",
      "360C",
      "360C",
      "360C",
      "360C",
      "360C",
      "360C",
      "360C",
      "360C",
      "360C",
      "360C",
      "360C",
      "360C",
      "360C",
      "360C",
      "360C",
      "360C",
      "360C",
      "360C",
      "360C",
      "360C",
      "360C",
      "360C",
      "360C",
      "360C",
      "360C",
      "360C",
      "360C",
      "360C",
      "360C",
      "360C",
      "360C",
      "360C",
      "360C",
      "360C",
      "360C",
      "360C",
      "360C",
      "360C",
      "360C",
      "360C",
      "360C",
      "360C",
      "360C",
      "360C",
      "360C",
      "360C",
      "360C",
      "360C",
      "360C",
      "360C",
      "360C",
      "360C",
      "360C",
      "360C",
      "360C",
      "360C",
      "360C",
      "360C",
      "360C",
      "360C",
      "360C",
      "357",
      "357",
      "333",
      "333",
      "266",
      "194",
      "194",
      "155",
      "115",
      "108",
      "097",
      "090",
      "083",
      "078",
      "021",
      "013",
      "013",
      "004",
      "011",
      "047",
      "047",
      "040",
      "040",
      "040",
      "035",
      "035",
      "013",
      "013"
    ],
    "swim:geom": "path",
    "swim:speeds": [
      221,
      221,
      300,
      300,
      330,
      330,
      377,
      377,
      378,
      378,
      378,
      399,
      399,
      408,
      408,
      411,
      411,
      411,
      394,
      394,
      383,
      383,
      383,
      383,
      383,
      384,
      386,
      388,
      388,
      392,
      392,
      392,
      392,
      399,
      400,
      400,
      400,
      402,
      402,
      401,
      401,
      401,
      400,
      400,
      400,
      400,
      398,
      398,
      398,
      397,
      397,
      400,
      400,
      400,
      400,
      403,
      405,
      405,
      405,
      407,
      407,
      407,
      410,
      410,
      409,
      409,
      409,
      409,
      407,
      400,
      400,
      400,
      398,
      398,
      398,
      398,
      398,
      398,
      398,
      398,
      398,
      398,
      398,
      390,
      390,
      390,
      390,
      390,
      392,
      392,
      394,
      394,
      394,
      394,
      405,
      405,
      405,
      405,
      405,
      405,
      404,
      404,
      404,
      405,
      405,
      405,
      404,
      404,
      401,
      401,
      401,
      398,
      398,
      398,
      400,
      400,
      400,
      400,
      391,
      391,
      391,
      391,
      386,
      386,
      386,
      386,
      385,
      384,
      384,
      384,
      383,
      383,
      382,
      382,
      383,
      383,
      383,
      383,
      383,
      381,
      381,
      381,
      381,
      381,
      383,
      385,
      385,
      385,
      385,
      388,
      388,
      388,
      388,
      388,
      387,
      387,
      386,
      386,
      387,
      387,
      390,
      390,
      393,
      393,
      393,
      393,
      393,
      394,
      394,
      394,
      393,
      393,
      393,
      393,
      392,
      392,
      392,
      392,
      393,
      393,
      393,
      395,
      395,
      397,
      397,
      398,
      398,
      398,
      400,
      400,
      402,
      402,
      402,
      403,
      403,
      403,
      403,
      402,
      402,
      400,
      399,
      399,
      399,
      399,
      397,
      397,
      400,
      400,
      400,
      401,
      401,
      403,
      403,
      403,
      404,
      404,
      404,
      403,
      403,
      399,
      399,
      399,
      398,
      398,
      402,
      402,
      402,
      405,
      406,
      406,
      406,
      407,
      407,
      407,
      407,
      409,
      409,
      409,
      408,
      408,
      408,
      408,
      407,
      407,
      406,
      406,
      404,
      403,
      403,
      402,
      402,
      402,
      400,
      400,
      392,
      392,
      392,
      393,
      393,
      395,
      395,
      399,
      403,
      403,
      405,
      407,
      407,
      410,
      414,
      413,
      413,
      416,
      420,
      420,
      423,
      423,
      425,
      427,
      427,
      427,
      427,
      427,
      427,
      427,
      427,
      428,
      428,
      428,
      427,
      427,
      428,
      428,
      428,
      428,
      430,
      430,
      430,
      432,
      432,
      438,
      438,
      438,
      440,
      440,
      449,
      449,
      449,
      453,
      453,
      453,
      454,
      455,
      455,
      459,
      459,
      460,
      460,
      460,
      455,
      466,
      466,
      466,
      452,
      452,
      455,
      455,
      456,
      456,
      456,
      462,
      462,
      462,
      463,
      463,
      465,
      465,
      465,
      466,
      467,
      467,
      474,
      474,
      476,
      476,
      476,
      476,
      476,
      476,
      480,
      480,
      474,
      471,
      470,
      470,
      470,
      457,
      473,
      477,
      478,
      479,
      471,
      466,
      465,
      465,
      464,
      462,
      458,
      460,
      460,
      455,
      455,
      441,
      431,
      431,
      383,
      299,
      263,
      257,
      249,
      250,
      252,
      204,
      159,
      159,
      133,
      156,
      249,
      249,
      213,
      213,
      205,
      196,
      196,
      158,
      158
    ],
    "swim:timestamps": [
      1781550016,
      1781550016,
      1781550197,
      1781550197,
      1781550257,
      1781550257,
      1781550437,
      1781550437,
      1781550497,
      1781550497,
      1781550497,
      1781550677,
      1781550677,
      1781550798,
      1781550798,
      1781550858,
      1781550858,
      1781550858,
      1781550918,
      1781550918,
      1781551098,
      1781551098,
      1781551158,
      1781551158,
      1781551158,
      1781551218,
      1781551278,
      1781551338,
      1781551338,
      1781551398,
      1781551398,
      1781551398,
      1781551398,
      1781551519,
      1781551596,
      1781551596,
      1781551596,
      1781551639,
      1781551639,
      1781551836,
      1781551836,
      1781551836,
      1781551897,
      1781551897,
      1781551957,
      1781551957,
      1781551999,
      1781551999,
      1781551999,
      1781552059,
      1781552059,
      1781552257,
      1781552257,
      1781552300,
      1781552300,
      1781552377,
      1781552437,
      1781552437,
      1781552437,
      1781552557,
      1781552557,
      1781552557,
      1781552678,
      1781552678,
      1781552738,
      1781552738,
      1781552738,
      1781552738,
      1781552798,
      1781552918,
      1781552918,
      1781552918,
      1781552978,
      1781552978,
      1781552978,
      1781553038,
      1781553038,
      1781553038,
      1781553038,
      1781553218,
      1781553218,
      1781553218,
      1781553218,
      1781553459,
      1781553459,
      1781553459,
      1781553579,
      1781553579,
      1781553639,
      1781553639,
      1781553699,
      1781553699,
      1781553699,
      1781553699,
      1781553879,
      1781553879,
      1781553879,
      1781553939,
      1781553939,
      1781553939,
      1781553999,
      1781554060,
      1781554060,
      1781554120,
      1781554120,
      1781554120,
      1781554240,
      1781554240,
      1781554360,
      1781554360,
      1781554360,
      1781554540,
      1781554540,
      1781554540,
      1781554664,
      1781554664,
      1781554664,
      1781554664,
      1781554835,
      1781554835,
      1781554835,
      1781554835,
      1781554955,
      1781554955,
      1781554955,
      1781554955,
      1781555015,
      1781555075,
      1781555075,
      1781555075,
      1781555135,
      1781555145,
      1781555195,
      1781555195,
      1781555325,
      1781555325,
      1781555496,
      1781555496,
      1781555496,
      1781555616,
      1781555616,
      1781555626,
      1781555626,
      1781555682,
      1781555796,
      1781555866,
      1781555866,
      1781555866,
      1781555866,
      1781555998,
      1781555998,
      1781556097,
      1781556119,
      1781556119,
      1781556157,
      1781556157,
      1781556239,
      1781556239,
      1781556277,
      1781556277,
      1781556359,
      1781556359,
      1781556419,
      1781556457,
      1781556457,
      1781556457,
      1781556479,
      1781556517,
      1781556517,
      1781556517,
      1781556578,
      1781556578,
      1781556638,
      1781556659,
      1781556720,
      1781556720,
      1781556720,
      1781556720,
      1781556818,
      1781556840,
      1781556840,
      1781556900,
      1781556900,
      1781556998,
      1781556998,
      1781557020,
      1781557020,
      1781557020,
      1781557140,
      1781557140,
      1781557260,
      1781557260,
      1781557260,
      1781557359,
      1781557359,
      1781557359,
      1781557359,
      1781557441,
      1781557441,
      1781557539,
      1781557561,
      1781557561,
      1781557561,
      1781557561,
      1781557659,
      1781557659,
      1781557801,
      1781557801,
      1781557801,
      1781557840,
      1781557840,
      1781557921,
      1781557921,
      1781557921,
      1781558042,
      1781558042,
      1781558042,
      1781558114,
      1781558114,
      1781558294,
      1781558294,
      1781558294,
      1781558354,
      1781558354,
      1781558594,
      1781558594,
      1781558594,
      1781558715,
      1781558775,
      1781558775,
      1781558775,
      1781559075,
      1781559075,
      1781559135,
      1781559135,
      1781559436,
      1781559436,
      1781559436,
      1781559556,
      1781559676,
      1781559676,
      1781559676,
      1781559796,
      1781559796,
      1781560037,
      1781560037,
      1781560097,
      1781560157,
      1781560157,
      1781560277,
      1781560277,
      1781560277,
      1781560409,
      1781560409,
      1781560529,
      1781560589,
      1781560589,
      1781560649,
      1781560649,
      1781560770,
      1781560770,
      1781560911,
      1781560950,
      1781560950,
      1781561010,
      1781561130,
      1781561151,
      1781561214,
      1781561394,
      1781561431,
      1781561431,
      1781561551,
      1781561692,
      1781561692,
      1781561812,
      1781561812,
      1781561932,
      1781562173,
      1781562233,
      1781562293,
      1781562353,
      1781562353,
      1781562595,
      1781562595,
      1781562595,
      1781562716,
      1781562716,
      1781562716,
      1781562774,
      1781562774,
      1781562894,
      1781562894,
      1781562954,
      1781562954,
      1781563136,
      1781563136,
      1781563136,
      1781563194,
      1781563194,
      1781563256,
      1781563256,
      1781563256,
      1781563314,
      1781563314,
      1781563495,
      1781563495,
      1781563495,
      1781563617,
      1781563617,
      1781563617,
      1781563675,
      1781563735,
      1781563735,
      1781563857,
      1781563857,
      1781564037,
      1781564037,
      1781564037,
      1781564276,
      1781564396,
      1781564396,
      1781564396,
      1781564876,
      1781564876,
      1781565119,
      1781565119,
      1781565177,
      1781565177,
      1781565177,
      1781565297,
      1781565357,
      1781565357,
      1781565417,
      1781565417,
      1781565537,
      1781565537,
      1781565537,
      1781565657,
      1781565778,
      1781565778,
      1781566018,
      1781566018,
      1781566138,
      1781566138,
      1781566258,
      1781566258,
      1781566499,
      1781566499,
      1781566679,
      1781566679,
      1781566979,
      1781567039,
      1781567195,
      1781567315,
      1781567435,
      1781567555,
      1781567640,
      1781567760,
      1781567796,
      1781567880,
      1781568001,
      1781568096,
      1781568156,
      1781568241,
      1781568396,
      1781568456,
      1781568577,
      1781568817,
      1781568817,
      1781568937,
      1781568937,
      1781569117,
      1781569297,
      1781569297,
      1781569418,
      1781569591,
      1781569650,
      1781569710,
      1781569770,
      1781569838,
      1781569890,
      1781570199,
      1781570245,
      1781570245,
      1781570319,
      1781570379,
      1781570695,
      1781570695,
      1781570800,
      1781570800,
      1781570860,
      1781570920,
      1781570920,
      1781571100,
      1781571100
    ],
    "wof:geomhash": "120580d26b2cc5907ea8f585c78c67a7",
    "wof:id": 2031544541,
    "wof:repo": "sfomuseum-data-flights-2026-06"
  },
  "bbox": [
    -122.385,
    37.44166666666666,
    -73.57083333333333,
    43.86
  ],
  "geometry": {"coordinates":[[-73.88,40.60111111111111],[-73.88,40.60111111111111],[-73.65916666666668,40.64055555555556],[-73.65916666666668,40.64055555555556],[-73.57083333333333,40.698055555555555],[-73.57083333333333,40.698055555555555],[-73.66416666666667,40.96388888888889],[-73.66416666666667,40.96388888888889],[-73.77555555555556,41.02333333333333],[-73.77555555555556,41.02333333333333],[-73.77555555555556,41.02333333333333],[-74.20416666666667,41.07916666666667],[-74.20416666666667,41.07916666666667],[-74.46944444444445,41.155],[-74.46944444444445,41.155],[-74.6086111111111,41.19972222222222],[-74.6086111111111,41.19972222222222],[-74.6086111111111,41.19972222222222],[-74.74361111111111,41.24305555555556],[-74.74361111111111,41.24305555555556],[-75.1463888888889,41.370555555555555],[-75.1463888888889,41.370555555555555],[-75.27666666666667,41.41138888888889],[-75.27666666666667,41.41138888888889],[-75.27666666666667,41.41138888888889],[-75.40694444444445,41.452222222222225],[-75.53972222222222,41.4925],[-75.6863888888889,41.534166666666664],[-75.6863888888889,41.534166666666664],[-75.81,41.56944444444445],[-75.81,41.56944444444445],[-75.81,41.56944444444445],[-75.81,41.56944444444445],[-76.08583333333333,41.64833333333333],[-76.27166666666666,41.7],[-76.27166666666666,41.7],[-76.27166666666666,41.7],[-76.36222222222221,41.72527777777778],[-76.36222222222221,41.72527777777778],[-76.82888888888888,41.85416666666667],[-76.82888888888888,41.85416666666667],[-76.82888888888888,41.85416666666667],[-76.97,41.89277777777778],[-76.97,41.89277777777778],[-77.1086111111111,41.930277777777775],[-77.1086111111111,41.930277777777775],[-77.22,41.96027777777778],[-77.22,41.96027777777778],[-77.22,41.96027777777778],[-77.35944444444443,41.9975],[-77.35944444444443,41.9975],[-77.81194444444444,42.12],[-77.81194444444444,42.12],[-77.89444444444445,42.14222222222222],[-77.89444444444445,42.14222222222222],[-78.0975,42.196666666666665],[-78.24027777777778,42.23416666666667],[-78.24027777777778,42.23416666666667],[-78.24027777777778,42.23416666666667],[-78.53305555555555,42.30694444444444],[-78.53305555555555,42.30694444444444],[-78.53305555555555,42.30694444444444],[-78.82638888888889,42.37916666666667],[-78.82638888888889,42.37916666666667],[-78.95583333333333,42.41083333333333],[-78.95583333333333,42.41083333333333],[-78.95583333333333,42.41083333333333],[-78.95583333333333,42.41083333333333],[-79.10111111111111,42.44638888888888],[-79.40027777777779,42.51888888888889],[-79.40027777777779,42.51888888888889],[-79.40027777777779,42.51888888888889],[-79.5436111111111,42.55305555555555],[-79.5436111111111,42.55305555555555],[-79.5436111111111,42.55305555555555],[-79.685,42.58694444444445],[-79.685,42.58694444444445],[-79.685,42.58694444444445],[-79.685,42.58694444444445],[-80.13138888888888,42.62694444444445],[-80.13138888888888,42.62694444444445],[-80.13138888888888,42.62694444444445],[-80.13138888888888,42.62694444444445],[-80.71805555555555,42.64944444444444],[-80.71805555555555,42.64944444444444],[-80.71805555555555,42.64944444444444],[-81.01277777777777,42.659166666666664],[-81.01277777777777,42.659166666666664],[-81.16000000000001,42.66361111111111],[-81.16000000000001,42.66361111111111],[-81.31055555555555,42.67194444444444],[-81.31055555555555,42.67194444444444],[-81.31055555555555,42.67194444444444],[-81.31055555555555,42.67194444444444],[-81.75861111111111,42.723055555555554],[-81.75861111111111,42.723055555555554],[-81.75861111111111,42.723055555555554],[-81.89361111111111,42.73833333333334],[-81.89361111111111,42.73833333333334],[-81.89361111111111,42.73833333333334],[-82.04305555555555,42.754444444444445],[-82.19388888888889,42.770833333333336],[-82.19388888888889,42.770833333333336],[-82.345,42.7875],[-82.345,42.7875],[-82.345,42.7875],[-82.64666666666668,42.822500000000005],[-82.64666666666668,42.822500000000005],[-82.94277777777778,42.86222222222222],[-82.94277777777778,42.86222222222222],[-82.94277777777778,42.86222222222222],[-83.41694444444445,42.91972222222222],[-83.41694444444445,42.91972222222222],[-83.41694444444445,42.91972222222222],[-83.6975,42.94444444444444],[-83.6975,42.94444444444444],[-83.6975,42.94444444444444],[-83.6975,42.94444444444444],[-84.1388888888889,42.98166666666667],[-84.1388888888889,42.98166666666667],[-84.1388888888889,42.98166666666667],[-84.1388888888889,42.98166666666667],[-84.42944444444444,43.005],[-84.42944444444444,43.005],[-84.42944444444444,43.005],[-84.42944444444444,43.005],[-84.57222222222222,43.01638888888889],[-84.71722222222222,43.0325],[-84.71722222222222,43.0325],[-84.71722222222222,43.0325],[-84.85722222222222,43.04833333333333],[-84.88722222222223,43.05166666666666],[-85.00055555555555,43.06444444444444],[-85.00055555555555,43.06444444444444],[-85.31805555555555,43.09916666666667],[-85.31805555555555,43.09916666666667],[-85.71888888888888,43.14194444444444],[-85.71888888888888,43.14194444444444],[-85.71888888888888,43.14194444444444],[-85.99805555555555,43.17055555555555],[-85.99805555555555,43.17055555555555],[-86.02666666666667,43.17361111111111],[-86.02666666666667,43.17361111111111],[-86.16472222222222,43.1875],[-86.42583333333334,43.215833333333336],[-86.60138888888888,43.236111111111114],[-86.60138888888888,43.236111111111114],[-86.60138888888888,43.236111111111114],[-86.60138888888888,43.236111111111114],[-86.92111111111112,43.27166666666667],[-86.92111111111112,43.27166666666667],[-87.15527777777778,43.29694444444444],[-87.21416666666667,43.30333333333333],[-87.21416666666667,43.30333333333333],[-87.29972222222221,43.3125],[-87.29972222222221,43.3125],[-87.51638888888888,43.33527777777778],[-87.51638888888888,43.33527777777778],[-87.60222222222221,43.34444444444445],[-87.60222222222221,43.34444444444445],[-87.81083333333333,43.36555555555556],[-87.81083333333333,43.36555555555556],[-87.96222222222222,43.38111111111111],[-88.04805555555555,43.38972222222222],[-88.04805555555555,43.38972222222222],[-88.04805555555555,43.38972222222222],[-88.10916666666667,43.395833333333336],[-88.19611111111111,43.40416666666667],[-88.19611111111111,43.40416666666667],[-88.19611111111111,43.40416666666667],[-88.34333333333333,43.41861111111111],[-88.34333333333333,43.41861111111111],[-88.50055555555555,43.433611111111105],[-88.53805555555556,43.43722222222222],[-88.68805555555556,43.45138888888889],[-88.68805555555556,43.45138888888889],[-88.68805555555556,43.45138888888889],[-88.68805555555556,43.45138888888889],[-88.92277777777778,43.473333333333336],[-88.98694444444445,43.47916666666667],[-88.98694444444445,43.47916666666667],[-89.13583333333334,43.49277777777778],[-89.13583333333334,43.49277777777778],[-89.37527777777777,43.513888888888886],[-89.37527777777777,43.513888888888886],[-89.43972222222223,43.519444444444446],[-89.43972222222223,43.519444444444446],[-89.43972222222223,43.519444444444446],[-89.74527777777777,43.54555555555555],[-89.74527777777777,43.54555555555555],[-90.04972222222221,43.57083333333334],[-90.04972222222221,43.57083333333334],[-90.04972222222221,43.57083333333334],[-90.31194444444444,43.591944444444444],[-90.31194444444444,43.591944444444444],[-90.31194444444444,43.591944444444444],[-90.31194444444444,43.591944444444444],[-90.52722222222222,43.60888888888889],[-90.52722222222222,43.60888888888889],[-90.76777777777778,43.62694444444445],[-90.82888888888888,43.63166666666667],[-90.82888888888888,43.63166666666667],[-90.82888888888888,43.63166666666667],[-90.82888888888888,43.63166666666667],[-91.06805555555555,43.64944444444444],[-91.06805555555555,43.64944444444444],[-91.4325,43.67527777777777],[-91.4325,43.67527777777777],[-91.4325,43.67527777777777],[-91.52472222222222,43.68138888888889],[-91.52472222222222,43.68138888888889],[-91.74111111111111,43.69611111111111],[-91.74111111111111,43.69611111111111],[-91.74111111111111,43.69611111111111],[-92.04805555555555,43.71611111111111],[-92.04805555555555,43.71611111111111],[-92.04805555555555,43.71611111111111],[-92.20111111111112,43.725833333333334],[-92.20111111111112,43.725833333333334],[-92.68527777777778,43.755],[-92.68527777777778,43.755],[-92.68527777777778,43.755],[-92.83666666666666,43.76361111111111],[-92.83666666666666,43.76361111111111],[-93.4625,43.7975],[-93.4625,43.7975],[-93.4625,43.7975],[-93.74305555555556,43.811388888888885],[-93.9325,43.82055555555556],[-93.9325,43.82055555555556],[-93.9325,43.82055555555556],[-94.69805555555556,43.85388888888889],[-94.69805555555556,43.85388888888889],[-94.85388888888889,43.86],[-94.85388888888889,43.86],[-95.63472222222222,43.788333333333334],[-95.63472222222222,43.788333333333334],[-95.63472222222222,43.788333333333334],[-95.94361111111111,43.75194444444445],[-96.25472222222223,43.71472222222223],[-96.25472222222223,43.71472222222223],[-96.25472222222223,43.71472222222223],[-96.56555555555555,43.67666666666666],[-96.56555555555555,43.67666666666666],[-97.16694444444445,43.56166666666666],[-97.16694444444445,43.56166666666666],[-97.31222222222222,43.528055555555554],[-97.45777777777778,43.49444444444445],[-97.45777777777778,43.49444444444445],[-97.75055555555555,43.425555555555555],[-97.75055555555555,43.425555555555555],[-97.75055555555555,43.425555555555555],[-98.04138888888889,43.35638888888889],[-98.04138888888889,43.35638888888889],[-98.35083333333333,43.28194444444444],[-98.49277777777777,43.2475],[-98.49277777777777,43.2475],[-98.63472222222222,43.21277777777778],[-98.63472222222222,43.21277777777778],[-98.92,43.1425],[-98.92,43.1425],[-99.24777777777778,43.059999999999995],[-99.3611111111111,43.031666666666666],[-99.3611111111111,43.031666666666666],[-99.50583333333333,42.99472222222222],[-99.80416666666666,42.91833333333333],[-99.83333333333333,42.91],[-100.00777777777778,42.86555555555556],[-100.45138888888889,42.74916666666667],[-100.53166666666667,42.72777777777778],[-100.53166666666667,42.72777777777778],[-100.83083333333333,42.647777777777776],[-101.1763888888889,42.55166666666666],[-101.1763888888889,42.55166666666666],[-101.47722222222222,42.47027777777778],[-101.47722222222222,42.47027777777778],[-101.785,42.40277777777778],[-102.39888888888889,42.26277777777778],[-102.55222222222221,42.22777777777778],[-102.7038888888889,42.193888888888885],[-102.85472222222222,42.158055555555556],[-102.85472222222222,42.158055555555556],[-103.46416666666667,42.01222222222222],[-103.46416666666667,42.01222222222222],[-103.46416666666667,42.01222222222222],[-103.76694444444445,41.93833333333333],[-103.76694444444445,41.93833333333333],[-103.76694444444445,41.93833333333333],[-103.91944444444445,41.89944444444444],[-103.91944444444445,41.89944444444444],[-104.22416666666666,41.82333333333334],[-104.22416666666666,41.82333333333334],[-104.37666666666667,41.785555555555554],[-104.37666666666667,41.785555555555554],[-104.83222222222221,41.669444444444444],[-104.83222222222221,41.669444444444444],[-104.83222222222221,41.669444444444444],[-104.98333333333333,41.62916666666667],[-104.98333333333333,41.62916666666667],[-105.14027777777778,41.589444444444446],[-105.14027777777778,41.589444444444446],[-105.14027777777778,41.589444444444446],[-105.29333333333334,41.54833333333333],[-105.29333333333334,41.54833333333333],[-105.75722222222223,41.425555555555555],[-105.75722222222223,41.425555555555555],[-105.75722222222223,41.425555555555555],[-106.08111111111111,41.33888888888889],[-106.08111111111111,41.33888888888889],[-106.08111111111111,41.33888888888889],[-106.23138888888889,41.29555555555555],[-106.39166666666668,41.255],[-106.39166666666668,41.255],[-106.70805555555556,41.166666666666664],[-106.70805555555556,41.166666666666664],[-107.18472222222222,41.032777777777774],[-107.18472222222222,41.032777777777774],[-107.18472222222222,41.032777777777774],[-107.81277777777777,40.852222222222224],[-108.10111111111111,40.72083333333334],[-108.10111111111111,40.72083333333334],[-108.10111111111111,40.72083333333334],[-109.22111111111111,40.1975],[-109.22111111111111,40.1975],[-109.87055555555555,40.02972222222222],[-109.87055555555555,40.02972222222222],[-110.03,39.98777777777778],[-110.03,39.98777777777778],[-110.03,39.98777777777778],[-110.34416666666667,39.90416666666667],[-110.50166666666667,39.86222222222222],[-110.50166666666667,39.86222222222222],[-110.66166666666668,39.81916666666667],[-110.66166666666668,39.81916666666667],[-110.97583333333334,39.73361111111111],[-110.97583333333334,39.73361111111111],[-110.97583333333334,39.73361111111111],[-111.29194444444444,39.646388888888886],[-111.59861111111111,39.56111111111111],[-111.59861111111111,39.56111111111111],[-112.24,39.37888888888889],[-112.24,39.37888888888889],[-112.56083333333333,39.291666666666664],[-112.56083333333333,39.291666666666664],[-112.90305555555557,39.224444444444444],[-112.90305555555557,39.224444444444444],[-113.55833333333334,39.0925],[-113.55833333333334,39.0925],[-114.05583333333333,38.99027777777778],[-114.05583333333333,38.99027777777778],[-114.87694444444443,38.815],[-115.0363888888889,38.780277777777776],[-115.43527777777778,38.692499999999995],[-115.75694444444444,38.620555555555555],[-116.0786111111111,38.54722222222222],[-116.38611111111112,38.58166666666667],[-116.60166666666666,38.588055555555556],[-116.91527777777779,38.49111111111111],[-117.01333333333334,38.46055555555556],[-117.2611111111111,38.382777777777775],[-117.56888888888888,38.285],[-117.81222222222222,38.20722222222223],[-117.96333333333334,38.15833333333333],[-118.17277777777778,38.09055555555556],[-118.56833333333333,37.96083333333333],[-118.71583333333334,37.911944444444444],[-119,37.86888888888889],[-119.64444444444445,37.79333333333333],[-119.64444444444445,37.79333333333333],[-119.96472222222222,37.754444444444445],[-119.96472222222222,37.754444444444445],[-120.42861111111111,37.69611111111111],[-120.87722222222222,37.643055555555556],[-120.87722222222222,37.643055555555556],[-121.16722222222222,37.60583333333334],[-121.51666666666667,37.56666666666667],[-121.61666666666666,37.55],[-121.7,37.56666666666667],[-121.76666666666667,37.53333333333333],[-121.79555555555555,37.46138888888889],[-121.86666666666666,37.45],[-122.24222222222222,37.56527777777777],[-122.28333333333333,37.583333333333336],[-122.28333333333333,37.583333333333336],[-122.33999999999999,37.60638888888889],[-122.385,37.621944444444445],[-122.36666666666666,37.45],[-122.36666666666666,37.45],[-122.21722222222222,37.44166666666666],[-122.21722222222222,37.44166666666666],[-122.15333333333334,37.46222222222222],[-122.13611111111112,37.50833333333333],[-122.13611111111112,37.50833333333333],[-122.28472222222221,37.58083333333334],[-122.28472222222221,37.58083333333334]],"type":"LineString"}
}
