{
  "id": 2031569507,
  "type": "Feature",
  "properties": {
    "geom:area": 0,
    "geom:bbox": "-122.399410,37.625640,-121.256340,38.120590",
    "geom:latitude": 37.88325928850432,
    "geom:longitude": -121.84599139196295,
    "src:alt_label": "swim-takeoff",
    "src:geom": "swim",
    "swim:elevations": [
      152,
      183,
      783,
      1088,
      1213,
      1477,
      1952,
      2425,
      2569,
      3101,
      3219,
      3324,
      3490,
      3586,
      3657,
      3994,
      4438,
      4795,
      5022,
      5361,
      5715,
      5997,
      6280,
      6338,
      6694
    ],
    "swim:geom": "takeoff",
    "swim:timestamps": [
      1781732067,
      1781732070,
      1781732121,
      1781732154,
      1781732172,
      1781732204,
      1781732241,
      1781732271,
      1781732283,
      1781732333,
      1781732350,
      1781732362,
      1781732393,
      1781732417,
      1781732439,
      1781732471,
      1781732516,
      1781732543,
      1781732557,
      1781732593,
      1781732636,
      1781732664,
      1781732696,
      1781732704,
      1781732750
    ],
    "wof:geomhash": "d3520bb760b88f13651d7f5efa2faedc",
    "wof:id": 2031569507,
    "wof:repo": "sfomuseum-data-flights-2026-06"
  },
  "bbox": [
    -122.39941,
    37.62564,
    -121.25634,
    38.12059
  ],
  "geometry": {"coordinates":[[-122.39119,37.62564],[-122.39358,37.62669],[-122.39941,37.66372],[-122.36144,37.67374],[-122.33756,37.68019],[-122.29278,37.6944],[-122.2368,37.71094],[-122.19361,37.72795],[-122.17736,37.73631],[-122.10968,37.77198],[-122.08465,37.78511],[-122.06682,37.79452],[-122.01687,37.82053],[-121.97427,37.83936],[-121.93058,37.85606],[-121.86461,37.8818],[-121.77104,37.91896],[-121.71287,37.94106],[-121.68394,37.95266],[-121.60889,37.98398],[-121.51363,38.0202],[-121.45233,38.04449],[-121.37985,38.07274],[-121.36211,38.07965],[-121.25634,38.12059]],"type":"LineString"}
}
