{
  "id": 2031421885,
  "type": "Feature",
  "properties": {
    "geom:area": 0,
    "geom:bbox": "-122.326667,36.131667,-82.782500,40.083333",
    "geom:latitude": 38.03492112443212,
    "geom:longitude": -102.41267564789914,
    "src:alt_label": "swim-path",
    "src:geom": "swim",
    "swim:altitudes": [
      "014",
      "014",
      "014",
      "040",
      "093",
      "093",
      "171",
      "171",
      "188",
      "205",
      "205",
      "205",
      "221",
      "221",
      "233",
      "301",
      "313",
      "313",
      "326",
      "326",
      "338C",
      "340C",
      "340C",
      "340C",
      "340C",
      "340C",
      "340C",
      "340C",
      "340C",
      "340C",
      "340C",
      "340C",
      "341C",
      "341C",
      "340C",
      "340C",
      "340C",
      "340C",
      "340C",
      "340C",
      "340C",
      "340C",
      "340C",
      "340C",
      "340C",
      "340C",
      "340C",
      "340C",
      "340C",
      "340C",
      "340C",
      "340C",
      "340C",
      "340C",
      "340C",
      "340C",
      "340C",
      "340C",
      "340C",
      "340C",
      "340C",
      "340C",
      "340C",
      "340C",
      "340C",
      "340C",
      "340C",
      "340C",
      "340C",
      "340C",
      "340C",
      "340C",
      "340C",
      "340C",
      "340C",
      "340C",
      "340C",
      "340C",
      "340C",
      "340C",
      "340C",
      "341C",
      "341C",
      "340C",
      "340C",
      "340C",
      "340C",
      "340C",
      "340C",
      "340C",
      "341C",
      "340C",
      "340C",
      "340C",
      "340C",
      "340C",
      "340C",
      "340C",
      "340C",
      "340C",
      "340C",
      "340C",
      "340C",
      "340C",
      "340C",
      "340C",
      "340C",
      "340C",
      "340C",
      "340C",
      "340C",
      "340C",
      "340C",
      "340C",
      "340C",
      "340C",
      "340C",
      "340C",
      "340C",
      "341C",
      "340C",
      "341C",
      "340C",
      "340C",
      "340C",
      "340C",
      "340C",
      "340C",
      "340C",
      "340C",
      "340C",
      "340C",
      "341C",
      "341C",
      "341C",
      "340C",
      "340C",
      "340C",
      "340C",
      "340C",
      "340C",
      "340C",
      "340C",
      "340C",
      "340C",
      "341C",
      "341C",
      "341C",
      "341C",
      "340C",
      "340C",
      "340C",
      "340C",
      "340C",
      "340C",
      "340C",
      "340C",
      "340C",
      "340C",
      "340C",
      "340C",
      "340C",
      "340C",
      "340C",
      "340C",
      "341C",
      "341C",
      "340",
      "340",
      "340",
      "340",
      "340",
      "340",
      "340",
      "358C",
      "360C",
      "360C",
      "360C",
      "360C",
      "360C",
      "360C",
      "360C",
      "360C",
      "360C",
      "360C",
      "360C",
      "360C",
      "360C",
      "360C",
      "360C",
      "360C",
      "360C",
      "360C",
      "360C",
      "360C",
      "360C",
      "360C",
      "360C",
      "360C",
      "360C",
      "360C",
      "360C",
      "360C",
      "360C",
      "360C",
      "359C",
      "360C",
      "360C",
      "360C",
      "360C",
      "360C",
      "360C",
      "360C",
      "360C",
      "360C",
      "360C",
      "360C",
      "360C",
      "360C",
      "360C",
      "360C",
      "360C",
      "360C",
      "360C",
      "360C",
      "360C",
      "360C",
      "357",
      "357",
      "327",
      "286",
      "277",
      "277",
      "273",
      "265",
      "253",
      "236",
      "236",
      "179",
      "164",
      "143",
      "143",
      "135",
      "108",
      "098",
      "063",
      "057",
      "057",
      "014",
      "014",
      "007"
    ],
    "swim:geom": "path",
    "swim:speeds": [
      162,
      162,
      162,
      234,
      285,
      285,
      405,
      405,
      414,
      425,
      425,
      425,
      430,
      430,
      434,
      429,
      429,
      429,
      427,
      427,
      424,
      422,
      422,
      422,
      422,
      420,
      420,
      419,
      419,
      419,
      420,
      420,
      420,
      420,
      418,
      418,
      416,
      416,
      416,
      416,
      416,
      414,
      414,
      414,
      414,
      418,
      418,
      421,
      421,
      422,
      422,
      422,
      419,
      418,
      418,
      418,
      418,
      418,
      418,
      418,
      418,
      420,
      420,
      428,
      428,
      428,
      424,
      424,
      423,
      423,
      423,
      420,
      420,
      420,
      418,
      418,
      418,
      418,
      419,
      419,
      419,
      421,
      421,
      421,
      422,
      423,
      423,
      423,
      426,
      428,
      438,
      438,
      438,
      433,
      433,
      424,
      420,
      423,
      424,
      425,
      429,
      431,
      431,
      430,
      434,
      434,
      439,
      440,
      445,
      437,
      437,
      437,
      438,
      440,
      442,
      441,
      441,
      443,
      443,
      445,
      445,
      444,
      444,
      444,
      444,
      443,
      441,
      441,
      441,
      440,
      440,
      441,
      442,
      441,
      441,
      427,
      427,
      422,
      422,
      422,
      420,
      418,
      418,
      418,
      418,
      419,
      419,
      420,
      421,
      421,
      421,
      421,
      420,
      419,
      418,
      417,
      416,
      416,
      415,
      420,
      417,
      418,
      418,
      426,
      426,
      427,
      427,
      423,
      422,
      423,
      421,
      421,
      419,
      419,
      425,
      421,
      421,
      420,
      421,
      424,
      424,
      429,
      429,
      429,
      428,
      426,
      426,
      424,
      422,
      422,
      421,
      419,
      415,
      415,
      414,
      413,
      413,
      413,
      413,
      413,
      415,
      416,
      419,
      419,
      419,
      419,
      419,
      421,
      422,
      423,
      424,
      426,
      426,
      427,
      428,
      428,
      428,
      432,
      434,
      434,
      434,
      434,
      435,
      434,
      434,
      433,
      432,
      438,
      438,
      447,
      431,
      416,
      416,
      420,
      399,
      368,
      358,
      358,
      333,
      323,
      293,
      293,
      263,
      263,
      249,
      235,
      233,
      233,
      137,
      137,
      134
    ],
    "swim:timestamps": [
      1780363584,
      1780363584,
      1780363584,
      1780363662,
      1780363777,
      1780363777,
      1780364017,
      1780364017,
      1780364077,
      1780364137,
      1780364137,
      1780364137,
      1780364197,
      1780364197,
      1780364257,
      1780364557,
      1780364618,
      1780364618,
      1780364678,
      1780364678,
      1780364738,
      1780364798,
      1780364798,
      1780364858,
      1780364858,
      1780364978,
      1780364978,
      1780365218,
      1780365218,
      1780365218,
      1780365278,
      1780365278,
      1780365399,
      1780365399,
      1780365459,
      1780365459,
      1780365579,
      1780365579,
      1780365639,
      1780365699,
      1780365699,
      1780365759,
      1780365759,
      1780365879,
      1780365879,
      1780365999,
      1780365999,
      1780366059,
      1780366059,
      1780366240,
      1780366240,
      1780366240,
      1780366360,
      1780366425,
      1780366425,
      1780366425,
      1780366485,
      1780366485,
      1780366605,
      1780366605,
      1780366605,
      1780366665,
      1780366665,
      1780366905,
      1780366905,
      1780366905,
      1780367086,
      1780367086,
      1780367146,
      1780367146,
      1780367146,
      1780367386,
      1780367386,
      1780367386,
      1780367446,
      1780367446,
      1780367566,
      1780367566,
      1780367686,
      1780367807,
      1780367807,
      1780367927,
      1780367927,
      1780367987,
      1780368167,
      1780368287,
      1780368348,
      1780368348,
      1780368468,
      1780368528,
      1780368888,
      1780369008,
      1780369008,
      1780369189,
      1780369189,
      1780369309,
      1780369429,
      1780369549,
      1780369609,
      1780369730,
      1780369850,
      1780370030,
      1780370030,
      1780370210,
      1780370391,
      1780370391,
      1780370571,
      1780370631,
      1780370721,
      1780370841,
      1780370901,
      1780370931,
      1780370991,
      1780371112,
      1780371172,
      1780371382,
      1780371442,
      1780371682,
      1780371742,
      1780371983,
      1780372073,
      1780372306,
      1780372343,
      1780372343,
      1780372403,
      1780372463,
      1780372546,
      1780372584,
      1780372584,
      1780372704,
      1780372704,
      1780372764,
      1780372847,
      1780372884,
      1780372884,
      1780373147,
      1780373147,
      1780373245,
      1780373365,
      1780373425,
      1780373485,
      1780373568,
      1780373605,
      1780373628,
      1780373628,
      1780373665,
      1780373665,
      1780373688,
      1780373725,
      1780373748,
      1780373748,
      1780373808,
      1780374026,
      1780374108,
      1780374146,
      1780374168,
      1780374228,
      1780374228,
      1780374288,
      1780374294,
      1780374354,
      1780374469,
      1780374469,
      1780374709,
      1780374709,
      1780374889,
      1780374889,
      1780374949,
      1780375009,
      1780375069,
      1780375129,
      1780375129,
      1780375249,
      1780375249,
      1780375370,
      1780375430,
      1780375430,
      1780375730,
      1780375790,
      1780375850,
      1780375850,
      1780376030,
      1780376090,
      1780376090,
      1780376150,
      1780376275,
      1780376275,
      1780376335,
      1780376456,
      1780376456,
      1780376516,
      1780376576,
      1780376696,
      1780376696,
      1780376756,
      1780376876,
      1780376876,
      1780377056,
      1780377056,
      1780377116,
      1780377236,
      1780377356,
      1780377464,
      1780377477,
      1780377477,
      1780377524,
      1780377537,
      1780377657,
      1780377825,
      1780377885,
      1780377945,
      1780378005,
      1780378017,
      1780378077,
      1780378125,
      1780378125,
      1780378197,
      1780378317,
      1780378377,
      1780378425,
      1780378437,
      1780378437,
      1780378485,
      1780378545,
      1780378545,
      1780378557,
      1780378678,
      1780379146,
      1780379146,
      1780379326,
      1780379446,
      1780379478,
      1780379478,
      1780379506,
      1780379566,
      1780379626,
      1780379686,
      1780379686,
      1780379874,
      1780379934,
      1780380047,
      1780380047,
      1780380107,
      1780380227,
      1780380287,
      1780380467,
      1780380527,
      1780380527,
      1780380767,
      1780380767,
      1780380827
    ],
    "wof:geomhash": "9407dd19d1c07a6720fe6b351948cc7a",
    "wof:id": 2031421885,
    "wof:repo": "sfomuseum-data-flights-2026-06"
  },
  "bbox": [
    -122.32666666666667,
    36.13166666666667,
    -82.7825,
    40.083333333333336
  ],
  "geometry": {"coordinates":[[-82.87416666666665,40.00138888888889],[-82.87416666666665,40.00138888888889],[-82.87416666666665,40.00138888888889],[-82.7825,39.99111111111111],[-82.81444444444445,40.083333333333336],[-82.81444444444445,40.083333333333336],[-83.35749999999999,40.035],[-83.35749999999999,40.035],[-83.50777777777778,40.03138888888889],[-83.66305555555556,40.03055555555555],[-83.66305555555556,40.03055555555555],[-83.66305555555556,40.03055555555555],[-83.8175,40.029444444444444],[-83.8175,40.029444444444444],[-83.95555555555556,40.02833333333333],[-84.74166666666667,40.01916666666666],[-84.89583333333334,40.01694444444444],[-84.89583333333334,40.01694444444444],[-85.07222222222222,40.013888888888886],[-85.07222222222222,40.013888888888886],[-85.22500000000001,40.01083333333333],[-85.37472222222222,40.00805555555556],[-85.37472222222222,40.00805555555556],[-85.52777777777777,40.00472222222222],[-85.52777777777777,40.00472222222222],[-85.82833333333333,39.99777777777778],[-85.82833333333333,39.99777777777778],[-86.44416666666667,39.98111111111111],[-86.44416666666667,39.98111111111111],[-86.44416666666667,39.98111111111111],[-86.59444444444443,39.97666666666667],[-86.59444444444443,39.97666666666667],[-86.89750000000001,39.96666666666667],[-86.89750000000001,39.96666666666667],[-87.04666666666667,39.961666666666666],[-87.04666666666667,39.961666666666666],[-87.33305555555555,39.95111111111111],[-87.33305555555555,39.95111111111111],[-87.47888888888889,39.94583333333333],[-87.62833333333333,39.94],[-87.62833333333333,39.94],[-87.77833333333334,39.933611111111105],[-87.77833333333334,39.933611111111105],[-88.0761111111111,39.92111111111111],[-88.0761111111111,39.92111111111111],[-88.39361111111111,39.906666666666666],[-88.39361111111111,39.906666666666666],[-88.54583333333333,39.89972222222222],[-88.54583333333333,39.89972222222222],[-89.00444444444445,39.876666666666665],[-89.00444444444445,39.876666666666665],[-89.00444444444445,39.876666666666665],[-89.30416666666666,39.86083333333333],[-89.47583333333334,39.85111111111111],[-89.47583333333334,39.85111111111111],[-89.47583333333334,39.85111111111111],[-89.62444444444444,39.84277777777778],[-89.62444444444444,39.84277777777778],[-89.92777777777778,39.8425],[-89.92777777777778,39.8425],[-89.92777777777778,39.8425],[-90.07944444444443,39.83416666666667],[-90.07944444444443,39.83416666666667],[-90.64472222222223,39.698055555555555],[-90.64472222222223,39.698055555555555],[-90.64472222222223,39.698055555555555],[-91.07833333333333,39.590833333333336],[-91.07833333333333,39.590833333333336],[-91.22027777777778,39.55555555555555],[-91.22027777777778,39.55555555555555],[-91.22027777777778,39.55555555555555],[-91.79444444444444,39.40972222222222],[-91.79444444444444,39.40972222222222],[-91.79444444444444,39.40972222222222],[-91.93583333333333,39.373333333333335],[-91.93583333333333,39.373333333333335],[-92.22083333333333,39.29944444444444],[-92.22083333333333,39.29944444444444],[-92.50833333333334,39.223888888888894],[-92.79055555555556,39.149166666666666],[-92.79055555555556,39.149166666666666],[-93.07583333333334,39.072500000000005],[-93.07583333333334,39.072500000000005],[-93.21805555555555,39.03388888888889],[-93.64416666666668,38.91694444444444],[-93.94055555555556,38.834722222222226],[-94.08361111111111,38.79472222222222],[-94.08361111111111,38.79472222222222],[-94.36916666666666,38.71416666666667],[-94.51361111111112,38.67305555555555],[-95.3863888888889,38.41972222222222],[-95.67611111111111,38.33388888888889],[-95.67611111111111,38.33388888888889],[-96.1086111111111,38.20388888888889],[-96.1086111111111,38.20388888888889],[-96.38611111111112,38.11944444444445],[-96.66083333333334,38.035],[-96.9375,37.94888888888889],[-97.07888888888888,37.90472222222222],[-97.3561111111111,37.8175],[-97.56833333333333,37.655],[-97.84583333333333,37.367222222222225],[-97.84583333333333,37.367222222222225],[-98.12833333333333,37.08583333333333],[-98.41527777777779,36.80694444444444],[-98.41527777777779,36.80694444444444],[-98.70916666666668,36.525555555555556],[-98.79388888888889,36.44472222222222],[-98.94194444444445,36.30583333333333],[-99.18333333333334,36.17194444444444],[-99.33999999999999,36.15],[-99.41250000000001,36.14694444444444],[-99.56972222222223,36.1425],[-99.87972222222221,36.135],[-100.03166666666667,36.13166666666667],[-100.54277777777777,36.18138888888889],[-100.69416666666667,36.1975],[-101.29694444444445,36.26],[-101.44500000000001,36.275],[-102.08083333333333,36.33638888888889],[-102.29083333333332,36.35583333333334],[-102.87972222222221,36.40861111111111],[-102.97416666666666,36.41694444444444],[-102.97416666666666,36.41694444444444],[-103.12722222222222,36.43],[-103.27888888888889,36.44277777777778],[-103.48944444444444,36.46027777777778],[-103.58027777777778,36.467777777777776],[-103.58027777777778,36.467777777777776],[-103.87972222222221,36.49166666666667],[-103.87972222222221,36.49166666666667],[-104.0325,36.50361111111111],[-104.24944444444445,36.519999999999996],[-104.33083333333333,36.52638888888889],[-104.33083333333333,36.52638888888889],[-104.9961111111111,36.57416666666667],[-104.9961111111111,36.57416666666667],[-105.23666666666666,36.59055555555556],[-105.52555555555556,36.609722222222224],[-105.66250000000001,36.61833333333333],[-105.80972222222222,36.62777777777778],[-106.01027777777777,36.64],[-106.09861111111111,36.64527777777778],[-106.15583333333333,36.64888888888889],[-106.15583333333333,36.64888888888889],[-106.24888888888889,36.65416666666667],[-106.24888888888889,36.65416666666667],[-106.30361111111111,36.6575],[-106.38305555555554,36.66222222222222],[-106.45277777777778,36.66611111111111],[-106.45277777777778,36.66611111111111],[-106.58,36.67333333333333],[-107.10027777777778,36.70111111111111],[-107.29972222222221,36.71138888888889],[-107.38805555555557,36.71555555555556],[-107.44416666666667,36.718333333333334],[-107.5586111111111,36.723888888888894],[-107.5586111111111,36.723888888888894],[-107.73,36.731944444444444],[-107.75583333333333,36.7325],[-107.89694444444446,36.73916666666667],[-108.15222222222222,36.775555555555556],[-108.15222222222222,36.775555555555556],[-108.66833333333334,36.99888888888889],[-108.66833333333334,36.99888888888889],[-109.11,37.13472222222222],[-109.11,37.13472222222222],[-109.2475,37.169444444444444],[-109.38833333333334,37.205000000000005],[-109.5286111111111,37.24027777777778],[-109.66805555555555,37.275],[-109.66805555555555,37.275],[-109.94527777777778,37.34388888888889],[-109.94527777777778,37.34388888888889],[-110.22805555555556,37.41277777777778],[-110.36888888888888,37.44694444444444],[-110.36888888888888,37.44694444444444],[-111.07305555555556,37.615],[-111.21416666666667,37.647777777777776],[-111.35777777777777,37.68138888888889],[-111.35777777777777,37.68138888888889],[-111.78972222222222,37.78055555555555],[-111.93472222222222,37.81361111111111],[-111.93472222222222,37.81361111111111],[-112.08111111111111,37.84305555555556],[-112.36222222222221,37.89388888888889],[-112.36222222222221,37.89388888888889],[-112.5075,37.919999999999995],[-112.82138888888889,37.97527777777778],[-112.82138888888889,37.97527777777778],[-112.96333333333334,38],[-113.10722222222222,38.025],[-113.39,38.073055555555555],[-113.39,38.073055555555555],[-113.53111111111112,38.096944444444446],[-113.81583333333333,38.14472222222222],[-113.81583333333333,38.14472222222222],[-114.24194444444444,38.20805555555556],[-114.24194444444444,38.20805555555556],[-114.3888888888889,38.20138888888889],[-114.68083333333334,38.18611111111111],[-114.97305555555556,38.17027777777778],[-115.22944444444444,38.156666666666666],[-115.26888888888888,38.15333333333333],[-115.26888888888888,38.15333333333333],[-115.37638888888888,38.14666666666667],[-115.40361111111112,38.14527777777778],[-115.7025,38.12694444444445],[-116.11916666666666,38.10027777777778],[-116.26888888888888,38.09027777777778],[-116.41777777777779,38.080000000000005],[-116.56805555555555,38.069722222222225],[-116.59638888888888,38.06777777777778],[-116.74638888888889,38.05722222222222],[-116.86999999999999,38.04833333333333],[-116.86999999999999,38.04833333333333],[-117.05222222222221,38.03472222222222],[-117.36305555555555,38.01138888888889],[-117.51555555555555,37.999722222222225],[-117.64027777777778,37.99],[-117.66916666666667,37.98777777777778],[-117.66916666666667,37.98777777777778],[-117.79472222222222,37.9775],[-117.94694444444445,37.965],[-117.94694444444445,37.965],[-117.97333333333333,37.963055555555556],[-118.27583333333334,37.937777777777775],[-119.43694444444445,37.81777777777778],[-119.43694444444445,37.81777777777778],[-119.89944444444446,37.761944444444445],[-120.205,37.72416666666667],[-120.3,37.71666666666667],[-120.3,37.71666666666667],[-120.34833333333333,37.70611111111111],[-120.49027777777778,37.68888888888888],[-120.61861111111111,37.674166666666665],[-120.74416666666667,37.659166666666664],[-120.74416666666667,37.659166666666664],[-121.13333333333334,37.61666666666667],[-121.25,37.6],[-121.42555555555556,37.573888888888895],[-121.42555555555556,37.573888888888895],[-121.51777777777778,37.56305555555555],[-121.70138888888889,37.56527777777777],[-121.77972222222222,37.54944444444444],[-121.95166666666667,37.48583333333333],[-122.03111111111112,37.495555555555555],[-122.03111111111112,37.495555555555555],[-122.28527777777778,37.583333333333336],[-122.28527777777778,37.583333333333336],[-122.32666666666667,37.60055555555556]],"type":"LineString"}
}
