{
  "id": 2031555881,
  "type": "Feature",
  "properties": {
    "geom:area": 0,
    "geom:bbox": "-123.580000,37.570000,-121.150000,44.250000",
    "geom:latitude": 40.764627925854505,
    "geom:longitude": -122.40455956495003,
    "src:alt_label": "swim-route",
    "src:geom": "swim",
    "swim:geom": "route",
    "wof:geomhash": "d6b692ab9203b55fb6f76d4421207756",
    "wof:id": 2031555881,
    "wof:repo": "sfomuseum-data-flights-2026-06"
  },
  "bbox": [
    -123.58,
    37.57,
    -121.15,
    44.25
  ],
  "geometry": {"coordinates":[[-121.15,44.25],[-121.19,44.25],[-121.2,44.25],[-121.29,44.25],[-121.3,44.25],[-121.31,44.24],[-121.34,44.09],[-121.38,43.92],[-121.42,43.77],[-121.43,43.73],[-121.47,43.54],[-121.5,43.43],[-121.52,43.33],[-121.56,43.15],[-121.57,43.12],[-121.58,43.06],[-121.59,43.05],[-121.65,42.76],[-121.68,42.65],[-121.73,42.42],[-121.78,42.18],[-121.84,41.94],[-121.87,41.81],[-122,41.22],[-122.25,40.8],[-122.67,40.64],[-123.04,40.51],[-122.99,40.11],[-123.21,39.95],[-123.27,39.64],[-123.58,39.01],[-123.43,38.83],[-123.4,38.81],[-123.22,38.65],[-122.92,38.37],[-122.89,38.34],[-122.85,38.31],[-122.85,38.3],[-122.77,38.22],[-122.75,38.16],[-122.71,38.02],[-122.69,37.95],[-122.67,37.9],[-122.65,37.87],[-122.59,37.82],[-122.58,37.81],[-122.58,37.81],[-122.54,37.78],[-122.51,37.74],[-122.5,37.73],[-122.44,37.68],[-122.34,37.57],[-122.37,37.62],[-122.38,37.62]],"type":"LineString"}
}
