{
  "id": 2031502771,
  "type": "Feature",
  "properties": {
    "geom:area": 0,
    "geom:bbox": "-123.530000,37.620000,-122.110000,49.190000",
    "geom:latitude": 43.74683951770592,
    "geom:longitude": -122.35691706843836,
    "src:alt_label": "swim-route",
    "src:geom": "swim",
    "swim:geom": "route",
    "wof:geomhash": "00812ae8c791509f9cddd11070aef608",
    "wof:id": 2031502771,
    "wof:repo": "sfomuseum-data-flights-2026-06"
  },
  "bbox": [
    -123.53,
    37.62,
    -122.11,
    49.19
  ],
  "geometry": {"coordinates":[[-122.38,37.62],[-122.51,37.68],[-122.51,37.68],[-122.52,37.68],[-122.53,37.74],[-122.53,37.74],[-122.53,37.77],[-122.53,37.8],[-122.52,37.81],[-122.5,37.82],[-122.43,37.84],[-122.39,37.91],[-122.29,38.06],[-122.27,38.09],[-122.24,38.14],[-122.19,38.21],[-122.11,38.34],[-122.11,38.36],[-122.11,38.36],[-122.13,38.53],[-122.14,38.67],[-122.14,38.74],[-122.16,38.97],[-122.16,39.06],[-122.17,39.15],[-122.17,39.19],[-122.17,39.23],[-122.2,39.55],[-122.21,39.76],[-122.24,40.1],[-122.24,41.28],[-122.25,42.36],[-122.25,43],[-122.25,43.64],[-122.27,46],[-122.27,47.45],[-122.28,47.54],[-122.28,47.62],[-122.28,47.82],[-122.28,47.92],[-122.29,47.97],[-122.31,48.04],[-122.39,48.3],[-122.46,48.54],[-122.46,48.54],[-122.51,48.71],[-122.55,48.73],[-122.63,48.79],[-122.69,48.82],[-122.79,48.89],[-122.91,48.97],[-122.97,49],[-123.06,49.06],[-123.19,49.1],[-123.26,49.1],[-123.27,49.1],[-123.51,49.13],[-123.53,49.13],[-123.53,49.13],[-123.43,49.15],[-123.35,49.16],[-123.31,49.17],[-123.18,49.19]],"type":"LineString"}
}
