{
  "id": 2031545479,
  "type": "Feature",
  "properties": {
    "geom:area": 0,
    "geom:bbox": "-122.360220,37.491940,-121.251200,37.614160",
    "geom:latitude": 37.54262818921755,
    "geom:longitude": -121.81274768702,
    "src:alt_label": "swim-approach",
    "src:geom": "swim",
    "swim:elevations": [
      4590,
      4342,
      4029,
      3753,
      3510,
      3274,
      3063,
      2826,
      2563,
      2436,
      2438,
      2427,
      2327,
      2114,
      1896,
      1830,
      1829,
      1704,
      1663,
      1531,
      1308,
      1220,
      1219,
      1147,
      789,
      751,
      707,
      653,
      572,
      397,
      301,
      171,
      130,
      39,
      0
    ],
    "swim:geom": "approach",
    "swim:timestamps": [
      1781568381,
      1781568408,
      1781568443,
      1781568476,
      1781568505,
      1781568535,
      1781568561,
      1781568584,
      1781568613,
      1781568639,
      1781568653,
      1781568662,
      1781568680,
      1781568712,
      1781568746,
      1781568772,
      1781568796,
      1781568838,
      1781568844,
      1781568865,
      1781568891,
      1781568919,
      1781568938,
      1781568961,
      1781569002,
      1781569008,
      1781569020,
      1781569036,
      1781569051,
      1781569086,
      1781569110,
      1781569148,
      1781569159,
      1781569187,
      1781569196
    ],
    "wof:geomhash": "1200c05871770750f5a48ff75a0635b0",
    "wof:id": 2031545479,
    "wof:repo": "sfomuseum-data-flights-2026-06"
  },
  "bbox": [
    -122.36022,
    37.49194,
    -121.2512,
    37.61416
  ],
  "geometry": {"coordinates":[[-121.2512,37.59391],[-121.30904,37.58631],[-121.38385,37.57804],[-121.4509,37.57067],[-121.50996,37.56382],[-121.56942,37.55686],[-121.61975,37.5508],[-121.66256,37.54147],[-121.7161,37.52837],[-121.761,37.51753],[-121.7827,37.51236],[-121.79642,37.50909],[-121.8233,37.50271],[-121.86954,37.49194],[-121.91808,37.49302],[-121.95509,37.49545],[-121.98783,37.49732],[-122.04419,37.50045],[-122.05155,37.50087],[-122.07628,37.50232],[-122.10393,37.50622],[-122.13109,37.51858],[-122.14909,37.5259],[-122.17076,37.53499],[-122.20966,37.55149],[-122.21505,37.55376],[-122.22536,37.55809],[-122.23965,37.56414],[-122.25376,37.5701],[-122.28536,37.58338],[-122.30317,37.59087],[-122.32901,37.60172],[-122.33613,37.60472],[-122.35436,37.61234],[-122.36022,37.61416]],"type":"LineString"}
}
