{
  "id": 2031435039,
  "type": "Feature",
  "properties": {
    "geom:area": 0,
    "geom:bbox": "-122.400000,27.783333,-82.542500,38.683889",
    "geom:latitude": 35.91051608141575,
    "geom:longitude": -101.27729945736885,
    "src:alt_label": "swim-path",
    "src:geom": "swim",
    "swim:altitudes": [
      "022",
      "022",
      "022",
      "022",
      "022",
      "022",
      "053",
      "053",
      "053",
      "078",
      "078",
      "113",
      "113",
      "130",
      "130",
      "130",
      "165",
      "165",
      "165",
      "165",
      "214",
      "214",
      "214",
      "214",
      "214",
      "239",
      "239",
      "251",
      "251",
      "251",
      "251",
      "252",
      "252",
      "263",
      "273",
      "273",
      "273",
      "273",
      "273",
      "282",
      "282",
      "290",
      "290",
      "290",
      "290",
      "290",
      "290",
      "290",
      "290",
      "290",
      "290",
      "290",
      "290",
      "290",
      "290",
      "290",
      "290",
      "290",
      "290",
      "290",
      "290",
      "290",
      "290",
      "290",
      "293",
      "293",
      "293",
      "294",
      "294",
      "294",
      "304",
      "304",
      "304",
      "314",
      "314",
      "330C",
      "330C",
      "330C",
      "330C",
      "330C",
      "330C",
      "330C",
      "330C",
      "330C",
      "330C",
      "330C",
      "330C",
      "330C",
      "330C",
      "330C",
      "330C",
      "330C",
      "330C",
      "330C",
      "330C",
      "330C",
      "330C",
      "330C",
      "330C",
      "330C",
      "330C",
      "330C",
      "330C",
      "330C",
      "330C",
      "330C",
      "330C",
      "330C",
      "330C",
      "330C",
      "330C",
      "330C",
      "330C",
      "330C",
      "330C",
      "330C",
      "330C",
      "330C",
      "330C",
      "330C",
      "330C",
      "330C",
      "330C",
      "330C",
      "330C",
      "330C",
      "330C",
      "330C",
      "330C",
      "330C",
      "330C",
      "330C",
      "330C",
      "330C",
      "330C",
      "330C",
      "330C",
      "330C",
      "330C",
      "330C",
      "330C",
      "330C",
      "330C",
      "330C",
      "330C",
      "330C",
      "330C",
      "330C",
      "330C",
      "330C",
      "330C",
      "330C",
      "330C",
      "330C",
      "330C",
      "330C",
      "330C",
      "330C",
      "330C",
      "330C",
      "330C",
      "330C",
      "330C",
      "330C",
      "330C",
      "330C",
      "330C",
      "330C",
      "330C",
      "330C",
      "330C",
      "330C",
      "330C",
      "330C",
      "330C",
      "330C",
      "330C",
      "330C",
      "330C",
      "330C",
      "330",
      "330",
      "330",
      "330",
      "330",
      "330",
      "330",
      "330",
      "330",
      "330",
      "330",
      "330",
      "330",
      "330",
      "330",
      "330",
      "330",
      "330",
      "330",
      "330",
      "330",
      "330",
      "330",
      "330",
      "330",
      "330",
      "330",
      "330",
      "330",
      "330",
      "330",
      "330",
      "330",
      "330",
      "330",
      "330",
      "330",
      "330",
      "330",
      "344",
      "344",
      "350C",
      "350C",
      "350C",
      "350C",
      "350C",
      "350C",
      "350C",
      "350C",
      "350C",
      "350C",
      "350C",
      "350C",
      "350C",
      "350C",
      "350C",
      "350C",
      "350C",
      "350C",
      "350C",
      "350C",
      "350C",
      "350C",
      "350C",
      "350C",
      "350C",
      "350C",
      "350C",
      "350C",
      "350C",
      "350C",
      "350C",
      "350C",
      "350C",
      "350C",
      "350C",
      "350C",
      "350C",
      "350C",
      "350C",
      "350C",
      "350C",
      "350C",
      "350C",
      "350C",
      "350C",
      "350C",
      "350C",
      "350C",
      "350C",
      "350C",
      "350C",
      "350C",
      "350C",
      "350C",
      "350C",
      "350C",
      "350C",
      "350C",
      "350C",
      "350C",
      "350C",
      "350C",
      "350C",
      "350C",
      "350C",
      "350C",
      "350C",
      "350C",
      "350C",
      "350C",
      "350C",
      "350C",
      "350C",
      "350C",
      "350C",
      "350C",
      "350C",
      "350C",
      "350C",
      "350C",
      "350C",
      "350C",
      "350C",
      "350C",
      "350C",
      "350C",
      "350C",
      "350C",
      "350C",
      "350C",
      "350C",
      "350C",
      "350C",
      "350",
      "350",
      "350",
      "342",
      "342",
      "342",
      "334",
      "334",
      "324",
      "324",
      "324",
      "315",
      "310C",
      "310C",
      "310C",
      "310C",
      "310C",
      "310C",
      "310C",
      "310C",
      "310C",
      "310C",
      "310C",
      "310C",
      "310C",
      "310C",
      "310C",
      "310C",
      "310C",
      "310C",
      "310C",
      "310C",
      "310C",
      "310C",
      "310C",
      "310C",
      "310C",
      "310C",
      "310C",
      "310C",
      "310C",
      "310C",
      "310C",
      "310C",
      "310C",
      "310C",
      "310C",
      "310C",
      "310C",
      "310C",
      "310C",
      "310C",
      "310C",
      "310C",
      "310C",
      "310C",
      "310C",
      "310C",
      "310C",
      "310C",
      "310C",
      "310C",
      "310C",
      "310C",
      "310C",
      "310C",
      "310C",
      "310C",
      "310C",
      "310C",
      "310C",
      "310C",
      "310C",
      "310C",
      "310C",
      "310C",
      "310C",
      "310C",
      "310C",
      "310C",
      "310C",
      "310C",
      "310C",
      "310C",
      "310C",
      "310C",
      "310C",
      "310C",
      "310C",
      "310C",
      "310C",
      "310C",
      "310C",
      "310C",
      "310C",
      "310C",
      "310C",
      "310C",
      "310C",
      "310C",
      "310C",
      "310C",
      "310C",
      "310C",
      "310C",
      "310C",
      "310C",
      "310C",
      "310C",
      "310C",
      "310C",
      "310C",
      "310C",
      "310C",
      "333",
      "333",
      "333",
      "333",
      "350C",
      "350C",
      "350C",
      "350C",
      "350C",
      "350C",
      "350C",
      "350C",
      "350C",
      "350C",
      "350C",
      "350C",
      "350C",
      "350C",
      "350C",
      "350C",
      "350C",
      "350C",
      "350C",
      "350C",
      "350C",
      "350C",
      "350C",
      "350C",
      "350C",
      "350C",
      "350C",
      "350C",
      "350C",
      "350C",
      "350C",
      "350C",
      "350C",
      "350C",
      "350C",
      "350C",
      "350C",
      "350C",
      "350C",
      "350C",
      "350C",
      "350C",
      "350C",
      "350C",
      "350C",
      "350C",
      "350C",
      "350C",
      "350C",
      "350C",
      "350C",
      "350C",
      "350C",
      "350C",
      "350C",
      "350C",
      "350C",
      "350C",
      "350C",
      "350C",
      "350C",
      "350C",
      "350C",
      "350C",
      "350C",
      "350C",
      "350C",
      "350C",
      "350C",
      "350C",
      "350C",
      "350C",
      "350C",
      "350C",
      "350C",
      "350C",
      "350C",
      "350C",
      "350C",
      "350C",
      "350C",
      "350C",
      "350C",
      "350C",
      "350C",
      "350C",
      "350C",
      "350C",
      "350C",
      "350C",
      "350C",
      "350C",
      "350C",
      "350C",
      "350C",
      "350C",
      "350C",
      "350C",
      "350C",
      "350C",
      "350C",
      "350C",
      "350C",
      "346",
      "346",
      "346",
      "346",
      "337",
      "337",
      "337",
      "337",
      "309C",
      "309C",
      "309C",
      "309C",
      "310C",
      "310C",
      "310C",
      "310C",
      "305",
      "305",
      "305",
      "265",
      "265",
      "265",
      "265",
      "189",
      "189",
      "189",
      "189",
      "189",
      "111C",
      "111C",
      "111C",
      "110C",
      "110C",
      "110C",
      "110C",
      "103",
      "103",
      "103",
      "065",
      "065",
      "065",
      "053",
      "053",
      "053",
      "030",
      "030",
      "030",
      "030",
      "030",
      "030",
      "028",
      "026",
      "019",
      "019",
      "016",
      "016",
      "010",
      "001",
      "001"
    ],
    "swim:geom": "path",
    "swim:speeds": [
      208,
      208,
      208,
      208,
      208,
      208,
      273,
      273,
      273,
      284,
      284,
      342,
      342,
      364,
      364,
      364,
      387,
      387,
      387,
      387,
      422,
      422,
      422,
      422,
      422,
      443,
      443,
      450,
      450,
      450,
      450,
      453,
      453,
      453,
      464,
      464,
      463,
      463,
      463,
      470,
      470,
      480,
      480,
      480,
      480,
      480,
      481,
      481,
      481,
      481,
      481,
      481,
      481,
      482,
      481,
      481,
      481,
      482,
      482,
      481,
      481,
      481,
      481,
      481,
      484,
      484,
      484,
      483,
      483,
      483,
      485,
      485,
      485,
      486,
      486,
      485,
      485,
      485,
      485,
      485,
      485,
      486,
      486,
      486,
      486,
      486,
      486,
      486,
      486,
      486,
      486,
      486,
      486,
      486,
      486,
      486,
      486,
      486,
      486,
      486,
      486,
      486,
      486,
      486,
      486,
      486,
      486,
      486,
      486,
      486,
      486,
      490,
      490,
      490,
      490,
      490,
      492,
      492,
      492,
      493,
      493,
      493,
      493,
      494,
      494,
      494,
      494,
      494,
      495,
      495,
      495,
      495,
      495,
      494,
      494,
      494,
      494,
      494,
      495,
      495,
      495,
      494,
      494,
      494,
      494,
      494,
      491,
      490,
      490,
      490,
      488,
      488,
      488,
      488,
      488,
      486,
      486,
      487,
      487,
      487,
      488,
      488,
      488,
      488,
      487,
      487,
      487,
      487,
      486,
      486,
      486,
      486,
      486,
      487,
      487,
      487,
      487,
      488,
      488,
      488,
      490,
      490,
      490,
      489,
      489,
      489,
      489,
      488,
      488,
      488,
      486,
      486,
      486,
      486,
      486,
      486,
      486,
      486,
      486,
      486,
      483,
      483,
      483,
      483,
      482,
      482,
      482,
      482,
      482,
      482,
      482,
      482,
      482,
      488,
      488,
      488,
      488,
      488,
      488,
      490,
      490,
      487,
      487,
      487,
      478,
      478,
      478,
      478,
      478,
      478,
      475,
      475,
      475,
      475,
      475,
      475,
      475,
      475,
      475,
      476,
      476,
      476,
      476,
      482,
      482,
      482,
      484,
      484,
      484,
      471,
      471,
      467,
      467,
      463,
      463,
      464,
      464,
      464,
      462,
      463,
      463,
      463,
      463,
      463,
      466,
      466,
      466,
      468,
      468,
      468,
      469,
      469,
      469,
      469,
      468,
      468,
      468,
      468,
      468,
      476,
      476,
      476,
      476,
      476,
      476,
      476,
      476,
      476,
      474,
      474,
      474,
      474,
      474,
      473,
      473,
      473,
      473,
      473,
      473,
      472,
      472,
      470,
      470,
      470,
      470,
      468,
      468,
      467,
      462,
      462,
      462,
      462,
      462,
      460,
      457,
      456,
      456,
      454,
      454,
      454,
      455,
      455,
      456,
      456,
      456,
      461,
      468,
      468,
      469,
      469,
      469,
      469,
      470,
      470,
      470,
      470,
      467,
      467,
      467,
      467,
      462,
      461,
      461,
      461,
      461,
      460,
      460,
      460,
      460,
      460,
      458,
      458,
      459,
      457,
      457,
      457,
      457,
      457,
      457,
      455,
      455,
      455,
      456,
      456,
      455,
      455,
      455,
      455,
      455,
      455,
      455,
      456,
      456,
      456,
      456,
      456,
      458,
      459,
      459,
      459,
      463,
      463,
      465,
      465,
      465,
      467,
      467,
      467,
      467,
      467,
      467,
      467,
      467,
      467,
      467,
      470,
      470,
      470,
      470,
      470,
      475,
      475,
      477,
      479,
      479,
      479,
      479,
      479,
      479,
      479,
      479,
      479,
      479,
      480,
      479,
      479,
      479,
      480,
      480,
      480,
      480,
      483,
      483,
      484,
      484,
      484,
      485,
      485,
      489,
      489,
      489,
      489,
      491,
      491,
      490,
      490,
      490,
      490,
      492,
      492,
      491,
      491,
      491,
      491,
      491,
      489,
      489,
      489,
      489,
      491,
      491,
      491,
      492,
      492,
      494,
      494,
      494,
      494,
      494,
      495,
      501,
      501,
      501,
      497,
      497,
      497,
      497,
      484,
      484,
      484,
      487,
      487,
      486,
      492,
      492,
      492,
      492,
      495,
      499,
      499,
      499,
      499,
      500,
      500,
      501,
      501,
      501,
      501,
      501,
      502,
      511,
      511,
      511,
      502,
      502,
      504,
      504,
      504,
      504,
      504,
      504,
      504,
      504,
      503,
      503,
      503,
      503,
      503,
      503,
      503,
      503,
      501,
      501,
      501,
      501,
      501,
      501,
      501,
      501,
      501,
      501,
      501,
      502,
      502,
      502,
      502,
      502,
      500,
      500,
      500,
      500,
      500,
      500,
      500,
      500,
      485,
      485,
      485,
      485,
      489,
      489,
      489,
      489,
      496,
      496,
      496,
      496,
      487,
      487,
      487,
      487,
      482,
      482,
      482,
      451,
      451,
      451,
      451,
      399,
      399,
      399,
      399,
      399,
      368,
      368,
      368,
      363,
      363,
      363,
      363,
      364,
      364,
      364,
      284,
      284,
      284,
      275,
      275,
      275,
      241,
      241,
      192,
      192,
      192,
      192,
      179,
      182,
      150,
      150,
      151,
      151,
      148,
      148,
      148
    ],
    "swim:timestamps": [
      1780423115,
      1780423115,
      1780423115,
      1780423115,
      1780423115,
      1780423115,
      1780423229,
      1780423229,
      1780423229,
      1780423289,
      1780423289,
      1780423409,
      1780423409,
      1780423469,
      1780423469,
      1780423469,
      1780423589,
      1780423589,
      1780423589,
      1780423589,
      1780423770,
      1780423770,
      1780423770,
      1780423770,
      1780423770,
      1780423890,
      1780423890,
      1780423950,
      1780423950,
      1780423950,
      1780423950,
      1780423956,
      1780423956,
      1780424016,
      1780424070,
      1780424070,
      1780424076,
      1780424076,
      1780424076,
      1780424130,
      1780424130,
      1780424310,
      1780424310,
      1780424310,
      1780424310,
      1780424310,
      1780424431,
      1780424431,
      1780424431,
      1780424437,
      1780424437,
      1780424437,
      1780424437,
      1780424491,
      1780424497,
      1780424557,
      1780424557,
      1780424611,
      1780424611,
      1780424617,
      1780424617,
      1780424617,
      1780424617,
      1780424617,
      1780424731,
      1780424731,
      1780424731,
      1780424737,
      1780424737,
      1780424737,
      1780424797,
      1780424797,
      1780424797,
      1780424857,
      1780424857,
      1780425031,
      1780425031,
      1780425031,
      1780425092,
      1780425092,
      1780425092,
      1780425152,
      1780425152,
      1780425152,
      1780425152,
      1780425272,
      1780425272,
      1780425272,
      1780425338,
      1780425338,
      1780425338,
      1780425338,
      1780425392,
      1780425392,
      1780425392,
      1780425398,
      1780425452,
      1780425452,
      1780425458,
      1780425458,
      1780425458,
      1780425512,
      1780425512,
      1780425578,
      1780425578,
      1780425638,
      1780425638,
      1780425638,
      1780425638,
      1780425638,
      1780425638,
      1780425819,
      1780425819,
      1780425819,
      1780425819,
      1780425819,
      1780425879,
      1780425879,
      1780425879,
      1780425939,
      1780425939,
      1780425939,
      1780425939,
      1780426059,
      1780426059,
      1780426059,
      1780426059,
      1780426059,
      1780426480,
      1780426480,
      1780426480,
      1780426480,
      1780426480,
      1780426600,
      1780426600,
      1780426600,
      1780426600,
      1780426600,
      1780426780,
      1780426780,
      1780426780,
      1780426840,
      1780426840,
      1780426840,
      1780426840,
      1780426840,
      1780427020,
      1780427080,
      1780427080,
      1780427080,
      1780427140,
      1780427140,
      1780427140,
      1780427140,
      1780427140,
      1780427219,
      1780427219,
      1780427279,
      1780427279,
      1780427321,
      1780427339,
      1780427339,
      1780427339,
      1780427339,
      1780427381,
      1780427381,
      1780427381,
      1780427399,
      1780427460,
      1780427501,
      1780427501,
      1780427520,
      1780427520,
      1780427580,
      1780427580,
      1780427580,
      1780427580,
      1780427621,
      1780427621,
      1780427621,
      1780427760,
      1780427760,
      1780427760,
      1780427880,
      1780427880,
      1780427880,
      1780427880,
      1780427921,
      1780427921,
      1780427921,
      1780428042,
      1780428042,
      1780428042,
      1780428060,
      1780428102,
      1780428102,
      1780428102,
      1780428102,
      1780428102,
      1780428102,
      1780428481,
      1780428481,
      1780428481,
      1780428481,
      1780428541,
      1780428541,
      1780428541,
      1780428541,
      1780428601,
      1780428601,
      1780428601,
      1780428601,
      1780428601,
      1780428841,
      1780428841,
      1780428841,
      1780428841,
      1780428841,
      1780428841,
      1780428962,
      1780428962,
      1780429022,
      1780429022,
      1780429022,
      1780429262,
      1780429262,
      1780429262,
      1780429262,
      1780429262,
      1780429262,
      1780429502,
      1780429502,
      1780429502,
      1780429502,
      1780429562,
      1780429562,
      1780429623,
      1780429623,
      1780429623,
      1780429683,
      1780429683,
      1780429683,
      1780429683,
      1780429923,
      1780429923,
      1780429923,
      1780429955,
      1780429955,
      1780429955,
      1780430043,
      1780430043,
      1780430075,
      1780430075,
      1780430163,
      1780430163,
      1780430195,
      1780430195,
      1780430195,
      1780430223,
      1780430255,
      1780430283,
      1780430283,
      1780430283,
      1780430283,
      1780430343,
      1780430343,
      1780430387,
      1780430447,
      1780430447,
      1780430447,
      1780430568,
      1780430568,
      1780430584,
      1780430584,
      1780430628,
      1780430628,
      1780430688,
      1780430688,
      1780430688,
      1780430808,
      1780430808,
      1780430808,
      1780430808,
      1780430808,
      1780430928,
      1780430928,
      1780430928,
      1780430928,
      1780431048,
      1780431048,
      1780431048,
      1780431048,
      1780431048,
      1780431349,
      1780431349,
      1780431409,
      1780431409,
      1780431409,
      1780431409,
      1780431469,
      1780431469,
      1780431529,
      1780431529,
      1780431529,
      1780431529,
      1780431641,
      1780431641,
      1780431709,
      1780431761,
      1780431761,
      1780431761,
      1780431761,
      1780431761,
      1780431769,
      1780431821,
      1780431829,
      1780431829,
      1780431890,
      1780431890,
      1780431890,
      1780431942,
      1780431942,
      1780432002,
      1780432002,
      1780432010,
      1780432062,
      1780432130,
      1780432130,
      1780432190,
      1780432190,
      1780432190,
      1780432190,
      1780432310,
      1780432310,
      1780432310,
      1780432310,
      1780432422,
      1780432430,
      1780432430,
      1780432462,
      1780432482,
      1780432542,
      1780432551,
      1780432551,
      1780432551,
      1780432611,
      1780432611,
      1780432611,
      1780432663,
      1780432663,
      1780432702,
      1780432702,
      1780432723,
      1780432731,
      1780432731,
      1780432731,
      1780432731,
      1780432843,
      1780432843,
      1780432851,
      1780432851,
      1780432882,
      1780432903,
      1780432903,
      1780432942,
      1780432942,
      1780433023,
      1780433062,
      1780433062,
      1780433062,
      1780433123,
      1780433143,
      1780433143,
      1780433176,
      1780433183,
      1780433183,
      1780433236,
      1780433243,
      1780433243,
      1780433243,
      1780433324,
      1780433324,
      1780433384,
      1780433384,
      1780433384,
      1780433444,
      1780433444,
      1780433483,
      1780433483,
      1780433504,
      1780433504,
      1780433504,
      1780433504,
      1780433543,
      1780433543,
      1780433804,
      1780433804,
      1780433804,
      1780433804,
      1780433804,
      1780433924,
      1780433924,
      1780433984,
      1780434024,
      1780434024,
      1780434024,
      1780434024,
      1780434084,
      1780434084,
      1780434084,
      1780434144,
      1780434144,
      1780434165,
      1780434204,
      1780434225,
      1780434225,
      1780434225,
      1780434264,
      1780434264,
      1780434264,
      1780434264,
      1780434504,
      1780434504,
      1780434565,
      1780434565,
      1780434565,
      1780434625,
      1780434625,
      1780434865,
      1780434865,
      1780434865,
      1780434865,
      1780435045,
      1780435045,
      1780435118,
      1780435118,
      1780435118,
      1780435118,
      1780435225,
      1780435225,
      1780435286,
      1780435286,
      1780435286,
      1780435286,
      1780435358,
      1780435406,
      1780435466,
      1780435466,
      1780435466,
      1780435478,
      1780435538,
      1780435538,
      1780435646,
      1780435646,
      1780435658,
      1780435658,
      1780435718,
      1780435718,
      1780435718,
      1780435766,
      1780435779,
      1780435779,
      1780435779,
      1780435826,
      1780435826,
      1780435826,
      1780435839,
      1780435946,
      1780435946,
      1780435946,
      1780436067,
      1780436067,
      1780436079,
      1780436199,
      1780436199,
      1780436199,
      1780436199,
      1780436259,
      1780436367,
      1780436367,
      1780436379,
      1780436379,
      1780436440,
      1780436440,
      1780436500,
      1780436500,
      1780436500,
      1780436547,
      1780436547,
      1780436680,
      1780436733,
      1780436733,
      1780436733,
      1780436740,
      1780436740,
      1780436860,
      1780436860,
      1780436860,
      1780436860,
      1780436920,
      1780436920,
      1780436973,
      1780436980,
      1780437161,
      1780437161,
      1780437161,
      1780437161,
      1780437161,
      1780437281,
      1780437281,
      1780437281,
      1780437407,
      1780437407,
      1780437407,
      1780437521,
      1780437521,
      1780437521,
      1780437521,
      1780437581,
      1780437581,
      1780437581,
      1780437587,
      1780437646,
      1780437646,
      1780437646,
      1780437706,
      1780437706,
      1780437826,
      1780437826,
      1780437826,
      1780437826,
      1780437886,
      1780437886,
      1780437886,
      1780437886,
      1780438067,
      1780438067,
      1780438067,
      1780438067,
      1780438127,
      1780438127,
      1780438127,
      1780438127,
      1780438307,
      1780438307,
      1780438307,
      1780438307,
      1780438428,
      1780438428,
      1780438428,
      1780438428,
      1780438547,
      1780438547,
      1780438547,
      1780438667,
      1780438667,
      1780438667,
      1780438667,
      1780438909,
      1780438909,
      1780438909,
      1780438909,
      1780438909,
      1780439148,
      1780439148,
      1780439148,
      1780439209,
      1780439209,
      1780439209,
      1780439209,
      1780439250,
      1780439250,
      1780439250,
      1780439450,
      1780439450,
      1780439450,
      1780439491,
      1780439491,
      1780439491,
      1780439690,
      1780439690,
      1780439731,
      1780439731,
      1780439731,
      1780439731,
      1780439792,
      1780439809,
      1780439854,
      1780439854,
      1780439870,
      1780439870,
      1780439929,
      1780439990,
      1780439990
    ],
    "wof:geomhash": "d5169161877ecb572e8976383a3cb76e",
    "wof:id": 2031435039,
    "wof:repo": "sfomuseum-data-flights-2026-06"
  },
  "bbox": [
    -122.4,
    27.783333333333335,
    -82.5425,
    38.68388888888889
  ],
  "geometry": {"coordinates":[[-122.4,37.666666666666664],[-122.4,37.666666666666664],[-122.4,37.666666666666664],[-122.4,37.666666666666664],[-122.4,37.666666666666664],[-122.4,37.666666666666664],[-122.26277777777777,37.7025],[-122.26277777777777,37.7025],[-122.26277777777777,37.7025],[-122.1763888888889,37.73777777777778],[-122.1763888888889,37.73777777777778],[-121.99055555555556,37.8275],[-121.99055555555556,37.8275],[-121.86833333333333,37.85166666666667],[-121.86833333333333,37.85166666666667],[-121.86833333333333,37.85166666666667],[-121.60555555555555,37.9],[-121.60555555555555,37.9],[-121.60555555555555,37.9],[-121.60555555555555,37.9],[-121.15833333333335,37.98111111111111],[-121.15833333333335,37.98111111111111],[-121.15833333333335,37.98111111111111],[-121.15833333333335,37.98111111111111],[-121.15833333333335,37.98111111111111],[-120.85916666666667,38.02861111111111],[-120.85916666666667,38.02861111111111],[-120.705,38.05222222222222],[-120.705,38.05222222222222],[-120.705,38.05222222222222],[-120.705,38.05222222222222],[-120.70027777777779,38.051944444444445],[-120.70027777777779,38.051944444444445],[-120.54194444444444,38.07611111111112],[-120.38555555555556,38.100833333333334],[-120.38555555555556,38.100833333333334],[-120.38027777777778,38.099444444444444],[-120.38027777777778,38.099444444444444],[-120.38027777777778,38.099444444444444],[-120.22305555555556,38.125],[-120.22305555555556,38.125],[-119.7225,38.1975],[-119.7225,38.1975],[-119.7225,38.1975],[-119.7225,38.1975],[-119.7225,38.1975],[-119.3825,38.24611111111111],[-119.3825,38.24611111111111],[-119.3825,38.24611111111111],[-119.38444444444445,38.244166666666665],[-119.38444444444445,38.244166666666665],[-119.38444444444445,38.244166666666665],[-119.38444444444445,38.244166666666665],[-119.21611111111112,38.269444444444446],[-119.21638888888889,38.26861111111111],[-119.05,38.29194444444444],[-119.05,38.29194444444444],[-118.8825,38.315],[-118.8825,38.315],[-118.88333333333334,38.31388888888888],[-118.88333333333334,38.31388888888888],[-118.88333333333334,38.31388888888888],[-118.88333333333334,38.31388888888888],[-118.88333333333334,38.31388888888888],[-118.5475,38.36027777777778],[-118.5475,38.36027777777778],[-118.5475,38.36027777777778],[-118.54888888888888,38.36],[-118.54888888888888,38.36],[-118.54888888888888,38.36],[-118.36583333333333,38.384166666666665],[-118.36583333333333,38.384166666666665],[-118.36583333333333,38.384166666666665],[-118.19361111111111,38.406666666666666],[-118.19361111111111,38.406666666666666],[-117.71416666666667,38.467777777777776],[-117.71416666666667,38.467777777777776],[-117.71416666666667,38.467777777777776],[-117.54166666666667,38.489444444444445],[-117.54166666666667,38.489444444444445],[-117.54166666666667,38.489444444444445],[-117.37166666666666,38.51027777777778],[-117.37166666666666,38.51027777777778],[-117.37166666666666,38.51027777777778],[-117.37166666666666,38.51027777777778],[-117.02277777777778,38.534166666666664],[-117.02277777777778,38.534166666666664],[-117.02277777777778,38.534166666666664],[-116.81638888888888,38.544444444444444],[-116.81638888888888,38.544444444444444],[-116.81638888888888,38.544444444444444],[-116.81638888888888,38.544444444444444],[-116.67833333333334,38.55083333333333],[-116.67833333333334,38.55083333333333],[-116.67833333333334,38.55083333333333],[-116.64444444444445,38.55222222222222],[-116.50333333333333,38.55916666666666],[-116.50333333333333,38.55916666666666],[-116.4713888888889,38.56055555555555],[-116.4713888888889,38.56055555555555],[-116.4713888888889,38.56055555555555],[-116.33027777777778,38.56722222222223],[-116.33027777777778,38.56722222222223],[-116.1275,38.57611111111112],[-116.1275,38.57611111111112],[-115.99,38.581944444444446],[-115.99,38.581944444444446],[-115.99,38.581944444444446],[-115.99,38.581944444444446],[-115.99,38.581944444444446],[-115.99,38.581944444444446],[-115.46694444444445,38.6025],[-115.46694444444445,38.6025],[-115.46694444444445,38.6025],[-115.46694444444445,38.6025],[-115.46694444444445,38.6025],[-115.28805555555556,38.60916666666667],[-115.28805555555556,38.60916666666667],[-115.28805555555556,38.60916666666667],[-115.11361111111111,38.61527777777778],[-115.11361111111111,38.61527777777778],[-115.11361111111111,38.61527777777778],[-115.11361111111111,38.61527777777778],[-114.76222222222222,38.626666666666665],[-114.76222222222222,38.626666666666665],[-114.76222222222222,38.626666666666665],[-114.76222222222222,38.626666666666665],[-114.76222222222222,38.626666666666665],[-113.53388888888888,38.65888888888889],[-113.53388888888888,38.65888888888889],[-113.53388888888888,38.65888888888889],[-113.53388888888888,38.65888888888889],[-113.53388888888888,38.65888888888889],[-113.18055555555556,38.66555555555556],[-113.18055555555556,38.66555555555556],[-113.18055555555556,38.66555555555556],[-113.18055555555556,38.66555555555556],[-113.18055555555556,38.66555555555556],[-112.65111111111112,38.67361111111111],[-112.65111111111112,38.67361111111111],[-112.65111111111112,38.67361111111111],[-112.47777777777777,38.67583333333333],[-112.47777777777777,38.67583333333333],[-112.47777777777777,38.67583333333333],[-112.47777777777777,38.67583333333333],[-112.47777777777777,38.67583333333333],[-111.95166666666667,38.68055555555555],[-111.77916666666667,38.681666666666665],[-111.77916666666667,38.681666666666665],[-111.77916666666667,38.681666666666665],[-111.60583333333332,38.68277777777777],[-111.60583333333332,38.68277777777777],[-111.60583333333332,38.68277777777777],[-111.60583333333332,38.68277777777777],[-111.60583333333332,38.68277777777777],[-111.36527777777778,38.68333333333333],[-111.36527777777778,38.68333333333333],[-111.19027777777778,38.683611111111105],[-111.19027777777778,38.683611111111105],[-111.08833333333332,38.68388888888889],[-111.01805555555555,38.683611111111105],[-111.01805555555555,38.683611111111105],[-111.01805555555555,38.683611111111105],[-111.01805555555555,38.683611111111105],[-110.8913888888889,38.68333333333333],[-110.8913888888889,38.68333333333333],[-110.8913888888889,38.68333333333333],[-110.85694444444444,38.68333333333333],[-110.68527777777778,38.68277777777777],[-110.54638888888888,38.68222222222222],[-110.54638888888888,38.68222222222222],[-110.51361111111112,38.68194444444444],[-110.51361111111112,38.68194444444444],[-110.34166666666667,38.68111111111111],[-110.34166666666667,38.68111111111111],[-110.34166666666667,38.68111111111111],[-110.34166666666667,38.68111111111111],[-110.20194444444445,38.68],[-110.20194444444445,38.68],[-110.20194444444445,38.68],[-109.82055555555556,38.67166666666667],[-109.82055555555556,38.67166666666667],[-109.82055555555556,38.67166666666667],[-109.47722222222222,38.65416666666667],[-109.47722222222222,38.65416666666667],[-109.47722222222222,38.65416666666667],[-109.47722222222222,38.65416666666667],[-109.33611111111111,38.64666666666667],[-109.33611111111111,38.64666666666667],[-109.33611111111111,38.64666666666667],[-108.99361111111111,38.62777777777778],[-108.99361111111111,38.62777777777778],[-108.99361111111111,38.62777777777778],[-108.96166666666667,38.62583333333333],[-108.8236111111111,38.61805555555556],[-108.8236111111111,38.61805555555556],[-108.8236111111111,38.61805555555556],[-108.8236111111111,38.61805555555556],[-108.8236111111111,38.61805555555556],[-108.8236111111111,38.61805555555556],[-107.735,38.549166666666665],[-107.735,38.549166666666665],[-107.735,38.549166666666665],[-107.735,38.549166666666665],[-107.56583333333333,38.5375],[-107.56583333333333,38.5375],[-107.56583333333333,38.5375],[-107.56583333333333,38.5375],[-107.39472222222223,38.525555555555556],[-107.39472222222223,38.525555555555556],[-107.39472222222223,38.525555555555556],[-107.39472222222223,38.525555555555556],[-107.39472222222223,38.525555555555556],[-106.71388888888889,38.47555555555556],[-106.71388888888889,38.47555555555556],[-106.71388888888889,38.47555555555556],[-106.71388888888889,38.47555555555556],[-106.71388888888889,38.47555555555556],[-106.71388888888889,38.47555555555556],[-106.36833333333333,38.448611111111106],[-106.36833333333333,38.448611111111106],[-106.20027777777779,38.434999999999995],[-106.20027777777779,38.434999999999995],[-106.20027777777779,38.434999999999995],[-105.53777777777778,38.36],[-105.53777777777778,38.36],[-105.53777777777778,38.36],[-105.53777777777778,38.36],[-105.53777777777778,38.36],[-105.53777777777778,38.36],[-104.89250000000001,38.19972222222222],[-104.89250000000001,38.19972222222222],[-104.89250000000001,38.19972222222222],[-104.89250000000001,38.19972222222222],[-104.73277777777778,38.159166666666664],[-104.73277777777778,38.159166666666664],[-104.56916666666666,38.12111111111111],[-104.56916666666666,38.12111111111111],[-104.56916666666666,38.12111111111111],[-104.41000000000001,38.08305555555556],[-104.41000000000001,38.08305555555556],[-104.41000000000001,38.08305555555556],[-104.41000000000001,38.08305555555556],[-103.75527777777778,37.92333333333333],[-103.75527777777778,37.92333333333333],[-103.75527777777778,37.92333333333333],[-103.66583333333334,37.90138888888889],[-103.66583333333334,37.90138888888889],[-103.66583333333334,37.90138888888889],[-103.43527777777778,37.844166666666666],[-103.43527777777778,37.844166666666666],[-103.35194444444444,37.82333333333334],[-103.35194444444444,37.82333333333334],[-103.12694444444443,37.766666666666666],[-103.12694444444443,37.766666666666666],[-103.04388888888889,37.745555555555555],[-103.04388888888889,37.745555555555555],[-103.04388888888889,37.745555555555555],[-102.97111111111111,37.727222222222224],[-102.88777777777779,37.70583333333334],[-102.81694444444445,37.687777777777775],[-102.81694444444445,37.687777777777775],[-102.81694444444445,37.687777777777775],[-102.81694444444445,37.687777777777775],[-102.66111111111111,37.647777777777776],[-102.66111111111111,37.647777777777776],[-102.57694444444444,37.62583333333333],[-102.38916666666667,37.5775],[-102.38916666666667,37.5775],[-102.38916666666667,37.5775],[-102.07638888888889,37.49527777777778],[-102.07638888888889,37.49527777777778],[-102.03694444444444,37.484722222222224],[-102.03694444444444,37.484722222222224],[-101.92194444444445,37.45416666666667],[-101.92194444444445,37.45416666666667],[-101.76666666666667,37.41277777777778],[-101.76666666666667,37.41277777777778],[-101.76666666666667,37.41277777777778],[-101.45138888888889,37.32833333333333],[-101.45138888888889,37.32833333333333],[-101.45138888888889,37.32833333333333],[-101.45138888888889,37.32833333333333],[-101.45138888888889,37.32833333333333],[-101.1363888888889,37.242222222222225],[-101.1363888888889,37.242222222222225],[-101.1363888888889,37.242222222222225],[-101.1363888888889,37.242222222222225],[-100.82527777777777,37.156388888888884],[-100.82527777777777,37.156388888888884],[-100.82527777777777,37.156388888888884],[-100.82527777777777,37.156388888888884],[-100.82527777777777,37.156388888888884],[-100.04527777777777,36.93722222222222],[-100.04527777777777,36.93722222222222],[-99.91694444444445,36.900277777777774],[-99.91694444444445,36.900277777777774],[-99.91694444444445,36.900277777777774],[-99.91694444444445,36.900277777777774],[-99.76305555555555,36.85611111111111],[-99.76305555555555,36.85611111111111],[-99.61027777777777,36.81194444444444],[-99.61027777777777,36.81194444444444],[-99.61027777777777,36.81194444444444],[-99.61027777777777,36.81194444444444],[-99.3,36.72166666666667],[-99.3,36.72166666666667],[-99.15666666666667,36.67944444444444],[-99.00111111111111,36.63333333333333],[-99.00111111111111,36.63333333333333],[-99.00111111111111,36.63333333333333],[-99.00111111111111,36.63333333333333],[-99.00111111111111,36.63333333333333],[-98.97972222222222,36.62694444444445],[-98.85333333333332,36.589444444444446],[-98.83194444444445,36.58305555555556],[-98.83194444444445,36.58305555555556],[-98.68805555555556,36.54],[-98.68805555555556,36.54],[-98.68805555555556,36.54],[-98.55777777777777,36.50111111111111],[-98.55777777777777,36.50111111111111],[-98.4113888888889,36.45666666666667],[-98.4113888888889,36.45666666666667],[-98.4113888888889,36.45666666666667],[-98.26277777777777,36.41166666666666],[-98.11027777777777,36.36527777777778],[-98.11027777777777,36.36527777777778],[-97.95583333333333,36.3175],[-97.95583333333333,36.3175],[-97.95583333333333,36.3175],[-97.95583333333333,36.3175],[-97.65472222222223,36.224444444444444],[-97.65472222222223,36.224444444444444],[-97.65472222222223,36.224444444444444],[-97.65472222222223,36.224444444444444],[-97.35333333333332,36.13027777777778],[-97.35472222222222,36.130833333333335],[-97.35472222222222,36.130833333333335],[-97.28277777777778,36.10611111111111],[-97.21055555555556,36.075833333333335],[-97.07777777777777,36.0075],[-97.07777777777777,36.0075],[-97.07777777777777,36.0075],[-97.07777777777777,36.0075],[-96.94472222222223,35.939166666666665],[-96.94472222222223,35.939166666666665],[-96.94472222222223,35.939166666666665],[-96.81166666666667,35.87027777777778],[-96.81166666666667,35.87027777777778],[-96.75111111111111,35.838055555555556],[-96.75111111111111,35.838055555555556],[-96.68166666666667,35.80138888888889],[-96.67944444444444,35.80027777777777],[-96.67944444444444,35.80027777777777],[-96.67944444444444,35.80027777777777],[-96.67944444444444,35.80027777777777],[-96.44500000000001,35.676944444444445],[-96.44500000000001,35.676944444444445],[-96.41833333333334,35.66277777777778],[-96.41833333333334,35.66277777777778],[-96.335,35.619166666666665],[-96.31305555555555,35.60888888888889],[-96.31305555555555,35.60888888888889],[-96.19500000000001,35.57027777777778],[-96.19500000000001,35.57027777777778],[-96.02388888888889,35.5175],[-95.90361111111112,35.47972222222222],[-95.90361111111112,35.47972222222222],[-95.90361111111112,35.47972222222222],[-95.75944444444444,35.43444444444444],[-95.73,35.42527777777777],[-95.73,35.42527777777777],[-95.64416666666668,35.39805555555556],[-95.61361111111111,35.38861111111111],[-95.61361111111111,35.38861111111111],[-95.495,35.35111111111111],[-95.46722222222222,35.342222222222226],[-95.46722222222222,35.342222222222226],[-95.46722222222222,35.342222222222226],[-95.28861111111111,35.285],[-95.28861111111111,35.285],[-95.14222222222223,35.238055555555555],[-95.14222222222223,35.238055555555555],[-95.14222222222223,35.238055555555555],[-94.995,35.190555555555555],[-94.995,35.190555555555555],[-94.87638888888888,35.152499999999996],[-94.87638888888888,35.152499999999996],[-94.84833333333333,35.143055555555556],[-94.84833333333333,35.143055555555556],[-94.84833333333333,35.143055555555556],[-94.84833333333333,35.143055555555556],[-94.72833333333334,35.10416666666667],[-94.72833333333334,35.10416666666667],[-94.09083333333332,34.89416666666666],[-94.09083333333332,34.89416666666666],[-94.09083333333332,34.89416666666666],[-94.09083333333332,34.89416666666666],[-94.09083333333332,34.89416666666666],[-93.78944444444444,34.79333333333333],[-93.78944444444444,34.79333333333333],[-93.6413888888889,34.743611111111115],[-93.5525,34.71361111111111],[-93.5525,34.71361111111111],[-93.5525,34.71361111111111],[-93.5525,34.71361111111111],[-93.40305555555557,34.6625],[-93.40305555555557,34.6625],[-93.40305555555557,34.6625],[-93.25472222222223,34.61194444444445],[-93.25472222222223,34.61194444444445],[-93.19500000000001,34.59138888888889],[-93.10527777777777,34.56055555555555],[-93.05333333333333,34.54277777777778],[-93.05333333333333,34.54277777777778],[-93.05333333333333,34.54277777777778],[-92.9563888888889,34.50944444444445],[-92.9563888888889,34.50944444444445],[-92.9563888888889,34.50944444444445],[-92.9563888888889,34.50944444444445],[-92.36055555555555,34.30166666666666],[-92.36055555555555,34.30166666666666],[-92.21194444444444,34.24916666666667],[-92.21194444444444,34.24916666666667],[-92.21194444444444,34.24916666666667],[-92.05027777777778,34.223888888888894],[-92.05027777777778,34.223888888888894],[-91.38305555555554,34.15472222222222],[-91.38305555555554,34.15472222222222],[-91.38305555555554,34.15472222222222],[-91.38305555555554,34.15472222222222],[-90.89500000000001,34.11333333333334],[-90.89500000000001,34.11333333333334],[-90.70472222222223,34.09916666666667],[-90.70472222222223,34.09916666666667],[-90.70472222222223,34.09916666666667],[-90.70472222222223,34.09916666666667],[-90.40416666666667,34.07611111111112],[-90.40416666666667,34.07611111111112],[-90.24138888888889,34.064166666666665],[-90.24138888888889,34.064166666666665],[-90.24138888888889,34.064166666666665],[-90.24138888888889,34.064166666666665],[-90.05083333333333,34.04972222222222],[-89.91861111111112,34.04527777777778],[-89.75472222222223,34.03944444444444],[-89.75472222222223,34.03944444444444],[-89.75472222222223,34.03944444444444],[-89.7238888888889,34.03805555555555],[-89.56083333333333,34.0325],[-89.56083333333333,34.0325],[-89.26416666666667,34.02333333333333],[-89.26416666666667,34.02333333333333],[-89.23166666666667,34.021388888888886],[-89.23166666666667,34.021388888888886],[-89.0736111111111,33.9825],[-89.0736111111111,33.9825],[-89.0736111111111,33.9825],[-88.96194444444444,33.9225],[-88.96194444444444,33.92166666666667],[-88.96194444444444,33.92166666666667],[-88.96194444444444,33.92166666666667],[-88.83361111111111,33.836666666666666],[-88.83361111111111,33.836666666666666],[-88.83361111111111,33.836666666666666],[-88.80805555555555,33.8175],[-88.58,33.666666666666664],[-88.58,33.666666666666664],[-88.58,33.666666666666664],[-88.31555555555555,33.48861111111111],[-88.31555555555555,33.48861111111111],[-88.33222222222221,33.5],[-88.05222222222221,33.31055555555555],[-88.05222222222221,33.31055555555555],[-88.05222222222221,33.31055555555555],[-88.05222222222221,33.31055555555555],[-87.92472222222223,33.22361111111111],[-87.69222222222223,33.06444444444444],[-87.69222222222223,33.06444444444444],[-87.69222222222223,33.06444444444444],[-87.69222222222223,33.06444444444444],[-87.53694444444444,32.9575],[-87.53694444444444,32.9575],[-87.40722222222223,32.86805555555556],[-87.40722222222223,32.86805555555556],[-87.40722222222223,32.86805555555556],[-87.30944444444444,32.80027777777777],[-87.30944444444444,32.80027777777777],[-87.02694444444444,32.60333333333333],[-86.89833333333334,32.513333333333335],[-86.89833333333334,32.513333333333335],[-86.89833333333334,32.513333333333335],[-86.89750000000001,32.5125],[-86.89750000000001,32.5125],[-86.64416666666668,32.33444444444444],[-86.64416666666668,32.33444444444444],[-86.64416666666668,32.33444444444444],[-86.64416666666668,32.33444444444444],[-86.5175,32.24472222222222],[-86.5175,32.24472222222222],[-86.39277777777778,32.15611111111111],[-86.36944444444444,32.13972222222222],[-85.99666666666667,31.872777777777777],[-85.99666666666667,31.872777777777777],[-85.99666666666667,31.872777777777777],[-85.99666666666667,31.872777777777777],[-85.99666666666667,31.872777777777777],[-85.78555555555555,31.7025],[-85.78555555555555,31.7025],[-85.78555555555555,31.7025],[-85.54833333333333,31.47222222222222],[-85.54833333333333,31.47222222222222],[-85.54833333333333,31.47222222222222],[-85.32777777777777,31.25638888888889],[-85.32777777777777,31.25638888888889],[-85.32777777777777,31.25638888888889],[-85.32777777777777,31.25638888888889],[-85.22083333333333,31.15138888888889],[-85.22083333333333,31.15138888888889],[-85.22083333333333,31.15138888888889],[-85.22611111111111,31.159166666666664],[-85.10805555555555,31.040277777777778],[-85.10805555555555,31.040277777777778],[-85.10805555555555,31.040277777777778],[-85.00166666666667,30.935],[-85.00166666666667,30.935],[-84.78888888888889,30.723888888888887],[-84.78888888888889,30.723888888888887],[-84.78888888888889,30.723888888888887],[-84.78888888888889,30.723888888888887],[-84.68305555555555,30.61777777777778],[-84.68305555555555,30.61777777777778],[-84.68305555555555,30.61777777777778],[-84.68305555555555,30.61777777777778],[-84.37638888888888,30.309444444444445],[-84.37638888888888,30.309444444444445],[-84.37638888888888,30.309444444444445],[-84.37638888888888,30.309444444444445],[-84.27222222222223,30.204722222222223],[-84.27222222222223,30.204722222222223],[-84.27222222222223,30.204722222222223],[-84.27222222222223,30.204722222222223],[-83.95777777777778,29.885555555555555],[-83.95777777777778,29.885555555555555],[-83.95777777777778,29.885555555555555],[-83.95777777777778,29.885555555555555],[-83.78916666666666,29.656666666666666],[-83.78916666666666,29.656666666666666],[-83.78916666666666,29.656666666666666],[-83.78916666666666,29.656666666666666],[-83.63861111111112,29.422777777777778],[-83.63861111111112,29.422777777777778],[-83.63861111111112,29.422777777777778],[-83.49722222222222,29.20111111111111],[-83.49722222222222,29.20111111111111],[-83.49722222222222,29.20111111111111],[-83.49722222222222,29.20111111111111],[-83.24027777777778,28.796111111111113],[-83.24027777777778,28.796111111111113],[-83.24027777777778,28.796111111111113],[-83.24027777777778,28.796111111111113],[-83.24027777777778,28.796111111111113],[-83.00888888888889,28.428611111111113],[-83.00888888888889,28.428611111111113],[-83.00888888888889,28.428611111111113],[-82.95944444444444,28.349444444444444],[-82.95944444444444,28.349444444444444],[-82.95944444444444,28.349444444444444],[-82.95944444444444,28.349444444444444],[-82.91666666666667,28.266666666666666],[-82.91666666666667,28.266666666666666],[-82.91666666666667,28.266666666666666],[-82.70305555555557,28.084166666666665],[-82.70305555555557,28.084166666666665],[-82.70305555555557,28.084166666666665],[-82.65,28.033333333333335],[-82.65,28.033333333333335],[-82.65,28.033333333333335],[-82.62194444444444,27.810833333333335],[-82.62194444444444,27.810833333333335],[-82.58333333333333,27.783333333333335],[-82.58333333333333,27.783333333333335],[-82.58333333333333,27.783333333333335],[-82.58333333333333,27.783333333333335],[-82.55,27.816666666666666],[-82.54722222222222,27.827222222222222],[-82.55,27.866666666666667],[-82.55,27.866666666666667],[-82.54527777777777,27.878888888888888],[-82.54527777777777,27.878888888888888],[-82.54416666666667,27.911388888888887],[-82.5425,27.961388888888887],[-82.5425,27.961388888888887]],"type":"LineString"}
}
