{
  "id": 2031673775,
  "type": "Feature",
  "properties": {
    "geom:area": 0,
    "geom:bbox": "-122.359710,37.443970,-121.257670,37.615300",
    "geom:latitude": 37.54217686069459,
    "geom:longitude": -121.817583331494,
    "src:alt_label": "swim-approach",
    "src:geom": "swim",
    "swim:elevations": [
      4564,
      4450,
      4390,
      4185,
      3901,
      3835,
      3686,
      3472,
      3410,
      3353,
      3353,
      3353,
      3353,
      3297,
      3069,
      3048,
      2944,
      2799,
      2743,
      2623,
      2459,
      2292,
      2150,
      2027,
      1830,
      1829,
      1739,
      1610,
      1390,
      1183,
      863,
      822,
      396,
      272,
      162,
      75,
      0
    ],
    "swim:geom": "approach",
    "swim:timestamps": [
      1782723582,
      1782723618,
      1782723635,
      1782723666,
      1782723715,
      1782723725,
      1782723746,
      1782723776,
      1782723786,
      1782723815,
      1782723847,
      1782723875,
      1782723918,
      1782723940,
      1782723977,
      1782724004,
      1782724032,
      1782724055,
      1782724072,
      1782724098,
      1782724118,
      1782724143,
      1782724175,
      1782724216,
      1782724254,
      1782724272,
      1782724311,
      1782724341,
      1782724363,
      1782724386,
      1782724432,
      1782724441,
      1782724527,
      1782724556,
      1782724587,
      1782724613,
      1782724631
    ],
    "wof:geomhash": "6bdc0b5662aea21b5f78c9d5a42a399f",
    "wof:id": 2031673775,
    "wof:repo": "sfomuseum-data-flights-2026-06"
  },
  "bbox": [
    -122.35971,
    37.44397,
    -121.25767,
    37.6153
  ],
  "geometry": {"coordinates":[[-121.25767,37.59348],[-121.31627,37.58646],[-121.34139,37.58372],[-121.38647,37.57869],[-121.45593,37.57073],[-121.46999,37.56915],[-121.50011,37.56559],[-121.54312,37.5605],[-121.55754,37.55879],[-121.59807,37.55387],[-121.64413,37.54899],[-121.679,37.56226],[-121.72901,37.58721],[-121.75412,37.59955],[-121.80058,37.6153],[-121.8309,37.59826],[-121.83241,37.56709],[-121.82256,37.54126],[-121.81508,37.52214],[-121.80825,37.4948],[-121.81779,37.47346],[-121.84034,37.45366],[-121.88488,37.44846],[-121.94176,37.44397],[-121.99072,37.45717],[-122.01369,37.46688],[-122.06086,37.48654],[-122.09334,37.50041],[-122.11665,37.51],[-122.13993,37.51985],[-122.18651,37.53953],[-122.19585,37.54338],[-122.28306,37.58008],[-122.30656,37.58999],[-122.32835,37.59915],[-122.34669,37.60688],[-122.35971,37.61231]],"type":"LineString"}
}
