{
  "id": 2031442115,
  "type": "Feature",
  "properties": {
    "geom:area": 0,
    "geom:bbox": "-122.396389,37.655278,-104.683333,41.197778",
    "geom:latitude": 40.24412176719608,
    "geom:longitude": -113.45102409227587,
    "src:alt_label": "swim-path",
    "src:geom": "swim",
    "swim:altitudes": [
      "020",
      "089",
      "089",
      "089",
      "175",
      "175",
      "204",
      "204",
      "253",
      "253",
      "253",
      "298",
      "298",
      "316",
      "316",
      "338",
      "339",
      "339",
      "350C",
      "350C",
      "350C",
      "350C",
      "350C",
      "350C",
      "350C",
      "350C",
      "350C",
      "350C",
      "350C",
      "350C",
      "350C",
      "350C",
      "350C",
      "350C",
      "350C",
      "350C",
      "350C",
      "350C",
      "350C",
      "350C",
      "350C",
      "350C",
      "350C",
      "350C",
      "350C",
      "350C",
      "350C",
      "350C",
      "350C",
      "350C",
      "350C",
      "350C",
      "350C",
      "350C",
      "350C",
      "350C",
      "350C",
      "350C",
      "350C",
      "350C",
      "350C",
      "350C",
      "350C",
      "350C",
      "350C",
      "350C",
      "350C",
      "350C",
      "350C",
      "350C",
      "350C",
      "350C",
      "350C",
      "350C",
      "350C",
      "350C",
      "350C",
      "351C",
      "350C",
      "350C",
      "350C",
      "350C",
      "350C",
      "350",
      "350",
      "326",
      "326",
      "319",
      "308",
      "308",
      "308",
      "278",
      "273",
      "271",
      "271",
      "226",
      "218",
      "195",
      "191",
      "191",
      "170",
      "152",
      "152",
      "147",
      "147",
      "127",
      "127",
      "117",
      "117",
      "110",
      "096",
      "067",
      "067",
      "055",
      "055",
      "055"
    ],
    "swim:geom": "path",
    "swim:speeds": [
      193,
      278,
      278,
      278,
      329,
      329,
      355,
      355,
      390,
      390,
      390,
      456,
      456,
      465,
      465,
      465,
      465,
      465,
      470,
      476,
      468,
      469,
      469,
      476,
      481,
      478,
      477,
      480,
      480,
      479,
      484,
      484,
      485,
      485,
      486,
      486,
      486,
      486,
      484,
      484,
      484,
      484,
      492,
      492,
      494,
      494,
      494,
      494,
      494,
      494,
      493,
      493,
      493,
      494,
      494,
      492,
      492,
      491,
      491,
      491,
      489,
      489,
      489,
      484,
      484,
      485,
      485,
      490,
      490,
      491,
      484,
      457,
      457,
      450,
      450,
      449,
      471,
      476,
      475,
      475,
      474,
      470,
      470,
      469,
      469,
      467,
      467,
      470,
      483,
      483,
      483,
      471,
      466,
      463,
      463,
      439,
      416,
      401,
      375,
      375,
      348,
      348,
      348,
      340,
      340,
      313,
      313,
      304,
      304,
      278,
      238,
      198,
      198,
      148,
      148,
      148
    ],
    "swim:timestamps": [
      1780520560,
      1780520740,
      1780520740,
      1780520740,
      1780520981,
      1780520981,
      1780521101,
      1780521101,
      1780521341,
      1780521341,
      1780521341,
      1780521641,
      1780521641,
      1780521752,
      1780521752,
      1780521873,
      1780521882,
      1780521882,
      1780522053,
      1780522113,
      1780522173,
      1780522233,
      1780522233,
      1780522302,
      1780522413,
      1780522422,
      1780522482,
      1780522654,
      1780522654,
      1780522723,
      1780522894,
      1780522894,
      1780523014,
      1780523023,
      1780523074,
      1780523074,
      1780523194,
      1780523194,
      1780523324,
      1780523324,
      1780523375,
      1780523375,
      1780523495,
      1780523495,
      1780523675,
      1780523675,
      1780523795,
      1780523795,
      1780523795,
      1780523855,
      1780524336,
      1780524396,
      1780524396,
      1780524576,
      1780524576,
      1780524696,
      1780524696,
      1780524937,
      1780524937,
      1780524937,
      1780525117,
      1780525117,
      1780525117,
      1780525585,
      1780525598,
      1780525658,
      1780525658,
      1780525826,
      1780525838,
      1780525898,
      1780525946,
      1780526006,
      1780526006,
      1780526126,
      1780526126,
      1780526138,
      1780526246,
      1780526306,
      1780526379,
      1780526379,
      1780526426,
      1780526547,
      1780526547,
      1780526559,
      1780526559,
      1780526727,
      1780526727,
      1780526787,
      1780526847,
      1780526847,
      1780526847,
      1780527027,
      1780527087,
      1780527095,
      1780527095,
      1780527268,
      1780527299,
      1780527388,
      1780527412,
      1780527412,
      1780527528,
      1780527628,
      1780527628,
      1780527647,
      1780527647,
      1780527767,
      1780527767,
      1780527827,
      1780527827,
      1780527886,
      1780527989,
      1780528169,
      1780528169,
      1780528254,
      1780528254,
      1780528254
    ],
    "wof:geomhash": "69e694cf57b0d3a21edec37c53085a25",
    "wof:id": 2031442115,
    "wof:repo": "sfomuseum-data-flights-2026-06"
  },
  "bbox": [
    -122.3963888888889,
    37.655277777777776,
    -104.68333333333334,
    41.19777777777777
  ],
  "geometry": {"coordinates":[[-122.3963888888889,37.655277777777776],[-122.24416666666667,37.80138888888889],[-122.24416666666667,37.80138888888889],[-122.24416666666667,37.80138888888889],[-122.02916666666667,38.05305555555555],[-122.02916666666667,38.05305555555555],[-121.81694444444445,38.14833333333333],[-121.81694444444445,38.14833333333333],[-121.3625,38.35333333333333],[-121.3625,38.35333333333333],[-121.3625,38.35333333333333],[-120.73611111111111,38.73888888888889],[-120.73611111111111,38.73888888888889],[-120.49055555555556,38.88611111111111],[-120.49055555555556,38.88611111111111],[-120.2286111111111,39.04333333333333],[-120.21027777777778,39.05694444444444],[-120.21027777777778,39.05694444444444],[-119.83,39.28194444444444],[-119.69416666666667,39.362500000000004],[-119.56083333333333,39.44],[-119.42472222222223,39.520833333333336],[-119.42472222222223,39.520833333333336],[-119.28555555555555,39.60333333333333],[-119.00805555555556,39.76416666666667],[-119.00555555555556,39.765277777777776],[-118.86861111111111,39.844166666666666],[-118.41416666666667,40.04083333333333],[-118.41416666666667,40.04083333333333],[-118.25666666666666,40.10416666666667],[-117.78055555555555,40.25527777777778],[-117.78055555555555,40.25527777777778],[-117.44250000000001,40.333333333333336],[-117.43833333333333,40.33444444444444],[-117.27222222222223,40.3725],[-117.27222222222223,40.3725],[-116.92916666666667,40.44972222222222],[-116.92916666666667,40.44972222222222],[-116.57555555555555,40.52833333333333],[-116.57555555555555,40.52833333333333],[-116.44333333333334,40.55722222222222],[-116.44333333333334,40.55722222222222],[-116.08694444444444,40.590833333333336],[-116.08694444444444,40.590833333333336],[-115.54777777777778,40.63055555555555],[-115.54777777777778,40.63055555555555],[-115.18694444444445,40.65555555555555],[-115.18694444444445,40.65555555555555],[-115.18694444444445,40.65555555555555],[-115.00861111111111,40.6675],[-113.56083333333333,40.74166666666667],[-113.38222222222221,40.75472222222222],[-113.38222222222221,40.75472222222222],[-112.8436111111111,40.79361111111111],[-112.8436111111111,40.79361111111111],[-112.485,40.81805555555556],[-112.485,40.81805555555556],[-111.7425,40.83833333333334],[-111.7425,40.83833333333334],[-111.7425,40.83833333333334],[-111.20944444444444,40.81083333333333],[-111.20944444444444,40.81083333333333],[-111.20944444444444,40.81083333333333],[-109.82805555555555,40.72777777777778],[-109.80777777777777,40.72638888888889],[-109.62777777777777,40.71416666666667],[-109.62777777777777,40.71416666666667],[-109.13,40.67916666666667],[-109.0825,40.675555555555555],[-108.90777777777778,40.66638888888889],[-108.77777777777777,40.69833333333333],[-108.66944444444445,40.79833333333333],[-108.66944444444445,40.79833333333333],[-108.53583333333333,41.024166666666666],[-108.53583333333333,41.024166666666666],[-108.5225,41.046388888888885],[-108.31777777777778,41.19777777777777],[-108.14750000000001,41.18138888888889],[-107.9413888888889,41.14861111111111],[-107.9413888888889,41.14861111111111],[-107.80749999999999,41.125277777777775],[-107.47222222222223,41.066944444444445],[-107.47222222222223,41.066944444444445],[-107.43666666666667,41.06055555555555],[-107.43666666666667,41.06055555555555],[-106.95111111111112,40.973888888888894],[-106.95111111111112,40.973888888888894],[-106.80499999999999,40.9475],[-106.63472222222222,40.907222222222224],[-106.63472222222222,40.907222222222224],[-106.63472222222222,40.907222222222224],[-106.14833333333334,40.765],[-105.9961111111111,40.72],[-105.95,40.7],[-105.95,40.7],[-105.53527777777778,40.581944444444446],[-105.45,40.55],[-105.2625,40.48916666666667],[-105.2,40.46666666666667],[-105.2,40.46666666666667],[-105.05,40.31666666666667],[-104.92722222222223,40.18611111111111],[-104.92722222222223,40.18611111111111],[-104.91666666666667,40.15],[-104.91666666666667,40.15],[-104.81666666666666,40],[-104.81666666666666,40],[-104.8,39.9],[-104.8,39.9],[-104.8,39.833333333333336],[-104.80083333333333,39.71277777777778],[-104.68805555555556,39.79861111111111],[-104.68805555555556,39.79861111111111],[-104.68333333333334,39.86666666666667],[-104.68333333333334,39.86666666666667],[-104.68333333333334,39.86666666666667]],"type":"LineString"}
}
