{
  "id": 2031479077,
  "type": "Feature",
  "properties": {
    "geom:area": 0,
    "geom:bbox": "-122.406920,37.630310,-121.281580,37.960040",
    "geom:latitude": 37.83010345714615,
    "geom:longitude": -121.8657080913178,
    "src:alt_label": "swim-takeoff",
    "src:geom": "swim",
    "swim:elevations": [
      183,
      399,
      770,
      1333,
      1406,
      1564,
      1868,
      2488,
      3127,
      3288,
      3584,
      3784,
      4289,
      4635,
      4959,
      5540,
      5583,
      5717,
      6120,
      6286,
      6872,
      7191,
      7499,
      8013,
      8056
    ],
    "swim:geom": "takeoff",
    "swim:timestamps": [
      1780822765,
      1780822777,
      1780822802,
      1780822856,
      1780822868,
      1780822907,
      1780822936,
      1780822969,
      1780823005,
      1780823017,
      1780823044,
      1780823061,
      1780823092,
      1780823117,
      1780823140,
      1780823181,
      1780823184,
      1780823193,
      1780823224,
      1780823236,
      1780823289,
      1780823317,
      1780823344,
      1780823397,
      1780823401
    ],
    "wof:geomhash": "cb0a9f221651cb445184c8047ca1c62c",
    "wof:id": 2031479077,
    "wof:repo": "sfomuseum-data-flights-2026-06"
  },
  "bbox": [
    -122.40692,
    37.63031,
    -121.28158,
    37.96004
  ],
  "geometry": {"coordinates":[[-122.39664,37.63031],[-122.40692,37.63635],[-122.40589,37.65435],[-122.34878,37.67309],[-122.33341,37.6785],[-122.277,37.6974],[-122.23362,37.71152],[-122.18421,37.7331],[-122.13311,37.75972],[-122.11572,37.76893],[-122.07298,37.79134],[-122.04378,37.80644],[-121.98801,37.83096],[-121.93777,37.84347],[-121.88865,37.85199],[-121.79921,37.86808],[-121.7926,37.8693],[-121.77271,37.87304],[-121.70378,37.88582],[-121.67553,37.891],[-121.55311,37.91279],[-121.48622,37.9245],[-121.42212,37.93564],[-121.29362,37.95815],[-121.28158,37.96004]],"type":"LineString"}
}
