{
  "id": 2031468551,
  "type": "Feature",
  "properties": {
    "geom:area": 0,
    "geom:bbox": "-123.328420,37.625060,-122.390110,38.506000",
    "geom:latitude": 38.02327033220465,
    "geom:longitude": -122.89306270833804,
    "src:alt_label": "swim-takeoff",
    "src:geom": "swim",
    "swim:elevations": [
      122,
      516,
      642,
      1038,
      1276,
      1533,
      1657,
      2121,
      2663,
      2742,
      3265,
      3328,
      3531,
      3790,
      3929,
      4238,
      4616,
      4708,
      5004,
      5165,
      5628,
      5729,
      6055,
      6445,
      6579,
      6828,
      7102
    ],
    "swim:geom": "takeoff",
    "swim:timestamps": [
      1780756057,
      1780756077,
      1780756085,
      1780756129,
      1780756167,
      1780756188,
      1780756202,
      1780756241,
      1780756287,
      1780756293,
      1780756345,
      1780756357,
      1780756391,
      1780756431,
      1780756442,
      1780756475,
      1780756511,
      1780756520,
      1780756551,
      1780756569,
      1780756614,
      1780756624,
      1780756658,
      1780756708,
      1780756728,
      1780756761,
      1780756797
    ],
    "wof:geomhash": "f9faf262dea9758116626d250763ace5",
    "wof:id": 2031468551,
    "wof:repo": "sfomuseum-data-flights-2026-06"
  },
  "bbox": [
    -123.32842,
    37.62506,
    -122.39011,
    38.506
  ],
  "geometry": {"coordinates":[[-122.39011,37.62506],[-122.40855,37.63282],[-122.41605,37.63618],[-122.46215,37.65659],[-122.5083,37.67798],[-122.53426,37.69313],[-122.55182,37.7034],[-122.6021,37.73298],[-122.6655,37.77014],[-122.67341,37.77476],[-122.74516,37.81706],[-122.76079,37.82961],[-122.79816,37.87289],[-122.84461,37.92961],[-122.85787,37.94576],[-122.89741,37.99356],[-122.9425,38.04754],[-122.95356,38.0608],[-122.99342,38.10839],[-123.01697,38.1365],[-123.07608,38.20702],[-123.08932,38.22281],[-123.13477,38.27694],[-123.20224,38.35709],[-123.22952,38.38893],[-123.27722,38.44522],[-123.32842,38.506]],"type":"LineString"}
}
