{
  "id": 2031457999,
  "type": "Feature",
  "properties": {
    "geom:area": 0,
    "geom:bbox": "-122.386111,37.616667,-87.582222,43.506667",
    "geom:latitude": 42.12264988919472,
    "geom:longitude": -105.21884660528731,
    "src:alt_label": "swim-path",
    "src:geom": "swim",
    "swim:altitudes": [
      "007",
      "041",
      "058",
      "077",
      "095",
      "115",
      "135",
      "148",
      "183",
      "196",
      "245",
      "264",
      "272",
      "281",
      "294",
      "294",
      "298",
      "304",
      "310C",
      "310C",
      "310C",
      "310C",
      "310C",
      "311C",
      "311C",
      "310C",
      "310C",
      "310C",
      "310C",
      "310C",
      "310C",
      "310C",
      "310C",
      "311C",
      "310C",
      "310C",
      "310C",
      "310C",
      "311C",
      "310C",
      "310C",
      "310C",
      "310C",
      "310C",
      "310C",
      "310C",
      "310C",
      "310C",
      "310C",
      "310C",
      "310C",
      "310C",
      "310C",
      "310C",
      "310C",
      "310C",
      "310C",
      "310C",
      "310C",
      "310C",
      "310C",
      "310C",
      "310C",
      "310C",
      "310C",
      "310C",
      "310C",
      "310C",
      "310C",
      "310C",
      "310C",
      "310C",
      "312",
      "320",
      "330C",
      "331C",
      "330C",
      "330C",
      "330C",
      "330C",
      "330C",
      "331C",
      "330C",
      "330C",
      "330C",
      "330C",
      "330C",
      "330C",
      "330C",
      "330C",
      "330C",
      "330C",
      "325",
      "290C",
      "290C",
      "290C",
      "290C",
      "290C",
      "290C",
      "290C",
      "290C",
      "290C",
      "290C",
      "290C",
      "290C",
      "290C",
      "290C",
      "290C",
      "290C",
      "290C",
      "290C",
      "290",
      "290",
      "251",
      "180",
      "179",
      "154",
      "152",
      "110",
      "110",
      "110",
      "110",
      "110",
      "106",
      "105",
      "097",
      "094",
      "071",
      "040",
      "040",
      "040",
      "040",
      "030",
      "022",
      "019",
      "008"
    ],
    "swim:geom": "path",
    "swim:speeds": [
      166,
      255,
      260,
      276,
      296,
      369,
      422,
      433,
      466,
      469,
      488,
      477,
      476,
      478,
      483,
      484,
      489,
      494,
      513,
      513,
      513,
      511,
      511,
      509,
      503,
      502,
      502,
      500,
      498,
      496,
      495,
      494,
      495,
      496,
      500,
      501,
      503,
      502,
      505,
      505,
      503,
      502,
      507,
      503,
      501,
      501,
      502,
      503,
      504,
      503,
      504,
      498,
      489,
      491,
      492,
      492,
      492,
      493,
      493,
      493,
      492,
      492,
      490,
      489,
      488,
      488,
      487,
      487,
      487,
      487,
      486,
      486,
      485,
      486,
      484,
      490,
      489,
      487,
      486,
      486,
      486,
      484,
      483,
      482,
      482,
      483,
      484,
      485,
      486,
      485,
      483,
      482,
      486,
      485,
      485,
      485,
      484,
      488,
      489,
      490,
      490,
      491,
      491,
      491,
      494,
      497,
      497,
      508,
      510,
      511,
      511,
      513,
      511,
      491,
      473,
      469,
      432,
      436,
      398,
      402,
      394,
      397,
      395,
      366,
      361,
      335,
      336,
      322,
      298,
      297,
      212,
      206,
      189,
      158,
      156,
      154
    ],
    "swim:timestamps": [
      1780727437,
      1780727576,
      1780727628,
      1780727688,
      1780727748,
      1780727868,
      1780727988,
      1780728048,
      1780728229,
      1780728289,
      1780728589,
      1780728649,
      1780728709,
      1780728762,
      1780728882,
      1780728889,
      1780728942,
      1780729009,
      1780729182,
      1780729243,
      1780729303,
      1780729429,
      1780729489,
      1780729609,
      1780729843,
      1780729903,
      1780729910,
      1780729970,
      1780730023,
      1780730083,
      1780730090,
      1780730143,
      1780730203,
      1780730263,
      1780730443,
      1780730503,
      1780730743,
      1780730804,
      1780730924,
      1780730984,
      1780731104,
      1780731224,
      1780731404,
      1780731644,
      1780731704,
      1780731824,
      1780731884,
      1780731944,
      1780732064,
      1780732184,
      1780732244,
      1780732545,
      1780732725,
      1780732845,
      1780732862,
      1780732905,
      1780732922,
      1780733025,
      1780733085,
      1780733102,
      1780733145,
      1780733205,
      1780733282,
      1780733342,
      1780733385,
      1780733402,
      1780733463,
      1780733523,
      1780733625,
      1780733643,
      1780733685,
      1780733745,
      1780733883,
      1780733943,
      1780734063,
      1780734663,
      1780734723,
      1780734843,
      1780734865,
      1780734903,
      1780734925,
      1780735203,
      1780735225,
      1780735383,
      1780735405,
      1780735525,
      1780735645,
      1780735684,
      1780735705,
      1780735825,
      1780735945,
      1780736005,
      1780736425,
      1780736666,
      1780736726,
      1780736786,
      1780736846,
      1780737326,
      1780737632,
      1780737806,
      1780737866,
      1780737926,
      1780738046,
      1780738106,
      1780738226,
      1780738286,
      1780738292,
      1780738526,
      1780738586,
      1780738646,
      1780738706,
      1780738832,
      1780738952,
      1780739132,
      1780739237,
      1780739253,
      1780739297,
      1780739310,
      1780739411,
      1780739433,
      1780739537,
      1780739611,
      1780739657,
      1780739717,
      1780739733,
      1780739777,
      1780739793,
      1780739851,
      1780739951,
      1780739970,
      1780740091,
      1780740132,
      1780740192,
      1780740252,
      1780740271,
      1780740393
    ],
    "wof:geomhash": "4ae863d5dfe2e9f8b7222672235bd46c",
    "wof:id": 2031457999,
    "wof:repo": "sfomuseum-data-flights-2026-06"
  },
  "bbox": [
    -122.38611111111112,
    37.61666666666667,
    -87.58222222222221,
    43.50666666666667
  ],
  "geometry": {"coordinates":[[-122.38333333333334,37.61666666666667],[-122.33333333333333,37.75],[-122.36749999999999,37.80472222222222],[-122.38611111111112,37.878055555555555],[-122.36361111111111,37.95305555555556],[-122.17611111111111,38.06777777777778],[-121.94722222222222,38.20666666666667],[-121.82444444444444,38.280833333333334],[-121.44444444444444,38.50944444444445],[-121.30722222222222,38.593333333333334],[-120.64416666666668,38.9925],[-120.50611111111111,39.07472222222223],[-120.37083333333332,39.15472222222222],[-120.23388888888888,39.234722222222224],[-119.95694444444445,39.396388888888886],[-119.95555555555556,39.39861111111111],[-119.81361111111111,39.478611111111114],[-119.67055555555557,39.564166666666665],[-119.23277777777778,39.815555555555555],[-119.08,39.90138888888889],[-118.92500000000001,39.97944444444445],[-118.5961111111111,40.12027777777778],[-118.43527777777778,40.18833333333333],[-118.1086111111111,40.32333333333334],[-117.46666666666667,40.52027777777778],[-117.29694444444445,40.57138888888889],[-117.25944444444444,40.5825],[-117.08833333333332,40.63361111111111],[-116.95277777777778,40.67388888888889],[-116.78277777777778,40.723888888888894],[-116.74861111111112,40.73416666666667],[-116.61416666666666,40.77361111111111],[-116.44361111111111,40.82333333333334],[-116.27472222222222,40.87222222222222],[-115.75722222222223,41.019999999999996],[-115.58388888888888,41.06888888888889],[-114.88861111111112,41.26138888888889],[-114.70527777777778,41.311388888888885],[-114.35416666666666,41.40611111111111],[-114.17555555555556,41.45388888888889],[-113.82916666666667,41.55638888888888],[-113.48944444444444,41.66694444444444],[-112.96722222222222,41.83416666666667],[-112.26083333333334,42.028055555555554],[-112.07888888888888,42.065555555555555],[-111.71722222222222,42.13916666666667],[-111.53694444444444,42.17527777777777],[-111.35499999999999,42.21138888888889],[-110.98722222222223,42.28333333333333],[-110.64111111111112,42.35027777777778],[-110.45583333333333,42.38527777777778],[-109.54138888888889,42.55416666666667],[-109.00194444444445,42.65],[-108.64027777777778,42.71277777777778],[-108.60527777777777,42.719166666666666],[-108.46000000000001,42.743611111111115],[-108.42472222222223,42.74944444444444],[-108.09527777777777,42.80472222222222],[-107.915,42.83444444444444],[-107.88,42.84027777777778],[-107.73138888888889,42.864444444444445],[-107.55083333333333,42.89361111111111],[-107.32249999999999,42.93],[-107.1375,42.95916666666667],[-106.99805555555555,42.98083333333334],[-106.95583333333333,42.987500000000004],[-106.77361111111111,43.01555555555556],[-106.59444444444443,43.043055555555554],[-106.3025,43.08694444444445],[-106.23083333333334,43.09638888888889],[-106.12083333333332,43.10888888888889],[-105.93805555555556,43.129444444444445],[-105.5038888888889,43.17722222222222],[-105.31805555555555,43.197222222222216],[-104.95138888888889,43.23583333333333],[-103.10444444444444,43.410555555555554],[-102.91722222222222,43.42666666666666],[-102.55,43.456944444444446],[-102.48444444444445,43.462500000000006],[-102.36333333333333,43.47222222222222],[-102.29777777777778,43.477222222222224],[-101.45111111111112,43.50361111111111],[-101.3775,43.50388888888889],[-100.90277777777779,43.504444444444445],[-100.8286111111111,43.50472222222222],[-100.45972222222223,43.506388888888885],[-100.08944444444444,43.50666666666667],[-99.98055555555555,43.506388888888885],[-99.90472222222223,43.50611111111111],[-99.53527777777778,43.50472222222222],[-99.16944444444445,43.50194444444445],[-98.98666666666666,43.5],[-97.7063888888889,43.47916666666667],[-96.96916666666667,43.46083333333333],[-96.78527777777778,43.45527777777778],[-96.60111111111111,43.44972222222222],[-96.41805555555555,43.44361111111111],[-94.9525,43.31583333333333],[-94.01166666666667,43.189722222222215],[-93.46055555555556,43.11194444444445],[-93.2786111111111,43.08555555555556],[-93.09638888888888,43.05888888888889],[-92.73083333333334,43.004444444444445],[-92.54972222222221,42.977222222222224],[-92.18277777777779,42.920833333333334],[-91.9961111111111,42.89138888888889],[-91.99888888888889,42.89194444444444],[-91.30583333333333,42.70333333333333],[-91.13833333333334,42.634166666666665],[-90.96805555555555,42.56333333333333],[-90.80111111111111,42.493611111111115],[-90.46555555555555,42.35722222222223],[-90.06722222222221,42.275555555555556],[-89.53333333333333,42.31722222222223],[-89.2,42.35],[-89.18944444444445,42.343333333333334],[-89.03333333333333,42.35],[-89.02416666666666,42.355000000000004],[-88.73333333333333,42.38333333333333],[-88.71638888888889,42.37722222222222],[-88.45,42.3],[-88.30166666666666,42.22805555555556],[-88.2,42.18333333333333],[-88.06666666666666,42.13333333333333],[-88.05,42.12277777777778],[-87.95,42.11666666666667],[-87.92611111111111,42.108333333333334],[-87.80583333333333,42.09777777777778],[-87.61666666666666,42.083333333333336],[-87.58222222222221,42.07833333333333],[-87.59694444444445,41.98972222222222],[-87.65,41.983333333333334],[-87.71666666666667,41.983333333333334],[-87.78333333333333,41.983333333333334],[-87.80333333333333,41.98833333333334],[-87.90611111111112,41.98833333333334]],"type":"LineString"}
}
