{
  "id": 2031518501,
  "type": "Feature",
  "properties": {
    "geom:area": 0,
    "geom:bbox": "-122.353450,37.483780,-121.249350,37.609640",
    "geom:latitude": 37.54160381958237,
    "geom:longitude": -121.8079351863485,
    "src:alt_label": "swim-approach",
    "src:geom": "swim",
    "swim:elevations": [
      4594,
      4172,
      4010,
      3596,
      3251,
      3050,
      3049,
      2927,
      2802,
      2689,
      2615,
      2230,
      2078,
      2004,
      1829,
      1786,
      1613,
      1408,
      944,
      908,
      848,
      611,
      506,
      365,
      245,
      157,
      41
    ],
    "swim:geom": "approach",
    "swim:timestamps": [
      1781258311,
      1781258356,
      1781258371,
      1781258416,
      1781258450,
      1781258483,
      1781258492,
      1781258538,
      1781258569,
      1781258589,
      1781258604,
      1781258660,
      1781258697,
      1781258707,
      1781258757,
      1781258773,
      1781258798,
      1781258826,
      1781258904,
      1781258913,
      1781258922,
      1781258964,
      1781258987,
      1781259021,
      1781259049,
      1781259076,
      1781259109
    ],
    "wof:geomhash": "7a7d6e8d841935e5c3ae3d4fefa58059",
    "wof:id": 2031518501,
    "wof:repo": "sfomuseum-data-flights-2026-06"
  },
  "bbox": [
    -122.35345,
    37.48378,
    -121.24935,
    37.60964
  ],
  "geometry": {"coordinates":[[-121.24935,37.59437],[-121.33829,37.58337],[-121.36905,37.58008],[-121.45621,37.57041],[-121.52158,37.56277],[-121.58412,37.55528],[-121.599,37.55349],[-121.67484,37.53874],[-121.72201,37.52727],[-121.7501,37.52053],[-121.771,37.51558],[-121.84633,37.49762],[-121.8966,37.48553],[-121.90884,37.48378],[-121.97761,37.4922],[-121.99932,37.49517],[-122.03196,37.4996],[-122.06948,37.50447],[-122.16835,37.53178],[-122.17884,37.53629],[-122.1888,37.54048],[-122.23456,37.5597],[-122.25793,37.56954],[-122.28643,37.58152],[-122.30812,37.59059],[-122.32836,37.59905],[-122.35345,37.60964]],"type":"LineString"}
}
