{
  "id": 2031587843,
  "type": "Feature",
  "properties": {
    "geom:area": 0,
    "geom:bbox": "-122.400060,37.623000,-121.259620,37.956460",
    "geom:latitude": 37.81427886309062,
    "geom:longitude": -121.84821728756084,
    "src:alt_label": "swim-takeoff",
    "src:geom": "swim",
    "swim:elevations": [
      152,
      621,
      821,
      1130,
      1292,
      1734,
      1920,
      2649,
      2817,
      3293,
      3337,
      3518,
      3752,
      4232,
      4453,
      4920,
      5121,
      5268,
      5513,
      5658,
      6080,
      6238,
      6763,
      6883,
      7188
    ],
    "swim:geom": "takeoff",
    "swim:timestamps": [
      1781897690,
      1781897724,
      1781897739,
      1781897776,
      1781897808,
      1781897847,
      1781897860,
      1781897905,
      1781897914,
      1781897958,
      1781897970,
      1781897996,
      1781898011,
      1781898045,
      1781898074,
      1781898114,
      1781898133,
      1781898145,
      1781898169,
      1781898184,
      1781898225,
      1781898241,
      1781898294,
      1781898310,
      1781898342
    ],
    "wof:geomhash": "4fa7676ded8a275b626fe90e9c5d0311",
    "wof:id": 2031587843,
    "wof:repo": "sfomuseum-data-flights-2026-06"
  },
  "bbox": [
    -122.40006,
    37.623,
    -121.25962,
    37.95646
  ],
  "geometry": {"coordinates":[[-122.38464,37.623],[-122.40006,37.64406],[-122.39072,37.6538],[-122.35688,37.66507],[-122.32128,37.67653],[-122.26618,37.69746],[-122.24773,37.70476],[-122.1827,37.73424],[-122.16871,37.74157],[-122.09705,37.76418],[-122.07554,37.76925],[-122.02413,37.78135],[-121.99296,37.7887],[-121.925,37.80456],[-121.86648,37.81812],[-121.77972,37.83813],[-121.73814,37.84763],[-121.71174,37.85376],[-121.65877,37.86586],[-121.62746,37.87303],[-121.53394,37.89441],[-121.49821,37.90253],[-121.37376,37.93077],[-121.33624,37.93922],[-121.25962,37.95646]],"type":"LineString"}
}
