{
  "id": 2031615057,
  "type": "Feature",
  "properties": {
    "geom:area": 0,
    "geom:bbox": "-123.482710,37.466380,-122.765830,37.677810",
    "geom:latitude": 37.57250434315643,
    "geom:longitude": -123.12439087817843,
    "src:alt_label": "swim-takeoff",
    "src:geom": "swim",
    "swim:elevations": [
      2957,
      3078,
      3260,
      3459,
      3505,
      3951,
      4264,
      4578,
      4822,
      5171,
      5484,
      5693,
      5977,
      6222
    ],
    "swim:geom": "takeoff",
    "swim:timestamps": [
      1782138521,
      1782138534,
      1782138563,
      1782138598,
      1782138607,
      1782138658,
      1782138687,
      1782138712,
      1782138735,
      1782138768,
      1782138800,
      1782138822,
      1782138851,
      1782138878
    ],
    "wof:geomhash": "faabe9317529269e5768bcc4f2f1da2b",
    "wof:id": 2031615057,
    "wof:repo": "sfomuseum-data-flights-2026-06"
  },
  "bbox": [
    -123.48271,
    37.46638,
    -122.76583,
    37.67781
  ],
  "geometry": {"coordinates":[[-122.76583,37.67781],[-122.78664,37.67169],[-122.83381,37.65797],[-122.89791,37.63926],[-122.91496,37.63426],[-123.01767,37.60409],[-123.07768,37.58643],[-123.12939,37.57116],[-123.17622,37.55741],[-123.24571,37.53696],[-123.3138,37.51676],[-123.36236,37.5023],[-123.42409,37.48396],[-123.48271,37.46638]],"type":"LineString"}
}
