{
  "id": 2031627835,
  "type": "Feature",
  "properties": {
    "geom:area": 0,
    "geom:bbox": "-122.355180,36.720460,-121.877590,37.610350",
    "geom:latitude": 37.2088925474856,
    "geom:longitude": -122.0684811819154,
    "src:alt_label": "swim-approach",
    "src:geom": "swim",
    "swim:elevations": [
      5643,
      5587,
      5072,
      5023,
      4516,
      4333,
      4055,
      3538,
      3282,
      3084,
      2999,
      2814,
      2632,
      2438,
      2377,
      2246,
      2044,
      1924,
      1869,
      1746,
      1533,
      1371,
      1197,
      1067,
      891,
      852,
      820,
      721,
      578,
      546,
      333,
      219,
      168,
      95,
      29
    ],
    "swim:geom": "approach",
    "swim:timestamps": [
      1782342986,
      1782342992,
      1782343045,
      1782343050,
      1782343099,
      1782343117,
      1782343140,
      1782343188,
      1782343208,
      1782343256,
      1782343285,
      1782343311,
      1782343337,
      1782343367,
      1782343390,
      1782343419,
      1782343451,
      1782343465,
      1782343472,
      1782343486,
      1782343516,
      1782343539,
      1782343577,
      1782343601,
      1782343639,
      1782343645,
      1782343651,
      1782343675,
      1782343701,
      1782343713,
      1782343766,
      1782343796,
      1782343813,
      1782343833,
      1782343851
    ],
    "wof:geomhash": "97b5b32f921dd487bbebe3d58ed154a9",
    "wof:id": 2031627835,
    "wof:repo": "sfomuseum-data-flights-2026-06"
  },
  "bbox": [
    -122.35518,
    36.72046,
    -121.87759,
    37.61035
  ],
  "geometry": {"coordinates":[[-121.87759,36.72046],[-121.88376,36.72963],[-121.9148,36.81584],[-121.91704,36.82387],[-121.93999,36.9056],[-121.94817,36.93464],[-121.96067,36.97104],[-121.9887,37.04333],[-122.00039,37.07311],[-122.0261,37.13922],[-122.04057,37.17612],[-122.05282,37.20712],[-122.06515,37.23874],[-122.07949,37.27534],[-122.08963,37.30107],[-122.10234,37.33334],[-122.11577,37.3672],[-122.12116,37.38095],[-122.1238,37.38861],[-122.12885,37.40357],[-122.13919,37.43385],[-122.14662,37.45578],[-122.15862,37.49114],[-122.16612,37.51314],[-122.18663,37.53949],[-122.19221,37.54166],[-122.19781,37.54393],[-122.2194,37.55335],[-122.24252,37.56312],[-122.2525,37.56726],[-122.29357,37.58449],[-122.31576,37.59384],[-122.3278,37.59887],[-122.34221,37.60494],[-122.35518,37.61035]],"type":"LineString"}
}
