{
  "id": 2031597037,
  "type": "Feature",
  "properties": {
    "geom:area": 0,
    "geom:bbox": "-122.416880,37.628470,-122.290220,37.698530",
    "geom:latitude": 37.67555850389571,
    "geom:longitude": -122.36752256518062,
    "src:alt_label": "swim-takeoff",
    "src:geom": "swim",
    "swim:elevations": [
      152,
      733,
      952,
      1197,
      1373,
      1664
    ],
    "swim:geom": "takeoff",
    "swim:timestamps": [
      1781969765,
      1781969814,
      1781969836,
      1781969872,
      1781969888,
      1781969915
    ],
    "wof:geomhash": "7b061c3fff2d76e50b1cb9a15578add7",
    "wof:id": 2031597037,
    "wof:repo": "sfomuseum-data-flights-2026-06"
  },
  "bbox": [
    -122.41688,
    37.62847,
    -122.29022,
    37.69853
  ],
  "geometry": {"coordinates":[[-122.3925,37.62847],[-122.41688,37.66353],[-122.39932,37.67923],[-122.35346,37.68546],[-122.33066,37.68969],[-122.29022,37.69853]],"type":"LineString"}
}
