{
  "id": 2031601141,
  "type": "Feature",
  "properties": {
    "geom:area": 0,
    "geom:bbox": "-122.939490,37.263480,-122.107450,38.505250",
    "geom:latitude": 37.74192269455549,
    "geom:longitude": -122.47332026823663,
    "src:alt_label": "swim-approach",
    "src:geom": "swim",
    "swim:elevations": [
      7413,
      7350,
      7102,
      6877,
      6594,
      6254,
      5953,
      5715,
      5650,
      5494,
      5206,
      4895,
      4644,
      4295,
      4177,
      3911,
      3616,
      3357,
      3353,
      3353,
      3353,
      3353,
      3353,
      3353,
      3353,
      3353,
      3152,
      2982,
      2856,
      2712,
      2493,
      2426,
      2152,
      1985,
      1885,
      1855,
      1829,
      1829,
      1829,
      1829,
      1829,
      1829,
      1829,
      1749,
      1440,
      1219,
      1219,
      1219,
      1219,
      1219,
      1108,
      1041,
      822,
      704,
      543,
      442,
      362,
      244,
      143,
      31
    ],
    "swim:geom": "approach",
    "swim:timestamps": [
      1782070974,
      1782070987,
      1782071038,
      1782071063,
      1782071091,
      1782071124,
      1782071155,
      1782071180,
      1782071186,
      1782071201,
      1782071229,
      1782071262,
      1782071289,
      1782071325,
      1782071337,
      1782071361,
      1782071383,
      1782071411,
      1782071455,
      1782071477,
      1782071517,
      1782071521,
      1782071538,
      1782071571,
      1782071605,
      1782071617,
      1782071662,
      1782071686,
      1782071701,
      1782071749,
      1782071781,
      1782071793,
      1782071834,
      1782071857,
      1782071875,
      1782071883,
      1782071921,
      1782071951,
      1782071996,
      1782072018,
      1782072028,
      1782072032,
      1782072042,
      1782072065,
      1782072098,
      1782072141,
      1782072174,
      1782072193,
      1782072201,
      1782072212,
      1782072262,
      1782072271,
      1782072325,
      1782072349,
      1782072383,
      1782072406,
      1782072429,
      1782072470,
      1782072489,
      1782072527
    ],
    "wof:geomhash": "46e382b8064faeef3543f283c3df18c2",
    "wof:id": 2031601141,
    "wof:repo": "sfomuseum-data-flights-2026-06"
  },
  "bbox": [
    -122.93949,
    37.26348,
    -122.10745,
    38.50525
  ],
  "geometry": {"coordinates":[[-122.93949,38.50525],[-122.92933,38.48212],[-122.88754,38.38816],[-122.86783,38.34352],[-122.84521,38.29236],[-122.81975,38.23439],[-122.79606,38.18052],[-122.77773,38.13935],[-122.7733,38.12926],[-122.76226,38.10392],[-122.74141,38.05591],[-122.71812,38.00251],[-122.6991,37.95889],[-122.67267,37.90289],[-122.6576,37.88558],[-122.62657,37.8562],[-122.59727,37.82836],[-122.56099,37.79385],[-122.50977,37.74527],[-122.48694,37.72361],[-122.44759,37.68675],[-122.44389,37.68326],[-122.42761,37.66805],[-122.39479,37.63655],[-122.36525,37.60376],[-122.3586,37.58999],[-122.32735,37.54132],[-122.31219,37.51599],[-122.30637,37.49863],[-122.32075,37.44279],[-122.33097,37.4071],[-122.33385,37.39238],[-122.31972,37.34644],[-122.31069,37.32103],[-122.29536,37.30471],[-122.28635,37.29931],[-122.23878,37.28522],[-122.19892,37.27588],[-122.14066,37.26348],[-122.11428,37.27346],[-122.10857,37.28236],[-122.10745,37.28696],[-122.1083,37.29681],[-122.11689,37.31933],[-122.12368,37.35244],[-122.12886,37.39769],[-122.1328,37.43212],[-122.13498,37.45287],[-122.13589,37.46113],[-122.13704,37.47167],[-122.14258,37.51944],[-122.14511,37.52667],[-122.1966,37.544],[-122.2194,37.55329],[-122.25169,37.56699],[-122.27132,37.5751],[-122.28826,37.58224],[-122.31571,37.59377],[-122.32851,37.59924],[-122.35297,37.60952]],"type":"LineString"}
}
