{
  "id": 2031533391,
  "type": "Feature",
  "properties": {
    "geom:area": 0,
    "geom:bbox": "-123.503020,37.412450,-122.396750,37.672480",
    "geom:latitude": 37.554988316993686,
    "geom:longitude": -122.94798574654686,
    "src:alt_label": "swim-takeoff",
    "src:geom": "swim",
    "swim:elevations": [
      152,
      305,
      444,
      563,
      714,
      938,
      1132,
      1345,
      1476,
      2010,
      2046,
      2334,
      2412,
      2748,
      3350,
      3564,
      3774,
      4012,
      4040,
      4121,
      4446,
      4547,
      4903,
      5294,
      5364,
      5528,
      5829,
      5895
    ],
    "swim:geom": "takeoff",
    "swim:timestamps": [
      1781394836,
      1781394851,
      1781394861,
      1781394871,
      1781394889,
      1781394910,
      1781394944,
      1781394985,
      1781395006,
      1781395048,
      1781395051,
      1781395075,
      1781395081,
      1781395111,
      1781395166,
      1781395184,
      1781395208,
      1781395237,
      1781395246,
      1781395264,
      1781395312,
      1781395323,
      1781395363,
      1781395407,
      1781395415,
      1781395433,
      1781395466,
      1781395472
    ],
    "wof:geomhash": "eb6ee09224fe4a925abd76517c39f22b",
    "wof:id": 2031533391,
    "wof:repo": "sfomuseum-data-flights-2026-06"
  },
  "bbox": [
    -123.50302,
    37.41245,
    -122.39675,
    37.67248
  ],
  "geometry": {"coordinates":[[-122.39675,37.62783],[-122.41175,37.634],[-122.42136,37.63822],[-122.43122,37.64274],[-122.44976,37.65114],[-122.47178,37.66073],[-122.51116,37.67248],[-122.5695,37.65836],[-122.60283,37.64921],[-122.67153,37.63127],[-122.67645,37.62996],[-122.71718,37.61949],[-122.72728,37.61702],[-122.77723,37.60391],[-122.872,37.5791],[-122.90382,37.57106],[-122.94683,37.55967],[-123.00019,37.54581],[-123.01733,37.54121],[-123.0517,37.53208],[-123.15121,37.50599],[-123.17474,37.49969],[-123.26065,37.47695],[-123.35925,37.45078],[-123.37665,37.44608],[-123.41562,37.43571],[-123.48955,37.41608],[-123.50302,37.41245]],"type":"LineString"}
}
