{
  "id": 2031529623,
  "type": "Feature",
  "properties": {
    "geom:area": 0,
    "geom:bbox": "-122.380000,32.900000,-97.040000,38.630000",
    "geom:latitude": 36.89857091635574,
    "geom:longitude": -110.07893711740178,
    "src:alt_label": "swim-route",
    "src:geom": "swim",
    "swim:geom": "route",
    "wof:geomhash": "930c67c452437b5a036e1cfeaf019ac6",
    "wof:id": 2031529623,
    "wof:repo": "sfomuseum-data-flights-2026-06"
  },
  "bbox": [
    -122.38,
    32.9,
    -97.04,
    38.63
  ],
  "geometry": {"coordinates":[[-122.38,37.62],[-122.27,37.69],[-122.22,37.72],[-122.21,37.72],[-122.16,37.75],[-122.12,37.76],[-122.09,37.78],[-122.02,37.82],[-122.01,37.82],[-122,37.83],[-121.94,37.84],[-121.73,37.88],[-121.7,37.88],[-121.59,37.9],[-121.46,37.93],[-121.41,37.94],[-121.34,37.95],[-121.2,38.06],[-121.2,38.07],[-121.13,38.13],[-120.96,38.15],[-120.77,38.17],[-120.72,38.17],[-120.61,38.19],[-120.58,38.21],[-119.5,38.34],[-119.39,38.35],[-119.32,38.36],[-120.29,38.47],[-120.18,38.56],[-120.1,38.63],[-120.07,38.63],[-119.91,38.63],[-119.57,38.62],[-119.26,38.61],[-117.29,38.52],[-117.28,38.52],[-114.92,38.3],[-114.56,38.27],[-114.39,38.25],[-114.08,38.15],[-113.68,38.03],[-113.14,37.86],[-112.88,37.77],[-112.65,37.7],[-111.84,37.43],[-111.66,37.37],[-111.5,37.34],[-109.19,36.92],[-108.28,36.74],[-108.08,36.7],[-106.55,36.6],[-106.47,36.6],[-106.43,36.6],[-106.2,36.59],[-105.35,36.59],[-105.18,36.59],[-104.72,36.59],[-104.29,36.59],[-104.2,36.58],[-103.7,36.6],[-103.51,36.5],[-103.34,36.45],[-103.25,36.4],[-103.14,36.34],[-102.84,36.18],[-102.54,36.01],[-102.32,35.89],[-100.88,35.1],[-100.44,34.86],[-100.36,34.83],[-99.45,34.36],[-99.35,34.31],[-99.07,34.16],[-98.91,34.07],[-98.83,34.03],[-98.6,33.91],[-98.5,33.85],[-98.45,33.83],[-98.39,33.79],[-98.38,33.79],[-98.2,33.69],[-98.09,33.63],[-98.03,33.6],[-98.03,33.6],[-97.98,33.57],[-97.77,33.45],[-97.71,33.42],[-97.64,33.38],[-97.6,33.36],[-97.55,33.33],[-97.46,33.27],[-97.19,33.24],[-97.29,33.11],[-97.27,33.09],[-97.24,33.06],[-97.23,33.05],[-97.18,33],[-97.16,32.99],[-97.16,32.99],[-97.09,32.94],[-97.04,32.9]],"type":"LineString"}
}
