{
  "id": 2031453305,
  "type": "Feature",
  "properties": {
    "geom:area": 0,
    "geom:bbox": "-122.359167,37.665278,-116.914167,48.302778",
    "geom:latitude": 43.100915141261616,
    "geom:longitude": -119.89583397275143,
    "src:alt_label": "swim-path",
    "src:geom": "swim",
    "swim:altitudes": [
      "027",
      "027",
      "027",
      "041",
      "045",
      "045",
      "080",
      "080",
      "080",
      "080",
      "185",
      "185",
      "185",
      "223",
      "223",
      "223",
      "259",
      "259",
      "259",
      "259",
      "259",
      "302",
      "302",
      "302",
      "302",
      "302",
      "346",
      "346",
      "346",
      "346",
      "380C",
      "380C",
      "380C",
      "380C",
      "380C",
      "380C",
      "380C",
      "380C",
      "380C",
      "380C",
      "380C",
      "380C",
      "380C",
      "380C",
      "380C",
      "380C",
      "380C",
      "380C",
      "380C",
      "380C",
      "380C",
      "380C",
      "380C",
      "380C",
      "380C",
      "380C",
      "380C",
      "380C",
      "380C",
      "380C",
      "380C",
      "380C",
      "380C",
      "380C",
      "380C",
      "380C",
      "380C",
      "380C",
      "380C",
      "380C",
      "380C",
      "380C",
      "380C",
      "380C",
      "380C",
      "380C",
      "380C",
      "380C",
      "380C",
      "380C",
      "380C",
      "380C",
      "380C",
      "380C",
      "380C",
      "380C",
      "380C",
      "380C",
      "380C",
      "380C",
      "380C",
      "380C",
      "380C",
      "380C",
      "380C",
      "380C",
      "380C",
      "380C",
      "380C",
      "380C",
      "380C",
      "380C",
      "380C",
      "380C",
      "380C",
      "380C",
      "380C",
      "380C",
      "380C",
      "380C",
      "380C",
      "380C",
      "380C",
      "380C",
      "380C",
      "380C",
      "380C",
      "380C",
      "380C",
      "380C",
      "380C",
      "380C",
      "380C",
      "380C",
      "380C",
      "380C",
      "380C",
      "380C",
      "380C",
      "380C",
      "380C",
      "380C",
      "380C",
      "380C",
      "380C",
      "380C",
      "380C",
      "380C",
      "380C",
      "380C",
      "380C",
      "380C",
      "380C",
      "380C",
      "380C",
      "380C",
      "380C",
      "380C",
      "380C",
      "380C",
      "380C",
      "380C",
      "380C",
      "380C",
      "380C",
      "380C"
    ],
    "swim:geom": "path",
    "swim:speeds": [
      221,
      221,
      221,
      243,
      250,
      250,
      280,
      280,
      280,
      280,
      377,
      377,
      377,
      403,
      403,
      403,
      425,
      425,
      425,
      425,
      425,
      451,
      451,
      451,
      451,
      451,
      448,
      448,
      448,
      448,
      440,
      440,
      440,
      441,
      441,
      441,
      441,
      444,
      444,
      444,
      445,
      445,
      445,
      446,
      446,
      446,
      446,
      446,
      446,
      446,
      445,
      445,
      445,
      445,
      445,
      445,
      445,
      445,
      443,
      443,
      441,
      441,
      441,
      441,
      441,
      441,
      442,
      442,
      442,
      442,
      442,
      442,
      442,
      442,
      442,
      442,
      443,
      443,
      443,
      443,
      443,
      443,
      443,
      443,
      443,
      442,
      442,
      442,
      442,
      442,
      443,
      443,
      443,
      444,
      444,
      444,
      444,
      444,
      444,
      445,
      445,
      448,
      448,
      448,
      448,
      448,
      449,
      449,
      447,
      447,
      447,
      447,
      445,
      445,
      445,
      445,
      444,
      444,
      444,
      444,
      445,
      445,
      445,
      445,
      441,
      441,
      441,
      441,
      441,
      441,
      441,
      441,
      443,
      443,
      445,
      445,
      447,
      448,
      448,
      450,
      450,
      451,
      451,
      451,
      450,
      450,
      450,
      464,
      464,
      464,
      467,
      467,
      469,
      469,
      469,
      469
    ],
    "swim:timestamps": [
      1780623892,
      1780623892,
      1780623892,
      1780623928,
      1780623952,
      1780623952,
      1780624132,
      1780624132,
      1780624132,
      1780624132,
      1780624433,
      1780624433,
      1780624433,
      1780624553,
      1780624553,
      1780624553,
      1780624673,
      1780624673,
      1780624673,
      1780624673,
      1780624673,
      1780624853,
      1780624853,
      1780624853,
      1780624853,
      1780624853,
      1780625033,
      1780625033,
      1780625033,
      1780625033,
      1780625274,
      1780625274,
      1780625274,
      1780625334,
      1780625334,
      1780625334,
      1780625334,
      1780625454,
      1780625454,
      1780625454,
      1780625514,
      1780625514,
      1780625514,
      1780625574,
      1780625574,
      1780625574,
      1780625634,
      1780625694,
      1780625694,
      1780625694,
      1780625814,
      1780625814,
      1780625874,
      1780625874,
      1780625874,
      1780625874,
      1780625993,
      1780625993,
      1780626055,
      1780626055,
      1780626113,
      1780626173,
      1780626173,
      1780626173,
      1780626173,
      1780626173,
      1780626353,
      1780626353,
      1780626413,
      1780626413,
      1780626413,
      1780626413,
      1780626413,
      1780626474,
      1780626474,
      1780626474,
      1780626534,
      1780626534,
      1780626534,
      1780626534,
      1780626594,
      1780626594,
      1780626594,
      1780626594,
      1780626594,
      1780626714,
      1780626714,
      1780626714,
      1780626714,
      1780626714,
      1780626834,
      1780626834,
      1780626834,
      1780626894,
      1780626894,
      1780626894,
      1780626954,
      1780626954,
      1780626954,
      1780627014,
      1780627014,
      1780627135,
      1780627135,
      1780627135,
      1780627135,
      1780627135,
      1780627315,
      1780627315,
      1780627435,
      1780627435,
      1780627435,
      1780627435,
      1780627615,
      1780627615,
      1780627615,
      1780627615,
      1780627795,
      1780627795,
      1780627795,
      1780627795,
      1780627976,
      1780627976,
      1780627976,
      1780627976,
      1780628216,
      1780628216,
      1780628216,
      1780628216,
      1780628276,
      1780628276,
      1780628276,
      1780628276,
      1780628517,
      1780628517,
      1780628577,
      1780628577,
      1780628637,
      1780628694,
      1780628694,
      1780628754,
      1780628754,
      1780628934,
      1780628934,
      1780628934,
      1780629114,
      1780629114,
      1780629114,
      1780629295,
      1780629295,
      1780629295,
      1780629415,
      1780629415,
      1780629595,
      1780629595,
      1780629595,
      1780629595
    ],
    "wof:geomhash": "8c7afd45b3883d1736442a7967327625",
    "wof:id": 2031453305,
    "wof:repo": "sfomuseum-data-flights-2026-06"
  },
  "bbox": [
    -122.35916666666667,
    37.665277777777774,
    -116.91416666666667,
    48.30277777777778
  ],
  "geometry": {"coordinates":[[-122.35916666666667,37.665277777777774],[-122.35916666666667,37.665277777777774],[-122.35916666666667,37.665277777777774],[-122.31666666666666,37.68333333333333],[-122.29194444444444,37.70027777777778],[-122.29194444444444,37.70027777777778],[-122.33583333333333,37.915],[-122.33583333333333,37.915],[-122.33583333333333,37.915],[-122.33583333333333,37.915],[-122.10305555555556,38.36222222222222],[-122.10305555555556,38.36222222222222],[-122.10305555555556,38.36222222222222],[-122.0261111111111,38.573888888888895],[-122.0261111111111,38.573888888888895],[-122.0261111111111,38.573888888888895],[-121.94361111111111,38.79888888888889],[-121.94361111111111,38.79888888888889],[-121.94361111111111,38.79888888888889],[-121.94361111111111,38.79888888888889],[-121.94361111111111,38.79888888888889],[-121.7975,39.156666666666666],[-121.7975,39.156666666666666],[-121.7975,39.156666666666666],[-121.7975,39.156666666666666],[-121.7975,39.156666666666666],[-121.64694444444446,39.506388888888885],[-121.64694444444446,39.506388888888885],[-121.64694444444446,39.506388888888885],[-121.64694444444446,39.506388888888885],[-121.44527777777778,39.9675],[-121.44527777777778,39.9675],[-121.44527777777778,39.9675],[-121.39416666666668,40.08305555555556],[-121.39416666666668,40.08305555555556],[-121.39416666666668,40.08305555555556],[-121.39416666666668,40.08305555555556],[-121.2911111111111,40.316111111111105],[-121.2911111111111,40.316111111111105],[-121.2911111111111,40.316111111111105],[-121.2388888888889,40.433055555555555],[-121.2388888888889,40.433055555555555],[-121.2388888888889,40.433055555555555],[-121.18666666666667,40.54972222222222],[-121.18666666666667,40.54972222222222],[-121.18666666666667,40.54972222222222],[-121.13305555555554,40.66888888888889],[-121.08027777777778,40.785555555555554],[-121.08027777777778,40.785555555555554],[-121.08027777777778,40.785555555555554],[-120.97500000000001,41.01833333333333],[-120.97500000000001,41.01833333333333],[-120.91111111111111,41.157777777777774],[-120.91111111111111,41.157777777777774],[-120.91111111111111,41.157777777777774],[-120.91111111111111,41.157777777777774],[-120.81472222222222,41.36805555555556],[-120.81472222222222,41.36805555555556],[-120.75138888888888,41.50555555555555],[-120.75138888888888,41.50555555555555],[-120.7088888888889,41.59805555555556],[-120.65527777777778,41.71277777777778],[-120.65527777777778,41.71277777777778],[-120.65527777777778,41.71277777777778],[-120.65527777777778,41.71277777777778],[-120.65527777777778,41.71277777777778],[-120.49333333333334,42.05888888888889],[-120.49333333333334,42.05888888888889],[-120.43833333333333,42.17583333333333],[-120.43833333333333,42.17583333333333],[-120.43833333333333,42.17583333333333],[-120.43833333333333,42.17583333333333],[-120.43833333333333,42.17583333333333],[-120.38361111111112,42.29111111111111],[-120.38361111111112,42.29111111111111],[-120.38361111111112,42.29111111111111],[-120.32805555555555,42.407222222222224],[-120.32805555555555,42.407222222222224],[-120.32805555555555,42.407222222222224],[-120.32805555555555,42.407222222222224],[-120.27277777777778,42.52305555555555],[-120.27277777777778,42.52305555555555],[-120.27277777777778,42.52305555555555],[-120.27277777777778,42.52305555555555],[-120.27277777777778,42.52305555555555],[-120.15138888888889,42.77638888888889],[-120.15138888888889,42.77638888888889],[-120.15138888888889,42.77638888888889],[-120.15138888888889,42.77638888888889],[-120.15138888888889,42.77638888888889],[-120.03861111111111,43.00888888888889],[-120.03861111111111,43.00888888888889],[-120.03861111111111,43.00888888888889],[-119.98194444444445,43.125277777777775],[-119.98194444444445,43.125277777777775],[-119.98194444444445,43.125277777777775],[-119.92555555555556,43.240833333333335],[-119.92555555555556,43.240833333333335],[-119.92555555555556,43.240833333333335],[-119.86944444444444,43.35472222222222],[-119.86944444444444,43.35472222222222],[-119.7538888888889,43.58861111111111],[-119.7538888888889,43.58861111111111],[-119.7538888888889,43.58861111111111],[-119.7538888888889,43.58861111111111],[-119.7538888888889,43.58861111111111],[-119.57777777777777,43.941111111111105],[-119.57777777777777,43.941111111111105],[-119.46083333333334,44.172777777777775],[-119.46083333333334,44.172777777777775],[-119.46083333333334,44.172777777777775],[-119.46083333333334,44.172777777777775],[-119.28388888888888,44.519999999999996],[-119.28388888888888,44.519999999999996],[-119.28388888888888,44.519999999999996],[-119.28388888888888,44.519999999999996],[-119.10555555555555,44.86527777777778],[-119.10555555555555,44.86527777777778],[-119.10555555555555,44.86527777777778],[-119.10555555555555,44.86527777777778],[-118.92416666666666,45.21194444444445],[-118.92416666666666,45.21194444444445],[-118.92416666666666,45.21194444444445],[-118.92416666666666,45.21194444444445],[-118.68138888888889,45.669999999999995],[-118.68138888888889,45.669999999999995],[-118.68138888888889,45.669999999999995],[-118.68138888888889,45.669999999999995],[-118.61972222222222,45.78388888888889],[-118.61972222222222,45.78388888888889],[-118.61972222222222,45.78388888888889],[-118.61972222222222,45.78388888888889],[-118.36972222222222,46.24388888888889],[-118.36972222222222,46.24388888888889],[-118.30583333333333,46.36055555555556],[-118.30583333333333,46.36055555555556],[-118.24166666666667,46.4775],[-118.17722222222223,46.59388888888889],[-118.17722222222223,46.59388888888889],[-118.1125,46.71027777777778],[-118.1125,46.71027777777778],[-117.91388888888889,47.06333333333333],[-117.91388888888889,47.06333333333333],[-117.91388888888889,47.06333333333333],[-117.71444444444445,47.41305555555555],[-117.71444444444445,47.41305555555555],[-117.71444444444445,47.41305555555555],[-117.4475,47.75333333333333],[-117.4475,47.75333333333333],[-117.4475,47.75333333333333],[-117.23444444444445,47.974444444444444],[-117.23444444444445,47.974444444444444],[-116.91416666666667,48.30277777777778],[-116.91416666666667,48.30277777777778],[-116.91416666666667,48.30277777777778],[-116.91416666666667,48.30277777777778]],"type":"LineString"}
}
