{
  "id": 2031519351,
  "type": "Feature",
  "properties": {
    "geom:area": 0,
    "geom:bbox": "-122.316667,32.076944,-116.977778,37.584167",
    "geom:latitude": 34.81485097409902,
    "geom:longitude": -119.7926379176117,
    "src:alt_label": "swim-path",
    "src:geom": "swim",
    "swim:altitudes": [
      "360C",
      "360C",
      "360C",
      "360C",
      "360C",
      "360C",
      "360C",
      "360C",
      "360C",
      "360C",
      "360C",
      "360C",
      "360C",
      "360C",
      "360C",
      "360C",
      "360C",
      "360C",
      "360C",
      "360C",
      "360C",
      "360C",
      "360C",
      "360C",
      "360C",
      "360C",
      "360C",
      "360C",
      "360C",
      "360C",
      "360C",
      "360C",
      "360C",
      "360C",
      "360C",
      "360C",
      "360C",
      "360C",
      "360C",
      "360C",
      "360C",
      "360C",
      "360C",
      "360C",
      "360C",
      "360C",
      "360C",
      "360C",
      "360C",
      "360C",
      "360C",
      "360C",
      "360C",
      "360C",
      "360C",
      "360",
      "360",
      "360",
      "360",
      "360",
      "316",
      "316",
      "294",
      "294",
      "273",
      "273",
      "252",
      "244",
      "230",
      "230",
      "209",
      "200",
      "200",
      "190",
      "190",
      "170",
      "126",
      "126",
      "126",
      "121",
      "117",
      "089",
      "089",
      "074",
      "053",
      "050",
      "050",
      "050",
      "034",
      "034",
      "034",
      "027",
      "011",
      "009",
      "009",
      "009"
    ],
    "swim:geom": "path",
    "swim:speeds": [
      475,
      475,
      475,
      475,
      471,
      471,
      471,
      471,
      469,
      466,
      466,
      466,
      466,
      455,
      454,
      454,
      454,
      452,
      452,
      452,
      451,
      451,
      451,
      451,
      445,
      445,
      445,
      445,
      444,
      444,
      446,
      446,
      447,
      447,
      447,
      447,
      447,
      447,
      447,
      447,
      447,
      446,
      445,
      445,
      444,
      444,
      444,
      444,
      439,
      439,
      439,
      439,
      437,
      437,
      437,
      434,
      434,
      434,
      433,
      433,
      445,
      445,
      440,
      440,
      426,
      426,
      413,
      403,
      398,
      398,
      390,
      383,
      383,
      384,
      384,
      371,
      344,
      344,
      344,
      329,
      263,
      245,
      245,
      239,
      236,
      236,
      236,
      236,
      206,
      206,
      206,
      173,
      162,
      158,
      158,
      158
    ],
    "swim:timestamps": [
      1781303949,
      1781303949,
      1781303949,
      1781303949,
      1781304189,
      1781304189,
      1781304189,
      1781304189,
      1781304249,
      1781304369,
      1781304369,
      1781304369,
      1781304369,
      1781304730,
      1781304790,
      1781304790,
      1781304790,
      1781304850,
      1781304850,
      1781304850,
      1781305150,
      1781305150,
      1781305150,
      1781305150,
      1781305391,
      1781305391,
      1781305391,
      1781305391,
      1781305451,
      1781305451,
      1781305571,
      1781305571,
      1781305580,
      1781305580,
      1781305640,
      1781305691,
      1781305700,
      1781305751,
      1781305811,
      1781305820,
      1781305820,
      1781305880,
      1781305932,
      1781305932,
      1781305992,
      1781305992,
      1781306000,
      1781306000,
      1781306172,
      1781306172,
      1781306172,
      1781306172,
      1781306232,
      1781306232,
      1781306241,
      1781306412,
      1781306412,
      1781306412,
      1781306481,
      1781306481,
      1781306601,
      1781306601,
      1781306661,
      1781306661,
      1781306721,
      1781306721,
      1781306782,
      1781306797,
      1781306842,
      1781306842,
      1781306902,
      1781306922,
      1781306922,
      1781306962,
      1781306962,
      1781307022,
      1781307142,
      1781307142,
      1781307142,
      1781307163,
      1781307223,
      1781307382,
      1781307382,
      1781307463,
      1781307563,
      1781307583,
      1781307583,
      1781307583,
      1781307683,
      1781307683,
      1781307683,
      1781307743,
      1781307863,
      1781307883,
      1781307883,
      1781307883
    ],
    "wof:geomhash": "eaca76643d304b81d31c80396b7ff3b0",
    "wof:id": 2031519351,
    "wof:repo": "sfomuseum-data-flights-2026-06"
  },
  "bbox": [
    -122.31666666666666,
    32.07694444444445,
    -116.97777777777777,
    37.58416666666667
  ],
  "geometry": {"coordinates":[[-116.97777777777777,32.07694444444445],[-116.97777777777777,32.07694444444445],[-116.97777777777777,32.07694444444445],[-116.97777777777777,32.07694444444445],[-117.28388888888888,32.52361111111111],[-117.28388888888888,32.52361111111111],[-117.28388888888888,32.52361111111111],[-117.28388888888888,32.52361111111111],[-117.36333333333333,32.6175],[-117.5525,32.83972222222222],[-117.5525,32.83972222222222],[-117.5525,32.83972222222222],[-117.5525,32.83972222222222],[-118.12972222222221,33.42861111111111],[-118.2363888888889,33.51611111111111],[-118.2363888888889,33.51611111111111],[-118.2363888888889,33.51611111111111],[-118.3461111111111,33.60583333333334],[-118.3461111111111,33.60583333333334],[-118.3461111111111,33.60583333333334],[-118.87083333333332,34.03111111111111],[-118.87083333333332,34.03111111111111],[-118.87083333333332,34.03111111111111],[-118.87083333333332,34.03111111111111],[-119.33027777777778,34.38527777777778],[-119.33027777777778,34.38527777777778],[-119.33027777777778,34.38527777777778],[-119.33027777777778,34.38527777777778],[-119.43916666666667,34.4675],[-119.43916666666667,34.4675],[-119.66166666666668,34.63388888888889],[-119.66166666666668,34.63388888888889],[-119.66333333333334,34.63527777777778],[-119.66333333333334,34.63527777777778],[-119.77722222222222,34.72027777777778],[-119.88555555555556,34.80083333333333],[-119.88777777777779,34.80222222222222],[-119.99722222222222,34.88333333333333],[-120.11138888888888,34.967777777777776],[-120.11333333333333,34.969166666666666],[-120.11333333333333,34.969166666666666],[-120.22555555555556,35.051944444444445],[-120.3275,35.12638888888889],[-120.3275,35.12638888888889],[-120.4388888888889,35.20777777777778],[-120.4388888888889,35.20777777777778],[-120.46111111111111,35.22416666666667],[-120.46111111111111,35.22416666666667],[-120.76888888888888,35.44777777777777],[-120.76888888888888,35.44777777777777],[-120.76888888888888,35.44777777777777],[-120.76888888888888,35.44777777777777],[-120.86972222222222,35.53944444444444],[-120.86972222222222,35.53944444444444],[-120.88611111111112,35.556666666666665],[-121.13472222222222,35.82361111111111],[-121.13472222222222,35.82361111111111],[-121.13472222222222,35.82361111111111],[-121.24555555555555,35.94194444444444],[-121.24555555555555,35.94194444444444],[-121.41944444444445,36.13861111111111],[-121.41944444444445,36.13861111111111],[-121.50166666666667,36.243611111111115],[-121.50166666666667,36.243611111111115],[-121.57944444444443,36.34305555555556],[-121.57944444444443,36.34305555555556],[-121.655,36.43944444444444],[-121.68333333333334,36.46666666666667],[-121.72972222222222,36.534166666666664],[-121.72972222222222,36.534166666666664],[-121.80166666666666,36.62416666666667],[-121.83333333333333,36.666666666666664],[-121.83333333333333,36.666666666666664],[-121.86388888888888,36.70277777777778],[-121.86388888888888,36.70277777777778],[-121.91000000000001,36.79861111111111],[-121.97472222222223,37.0075],[-121.97472222222223,37.0075],[-121.97472222222223,37.0075],[-121.98333333333333,37.03333333333333],[-122.01666666666667,37.11666666666667],[-122.18361111111112,37.225],[-122.18361111111112,37.225],[-122.18333333333334,37.31666666666667],[-122.11805555555554,37.41111111111111],[-122.1,37.43333333333333],[-122.1,37.43333333333333],[-122.1,37.43333333333333],[-122.13944444444445,37.51583333333333],[-122.13944444444445,37.51583333333333],[-122.13944444444445,37.51583333333333],[-122.19111111111111,37.54138888888889],[-122.29305555555555,37.58416666666667],[-122.31666666666666,37.583333333333336],[-122.31666666666666,37.583333333333336],[-122.31666666666666,37.583333333333336]],"type":"LineString"}
}
