{
  "id": 2031641799,
  "type": "Feature",
  "properties": {
    "geom:area": 0,
    "geom:bbox": "-122.404730,37.633330,-121.253090,38.121760",
    "geom:latitude": 37.88483583537603,
    "geom:longitude": -121.84221676255413,
    "src:alt_label": "swim-takeoff",
    "src:geom": "swim",
    "swim:elevations": [
      328,
      704,
      913,
      1114,
      1305,
      1621,
      1779,
      2079,
      2280,
      2622,
      2754,
      3191,
      3253,
      3439,
      3810,
      4181,
      4369,
      4600,
      4893,
      5033,
      5421,
      5584,
      5774,
      5887,
      6203,
      6308
    ],
    "swim:geom": "takeoff",
    "swim:timestamps": [
      1782372557,
      1782372594,
      1782372620,
      1782372645,
      1782372675,
      1782372715,
      1782372728,
      1782372753,
      1782372771,
      1782372803,
      1782372815,
      1782372862,
      1782372871,
      1782372906,
      1782372948,
      1782372984,
      1782373007,
      1782373038,
      1782373072,
      1782373093,
      1782373138,
      1782373160,
      1782373191,
      1782373206,
      1782373247,
      1782373263
    ],
    "wof:geomhash": "fcda6e9e005358a19b24875facbf3ae9",
    "wof:id": 2031641799,
    "wof:repo": "sfomuseum-data-flights-2026-06"
  },
  "bbox": [
    -122.40473,
    37.63333,
    -121.25309,
    38.12176
  ],
  "geometry": {"coordinates":[[-122.40469,37.63333],[-122.40473,37.66248],[-122.37784,37.67177],[-122.34815,37.67685],[-122.3095,37.68752],[-122.2525,37.70575],[-122.2325,37.71212],[-122.19566,37.72737],[-122.17071,37.7403],[-122.12515,37.76385],[-122.10762,37.77294],[-122.03862,37.80862],[-122.02499,37.81563],[-121.966,37.8415],[-121.88682,37.87306],[-121.81927,37.89979],[-121.7758,37.91694],[-121.71554,37.94077],[-121.64871,37.96699],[-121.60788,37.98293],[-121.51583,38.01913],[-121.47182,38.03651],[-121.40558,38.06232],[-121.37439,38.07449],[-121.28706,38.10859],[-121.25309,38.12176]],"type":"LineString"}
}
