{
  "id": 2031546837,
  "type": "Feature",
  "properties": {
    "geom:area": 0,
    "geom:bbox": "-122.362010,37.428810,-121.242900,37.613880",
    "geom:latitude": 37.52669092193493,
    "geom:longitude": -121.81076942509779,
    "src:alt_label": "swim-approach",
    "src:geom": "swim",
    "swim:elevations": [
      4857,
      4813,
      4648,
      4530,
      4080,
      4000,
      3725,
      3455,
      3411,
      3334,
      3288,
      3113,
      2857,
      2743,
      2677,
      2537,
      2474,
      2214,
      2100,
      1949,
      1703,
      1531,
      1366,
      1154,
      950,
      829,
      792,
      598,
      549,
      395,
      214,
      130,
      138
    ],
    "swim:geom": "approach",
    "swim:timestamps": [
      1781514177,
      1781514183,
      1781514203,
      1781514213,
      1781514266,
      1781514276,
      1781514306,
      1781514336,
      1781514356,
      1781514388,
      1781514396,
      1781514429,
      1781514478,
      1781514502,
      1781514515,
      1781514533,
      1781514545,
      1781514576,
      1781514606,
      1781514642,
      1781514706,
      1781514733,
      1781514762,
      1781514798,
      1781514829,
      1781514848,
      1781514871,
      1781514924,
      1781514938,
      1781514974,
      1781515017,
      1781515038,
      1781515073
    ],
    "wof:geomhash": "2ea184241b8f0d33ec7b737f86ea5eac",
    "wof:id": 2031546837,
    "wof:repo": "sfomuseum-data-flights-2026-06"
  },
  "bbox": [
    -122.36201,
    37.42881,
    -121.2429,
    37.61388
  ],
  "geometry": {"coordinates":[[-121.2429,37.59556],[-121.25413,37.5941],[-121.28994,37.58959],[-121.31031,37.58728],[-121.41112,37.57577],[-121.42914,37.57366],[-121.48553,37.56698],[-121.53967,37.56064],[-121.57633,37.55649],[-121.62938,37.54938],[-121.64124,37.5467],[-121.69057,37.53489],[-121.75422,37.50494],[-121.76967,37.47938],[-121.77817,37.46489],[-121.79299,37.44689],[-121.80822,37.43975],[-121.85359,37.43366],[-121.8964,37.42881],[-121.94535,37.43774],[-122.02411,37.47058],[-122.05677,37.48445],[-122.08956,37.49838],[-122.12536,37.51354],[-122.15653,37.52677],[-122.17473,37.53438],[-122.19558,37.54307],[-122.24142,37.56254],[-122.25323,37.56767],[-122.28288,37.58],[-122.31739,37.59469],[-122.33433,37.60167],[-122.36201,37.61388]],"type":"LineString"}
}
