{
  "id": 2031423425,
  "type": "Feature",
  "properties": {
    "geom:area": 0,
    "geom:bbox": "-176.683333,37.650000,-122.433333,54.150000",
    "geom:latitude": 48.44880384777318,
    "geom:longitude": -148.95332852496256,
    "src:alt_label": "swim-path",
    "src:geom": "swim",
    "swim:altitudes": [
      "021",
      "021",
      "021",
      "042",
      "042",
      "042",
      "058",
      "107",
      "107",
      "107",
      "145",
      "145",
      "207",
      "207",
      "207",
      "244",
      "244",
      "244",
      "244",
      "306",
      "306",
      "306",
      "320C",
      "320C",
      "320C",
      "320C",
      "320C",
      "320C",
      "320C",
      "320C",
      "320C",
      "320C",
      "320C",
      "320C",
      "320C",
      "320C",
      "320C",
      "320C",
      "320C",
      "320C",
      "320C",
      "320C",
      "320C",
      "320C",
      "320C",
      "320C",
      "340",
      "340",
      "340",
      "340",
      "340",
      "340",
      "340",
      "340",
      "340",
      "340",
      "340",
      "340",
      "340",
      "340",
      "340",
      "340",
      "340",
      "340",
      "340",
      "340",
      "340",
      "340",
      "340",
      "340",
      "340",
      "340",
      "340",
      "340",
      "340",
      "340",
      "340",
      "340",
      "340",
      "340",
      "340",
      "340",
      "340",
      "340",
      "340",
      "340",
      "340",
      "340",
      "340",
      "340",
      "340",
      "340",
      "340",
      "340",
      "340",
      "340",
      "340",
      "340",
      "340",
      "340",
      "340",
      "340",
      "340",
      "340",
      "340",
      "340",
      "340",
      "340",
      "340",
      "340",
      "340",
      "340",
      "340",
      "340",
      "340",
      "340",
      "340",
      "340",
      "340"
    ],
    "swim:geom": "path",
    "swim:speeds": [
      209,
      209,
      209,
      266,
      266,
      266,
      325,
      348,
      348,
      348,
      393,
      393,
      426,
      426,
      426,
      450,
      450,
      450,
      450,
      486,
      486,
      486,
      479,
      479,
      479,
      477,
      477,
      477,
      476,
      476,
      476,
      476,
      476,
      476,
      476,
      476,
      477,
      477,
      477,
      478,
      478,
      478,
      476,
      476,
      476,
      476,
      540,
      540,
      540,
      540,
      530,
      530,
      530,
      530,
      530,
      530,
      530,
      530,
      530,
      530,
      530,
      530,
      530,
      530,
      520,
      520,
      520,
      520,
      520,
      520,
      520,
      520,
      520,
      520,
      520,
      520,
      510,
      510,
      510,
      500,
      500,
      500,
      500,
      500,
      500,
      500,
      500,
      500,
      500,
      500,
      500,
      510,
      510,
      510,
      510,
      510,
      510,
      510,
      500,
      500,
      500,
      500,
      500,
      490,
      490,
      490,
      510,
      510,
      500,
      500,
      500,
      500,
      500,
      500,
      500,
      500,
      500,
      500,
      510
    ],
    "swim:timestamps": [
      1780342885,
      1780342885,
      1780342885,
      1780342972,
      1780342972,
      1780342972,
      1780343032,
      1780343152,
      1780343152,
      1780343152,
      1780343273,
      1780343273,
      1780343453,
      1780343453,
      1780343453,
      1780343573,
      1780343573,
      1780343573,
      1780343573,
      1780343813,
      1780343813,
      1780343813,
      1780343873,
      1780343873,
      1780343873,
      1780344054,
      1780344054,
      1780344054,
      1780344294,
      1780344294,
      1780344294,
      1780344294,
      1780344354,
      1780344534,
      1780344534,
      1780344534,
      1780344594,
      1780344594,
      1780344594,
      1780344715,
      1780344715,
      1780344835,
      1780345015,
      1780345015,
      1780345015,
      1780345015,
      1780355924,
      1780355924,
      1780355924,
      1780355924,
      1780356105,
      1780356105,
      1780356105,
      1780356105,
      1780356165,
      1780356165,
      1780356165,
      1780356286,
      1780356286,
      1780356286,
      1780356346,
      1780356407,
      1780356407,
      1780356407,
      1780356648,
      1780356648,
      1780356648,
      1780356648,
      1780356889,
      1780356889,
      1780356889,
      1780356949,
      1780356949,
      1780357009,
      1780357009,
      1780357009,
      1780357190,
      1780357190,
      1780357190,
      1780357371,
      1780357371,
      1780357371,
      1780357431,
      1780357431,
      1780357431,
      1780357431,
      1780357732,
      1780357732,
      1780357732,
      1780357732,
      1780357792,
      1780357852,
      1780357852,
      1780357852,
      1780358033,
      1780358033,
      1780358033,
      1780358033,
      1780358153,
      1780358153,
      1780358272,
      1780358272,
      1780358272,
      1780359063,
      1780359063,
      1780359063,
      1780359274,
      1780359274,
      1780359396,
      1780359396,
      1780359638,
      1780359698,
      1780359698,
      1780360086,
      1780360086,
      1780360207,
      1780360267,
      1780360267,
      1780360328
    ],
    "wof:geomhash": "a0b216ab6fe34676dddc5e12336ea1cb",
    "wof:id": 2031423425,
    "wof:repo": "sfomuseum-data-flights-2026-06"
  },
  "bbox": [
    -176.68333333333334,
    37.65,
    -122.43333333333334,
    54.15
  ],
  "geometry": {"coordinates":[[-122.43333333333334,37.65],[-122.43333333333334,37.65],[-122.43333333333334,37.65],[-122.52777777777777,37.68888888888888],[-122.52777777777777,37.68888888888888],[-122.52777777777777,37.68888888888888],[-122.61527777777778,37.74055555555556],[-122.80916666666667,37.85861111111111],[-122.80916666666667,37.85861111111111],[-122.80916666666667,37.85861111111111],[-123.02555555555556,37.99055555555556],[-123.02555555555556,37.99055555555556],[-123.37416666666665,38.202222222222225],[-123.37416666666665,38.202222222222225],[-123.37416666666665,38.202222222222225],[-123.62444444444444,38.3525],[-123.62444444444444,38.3525],[-123.62444444444444,38.3525],[-123.62444444444444,38.3525],[-124.15777777777778,38.66972222222222],[-124.15777777777778,38.66972222222222],[-124.15777777777778,38.66972222222222],[-124.29722222222222,38.75138888888889],[-124.29722222222222,38.75138888888889],[-124.29722222222222,38.75138888888889],[-124.70527777777778,38.98916666666667],[-124.70527777777778,38.98916666666667],[-124.70527777777778,38.98916666666667],[-125.24972222222222,39.301944444444445],[-125.24972222222222,39.301944444444445],[-125.24972222222222,39.301944444444445],[-125.24972222222222,39.301944444444445],[-125.38833333333334,39.38055555555555],[-125.80916666666667,39.617777777777775],[-125.80916666666667,39.617777777777775],[-125.80916666666667,39.617777777777775],[-125.94861111111112,39.69555555555555],[-125.94861111111112,39.69555555555555],[-125.94861111111112,39.69555555555555],[-126.22972222222222,39.85138888888889],[-126.22972222222222,39.85138888888889],[-126.51083333333334,40.005833333333335],[-126.92055555555557,40.25194444444445],[-126.92055555555557,40.25194444444445],[-126.92055555555557,40.25194444444445],[-126.92055555555557,40.25194444444445],[-159.16666666666666,53.86666666666667],[-159.16666666666666,53.86666666666667],[-159.16666666666666,53.86666666666667],[-159.16666666666666,53.86666666666667],[-159.9,53.983333333333334],[-159.9,53.983333333333334],[-159.9,53.983333333333334],[-159.9,53.983333333333334],[-160.15,54],[-160.15,54],[-160.15,54],[-160.65,54.016666666666666],[-160.65,54.016666666666666],[-160.65,54.016666666666666],[-160.9,54.03333333333333],[-161.15,54.05],[-161.15,54.05],[-161.15,54.05],[-162.13333333333333,54.083333333333336],[-162.13333333333333,54.083333333333336],[-162.13333333333333,54.083333333333336],[-162.13333333333333,54.083333333333336],[-163.1,54.11666666666667],[-163.1,54.11666666666667],[-163.1,54.11666666666667],[-163.35,54.11666666666667],[-163.35,54.11666666666667],[-163.6,54.11666666666667],[-163.6,54.11666666666667],[-163.6,54.11666666666667],[-164.33333333333334,54.13333333333333],[-164.33333333333334,54.13333333333333],[-164.33333333333334,54.13333333333333],[-165.03333333333333,54.15],[-165.03333333333333,54.15],[-165.03333333333333,54.15],[-165.28333333333333,54.15],[-165.28333333333333,54.15],[-165.28333333333333,54.15],[-165.28333333333333,54.15],[-166.46666666666667,54.15],[-166.46666666666667,54.15],[-166.46666666666667,54.15],[-166.46666666666667,54.15],[-166.7,54.15],[-166.93333333333334,54.15],[-166.93333333333334,54.15],[-166.93333333333334,54.15],[-167.66666666666666,54.13333333333333],[-167.66666666666666,54.13333333333333],[-167.66666666666666,54.13333333333333],[-167.66666666666666,54.13333333333333],[-168.13333333333333,54.13333333333333],[-168.13333333333333,54.13333333333333],[-168.61666666666667,54.13333333333333],[-168.61666666666667,54.13333333333333],[-168.61666666666667,54.13333333333333],[-171.75,54.016666666666666],[-171.75,54.016666666666666],[-171.75,54.016666666666666],[-172.58333333333334,53.983333333333334],[-172.58333333333334,53.983333333333334],[-173.05,53.95],[-173.05,53.95],[-174,53.9],[-174.23333333333332,53.88333333333333],[-174.23333333333332,53.88333333333333],[-175.75,53.766666666666666],[-175.75,53.766666666666666],[-176.21666666666667,53.733333333333334],[-176.45,53.71666666666667],[-176.45,53.71666666666667],[-176.68333333333334,53.68333333333333]],"type":"LineString"}
}
