{
  "id": 2031559657,
  "type": "Feature",
  "properties": {
    "geom:area": 0,
    "geom:bbox": "-122.365278,37.662500,-106.149167,39.154167",
    "geom:latitude": 38.35486057149196,
    "geom:longitude": -114.21634915892876,
    "src:alt_label": "swim-path",
    "src:geom": "swim",
    "swim:altitudes": [
      "022",
      "091",
      "140",
      "223",
      "268",
      "302",
      "331",
      "345",
      "370C",
      "370C",
      "370C",
      "370C",
      "370C",
      "370C",
      "370C",
      "370C",
      "370C",
      "370C",
      "370C",
      "370C",
      "370C",
      "370C",
      "370C",
      "370C",
      "370C",
      "370C",
      "370C",
      "370C",
      "362",
      "324",
      "304",
      "293",
      "263"
    ],
    "swim:geom": "path",
    "swim:speeds": [
      221,
      276,
      368,
      426,
      447,
      445,
      440,
      435,
      418,
      420,
      426,
      426,
      424,
      424,
      429,
      432,
      435,
      435,
      435,
      441,
      445,
      445,
      446,
      449,
      448,
      454,
      446,
      448,
      458,
      467,
      469,
      453,
      431
    ],
    "swim:timestamps": [
      1781648707,
      1781648888,
      1781649068,
      1781649320,
      1781649500,
      1781649621,
      1781649741,
      1781649801,
      1781649981,
      1781650402,
      1781650827,
      1781651002,
      1781651123,
      1781651243,
      1781651488,
      1781651728,
      1781651969,
      1781652149,
      1781652209,
      1781652449,
      1781652630,
      1781653142,
      1781653202,
      1781653562,
      1781653831,
      1781654071,
      1781654343,
      1781654463,
      1781654704,
      1781654944,
      1781655064,
      1781655124,
      1781655305
    ],
    "wof:geomhash": "2e2e6484929e228b3d90f6afe293d096",
    "wof:id": 2031559657,
    "wof:repo": "sfomuseum-data-flights-2026-06"
  },
  "bbox": [
    -122.36527777777778,
    37.6625,
    -106.14916666666667,
    39.15416666666667
  ],
  "geometry": {"coordinates":[[-122.36527777777778,37.6625],[-122.11888888888888,37.7675],[-121.82694444444444,37.87888888888889],[-121.23194444444445,37.97138888888889],[-120.77555555555556,38.041666666666664],[-120.46833333333333,38.08833333333334],[-120.16388888888889,38.13388888888889],[-120.01583333333333,38.15555555555555],[-119.57972222222222,38.218333333333334],[-118.55055555555555,38.359722222222224],[-117.51055555555556,38.49333333333333],[-117.08361111111111,38.51638888888889],[-116.78027777777778,38.50972222222222],[-116.47972222222222,38.50222222222222],[-115.84194444444444,38.48361111111111],[-115.24777777777778,38.46361111111111],[-114.63472222222222,38.439722222222215],[-114.17361111111111,38.41916666666666],[-114.01888888888888,38.41222222222222],[-113.39722222222223,38.38111111111111],[-112.92222222222223,38.36333333333334],[-111.57222222222222,38.370555555555555],[-111.41722222222222,38.35666666666667],[-110.48777777777778,38.266666666666666],[-109.76833333333333,38.19194444444444],[-109.135,38.1225],[-108.49222222222222,38.275],[-108.18083333333334,38.39555555555555],[-107.6,38.61527777777778],[-107.01,38.837500000000006],[-106.70472222222223,38.950833333333335],[-106.55722222222222,39.00527777777778],[-106.14916666666667,39.15416666666667]],"type":"LineString"}
}
