{
  "id": 2031554157,
  "type": "Feature",
  "properties": {
    "geom:area": 0,
    "geom:bbox": "-120.273056,32.389722,-115.160556,35.644444",
    "geom:latitude": 34.02697662240164,
    "geom:longitude": -117.70886773109989,
    "src:alt_label": "swim-path",
    "src:geom": "swim",
    "swim:altitudes": [
      "340C",
      "340C",
      "340C",
      "340C",
      "340C",
      "340C",
      "340C",
      "340C",
      "340C",
      "335",
      "335",
      "320C",
      "320C",
      "320C",
      "320C",
      "320C",
      "320C",
      "320C",
      "320C",
      "320C",
      "320C",
      "320C",
      "320C",
      "320C",
      "320C",
      "320C",
      "320C",
      "320C",
      "320C",
      "320C",
      "320C",
      "320C",
      "320C",
      "320C",
      "320C",
      "320C",
      "320C",
      "320C",
      "320C",
      "320C",
      "320C",
      "320C",
      "320C",
      "320C",
      "320C",
      "320C",
      "320C",
      "320C",
      "320C",
      "320C",
      "320C",
      "320C",
      "320C"
    ],
    "swim:geom": "path",
    "swim:speeds": [
      439,
      439,
      439,
      439,
      440,
      441,
      441,
      441,
      441,
      442,
      442,
      449,
      448,
      448,
      448,
      447,
      446,
      446,
      446,
      446,
      446,
      446,
      447,
      447,
      447,
      448,
      448,
      448,
      448,
      448,
      448,
      448,
      449,
      449,
      450,
      450,
      450,
      449,
      449,
      449,
      449,
      449,
      449,
      449,
      449,
      449,
      449,
      448,
      449,
      449,
      451,
      451,
      451
    ],
    "swim:timestamps": [
      1781652732,
      1781652732,
      1781652792,
      1781652792,
      1781652852,
      1781652912,
      1781652912,
      1781652912,
      1781652972,
      1781653092,
      1781653092,
      1781653212,
      1781653272,
      1781653272,
      1781653272,
      1781653332,
      1781653393,
      1781653393,
      1781653393,
      1781653453,
      1781653573,
      1781653573,
      1781653633,
      1781653633,
      1781653693,
      1781653813,
      1781653813,
      1781653813,
      1781653993,
      1781653993,
      1781654054,
      1781654054,
      1781654114,
      1781654114,
      1781654234,
      1781654234,
      1781654234,
      1781654354,
      1781654354,
      1781654414,
      1781654414,
      1781654474,
      1781654583,
      1781654643,
      1781654775,
      1781654824,
      1781654835,
      1781655004,
      1781655075,
      1781655135,
      1781655255,
      1781655304,
      1781655315
    ],
    "wof:geomhash": "d1f37cae8f7c8dcbfac964ee460ce11d",
    "wof:id": 2031554157,
    "wof:repo": "sfomuseum-data-flights-2026-06"
  },
  "bbox": [
    -120.27305555555556,
    32.38972222222222,
    -115.16055555555556,
    35.644444444444446
  ],
  "geometry": {"coordinates":[[-115.16055555555556,32.38972222222222],[-115.16055555555556,32.38972222222222],[-115.28361111111111,32.45583333333334],[-115.28361111111111,32.45583333333334],[-115.40611111111112,32.52111111111111],[-115.52916666666667,32.586666666666666],[-115.52916666666667,32.586666666666666],[-115.52916666666667,32.586666666666666],[-115.65333333333334,32.65277777777778],[-115.9,32.782777777777774],[-115.9,32.782777777777774],[-116.17555555555556,32.92722222222222],[-116.27888888888889,32.98111111111111],[-116.27888888888889,32.98111111111111],[-116.27888888888889,32.98111111111111],[-116.40222222222222,33.04527777777778],[-116.54305555555555,33.11833333333333],[-116.54305555555555,33.11833333333333],[-116.54305555555555,33.11833333333333],[-116.65611111111112,33.19916666666666],[-116.86444444444444,33.37222222222222],[-116.86444444444444,33.37222222222222],[-116.97166666666666,33.46055555555556],[-116.97166666666666,33.46055555555556],[-117.07666666666667,33.54722222222222],[-117.29833333333333,33.72944444444445],[-117.29833333333333,33.72944444444445],[-117.29833333333333,33.72944444444445],[-117.61555555555555,33.99166666666667],[-117.61555555555555,33.99166666666667],[-117.71888888888888,34.081388888888895],[-117.71888888888888,34.081388888888895],[-117.82305555555556,34.17027777777778],[-117.82305555555556,34.17027777777778],[-118.03222222222222,34.348888888888894],[-118.03222222222222,34.348888888888894],[-118.03222222222222,34.348888888888894],[-118.24833333333333,34.51972222222222],[-118.24833333333333,34.51972222222222],[-118.37222222222222,34.59027777777778],[-118.37222222222222,34.59027777777778],[-118.49333333333334,34.659166666666664],[-118.70777777777778,34.780277777777776],[-118.83805555555556,34.85388888888889],[-119.11166666666666,35.007222222222225],[-119.21416666666667,35.064166666666665],[-119.23694444444445,35.07666666666667],[-119.59222222222222,35.27333333333333],[-119.74027777777778,35.35472222222222],[-119.8913888888889,35.43722222222222],[-120.14500000000001,35.57527777777778],[-120.24972222222222,35.63166666666667],[-120.27305555555556,35.644444444444446]],"type":"LineString"}
}
