{
  "id": 2031519705,
  "type": "Feature",
  "properties": {
    "geom:area": 0,
    "geom:bbox": "-122.380000,37.490000,-77.460000,42.510000",
    "geom:latitude": 40.70366198436516,
    "geom:longitude": -99.70375763853824,
    "src:alt_label": "swim-route",
    "src:geom": "swim",
    "swim:geom": "route",
    "wof:geomhash": "be480cf0c1090bbe65eec1460ae71f9a",
    "wof:id": 2031519705,
    "wof:repo": "sfomuseum-data-flights-2026-06"
  },
  "bbox": [
    -122.38,
    37.49,
    -77.46,
    42.51
  ],
  "geometry": {"coordinates":[[-77.46,38.95],[-77.5,39.01],[-77.52,39.03],[-77.52,39.03],[-77.54,39.05],[-77.55,39.07],[-77.56,39.09],[-77.57,39.09],[-77.58,39.12],[-77.6,39.14],[-77.62,39.16],[-77.63,39.18],[-77.72,39.3],[-77.78,39.39],[-77.81,39.45],[-77.81,39.46],[-77.83,39.49],[-77.85,39.52],[-77.86,39.54],[-77.87,39.54],[-77.88,39.54],[-77.9,39.55],[-77.99,39.58],[-78.1,39.61],[-78.18,39.64],[-78.26,39.66],[-78.39,39.7],[-78.4,39.7],[-78.42,39.71],[-78.43,39.71],[-78.47,39.72],[-79.41,40],[-80.06,40.33],[-80.33,40.47],[-80.58,40.6],[-80.72,40.66],[-80.74,40.67],[-81.14,40.87],[-81.23,40.91],[-81.6,41.09],[-82.16,41.36],[-82.76,41.46],[-83.57,41.6],[-84.59,41.76],[-84.77,41.79],[-86.54,42.04],[-87,42.1],[-87.95,42.22],[-88.22,42.24],[-88.31,42.25],[-88.6,42.27],[-88.77,42.28],[-89,42.3],[-89.42,42.33],[-89.74,42.35],[-90.18,42.37],[-90.2,42.37],[-90.71,42.4],[-90.96,42.41],[-92.84,42.47],[-93.13,42.48],[-93.77,42.49],[-95.61,42.51],[-96.24,42.51],[-96.27,42.51],[-96.7,42.51],[-98.08,42.48],[-98.69,42.47],[-99.31,42.36],[-102.93,41.63],[-103.37,41.54],[-104.77,41.21],[-105.54,40.95],[-106.59,40.57],[-107.47,40.24],[-107.92,40.07],[-109.76,39.78],[-109.83,39.77],[-109.87,39.77],[-110.66,39.63],[-111.71,39.45],[-112.51,39.3],[-113.32,39.12],[-113.98,38.96],[-114.3,38.88],[-116.17,38.41],[-117.27,38.12],[-117.27,38.12],[-117.77,38],[-118.76,37.9],[-119.1,37.86],[-120.22,37.72],[-120.26,37.72],[-120.28,37.72],[-120.38,37.7],[-120.4,37.7],[-120.75,37.66],[-120.78,37.66],[-120.83,37.65],[-120.96,37.63],[-121,37.63],[-121.08,37.62],[-121.18,37.6],[-121.26,37.59],[-121.39,37.58],[-121.41,37.58],[-121.6,37.55],[-121.61,37.55],[-121.62,37.55],[-121.7,37.53],[-121.8,37.51],[-121.83,37.5],[-121.88,37.49],[-122.08,37.54],[-122.14,37.56],[-122.18,37.57],[-122.28,37.59],[-122.33,37.61],[-122.36,37.61],[-122.38,37.62]],"type":"LineString"}
}
