{
  "id": 2031556269,
  "type": "Feature",
  "properties": {
    "geom:area": 0,
    "geom:bbox": "-173.010000,31.140000,159.010000,52.310000",
    "geom:latitude": 49.56002790112605,
    "geom:longitude": -10.124911259926407,
    "src:alt_label": "swim-route",
    "src:geom": "swim",
    "swim:geom": "route",
    "wof:geomhash": "b138f29d762153eb1883969d7bf75fbd",
    "wof:id": 2031556269,
    "wof:repo": "sfomuseum-data-flights-2026-06"
  },
  "bbox": [
    -173.01,
    31.14,
    159.01,
    52.31
  ],
  "geometry": {"coordinates":[[[121.79,31.14],[121.89,31.22],[121.96,31.28],[122.04,31.36],[122.14,31.44],[122.28,31.55],[122.58,31.8],[122.76,31.94],[122.97,32.12],[123.1,32.23],[123.16,32.27],[136.01,40.94],[138.1,42.05],[148.46,46.52],[156.25,48.92],[157.62,49.26],[159.01,49.59]],[[-173.01,52.31],[-166.08,51.93],[-166.02,51.93],[-141.9,47.03],[-130,42],[-127,40.63],[-127,40.62],[-124.1,39.18],[-123.85,39.06],[-123.75,39],[-123.65,38.92],[-123.59,38.88],[-123.37,38.7],[-123.33,38.67],[-123.14,38.52],[-123.13,38.52],[-122.87,38.3],[-122.85,38.29],[-122.77,38.22],[-122.75,38.16],[-122.72,38.06],[-122.69,37.95],[-122.67,37.9],[-122.67,37.9],[-122.65,37.87],[-122.62,37.85],[-122.59,37.82],[-122.58,37.81],[-122.51,37.74],[-122.5,37.73],[-122.44,37.68],[-122.37,37.62],[-122.38,37.62]]],"type":"MultiLineString"}
}
