{
  "id": 2031509809,
  "type": "Feature",
  "properties": {
    "geom:area": 0,
    "geom:bbox": "-123.540000,37.530000,12.660000,72.350000",
    "geom:latitude": 63.27471238010544,
    "geom:longitude": -60.25855898655206,
    "src:alt_label": "swim-route",
    "src:geom": "swim",
    "swim:geom": "route",
    "wof:geomhash": "e264f6c16261f7e3fd5f77edd2c648be",
    "wof:id": 2031509809,
    "wof:repo": "sfomuseum-data-flights-2026-06"
  },
  "bbox": [
    -123.54,
    37.53,
    12.66,
    72.35
  ],
  "geometry": {"coordinates":[[12.66,55.62],[9.7,58.04],[7.6,59.55],[6.47,60.3],[-51.85,72.35],[-78.21,70.1],[-99.86,63.57],[-107.56,59.09],[-114.26,53.43],[-114.4,53.29],[-114.52,53.17],[-114.53,53.16],[-116.4,51.15],[-116.58,50.88],[-116.8,50.54],[-117.54,49.35],[-117.55,49.3],[-117.68,49.03],[-117.72,49.02],[-117.73,49],[-117.76,48.95],[-117.92,48.67],[-118.02,48.51],[-118.29,48.06],[-119.05,46.69],[-119.22,46.38],[-119.55,45.75],[-119.88,45.15],[-120.36,44.17],[-120.46,43.97],[-120.95,42.96],[-121.32,42.16],[-121.58,41.58],[-121.77,41.15],[-121.94,40.8],[-122.18,40.71],[-122.34,40.7],[-122.67,40.66],[-122.99,40.64],[-123.2,40.52],[-123.28,40.48],[-123.54,40.14],[-123.54,40.14],[-123.52,40.08],[-123.25,39.44],[-123.23,39.39],[-122.98,38.79],[-122.89,38.5],[-122.84,38.38],[-122.82,38.33],[-122.82,38.31],[-122.76,38.15],[-122.73,38.06],[-122.69,37.94],[-122.67,37.9],[-122.67,37.9],[-122.65,37.87],[-122.62,37.85],[-122.59,37.82],[-122.58,37.81],[-122.51,37.74],[-122.5,37.73],[-122.44,37.68],[-122.32,37.53],[-122.37,37.62],[-122.38,37.62]],"type":"LineString"}
}
