{
  "id": 2031613349,
  "type": "Feature",
  "properties": {
    "geom:area": 0,
    "geom:bbox": "-122.398810,37.623750,-121.442160,38.511930",
    "geom:latitude": 38.04956653921951,
    "geom:longitude": -121.92250880651355,
    "src:alt_label": "swim-takeoff",
    "src:geom": "swim",
    "swim:elevations": [
      122,
      183,
      346,
      879,
      1131,
      1220,
      1758,
      1869,
      2317,
      2548,
      3080,
      3346,
      3479,
      3996,
      4109,
      4651,
      4862,
      5297,
      5624,
      5947,
      6444,
      6517,
      6908,
      7175,
      7419,
      7556,
      7757,
      7918
    ],
    "swim:geom": "takeoff",
    "swim:timestamps": [
      1782141176,
      1782141180,
      1782141191,
      1782141236,
      1782141258,
      1782141271,
      1782141324,
      1782141330,
      1782141357,
      1782141371,
      1782141404,
      1782141437,
      1782141455,
      1782141508,
      1782141518,
      1782141556,
      1782141575,
      1782141615,
      1782141644,
      1782141672,
      1782141716,
      1782141723,
      1782141760,
      1782141788,
      1782141822,
      1782141838,
      1782141863,
      1782141891
    ],
    "wof:geomhash": "8e996076e74d59d7f9dfdbcae4050b8e",
    "wof:id": 2031613349,
    "wof:repo": "sfomuseum-data-flights-2026-06"
  },
  "bbox": [
    -122.39881,
    37.62375,
    -121.44216,
    38.51193
  ],
  "geometry": {"coordinates":[[-122.38689,37.62375],[-122.39011,37.62514],[-122.39881,37.62925],[-122.3943,37.66025],[-122.3713,37.6673],[-122.35671,37.67179],[-122.28565,37.69451],[-122.27552,37.69776],[-122.23467,37.71097],[-122.21552,37.72036],[-122.17981,37.75559],[-122.14544,37.79416],[-122.12453,37.8173],[-122.05677,37.89234],[-122.0441,37.90626],[-121.99264,37.96256],[-121.96654,37.99129],[-121.90903,38.05467],[-121.86581,38.10199],[-121.82403,38.14788],[-121.75633,38.22174],[-121.74595,38.23296],[-121.68673,38.29688],[-121.6421,38.34509],[-121.58634,38.40565],[-121.55749,38.43343],[-121.50538,38.47114],[-121.44216,38.51193]],"type":"LineString"}
}
