{
  "id": 2031434495,
  "type": "Feature",
  "properties": {
    "geom:area": 0,
    "geom:bbox": "-122.542410,36.720340,-121.295550,37.669570",
    "geom:latitude": 37.19757890259815,
    "geom:longitude": -121.99641789920861,
    "src:alt_label": "swim-takeoff",
    "src:geom": "swim",
    "swim:elevations": [
      611,
      1032,
      1152,
      1270,
      1642,
      2250,
      2562,
      2824,
      3214,
      3509,
      3556,
      3688,
      3788,
      4055,
      4637,
      4772,
      5329,
      5573,
      5864,
      6276,
      6413,
      6795,
      7066,
      7333,
      7754,
      7895,
      8166,
      8293,
      8590,
      8779
    ],
    "swim:geom": "takeoff",
    "swim:timestamps": [
      1780420341,
      1780420379,
      1780420401,
      1780420419,
      1780420450,
      1780420495,
      1780420516,
      1780420537,
      1780420562,
      1780420584,
      1780420588,
      1780420613,
      1780420621,
      1780420644,
      1780420706,
      1780420717,
      1780420773,
      1780420802,
      1780420836,
      1780420884,
      1780420897,
      1780420941,
      1780420977,
      1780421012,
      1780421065,
      1780421085,
      1780421125,
      1780421150,
      1780421205,
      1780421234
    ],
    "wof:geomhash": "4b9fa3b7093de11660de385ddc2ffa44",
    "wof:id": 2031434495,
    "wof:repo": "sfomuseum-data-flights-2026-06"
  },
  "bbox": [
    -122.54241,
    36.72034,
    -121.29555,
    37.66957
  ],
  "geometry": {"coordinates":[[-122.4187,37.63751],[-122.4511,37.65136],[-122.47402,37.66165],[-122.49501,37.66957],[-122.53796,37.65807],[-122.54241,37.60565],[-122.52615,37.58038],[-122.51235,37.55462],[-122.49446,37.52291],[-122.47724,37.49639],[-122.4733,37.49205],[-122.44007,37.46724],[-122.42835,37.46016],[-122.39351,37.43799],[-122.29588,37.37398],[-122.27792,37.36268],[-122.18322,37.30262],[-122.13352,37.27011],[-122.07308,37.23081],[-121.98628,37.17459],[-121.96205,37.15884],[-121.88118,37.10588],[-121.81247,37.06077],[-121.74458,37.01629],[-121.64219,36.9491],[-121.60031,36.92185],[-121.52112,36.86916],[-121.47086,36.83572],[-121.35661,36.76069],[-121.29555,36.72034]],"type":"LineString"}
}
