{
  "id": 2031459925,
  "type": "Feature",
  "properties": {
    "geom:area": 0,
    "geom:bbox": "-122.400280,37.623140,-121.256580,38.418800",
    "geom:latitude": 38.01562292636489,
    "geom:longitude": -121.8362896722036,
    "src:alt_label": "swim-takeoff",
    "src:geom": "swim",
    "swim:elevations": [
      122,
      457,
      573,
      915,
      1221,
      1739,
      2148,
      2336,
      2571,
      2935,
      3195,
      3254,
      3439,
      3530,
      3982,
      4261,
      4316,
      4423,
      4583,
      4970,
      5330,
      5426,
      6370,
      6478,
      6845,
      7069
    ],
    "swim:geom": "takeoff",
    "swim:timestamps": [
      1780668700,
      1780668735,
      1780668755,
      1780668799,
      1780668824,
      1780668868,
      1780668898,
      1780668918,
      1780668938,
      1780668969,
      1780668991,
      1780669008,
      1780669035,
      1780669051,
      1780669102,
      1780669137,
      1780669145,
      1780669160,
      1780669178,
      1780669219,
      1780669258,
      1780669270,
      1780669371,
      1780669381,
      1780669427,
      1780669456
    ],
    "wof:geomhash": "a3e90c10699b76c00b0354d0af438fc8",
    "wof:id": 2031459925,
    "wof:repo": "sfomuseum-data-flights-2026-06"
  },
  "bbox": [
    -122.40028,
    37.62314,
    -121.25658,
    38.4188
  ],
  "geometry": {"coordinates":[[-122.38556,37.62314],[-122.40028,37.64495],[-122.38258,37.65799],[-122.32533,37.67794],[-122.2895,37.69097],[-122.22501,37.71445],[-122.19139,37.74255],[-122.17319,37.76326],[-122.15337,37.78497],[-122.11536,37.8142],[-122.08761,37.8347],[-122.06432,37.85172],[-122.02578,37.87953],[-122.00191,37.89676],[-121.92256,37.95422],[-121.86481,37.99581],[-121.85212,38.00502],[-121.8259,38.02391],[-121.79395,38.04683],[-121.72137,38.0991],[-121.64984,38.15055],[-121.62784,38.1664],[-121.43414,38.30464],[-121.4143,38.31871],[-121.31799,38.38069],[-121.25658,38.4188]],"type":"LineString"}
}
