{
  "id": 2031505635,
  "type": "Feature",
  "properties": {
    "geom:area": 0,
    "geom:bbox": "-122.536944,30.284444,-97.681389,37.590833",
    "geom:latitude": 34.58349692306934,
    "geom:longitude": -110.01075037717578,
    "src:alt_label": "swim-path",
    "src:geom": "swim",
    "swim:altitudes": [
      "066",
      "109",
      "156",
      "173",
      "210",
      "222",
      "311",
      "321",
      "330",
      "350C",
      "350C",
      "350C",
      "350C",
      "350C",
      "350C",
      "350C",
      "350C",
      "350C",
      "350C",
      "350C",
      "350C",
      "350C",
      "350C",
      "350C",
      "350C",
      "350C",
      "350C",
      "350C",
      "350C",
      "350C",
      "350C",
      "350C",
      "350C",
      "350C",
      "350C",
      "350C",
      "350C",
      "350C",
      "350C",
      "350C",
      "350C",
      "350C",
      "350C",
      "350C",
      "350C",
      "350C",
      "350C",
      "350C",
      "350C",
      "350C",
      "350C",
      "350C",
      "350C",
      "350C",
      "350C",
      "350C",
      "350C",
      "350C",
      "350C",
      "350C",
      "350C",
      "350C",
      "350C",
      "350C",
      "350C",
      "350C",
      "350C",
      "350C",
      "350C",
      "350C",
      "350C",
      "350C",
      "350C",
      "350C",
      "350C",
      "350C",
      "350C",
      "350C",
      "350C",
      "350C",
      "350C",
      "350C",
      "350C",
      "350C",
      "350C",
      "350C",
      "350C",
      "350C",
      "350C",
      "350C",
      "350C",
      "350C",
      "350C",
      "350C",
      "350C",
      "350C",
      "350C",
      "350C",
      "350C",
      "350C",
      "350C",
      "350C",
      "350C",
      "350C",
      "350C",
      "350C",
      "350C",
      "350C",
      "350C",
      "350C",
      "350C",
      "350C",
      "350C",
      "334",
      "323",
      "253",
      "140",
      "060",
      "060",
      "018",
      "018"
    ],
    "swim:geom": "path",
    "swim:speeds": [
      286,
      294,
      393,
      411,
      442,
      456,
      501,
      503,
      505,
      503,
      497,
      497,
      496,
      496,
      494,
      492,
      491,
      491,
      490,
      492,
      492,
      492,
      492,
      491,
      491,
      491,
      491,
      491,
      492,
      492,
      494,
      495,
      495,
      491,
      492,
      491,
      491,
      491,
      491,
      491,
      491,
      490,
      490,
      489,
      489,
      491,
      492,
      492,
      495,
      495,
      498,
      498,
      498,
      497,
      495,
      495,
      495,
      496,
      497,
      502,
      503,
      502,
      501,
      504,
      504,
      507,
      507,
      507,
      507,
      505,
      499,
      494,
      495,
      496,
      496,
      496,
      496,
      495,
      493,
      491,
      491,
      490,
      490,
      490,
      491,
      492,
      494,
      496,
      498,
      499,
      499,
      499,
      493,
      493,
      497,
      497,
      497,
      498,
      498,
      498,
      499,
      499,
      499,
      500,
      500,
      498,
      497,
      497,
      495,
      494,
      493,
      495,
      497,
      493,
      492,
      462,
      399,
      271,
      271,
      145,
      145
    ],
    "swim:timestamps": [
      1781163100,
      1781163228,
      1781163468,
      1781163528,
      1781163708,
      1781163761,
      1781164309,
      1781164369,
      1781164429,
      1781164609,
      1781164901,
      1781164901,
      1781164956,
      1781165016,
      1781165261,
      1781165321,
      1781165376,
      1781165376,
      1781165436,
      1781165557,
      1781165557,
      1781165557,
      1781165857,
      1781165917,
      1781165977,
      1781166037,
      1781166037,
      1781166037,
      1781166157,
      1781166157,
      1781166337,
      1781166380,
      1781166380,
      1781166697,
      1781166740,
      1781166757,
      1781166800,
      1781166800,
      1781166877,
      1781166937,
      1781166937,
      1781166997,
      1781167040,
      1781167101,
      1781167117,
      1781167237,
      1781167297,
      1781167297,
      1781167417,
      1781167417,
      1781167522,
      1781167580,
      1781167580,
      1781167640,
      1781167760,
      1781167760,
      1781167820,
      1781168000,
      1781168120,
      1781168300,
      1781168362,
      1781168421,
      1781168542,
      1781168721,
      1781168721,
      1781168841,
      1781168841,
      1781169021,
      1781169021,
      1781169201,
      1781169442,
      1781169560,
      1781169622,
      1781169682,
      1781169740,
      1781169740,
      1781169740,
      1781169802,
      1781169862,
      1781169921,
      1781169921,
      1781169982,
      1781170042,
      1781170042,
      1781170101,
      1781170161,
      1781170222,
      1781170281,
      1781170401,
      1781170461,
      1781170461,
      1781170461,
      1781170599,
      1781170599,
      1781170720,
      1781170720,
      1781170780,
      1781170840,
      1781170840,
      1781170882,
      1781170942,
      1781170942,
      1781170960,
      1781171020,
      1781171080,
      1781171122,
      1781171182,
      1781171202,
      1781171263,
      1781171381,
      1781171501,
      1781171723,
      1781171843,
      1781172143,
      1781172160,
      1781172340,
      1781172643,
      1781172983,
      1781172983,
      1781173302,
      1781173302
    ],
    "wof:geomhash": "5fd5624f19dea2a884057045b8763022",
    "wof:id": 2031505635,
    "wof:repo": "sfomuseum-data-flights-2026-06"
  },
  "bbox": [
    -122.53694444444444,
    30.284444444444446,
    -97.68138888888889,
    37.590833333333336
  ],
  "geometry": {"coordinates":[[-122.53694444444444,37.590833333333336],[-122.42305555555556,37.44888888888889],[-121.91305555555556,37.345555555555556],[-121.76638888888888,37.315555555555555],[-121.31305555555555,37.25555555555555],[-121.15055555555556,37.263888888888886],[-119.60277777777777,37.32611111111112],[-119.40583333333333,37.3325],[-119.22944444444444,37.338055555555556],[-118.70444444444445,37.35194444444445],[-117.87388888888889,37.37166666666667],[-117.87388888888889,37.37166666666667],[-117.70222222222222,37.37444444444444],[-117.52972222222222,37.37722222222222],[-117.01555555555555,37.090833333333336],[-116.92027777777778,36.97888888888889],[-116.82444444444444,36.865833333333335],[-116.82444444444444,36.865833333333335],[-116.72916666666667,36.753055555555555],[-116.48027777777779,36.58444444444444],[-116.48027777777779,36.58444444444444],[-116.48027777777779,36.58444444444444],[-115.65416666666667,36.401944444444446],[-115.51777777777778,36.37111111111111],[-115.35249999999999,36.33361111111111],[-115.18972222222223,36.296388888888885],[-115.18972222222223,36.296388888888885],[-115.18972222222223,36.296388888888885],[-114.86305555555555,36.221111111111114],[-114.86305555555555,36.221111111111114],[-114.37388888888889,36.10666666666667],[-114.24277777777777,36.07611111111112],[-114.24277777777777,36.07611111111112],[-113.41111111111111,35.8675],[-113.28361111111111,35.83527777777778],[-113.25083333333333,35.82694444444445],[-113.12194444444444,35.79388888888889],[-113.12194444444444,35.79388888888889],[-112.92833333333334,35.74388888888889],[-112.76638888888888,35.70194444444445],[-112.76638888888888,35.70194444444445],[-112.60138888888888,35.65888888888889],[-112.48,35.62722222222222],[-112.32138888888889,35.58527777777778],[-112.28527777777778,35.575833333333335],[-111.97277777777778,35.48222222222223],[-111.815,35.434999999999995],[-111.815,35.434999999999995],[-111.50555555555556,35.34138888888889],[-111.50555555555556,35.34138888888889],[-111.21666666666667,35.2525],[-111.05777777777777,35.203611111111115],[-111.05777777777777,35.203611111111115],[-110.90583333333333,35.156388888888884],[-110.59277777777777,35.058611111111105],[-110.59277777777777,35.058611111111105],[-110.4363888888889,35.009166666666665],[-109.96861111111112,34.86],[-109.6588888888889,34.76],[-109.18666666666667,34.60583333333334],[-109.03111111111112,34.55416666666667],[-108.8736111111111,34.50194444444445],[-108.56277777777777,34.39805555555556],[-108.08,34.23416666666667],[-108.08,34.23416666666667],[-107.76833333333333,34.12722222222222],[-107.76833333333333,34.12722222222222],[-107.29972222222221,33.964444444444446],[-107.29972222222221,33.964444444444446],[-106.83916666666666,33.801944444444445],[-106.20944444444444,33.57638888888889],[-105.91611111111112,33.469722222222224],[-105.75722222222223,33.41305555555555],[-105.60666666666665,33.35888888888889],[-105.46583333333334,33.308055555555555],[-105.46583333333334,33.308055555555555],[-105.46583333333334,33.308055555555555],[-105.30499999999999,33.24944444444444],[-105.15555555555557,33.19499999999999],[-105.02083333333333,33.14555555555555],[-105.02083333333333,33.14555555555555],[-104.86083333333333,33.086666666666666],[-104.71222222222222,33.031666666666666],[-104.71222222222222,33.031666666666666],[-104.56694444444445,32.97777777777778],[-104.41805555555555,32.92194444444444],[-104.26361111111112,32.86416666666667],[-104.11833333333333,32.80972222222222],[-103.81805555555555,32.69583333333333],[-103.69416666666667,32.64833333333333],[-103.69416666666667,32.64833333333333],[-103.69416666666667,32.64833333333333],[-103.3461111111111,32.51416666666667],[-103.3461111111111,32.51416666666667],[-103.045,32.39833333333333],[-103.045,32.39833333333333],[-102.8938888888889,32.33916666666667],[-102.74638888888889,32.28111111111111],[-102.74638888888889,32.28111111111111],[-102.62888888888888,32.234722222222224],[-102.48333333333333,32.17722222222222],[-102.48333333333333,32.17722222222222],[-102.44666666666667,32.16277777777778],[-102.2961111111111,32.108333333333334],[-102.14694444444446,32.05444444444444],[-102.02527777777777,32.00972222222222],[-101.8775,31.951944444444443],[-101.84861111111111,31.940277777777776],[-101.70138888888889,31.880833333333335],[-101.40916666666668,31.764166666666668],[-101.11916666666666,31.646666666666665],[-100.59472222222222,31.4325],[-100.28472222222221,31.348333333333333],[-99.52527777777777,31.124166666666667],[-99.4675,31.104444444444447],[-99.03305555555555,30.95583333333333],[-98.40722222222223,30.738055555555558],[-97.885,30.52611111111111],[-97.885,30.52611111111111],[-97.68138888888889,30.284444444444446],[-97.68138888888889,30.284444444444446]],"type":"LineString"}
}
