{
  "id": 2031496609,
  "type": "Feature",
  "properties": {
    "geom:area": 0,
    "geom:bbox": "-122.553750,36.756820,-121.270850,37.669400",
    "geom:latitude": 37.187120790586036,
    "geom:longitude": -122.01340462747547,
    "src:alt_label": "swim-takeoff",
    "src:geom": "swim",
    "swim:elevations": [
      342,
      650,
      1013,
      1227,
      1352,
      1895,
      2291,
      2398,
      2526,
      3124,
      3320,
      3445,
      3649,
      4020,
      4118,
      4232,
      4268,
      4843,
      4992,
      5230,
      5401,
      5464,
      5737,
      5798,
      6225,
      6341,
      6501,
      6577,
      6853,
      6926,
      7092,
      7290,
      7506,
      7567,
      7808,
      7852
    ],
    "swim:geom": "takeoff",
    "swim:timestamps": [
      1781009864,
      1781009892,
      1781009932,
      1781009968,
      1781009980,
      1781010027,
      1781010057,
      1781010065,
      1781010077,
      1781010128,
      1781010146,
      1781010160,
      1781010185,
      1781010224,
      1781010243,
      1781010267,
      1781010277,
      1781010347,
      1781010368,
      1781010401,
      1781010422,
      1781010430,
      1781010472,
      1781010482,
      1781010535,
      1781010551,
      1781010574,
      1781010584,
      1781010624,
      1781010639,
      1781010663,
      1781010694,
      1781010728,
      1781010737,
      1781010775,
      1781010785
    ],
    "wof:geomhash": "048dba0763010a3848c63de7b126199a",
    "wof:id": 2031496609,
    "wof:repo": "sfomuseum-data-flights-2026-06"
  },
  "bbox": [
    -122.55375,
    36.75682,
    -121.27085,
    37.6694
  ],
  "geometry": {"coordinates":[[-122.4013,37.63005],[-122.42631,37.64127],[-122.46459,37.65828],[-122.50788,37.6694],[-122.52562,37.66478],[-122.55375,37.61286],[-122.5291,37.57781],[-122.52118,37.56841],[-122.51144,37.55457],[-122.46876,37.48975],[-122.45309,37.46619],[-122.4409,37.44917],[-122.41705,37.41575],[-122.37761,37.36272],[-122.35005,37.34035],[-122.3103,37.31659],[-122.2931,37.30637],[-122.16618,37.23098],[-122.12816,37.20837],[-122.06681,37.17178],[-122.02684,37.14779],[-122.01107,37.13828],[-121.93263,37.09083],[-121.9137,37.07936],[-121.80924,37.01646],[-121.77801,36.99742],[-121.73301,36.97003],[-121.71291,36.95782],[-121.62682,36.91985],[-121.59335,36.90601],[-121.53937,36.88325],[-121.4699,36.85415],[-121.39256,36.82236],[-121.37203,36.81388],[-121.29171,36.77144],[-121.27085,36.75682]],"type":"LineString"}
}
