{
  "id": 2031447909,
  "type": "Feature",
  "properties": {
    "geom:area": 0,
    "geom:bbox": "-123.570000,37.550000,-122.330000,49.190000",
    "geom:latitude": 43.03544838720579,
    "geom:longitude": -123.2498433233274,
    "src:alt_label": "swim-route",
    "src:geom": "swim",
    "swim:geom": "route",
    "wof:geomhash": "7d9f29d264b29850a17ccdf00298ba16",
    "wof:id": 2031447909,
    "wof:repo": "sfomuseum-data-flights-2026-06"
  },
  "bbox": [
    -123.57,
    37.55,
    -122.33,
    49.19
  ],
  "geometry": {"coordinates":[[-123.18,49.19],[-123.22,49.13],[-123.24,49.1],[-123.29,49.04],[-123.34,48.96],[-123.34,48.79],[-123.46,48.74],[-123.52,48.72],[-123.51,48.58],[-123.5,48.47],[-123.49,48.34],[-123.49,48.27],[-123.48,48.24],[-123.48,48.16],[-123.48,48.14],[-123.47,48.03],[-123.47,47.98],[-123.46,47.91],[-123.45,47.76],[-123.43,47.41],[-123.42,47.34],[-123.41,47.19],[-123.41,47.15],[-123.4,46.91],[-123.37,46.04],[-123.33,44.5],[-123.32,44.18],[-123.29,43.55],[-123.26,42.77],[-123.25,42.48],[-123.23,41.96],[-123.22,41.62],[-123.21,41.34],[-123.21,41.33],[-123.2,40.81],[-123.25,40.06],[-123.17,39.96],[-123.42,39.83],[-123.38,39.73],[-123.57,39.49],[-123.36,39.29],[-123.23,39.18],[-123.21,39.16],[-123.2,39.15],[-123.13,39.09],[-123.13,39.09],[-123.31,39.04],[-123.41,39.02],[-123.29,38.98],[-123.04,38.81],[-123.03,38.79],[-123.02,38.76],[-123.01,38.75],[-122.83,38.37],[-122.81,38.32],[-122.77,38.22],[-122.75,38.16],[-122.72,38.06],[-122.7,38],[-122.69,37.95],[-122.67,37.9],[-122.65,37.87],[-122.59,37.82],[-122.58,37.81],[-122.53,37.77],[-122.51,37.74],[-122.5,37.74],[-122.5,37.73],[-122.44,37.68],[-122.33,37.55],[-122.37,37.62],[-122.38,37.62]],"type":"LineString"}
}
