{
  "id": 2031451107,
  "type": "Feature",
  "properties": {
    "geom:area": 0,
    "geom:bbox": "-122.560000,32.730000,-116.990000,37.660000",
    "geom:latitude": 34.998042606065205,
    "geom:longitude": -120.01305222718244,
    "src:alt_label": "swim-route",
    "src:geom": "swim",
    "swim:geom": "route",
    "wof:geomhash": "896268c120cad21c0207385e7ea3cc66",
    "wof:id": 2031451107,
    "wof:repo": "sfomuseum-data-flights-2026-06"
  },
  "bbox": [
    -122.56,
    32.73,
    -116.99,
    37.66
  ],
  "geometry": {"coordinates":[[-122.38,37.62],[-122.48,37.66],[-122.48,37.65],[-122.48,37.64],[-122.48,37.57],[-122.48,37.57],[-122.48,37.54],[-122.47,37.49],[-122.47,37.49],[-122.48,37.48],[-122.48,37.46],[-122.5,37.34],[-122.53,37.18],[-122.55,37.08],[-122.55,37.08],[-122.56,37.06],[-122.56,37.01],[-122.55,36.98],[-122.43,36.82],[-122.42,36.81],[-122.4,36.78],[-122.33,36.68],[-122.32,36.66],[-122.32,36.65],[-122.31,36.64],[-122.29,36.63],[-122.15,36.5],[-122,36.37],[-121.92,36.3],[-121.91,36.29],[-121.67,36.07],[-121.58,35.98],[-121.57,35.97],[-121.37,35.8],[-121.18,35.62],[-121.07,35.52],[-120.99,35.47],[-120.96,35.45],[-120.73,35.32],[-120.5,35.18],[-120.27,35.05],[-119.13,34.36],[-118.65,34.07],[-118.45,33.95],[-118.43,33.93],[-118.23,33.78],[-118.14,33.71],[-118.11,33.68],[-118.05,33.64],[-117.93,33.55],[-117.84,33.47],[-117.81,33.44],[-117.8,33.43],[-117.64,33.29],[-117.61,33.26],[-117.61,33.25],[-117.6,33.25],[-117.55,33.2],[-117.49,33.14],[-117.49,33.14],[-117.48,33.14],[-117.46,33.1],[-117.41,33.05],[-117.39,33.02],[-117.35,32.98],[-117.3,32.92],[-117.28,32.9],[-117.25,32.86],[-117.25,32.85],[-117.21,32.81],[-117.15,32.8],[-117.08,32.78],[-117.06,32.78],[-116.99,32.75],[-116.99,32.75],[-117.09,32.74],[-117.19,32.73]],"type":"LineString"}
}
