{
  "id": 2031578151,
  "type": "Feature",
  "properties": {
    "geom:area": 0,
    "geom:bbox": "-122.546180,36.723940,-121.306610,37.665570",
    "geom:latitude": 37.200650810098544,
    "geom:longitude": -122.01396888617597,
    "src:alt_label": "swim-takeoff",
    "src:geom": "swim",
    "swim:elevations": [
      283,
      576,
      1009,
      1177,
      1431,
      1562,
      1741,
      2108,
      2511,
      2764,
      3034,
      3480,
      3622,
      3779,
      3885,
      4117,
      4203,
      4672,
      5031,
      5154,
      5451,
      5646,
      5845,
      5998,
      6176,
      6429,
      6477,
      6621,
      6871,
      7112,
      7298,
      7490,
      7511,
      7692,
      7738,
      7830,
      7950,
      8138,
      8179
    ],
    "swim:geom": "takeoff",
    "swim:timestamps": [
      1781826972,
      1781826996,
      1781827039,
      1781827076,
      1781827101,
      1781827115,
      1781827130,
      1781827159,
      1781827190,
      1781827214,
      1781827241,
      1781827281,
      1781827292,
      1781827304,
      1781827323,
      1781827373,
      1781827389,
      1781827429,
      1781827464,
      1781827479,
      1781827518,
      1781827546,
      1781827575,
      1781827597,
      1781827618,
      1781827646,
      1781827653,
      1781827669,
      1781827698,
      1781827731,
      1781827764,
      1781827798,
      1781827801,
      1781827827,
      1781827833,
      1781827853,
      1781827866,
      1781827911,
      1781827924
    ],
    "wof:geomhash": "22a11c87626ff3ccaf4a93d00a561981",
    "wof:id": 2031578151,
    "wof:repo": "sfomuseum-data-flights-2026-06"
  },
  "bbox": [
    -122.54618,
    36.72394,
    -121.30661,
    37.66557
  ],
  "geometry": {"coordinates":[[-122.40417,37.63107],[-122.42813,37.64132],[-122.47235,37.66041],[-122.51885,37.66557],[-122.54304,37.6453],[-122.54618,37.62865],[-122.5439,37.61026],[-122.5387,37.57361],[-122.53399,37.53404],[-122.52071,37.5055],[-122.48688,37.4825],[-122.43432,37.44886],[-122.41968,37.43959],[-122.40393,37.42951],[-122.37792,37.41297],[-122.30361,37.36602],[-122.27875,37.35022],[-122.21381,37.30894],[-122.15772,37.27311],[-122.13334,37.25762],[-122.06886,37.21644],[-122.02125,37.18598],[-121.96962,37.15299],[-121.93002,37.12762],[-121.89218,37.10344],[-121.84064,37.07014],[-121.82757,37.06171],[-121.79811,37.04277],[-121.74468,37.00827],[-121.68312,36.96848],[-121.62084,36.92806],[-121.55543,36.88557],[-121.54959,36.88179],[-121.49815,36.84858],[-121.48617,36.84106],[-121.44785,36.81668],[-121.42111,36.79937],[-121.33282,36.74124],[-121.30661,36.72394]],"type":"LineString"}
}
