{
  "id": 2031504725,
  "type": "Feature",
  "properties": {
    "geom:area": 0,
    "geom:bbox": "-122.408690,37.625250,-121.252350,37.991250",
    "geom:latitude": 37.93399647918063,
    "geom:longitude": -121.94966623102853,
    "src:alt_label": "swim-takeoff",
    "src:geom": "swim",
    "swim:elevations": [
      122,
      513,
      640,
      713,
      1154,
      1409,
      2191,
      2410,
      2629,
      3035,
      3220,
      3314,
      3562,
      3701,
      4225,
      4382,
      4598,
      4764,
      4990,
      5275,
      5445,
      5749,
      5892,
      6172,
      6356,
      6421
    ],
    "swim:geom": "takeoff",
    "swim:timestamps": [
      1781142882,
      1781142923,
      1781142956,
      1781142968,
      1781143001,
      1781143034,
      1781143108,
      1781143130,
      1781143150,
      1781143190,
      1781143217,
      1781143235,
      1781143288,
      1781143309,
      1781143366,
      1781143402,
      1781143429,
      1781143455,
      1781143482,
      1781143518,
      1781143542,
      1781143584,
      1781143602,
      1781143645,
      1781143675,
      1781143684
    ],
    "wof:geomhash": "b234ef19ab12f2a1ae1c1148011aaa1d",
    "wof:id": 2031504725,
    "wof:repo": "sfomuseum-data-flights-2026-06"
  },
  "bbox": [
    -122.40869,
    37.62525,
    -121.25235,
    37.99125
  ],
  "geometry": {"coordinates":[[-122.39061,37.62525],[-122.40869,37.65175],[-122.38589,37.67751],[-122.37537,37.68758],[-122.34505,37.71636],[-122.33619,37.75089],[-122.3818,37.8366],[-122.38814,37.86405],[-122.38592,37.89052],[-122.37034,37.93895],[-122.32904,37.95482],[-122.29633,37.95968],[-122.19317,37.97905],[-122.1495,37.98727],[-122.0248,37.98898],[-121.94459,37.9895],[-121.88155,37.99],[-121.81942,37.99032],[-121.75459,37.99048],[-121.66725,37.99073],[-121.61049,37.99087],[-121.50704,37.99108],[-121.46017,37.99117],[-121.35196,37.99123],[-121.27554,37.99125],[-121.25235,37.99121]],"type":"LineString"}
}
