{
  "id": 2031551299,
  "type": "Feature",
  "properties": {
    "geom:area": 0,
    "geom:bbox": "-122.416470,37.628640,-121.275780,37.971190",
    "geom:latitude": 37.85826655593756,
    "geom:longitude": -121.87892134185593,
    "src:alt_label": "swim-takeoff",
    "src:geom": "swim",
    "swim:elevations": [
      244,
      608,
      697,
      1031,
      1358,
      1736,
      1899,
      2581,
      2658,
      3102,
      3303,
      3457,
      3740,
      3951,
      4067,
      4315,
      4646,
      5138,
      5151,
      5151,
      5151,
      5151,
      5335,
      5452,
      5781,
      5865,
      6032
    ],
    "swim:geom": "takeoff",
    "swim:timestamps": [
      1781516630,
      1781516666,
      1781516672,
      1781516713,
      1781516751,
      1781516785,
      1781516797,
      1781516847,
      1781516855,
      1781516889,
      1781516923,
      1781516956,
      1781516988,
      1781517003,
      1781517012,
      1781517038,
      1781517069,
      1781517115,
      1781517148,
      1781517162,
      1781517166,
      1781517188,
      1781517238,
      1781517260,
      1781517295,
      1781517303,
      1781517323
    ],
    "wof:geomhash": "f07b5c7c12eef706d27793da5f32e246",
    "wof:id": 2031551299,
    "wof:repo": "sfomuseum-data-flights-2026-06"
  },
  "bbox": [
    -122.41647,
    37.62864,
    -121.27578,
    37.97119
  ],
  "geometry": {"coordinates":[[-122.39889,37.62864],[-122.41647,37.65351],[-122.41395,37.65953],[-122.36946,37.67506],[-122.31791,37.6876],[-122.27066,37.70889],[-122.25955,37.72093],[-122.20732,37.7692],[-122.19789,37.77514],[-122.15336,37.80349],[-122.10766,37.83358],[-122.0575,37.86516],[-121.99855,37.88657],[-121.96689,37.89061],[-121.95021,37.89249],[-121.89496,37.89921],[-121.82866,37.9058],[-121.73068,37.91679],[-121.65682,37.92582],[-121.62675,37.92951],[-121.61838,37.93055],[-121.5709,37.93637],[-121.46132,37.9495],[-121.41532,37.95489],[-121.33691,37.9641],[-121.32097,37.96595],[-121.27578,37.97119]],"type":"LineString"}
}
