{
  "id": 2031473669,
  "type": "Feature",
  "properties": {
    "geom:area": 0,
    "geom:bbox": "-122.360520,37.432970,-121.252870,37.615430",
    "geom:latitude": 37.539188490273794,
    "geom:longitude": -121.8146323681373,
    "src:alt_label": "swim-approach",
    "src:geom": "swim",
    "swim:elevations": [
      4668,
      4524,
      4328,
      4079,
      4022,
      4015,
      3995,
      3960,
      3416,
      3353,
      3355,
      3353,
      3353,
      3353,
      3239,
      2964,
      2840,
      2718,
      2552,
      2448,
      2440,
      2438,
      2409,
      2253,
      2134,
      2134,
      2038,
      1934,
      1878,
      1828,
      1740,
      1614,
      1320,
      1218,
      1176,
      1055,
      761,
      678,
      516,
      438,
      232,
      165,
      101,
      142
    ],
    "swim:geom": "approach",
    "swim:timestamps": [
      1780879429,
      1780879444,
      1780879468,
      1780879494,
      1780879504,
      1780879519,
      1780879531,
      1780879546,
      1780879615,
      1780879639,
      1780879678,
      1780879696,
      1780879717,
      1780879731,
      1780879752,
      1780879794,
      1780879815,
      1780879833,
      1780879866,
      1780879902,
      1780879920,
      1780879939,
      1780879957,
      1780879984,
      1780880026,
      1780880056,
      1780880075,
      1780880090,
      1780880102,
      1780880126,
      1780880142,
      1780880162,
      1780880210,
      1780880246,
      1780880276,
      1780880306,
      1780880364,
      1780880382,
      1780880414,
      1780880432,
      1780880487,
      1780880505,
      1780880522,
      1780880552
    ],
    "wof:geomhash": "e07eb41a9724f4adeb8dda04c5249327",
    "wof:id": 2031473669,
    "wof:repo": "sfomuseum-data-flights-2026-06"
  },
  "bbox": [
    -122.36052,
    37.43297,
    -121.25287,
    37.61543
  ],
  "geometry": {"coordinates":[[-121.25287,37.59373],[-121.28132,37.58986],[-121.32656,37.58445],[-121.37366,37.57934],[-121.3909,37.57751],[-121.41633,37.57466],[-121.43556,37.57253],[-121.45838,37.56992],[-121.55736,37.55849],[-121.59164,37.55459],[-121.64407,37.5671],[-121.66735,37.57563],[-121.69414,37.58551],[-121.71255,37.59232],[-121.73936,37.60226],[-121.79491,37.60664],[-121.81258,37.58815],[-121.81333,37.56752],[-121.80603,37.52965],[-121.79934,37.49125],[-121.79663,37.47347],[-121.80191,37.45634],[-121.81561,37.44359],[-121.84639,37.43843],[-121.89434,37.43297],[-121.92893,37.43399],[-121.94756,37.44091],[-121.96239,37.4469],[-121.97398,37.45178],[-121.99807,37.46196],[-122.01315,37.46825],[-122.03236,37.47655],[-122.07738,37.49566],[-122.11003,37.50942],[-122.13794,37.52119],[-122.16545,37.53283],[-122.21815,37.55508],[-122.23412,37.56181],[-122.26318,37.57405],[-122.27792,37.58027],[-122.31653,37.59646],[-122.32859,37.60158],[-122.34007,37.60638],[-122.36052,37.61543]],"type":"LineString"}
}
