{
  "id": 2031545467,
  "type": "Feature",
  "properties": {
    "geom:area": 0,
    "geom:bbox": "-122.356230,37.425620,-121.256440,37.613060",
    "geom:latitude": 37.52866866900999,
    "geom:longitude": -121.8152150198684,
    "src:alt_label": "swim-approach",
    "src:geom": "swim",
    "swim:elevations": [
      4673,
      4530,
      4133,
      3934,
      3630,
      3545,
      3497,
      3360,
      3287,
      3048,
      2899,
      2801,
      2742,
      2743,
      2743,
      2679,
      2504,
      2296,
      2166,
      1991,
      1862,
      1680,
      1415,
      1286,
      1233,
      1163,
      1079,
      1027,
      893,
      774,
      667,
      550,
      419,
      261,
      184,
      105,
      15
    ],
    "swim:geom": "approach",
    "swim:timestamps": [
      1781555996,
      1781556012,
      1781556058,
      1781556082,
      1781556117,
      1781556128,
      1781556143,
      1781556158,
      1781556168,
      1781556201,
      1781556227,
      1781556249,
      1781556281,
      1781556325,
      1781556349,
      1781556378,
      1781556404,
      1781556440,
      1781556474,
      1781556504,
      1781556521,
      1781556551,
      1781556597,
      1781556619,
      1781556635,
      1781556650,
      1781556670,
      1781556685,
      1781556714,
      1781556738,
      1781556763,
      1781556794,
      1781556827,
      1781556864,
      1781556891,
      1781556913,
      1781556931
    ],
    "wof:geomhash": "209e61509ecf69f5c318bc60e3a71828",
    "wof:id": 2031545467,
    "wof:repo": "sfomuseum-data-flights-2026-06"
  },
  "bbox": [
    -122.35623,
    37.42562,
    -121.25644,
    37.61306
  ],
  "geometry": {"coordinates":[[-121.25644,37.59331],[-121.29054,37.58868],[-121.38866,37.57745],[-121.43649,37.57212],[-121.50444,37.56452],[-121.52486,37.56217],[-121.55136,37.55913],[-121.57964,37.55582],[-121.59613,37.55388],[-121.6527,37.54413],[-121.69444,37.53909],[-121.72871,37.54441],[-121.77487,37.53598],[-121.79937,37.48755],[-121.80851,37.45998],[-121.83136,37.43146],[-121.8676,37.42562],[-121.91927,37.43047],[-121.95962,37.44556],[-121.99109,37.45899],[-122.00939,37.46677],[-122.04101,37.48023],[-122.08716,37.49978],[-122.10822,37.50868],[-122.12246,37.5147],[-122.13512,37.51997],[-122.15293,37.52756],[-122.16609,37.5331],[-122.19124,37.54372],[-122.21233,37.55265],[-122.23346,37.56149],[-122.25977,37.57262],[-122.28404,37.58275],[-122.31201,37.59461],[-122.33018,37.60226],[-122.34437,37.60818],[-122.35623,37.61306]],"type":"LineString"}
}
