{
  "id": 2031509417,
  "type": "Feature",
  "properties": {
    "geom:area": 0,
    "geom:bbox": "-122.770000,37.620000,-70.800000,46.390000",
    "geom:latitude": 43.644029274008226,
    "geom:longitude": -97.22625985422046,
    "src:alt_label": "swim-route",
    "src:geom": "swim",
    "swim:geom": "route",
    "wof:geomhash": "a7189b480082d48c53881c014875db63",
    "wof:id": 2031509417,
    "wof:repo": "sfomuseum-data-flights-2026-06"
  },
  "bbox": [
    -122.77,
    37.62,
    -70.8,
    46.39
  ],
  "geometry": {"coordinates":[[-71.01,42.36],[-70.98,42.41],[-70.98,42.42],[-70.97,42.44],[-70.96,42.44],[-70.95,42.44],[-70.93,42.45],[-70.92,42.45],[-70.86,42.46],[-70.85,42.46],[-70.85,42.46],[-70.8,42.51],[-70.81,42.55],[-70.83,42.58],[-71.05,42.68],[-71.15,42.72],[-71.2,42.75],[-71.28,42.78],[-71.37,42.8],[-71.45,42.82],[-71.82,42.91],[-71.89,42.92],[-72.04,42.96],[-72.18,42.99],[-72.71,43.1],[-74.31,43.44],[-74.59,43.5],[-74.62,43.5],[-75.02,43.58],[-76.6,43.88],[-76.61,43.88],[-78.32,44.18],[-78.9,44.28],[-79.35,44.35],[-79.48,44.37],[-79.77,44.42],[-82.39,44.79],[-82.39,44.8],[-82.97,44.99],[-83.36,45.12],[-84.17,45.39],[-86.39,46.07],[-86.5,46.1],[-86.89,46.22],[-87.4,46.36],[-87.42,46.33],[-87.68,46.39],[-87.9,46.37],[-88.01,46.37],[-88.39,46.36],[-88.65,46.33],[-90.35,46.22],[-92.18,46.05],[-92.41,46.04],[-93.27,45.95],[-94.08,45.86],[-94.4,45.82],[-94.71,45.8],[-96.91,45.51],[-97.81,45.38],[-98.15,45.34],[-101.71,44.74],[-106.63,43.71],[-107.23,43.56],[-109.98,42.86],[-111.94,42.31],[-112.85,42.04],[-113.3,41.9],[-113.47,41.85],[-113.73,41.76],[-114.49,41.49],[-116.92,40.57],[-118.03,40.27],[-118.58,40.13],[-118.82,40.05],[-119.55,39.83],[-120.5,39.53],[-120.85,39.42],[-121.1,39.34],[-121.1,39.33],[-121.38,39.17],[-121.46,39.12],[-121.55,39.07],[-121.63,39.03],[-121.86,38.89],[-121.93,38.85],[-122.08,38.76],[-122.26,38.65],[-122.26,38.65],[-122.44,38.54],[-122.44,38.54],[-122.68,38.31],[-122.69,38.3],[-122.77,38.22],[-122.75,38.16],[-122.69,37.96],[-122.69,37.95],[-122.67,37.9],[-122.65,37.87],[-122.63,37.86],[-122.62,37.85],[-122.59,37.82],[-122.58,37.81],[-122.51,37.74],[-122.51,37.74],[-122.5,37.73],[-122.44,37.68],[-122.37,37.62],[-122.38,37.62]],"type":"LineString"}
}
