{
  "id": 2031638489,
  "type": "Feature",
  "properties": {
    "geom:area": 0,
    "geom:bbox": "-122.399640,37.627360,-121.262590,37.991230",
    "geom:latitude": 37.93474310749336,
    "geom:longitude": -121.94672664625085,
    "src:alt_label": "swim-takeoff",
    "src:geom": "swim",
    "swim:elevations": [
      213,
      414,
      678,
      915,
      1550,
      1784,
      1960,
      2106,
      2455,
      2857,
      3116,
      3414,
      3614,
      3685,
      3824,
      4088,
      4452,
      4682,
      4891,
      5192,
      5275,
      5497,
      5649,
      5972,
      5988,
      6409,
      6583,
      6779,
      6836
    ],
    "swim:geom": "takeoff",
    "swim:timestamps": [
      1782434547,
      1782434561,
      1782434597,
      1782434618,
      1782434666,
      1782434682,
      1782434694,
      1782434707,
      1782434739,
      1782434771,
      1782434792,
      1782434846,
      1782434874,
      1782434881,
      1782434896,
      1782434927,
      1782434967,
      1782434990,
      1782435011,
      1782435052,
      1782435061,
      1782435088,
      1782435106,
      1782435148,
      1782435155,
      1782435207,
      1782435231,
      1782435258,
      1782435270
    ],
    "wof:geomhash": "0c8ba91ef20b0cc7f3452f6dc9366474",
    "wof:id": 2031638489,
    "wof:repo": "sfomuseum-data-flights-2026-06"
  },
  "bbox": [
    -122.39964,
    37.62736,
    -121.26259,
    37.99123
  ],
  "geometry": {"coordinates":[[-122.38967,37.62736],[-122.39964,37.6341],[-122.39333,37.66497],[-122.3749,37.68417],[-122.3381,37.73468],[-122.34236,37.75295],[-122.34914,37.76631],[-122.3566,37.78144],[-122.37504,37.82062],[-122.38625,37.8617],[-122.3848,37.89004],[-122.32653,37.95217],[-122.26538,37.96387],[-122.25122,37.9668],[-122.21809,37.97377],[-122.14841,37.9865],[-122.05131,37.98814],[-121.99544,37.98875],[-121.94342,37.98917],[-121.84139,37.98962],[-121.81856,37.9898],[-121.74967,37.99015],[-121.70309,37.99024],[-121.59302,37.99069],[-121.57563,37.99071],[-121.43671,37.99101],[-121.37176,37.9911],[-121.29559,37.99123],[-121.26259,37.99119]],"type":"LineString"}
}
