{
  "id": 2031581437,
  "type": "Feature",
  "properties": {
    "geom:area": 0,
    "geom:bbox": "-122.350300,37.491560,-121.253550,37.610640",
    "geom:latitude": 37.54214683283906,
    "geom:longitude": -121.80881457682949,
    "src:alt_label": "swim-approach",
    "src:geom": "swim",
    "swim:elevations": [
      4696,
      4487,
      4319,
      3966,
      3611,
      3428,
      3197,
      3096,
      2963,
      2625,
      2558,
      2416,
      2087,
      2044,
      1855,
      1710,
      1400,
      1316,
      1249,
      1088,
      898,
      841,
      701,
      525,
      454,
      333,
      272,
      162,
      67
    ],
    "swim:geom": "approach",
    "swim:timestamps": [
      1781864122,
      1781864142,
      1781864160,
      1781864196,
      1781864232,
      1781864251,
      1781864295,
      1781864321,
      1781864348,
      1781864398,
      1781864410,
      1781864434,
      1781864484,
      1781864494,
      1781864533,
      1781864572,
      1781864608,
      1781864629,
      1781864649,
      1781864691,
      1781864728,
      1781864736,
      1781864762,
      1781864798,
      1781864811,
      1781864845,
      1781864856,
      1781864889,
      1781864914
    ],
    "wof:geomhash": "d6c02059595b766ab47b4c08cd1e6438",
    "wof:id": 2031581437,
    "wof:repo": "sfomuseum-data-flights-2026-06"
  },
  "bbox": [
    -122.3503,
    37.49156,
    -121.25355,
    37.61064
  ],
  "geometry": {"coordinates":[[-121.25355,37.59381],[-121.29415,37.58853],[-121.33073,37.58453],[-121.40468,37.57626],[-121.47629,37.56794],[-121.51232,37.56375],[-121.59653,37.55384],[-121.64083,37.54676],[-121.68608,37.5356],[-121.75908,37.51851],[-121.77601,37.51449],[-121.81156,37.50596],[-121.88416,37.49156],[-121.89804,37.49243],[-121.95561,37.49575],[-122.01255,37.49863],[-122.06392,37.5015],[-122.09249,37.50396],[-122.11559,37.51222],[-122.15798,37.52959],[-122.19554,37.54557],[-122.20407,37.54914],[-122.2297,37.55992],[-122.26497,37.5748],[-122.27579,37.57933],[-122.3008,37.58988],[-122.3086,37.59316],[-122.33203,37.60305],[-122.3503,37.61064]],"type":"LineString"}
}
