{
  "id": 2031495245,
  "type": "Feature",
  "properties": {
    "geom:area": 0,
    "geom:bbox": "-122.380000,32.750000,-84.430000,40.620000",
    "geom:latitude": 37.9607926284776,
    "geom:longitude": -102.6467101247897,
    "src:alt_label": "swim-route",
    "src:geom": "swim",
    "swim:geom": "route",
    "wof:geomhash": "0a35164aca55da0e04fbed0ac15d223e",
    "wof:id": 2031495245,
    "wof:repo": "sfomuseum-data-flights-2026-06"
  },
  "bbox": [
    -122.38,
    32.75,
    -84.43,
    40.62
  ],
  "geometry": {"coordinates":[[-122.38,37.62],[-122.27,37.69],[-122.27,37.69],[-122.27,37.69],[-122.21,37.72],[-122.2,37.72],[-122.2,37.73],[-122.18,37.74],[-122.17,37.74],[-122.16,37.75],[-122.12,37.77],[-122.1,37.78],[-122,37.83],[-121.93,37.84],[-121.73,37.88],[-121.7,37.88],[-121.64,37.89],[-121.55,37.91],[-121.38,37.94],[-121.34,37.95],[-121.26,37.96],[-121.14,37.98],[-121.11,37.99],[-121.1,37.99],[-121.03,38],[-120.78,38.04],[-120.68,38.06],[-120.59,38.07],[-120.49,38.08],[-120.48,38.1],[-120.47,38.11],[-120.24,38.29],[-119.49,38.34],[-119.16,38.34],[-118.56,38.34],[-118,38.34],[-117.91,38.34],[-117.61,38.33],[-117.3,38.33],[-117.28,38.34],[-117.02,38.34],[-116.09,38.5],[-114.47,38.78],[-114.11,38.83],[-113.75,38.89],[-113.39,38.94],[-113.3,38.95],[-112.19,39.11],[-111.71,39.18],[-111.45,39.21],[-111.18,39.25],[-110.95,39.28],[-110.42,39.34],[-110.12,39.38],[-108.68,39.54],[-107.22,39.68],[-105.11,39.86],[-105.1,39.86],[-104.62,39.89],[-104.5,39.91],[-104.06,39.95],[-103.65,39.98],[-103.29,40.06],[-103.19,40.03],[-103.06,40.12],[-102.84,40.16],[-101.61,40.42],[-101.05,40.52],[-100.63,40.59],[-100.6,40.51],[-100.3,40.62],[-99.89,40.61],[-99.67,40.62],[-99.49,40.58],[-99.49,40.57],[-99.05,40.35],[-99.04,40.36],[-98.02,39.83],[-97.77,39.69],[-97.4,39.49],[-96.35,38.92],[-96.06,38.76],[-95.64,38.52],[-94.6,37.92],[-94.04,37.59],[-93.26,37.12],[-93.03,36.98],[-92.76,36.81],[-92.69,36.77],[-91.13,35.77],[-91.02,35.71],[-89.98,35.02],[-89.54,34.95],[-88.6,34.81],[-88.36,34.65],[-88.3,34.58],[-87.81,33.99],[-87.59,33.72],[-87.29,33.36],[-87.19,33.23],[-87.04,33.05],[-86.92,32.91],[-86.84,32.8],[-86.8,32.75],[-86.43,32.82],[-86.21,32.86],[-86.15,32.87],[-85.56,32.97],[-85.46,32.98],[-85.22,33.02],[-85.07,33.12],[-85.02,33.15],[-85,33.16],[-85,33.16],[-84.95,33.19],[-84.87,33.24],[-84.83,33.3],[-84.83,33.45],[-84.78,33.47],[-84.61,33.55],[-84.52,33.59],[-84.43,33.63],[-84.43,33.64]],"type":"LineString"}
}
