{
  "id": 2031537497,
  "type": "Feature",
  "properties": {
    "geom:area": 0,
    "geom:bbox": "-122.380000,30.190000,-97.670000,37.700000",
    "geom:latitude": 34.34971437084597,
    "geom:longitude": -110.01143890059238,
    "src:alt_label": "swim-route",
    "src:geom": "swim",
    "swim:geom": "route",
    "wof:geomhash": "ad393343b8c9a4e223cb9b8f738d72b4",
    "wof:id": 2031537497,
    "wof:repo": "sfomuseum-data-flights-2026-06"
  },
  "bbox": [
    -122.38,
    30.19,
    -97.67,
    37.7
  ],
  "geometry": {"coordinates":[[-97.67,30.19],[-97.77,30.21],[-97.8,30.22],[-97.85,30.23],[-97.88,30.23],[-97.94,30.24],[-98,30.24],[-98.12,30.28],[-98.21,30.3],[-98.3,30.34],[-98.34,30.35],[-98.37,30.36],[-98.69,30.47],[-98.81,30.51],[-98.88,30.53],[-98.9,30.54],[-99.07,30.59],[-99.15,30.62],[-99.31,30.67],[-99.54,30.74],[-99.6,30.76],[-99.6,30.76],[-101.4,31.33],[-101.47,31.35],[-103.24,31.87],[-103.53,32],[-103.83,32.12],[-104.61,32.44],[-104.82,32.53],[-104.88,32.55],[-106.32,33.12],[-106.71,33.27],[-106.85,33.32],[-107.01,33.38],[-107.48,33.56],[-107.54,33.58],[-107.69,33.64],[-108.26,33.85],[-109.09,34.15],[-109.27,34.21],[-109.82,34.4],[-110.73,34.72],[-112.14,35.18],[-112.71,35.36],[-113.54,35.62],[-114.25,35.82],[-114.86,36],[-115.52,36.28],[-115.73,36.37],[-115.93,36.46],[-116.75,36.8],[-116.87,36.91],[-116.99,37.02],[-117.24,37.25],[-117.52,37.49],[-119.05,37.61],[-119.62,37.65],[-119.98,37.67],[-120.04,37.68],[-120.26,37.69],[-120.28,37.69],[-120.38,37.7],[-120.4,37.7],[-120.75,37.66],[-120.78,37.66],[-120.83,37.65],[-120.96,37.63],[-121,37.63],[-121.08,37.62],[-121.18,37.6],[-121.26,37.59],[-121.39,37.58],[-121.41,37.58],[-121.6,37.55],[-121.61,37.55],[-121.62,37.55],[-121.7,37.53],[-121.8,37.51],[-121.83,37.5],[-121.88,37.49],[-122.08,37.54],[-122.14,37.56],[-122.18,37.57],[-122.28,37.59],[-122.33,37.61],[-122.36,37.61],[-122.38,37.62]],"type":"LineString"}
}
