{
  "id": 2031446391,
  "type": "Feature",
  "properties": {
    "geom:area": 0,
    "geom:bbox": "-122.353640,37.492510,-121.242270,37.612050",
    "geom:latitude": 37.54304877623742,
    "geom:longitude": -121.80486402325164,
    "src:alt_label": "swim-approach",
    "src:geom": "swim",
    "swim:elevations": [
      4852,
      4645,
      4162,
      3735,
      3597,
      3361,
      3138,
      3108,
      2737,
      2574,
      2501,
      2220,
      2040,
      2020,
      1820,
      1766,
      1648,
      1401,
      1237,
      1094,
      958,
      887,
      810,
      547,
      499,
      341,
      277,
      70,
      48
    ],
    "swim:geom": "approach",
    "swim:timestamps": [
      1780565681,
      1780565700,
      1780565746,
      1780565786,
      1780565801,
      1780565824,
      1780565874,
      1780565884,
      1780565933,
      1780565957,
      1780565981,
      1780566026,
      1780566058,
      1780566065,
      1780566110,
      1780566126,
      1780566165,
      1780566208,
      1780566227,
      1780566247,
      1780566272,
      1780566283,
      1780566301,
      1780566357,
      1780566367,
      1780566410,
      1780566422,
      1780566477,
      1780566484
    ],
    "wof:geomhash": "117beb1f263e7bef65affba6166c9475",
    "wof:id": 2031446391,
    "wof:repo": "sfomuseum-data-flights-2026-06"
  },
  "bbox": [
    -122.35364,
    37.49251,
    -121.24227,
    37.61205
  ],
  "geometry": {"coordinates":[[-121.24227,37.59536],[-121.28161,37.59039],[-121.37284,37.58007],[-121.44957,37.57148],[-121.47822,37.56807],[-121.52231,37.56277],[-121.61345,37.55183],[-121.62968,37.5489],[-121.70989,37.53056],[-121.74841,37.52137],[-121.78761,37.51184],[-121.85425,37.49575],[-121.90491,37.49251],[-121.91578,37.49304],[-121.98172,37.4966],[-122.00505,37.49805],[-122.05884,37.50142],[-122.11193,37.51023],[-122.13297,37.51921],[-122.15625,37.52886],[-122.182,37.53975],[-122.19263,37.54439],[-122.21037,37.55203],[-122.25889,37.57212],[-122.26652,37.57533],[-122.29896,37.5891],[-122.3091,37.59334],[-122.3492,37.61016],[-122.35364,37.61205]],"type":"LineString"}
}
