{
  "id": 2031483777,
  "type": "Feature",
  "properties": {
    "geom:area": 0,
    "geom:bbox": "-123.350000,37.620000,-122.370000,44.120000",
    "geom:latitude": 40.79341754543897,
    "geom:longitude": -123.07843145736486,
    "src:alt_label": "swim-route",
    "src:geom": "swim",
    "swim:geom": "route",
    "wof:geomhash": "ebcbea3aec48d9339ed631e96ed005d5",
    "wof:id": 2031483777,
    "wof:repo": "sfomuseum-data-flights-2026-06"
  },
  "bbox": [
    -123.35,
    37.62,
    -122.37,
    44.12
  ],
  "geometry": {"coordinates":[[-123.21,44.12],[-123.22,44.1],[-123.23,44.02],[-123.24,43.95],[-123.25,43.89],[-123.25,43.87],[-123.27,43.72],[-123.3,43.56],[-123.3,43.55],[-123.35,43.18],[-123.35,43.16],[-123.33,42.96],[-123.31,42.77],[-123.3,42.68],[-123.3,42.67],[-123.28,42.38],[-123.26,42.27],[-123.24,42.03],[-123.22,41.79],[-123.19,41.43],[-123.18,41.33],[-123.17,41.31],[-123.04,39.86],[-123.03,39.71],[-123,39.36],[-123,39.32],[-122.99,39.26],[-122.97,39.01],[-122.97,38.96],[-122.96,38.87],[-122.93,38.77],[-122.92,38.73],[-122.88,38.62],[-122.8,38.33],[-122.8,38.32],[-122.77,38.22],[-122.75,38.16],[-122.71,38.02],[-122.69,37.95],[-122.67,37.9],[-122.65,37.87],[-122.59,37.82],[-122.58,37.81],[-122.58,37.81],[-122.54,37.78],[-122.51,37.74],[-122.5,37.73],[-122.44,37.68],[-122.37,37.62],[-122.38,37.62]],"type":"LineString"}
}
