{
  "id": 2031515337,
  "type": "Feature",
  "properties": {
    "geom:area": 0,
    "geom:bbox": "-175.930000,22.300000,180.000000,54.000000",
    "geom:latitude": 51.049654825683334,
    "geom:longitude": 6.848804626299483,
    "src:alt_label": "swim-route",
    "src:geom": "swim",
    "swim:geom": "route",
    "wof:geomhash": "d9a1153aad4be7128a44f601001c4381",
    "wof:id": 2031515337,
    "wof:repo": "sfomuseum-data-flights-2026-06"
  },
  "bbox": [
    -175.93,
    22.3,
    180,
    54
  ],
  "geometry": {"coordinates":[[[-122.38,37.62],[-122.5,37.67],[-122.5,37.67],[-122.5,37.68],[-122.56,37.71],[-122.59,37.73],[-122.59,37.73],[-122.63,37.75],[-122.69,37.79],[-122.7,37.79],[-122.74,37.82],[-122.8,37.86],[-122.97,37.96],[-123.27,38.14],[-123.32,38.17],[-123.54,38.3],[-123.71,38.4],[-123.79,38.45],[-123.95,38.55],[-124.02,38.59],[-124.09,38.63],[-124.14,38.66],[-125.17,39.26],[-126.5,40],[-126.99,40.15],[-127,40.15],[-130,41],[-130.94,41.44],[-132.86,42.29],[-133.84,42.7],[-140,45],[-141.11,45.52],[-142.81,46.28],[-144.56,47.01],[-146.33,47.7],[-150,49],[-160,52],[-160.35,52.05],[-163.9,52.5],[-164.02,52.51],[-170,53],[-171.22,53.17],[-173.7,53.47],[-175.93,53.68]],[[180,54],[169.34,53.63],[168.35,53.3],[163.7,51.61],[159.36,49.72],[159.35,49.71],[159.35,49.71],[158.39,49.23],[153,46.2],[147.48,42.39],[146.86,41.92],[146.39,41.54],[145.92,41.17],[145,40.42],[143.79,39.85],[142.53,39.23],[140.92,38.14],[139.76,38.02],[139.11,37.95],[137.8,37.49],[135.01,36.44],[134.5,36.24],[133.17,34.77],[132.59,34.1],[132.56,34.07],[132.32,33.79],[131.42,32.72],[130.58,31.7],[129.41,30.92],[129.2,30.77],[128.08,30.02],[128.07,30.01],[124.72,27.62],[124,27.1],[117.5,22.33],[116.38,22.31],[116.3,22.31],[116.25,22.31],[116.01,22.3],[115.83,22.3],[115.69,22.3],[115.41,22.3],[115.06,22.31],[114.88,22.31],[114.65,22.31],[114.6,22.31],[114.47,22.31],[114.38,22.32],[114.29,22.32],[114.2,22.32]]],"type":"MultiLineString"}
}
