{
  "id": 2031480759,
  "type": "Feature",
  "properties": {
    "geom:area": 0,
    "geom:bbox": "-122.456600,36.721160,-121.883150,37.613440",
    "geom:latitude": 37.06482599677954,
    "geom:longitude": -122.15899552298474,
    "src:alt_label": "swim-approach",
    "src:geom": "swim",
    "swim:elevations": [
      5804,
      5609,
      5468,
      5080,
      4972,
      4708,
      4589,
      4433,
      3992,
      3820,
      3720,
      3693,
      3686,
      3658,
      3658,
      3658,
      3658,
      3658,
      3658,
      3658,
      3658,
      3658,
      3658,
      3658,
      3658,
      3658,
      3604,
      3526,
      3354,
      3353,
      3353,
      3353,
      3375,
      3353,
      3353,
      3353,
      3350,
      3158,
      3054,
      3050,
      3048,
      3048,
      3048,
      3048,
      3048,
      3048,
      3048,
      3048,
      3048,
      3048,
      3048,
      3048,
      3038,
      2705,
      2591,
      2234,
      2217,
      2063,
      1951,
      1828,
      1829,
      1829,
      1829,
      1829,
      1829,
      1829,
      1829,
      1829,
      1829,
      1829,
      1829,
      1641,
      1448,
      1300,
      1183,
      1152,
      1087,
      1044,
      1011,
      1005,
      960,
      914,
      740,
      618,
      548,
      367,
      308,
      157,
      52,
      125
    ],
    "swim:geom": "approach",
    "swim:timestamps": [
      1780954078,
      1780954098,
      1780954115,
      1780954164,
      1780954173,
      1780954197,
      1780954207,
      1780954222,
      1780954279,
      1780954303,
      1780954339,
      1780954348,
      1780954357,
      1780954381,
      1780954397,
      1780954423,
      1780954459,
      1780954496,
      1780954520,
      1780954557,
      1780954560,
      1780954572,
      1780954591,
      1780954635,
      1780954887,
      1780954912,
      1780954921,
      1780954936,
      1780954976,
      1780955000,
      1780955032,
      1780955061,
      1780955074,
      1780955097,
      1780955101,
      1780955121,
      1780955133,
      1780955180,
      1780955204,
      1780955214,
      1780955246,
      1780955276,
      1780955282,
      1780955300,
      1780955311,
      1780955358,
      1780955387,
      1780955420,
      1780955448,
      1780955463,
      1780955478,
      1780955509,
      1780955523,
      1780955574,
      1780955590,
      1780955637,
      1780955644,
      1780955664,
      1780955688,
      1780955720,
      1780955753,
      1780955788,
      1780955812,
      1780955844,
      1780955854,
      1780955908,
      1780955937,
      1780955943,
      1780955970,
      1780956021,
      1780956027,
      1780956058,
      1780956087,
      1780956112,
      1780956146,
      1780956160,
      1780956177,
      1780956194,
      1780956199,
      1780956208,
      1780956219,
      1780956255,
      1780956294,
      1780956324,
      1780956341,
      1780956388,
      1780956405,
      1780956444,
      1780956475,
      1780956489
    ],
    "wof:geomhash": "e0f50b0271506d88a6a50f6a2a599a2d",
    "wof:id": 2031480759,
    "wof:repo": "sfomuseum-data-flights-2026-06"
  },
  "bbox": [
    -122.4566,
    36.72116,
    -121.88315,
    37.61344
  ],
  "geometry": {"coordinates":[[-121.88315,36.72822],[-121.89754,36.75562],[-121.90464,36.77963],[-121.92399,36.84826],[-121.92763,36.86117],[-121.93679,36.89358],[-121.94327,36.90666],[-121.95974,36.92191],[-122.04416,36.95484],[-122.08054,36.96514],[-122.13591,36.95965],[-122.14903,36.95792],[-122.16161,36.9563],[-122.19405,36.95211],[-122.21439,36.94951],[-122.24946,36.94453],[-122.28301,36.91553],[-122.30783,36.87782],[-122.31417,36.85026],[-122.28813,36.8084],[-122.28573,36.80503],[-122.27576,36.79111],[-122.26067,36.76989],[-122.226,36.72116],[-121.89685,36.74212],[-121.90342,36.76951],[-121.90575,36.7794],[-121.90968,36.79573],[-121.92057,36.83957],[-121.92675,36.86451],[-121.93532,36.89877],[-121.94319,36.93014],[-121.94808,36.94445],[-121.96946,36.96028],[-121.9741,36.96134],[-122.00131,36.96307],[-122.01714,36.96357],[-122.07859,36.96554],[-122.11017,36.96646],[-122.12369,36.96685],[-122.16545,36.96802],[-122.20508,36.96934],[-122.213,36.9696],[-122.23656,36.97035],[-122.25119,36.97084],[-122.28509,37.00551],[-122.29205,37.03607],[-122.30011,37.07128],[-122.30707,37.10111],[-122.31082,37.11722],[-122.31464,37.13372],[-122.32243,37.16618],[-122.32623,37.18199],[-122.36153,37.22587],[-122.376,37.23821],[-122.41639,37.27231],[-122.42258,37.2775],[-122.44062,37.29252],[-122.4566,37.31254],[-122.43753,37.34037],[-122.39939,37.35875],[-122.36058,37.37397],[-122.33182,37.36748],[-122.29365,37.3539],[-122.28223,37.34981],[-122.21973,37.35177],[-122.1878,37.36172],[-122.18141,37.36374],[-122.15196,37.37283],[-122.09894,37.39201],[-122.09499,37.39619],[-122.07985,37.4201],[-122.08296,37.44392],[-122.08728,37.46409],[-122.09662,37.48953],[-122.10362,37.49862],[-122.11524,37.50767],[-122.12896,37.51509],[-122.13251,37.5169],[-122.13998,37.52024],[-122.14979,37.52429],[-122.18016,37.53672],[-122.21399,37.55103],[-122.23918,37.5617],[-122.25319,37.56753],[-122.28812,37.58222],[-122.30057,37.58746],[-122.32927,37.5995],[-122.35195,37.60902],[-122.36075,37.61344]],"type":"LineString"}
}
