{
  "id": 2031617931,
  "type": "Feature",
  "properties": {
    "geom:area": 0,
    "geom:bbox": "-122.354980,37.491880,-121.273630,37.612610",
    "geom:latitude": 37.54157392877584,
    "geom:longitude": -121.82120215273432,
    "src:alt_label": "swim-approach",
    "src:geom": "swim",
    "swim:elevations": [
      4747,
      4326,
      3891,
      3825,
      3391,
      3176,
      3118,
      2954,
      2749,
      2511,
      2497,
      2438,
      2212,
      2070,
      1858,
      1557,
      1426,
      1248,
      1215,
      1024,
      845,
      672,
      547,
      356,
      304,
      201,
      29
    ],
    "swim:geom": "approach",
    "swim:timestamps": [
      1782223256,
      1782223309,
      1782223348,
      1782223354,
      1782223403,
      1782223429,
      1782223440,
      1782223490,
      1782223524,
      1782223557,
      1782223565,
      1782223576,
      1782223614,
      1782223639,
      1782223674,
      1782223729,
      1782223751,
      1782223786,
      1782223801,
      1782223841,
      1782223876,
      1782223907,
      1782223932,
      1782223976,
      1782223988,
      1782224013,
      1782224056
    ],
    "wof:geomhash": "56b3ac580fa4030bcf43925ccae86a5a",
    "wof:id": 2031617931,
    "wof:repo": "sfomuseum-data-flights-2026-06"
  },
  "bbox": [
    -122.35498,
    37.49188,
    -121.27363,
    37.61261
  ],
  "geometry": {"coordinates":[[-121.27363,37.59143],[-121.36731,37.58077],[-121.43631,37.57282],[-121.44679,37.57168],[-121.53046,37.56186],[-121.57442,37.55652],[-121.59401,37.55428],[-121.67282,37.53902],[-121.72421,37.52687],[-121.77331,37.51532],[-121.78548,37.5124],[-121.80255,37.50837],[-121.85808,37.49492],[-121.89566,37.49188],[-121.94995,37.49509],[-122.03385,37.50005],[-122.06391,37.50175],[-122.10797,37.50816],[-122.12338,37.51462],[-122.16511,37.53293],[-122.20216,37.54838],[-122.23338,37.56148],[-122.25692,37.57137],[-122.29438,37.58717],[-122.30425,37.5913],[-122.32338,37.59929],[-122.35498,37.61261]],"type":"LineString"}
}
