{
  "id": 2031547201,
  "type": "Feature",
  "properties": {
    "geom:area": 0,
    "geom:bbox": "-122.380000,35.680000,-78.790000,40.450000",
    "geom:latitude": 38.8146506511921,
    "geom:longitude": -100.46706893298953,
    "src:alt_label": "swim-route",
    "src:geom": "swim",
    "swim:geom": "route",
    "wof:geomhash": "1c1c9f88f7bf15a366cdbd9ea30eca8c",
    "wof:id": 2031547201,
    "wof:repo": "sfomuseum-data-flights-2026-06"
  },
  "bbox": [
    -122.38,
    35.68,
    -78.79,
    40.45
  ],
  "geometry": {"coordinates":[[-78.79,35.88],[-79.3,35.84],[-79.45,35.82],[-79.51,35.82],[-79.53,35.82],[-79.65,35.8],[-79.77,35.78],[-79.79,35.77],[-79.93,35.75],[-80,35.74],[-80.04,35.73],[-80.12,35.72],[-80.3,35.68],[-80.3,35.68],[-80.36,35.7],[-80.37,35.71],[-80.45,35.73],[-80.58,35.78],[-80.62,35.8],[-80.72,35.83],[-81.03,35.95],[-81.36,36.03],[-81.92,36.26],[-83.16,36.69],[-83.27,36.73],[-83.52,36.81],[-83.69,36.84],[-85.49,37.45],[-86.32,37.68],[-86.5,37.75],[-88.19,38.24],[-89.96,38.73],[-90.48,38.86],[-92.25,39.31],[-93.86,39.69],[-93.9,39.7],[-95.76,40.11],[-96.21,40.2],[-96.43,40.22],[-98.01,40.32],[-98.17,40.33],[-98.76,40.36],[-99.05,40.38],[-99.22,40.38],[-100.6,40.44],[-100.92,40.45],[-101.24,40.45],[-102.26,40.41],[-102.3,40.41],[-104.22,40.33],[-104.64,40.3],[-105.07,40.28],[-107.06,40.14],[-107.37,40.11],[-107.92,40.07],[-108.19,40.03],[-108.45,39.99],[-108.71,39.95],[-108.93,39.92],[-109.76,39.78],[-109.87,39.77],[-112.51,39.3],[-113.32,39.12],[-114.17,38.91],[-114.74,38.78],[-117.27,38.12],[-117.27,38.12],[-117.77,38],[-118.76,37.9],[-119.1,37.86],[-119.49,37.81],[-119.94,37.76],[-120.04,37.75],[-120.22,37.72],[-120.4,37.7],[-120.41,37.7],[-120.48,37.69],[-120.69,37.67],[-120.75,37.66],[-120.77,37.66],[-120.83,37.65],[-120.96,37.63],[-121,37.63],[-121.08,37.62],[-121.17,37.6],[-121.26,37.59],[-121.39,37.58],[-121.41,37.58],[-121.6,37.55],[-121.61,37.55],[-121.62,37.55],[-121.7,37.53],[-121.8,37.51],[-121.83,37.5],[-121.88,37.49],[-122.08,37.54],[-122.14,37.56],[-122.18,37.57],[-122.28,37.59],[-122.33,37.61],[-122.36,37.61],[-122.38,37.62]],"type":"LineString"}
}
