{
  "id": 2031460135,
  "type": "Feature",
  "properties": {
    "geom:area": 0,
    "geom:bbox": "-122.397100,36.721460,-121.360120,37.439770",
    "geom:latitude": 37.090356222692215,
    "geom:longitude": -121.87176461128689,
    "src:alt_label": "swim-takeoff",
    "src:geom": "swim",
    "swim:elevations": [
      4209,
      4669,
      4821,
      4959,
      5173,
      5662,
      5731,
      5985,
      6338,
      6492,
      6913,
      7378,
      7528,
      7710,
      7917,
      8130,
      8266,
      8500,
      8629
    ],
    "swim:geom": "takeoff",
    "swim:timestamps": [
      1780686589,
      1780686615,
      1780686650,
      1780686675,
      1780686697,
      1780686746,
      1780686764,
      1780686796,
      1780686831,
      1780686845,
      1780686887,
      1780686941,
      1780686973,
      1780687000,
      1780687032,
      1780687067,
      1780687091,
      1780687127,
      1780687146
    ],
    "wof:geomhash": "64c1835d0f8f9023140b8ff50a0f3ed4",
    "wof:id": 2031460135,
    "wof:repo": "sfomuseum-data-flights-2026-06"
  },
  "bbox": [
    -122.3971,
    36.72146,
    -121.36012,
    37.43977
  ],
  "geometry": {"coordinates":[[-122.3971,37.43977],[-122.3585,37.41527],[-122.3043,37.38039],[-122.26303,37.35376],[-122.22385,37.32837],[-122.13752,37.27257],[-122.10384,37.25067],[-122.04315,37.21128],[-121.97464,37.16675],[-121.94737,37.14898],[-121.86841,37.09742],[-121.76194,37.0277],[-121.70087,36.9824],[-121.64998,36.94277],[-121.58952,36.89644],[-121.52176,36.84396],[-121.47267,36.80617],[-121.39999,36.75233],[-121.36012,36.72146]],"type":"LineString"}
}
