{
  "id": 2031637603,
  "type": "Feature",
  "properties": {
    "geom:area": 0,
    "geom:bbox": "-122.360480,37.465350,-121.287760,37.615080",
    "geom:latitude": 37.53400904089915,
    "geom:longitude": -121.82928997026887,
    "src:alt_label": "swim-approach",
    "src:geom": "swim",
    "swim:elevations": [
      4857,
      4707,
      4454,
      4302,
      4064,
      4003,
      3860,
      3709,
      3535,
      3353,
      3353,
      3326,
      3212,
      2975,
      2798,
      2621,
      2406,
      2368,
      2186,
      2133,
      1974,
      1765,
      1581,
      1395,
      1375,
      1342,
      1251,
      1185,
      1006,
      838,
      746,
      718,
      628,
      611,
      513,
      403,
      300,
      96,
      0
    ],
    "swim:geom": "approach",
    "swim:timestamps": [
      1782431487,
      1782431506,
      1782431534,
      1782431551,
      1782431578,
      1782431587,
      1782431611,
      1782431642,
      1782431690,
      1782431726,
      1782431731,
      1782431758,
      1782431773,
      1782431810,
      1782431840,
      1782431877,
      1782431907,
      1782431913,
      1782431931,
      1782431955,
      1782431992,
      1782432027,
      1782432057,
      1782432088,
      1782432094,
      1782432114,
      1782432149,
      1782432160,
      1782432196,
      1782432234,
      1782432252,
      1782432261,
      1782432282,
      1782432285,
      1782432306,
      1782432330,
      1782432361,
      1782432417,
      1782432443
    ],
    "wof:geomhash": "720db2e3c191061ed52259cc6eb04c92",
    "wof:id": 2031637603,
    "wof:repo": "sfomuseum-data-flights-2026-06"
  },
  "bbox": [
    -122.36048,
    37.46535,
    -121.28776,
    37.61508
  ],
  "geometry": {"coordinates":[[-121.28776,37.58948],[-121.31978,37.5861],[-121.36739,37.58112],[-121.39719,37.57746],[-121.44276,37.57208],[-121.45803,37.57032],[-121.49858,37.56602],[-121.54627,37.56005],[-121.61283,37.55194],[-121.65954,37.5423],[-121.66615,37.54071],[-121.70108,37.53189],[-121.71704,37.52167],[-121.7446,37.48624],[-121.77516,37.46535],[-121.82519,37.4682],[-121.86446,37.47299],[-121.87232,37.47399],[-121.89606,37.47713],[-121.92654,37.4811],[-121.96885,37.4867],[-122.00677,37.49165],[-122.03821,37.49588],[-122.0703,37.50009],[-122.0761,37.50089],[-122.09612,37.50451],[-122.12733,37.51683],[-122.13732,37.521],[-122.17034,37.53483],[-122.20306,37.54866],[-122.21869,37.55527],[-122.22652,37.55859],[-122.24485,37.5664],[-122.24751,37.56748],[-122.26553,37.575],[-122.28352,37.58255],[-122.30506,37.59163],[-122.3427,37.60754],[-122.36048,37.61508]],"type":"LineString"}
}
