{
  "id": 2031470287,
  "type": "Feature",
  "properties": {
    "geom:area": 0,
    "geom:bbox": "-122.396850,37.624120,-121.292020,38.336100",
    "geom:latitude": 37.99935387407224,
    "geom:longitude": -121.8647253482244,
    "src:alt_label": "swim-takeoff",
    "src:geom": "swim",
    "swim:elevations": [
      291,
      636,
      760,
      989,
      1125,
      1175,
      1598,
      1835,
      2308,
      2694,
      3105,
      3505,
      3684,
      3819,
      3931,
      4459,
      4620,
      4868,
      5185,
      5414,
      5620,
      5835,
      6405,
      6666,
      6970,
      7092
    ],
    "swim:geom": "takeoff",
    "swim:timestamps": [
      1780752196,
      1780752226,
      1780752245,
      1780752268,
      1780752293,
      1780752308,
      1780752347,
      1780752363,
      1780752401,
      1780752434,
      1780752471,
      1780752536,
      1780752562,
      1780752584,
      1780752601,
      1780752657,
      1780752676,
      1780752700,
      1780752739,
      1780752774,
      1780752797,
      1780752822,
      1780752847,
      1780752863,
      1780752891,
      1780752903
    ],
    "wof:geomhash": "a1d98b49549b097af2e2510d9ed2bde3",
    "wof:id": 2031470287,
    "wof:repo": "sfomuseum-data-flights-2026-06"
  },
  "bbox": [
    -122.39685,
    37.62412,
    -121.29202,
    38.3361
  ],
  "geometry": {"coordinates":[[-122.38685,37.62412],[-122.39685,37.64113],[-122.38632,37.65384],[-122.3632,37.66209],[-122.33432,37.6715],[-122.3142,37.67893],[-122.25872,37.70064],[-122.23506,37.70985],[-122.1895,37.74437],[-122.15755,37.78081],[-122.1185,37.82398],[-122.03533,37.90132],[-121.99134,37.93049],[-121.95276,37.95767],[-121.92258,37.97847],[-121.81917,38.04801],[-121.78257,38.07282],[-121.73701,38.10356],[-121.66107,38.15465],[-121.59038,38.20204],[-121.5435,38.23301],[-121.48594,38.25969],[-121.42328,38.2842],[-121.3872,38.29868],[-121.32063,38.32491],[-121.29202,38.3361]],"type":"LineString"}
}
