{
  "id": 2031651597,
  "type": "Feature",
  "properties": {
    "geom:area": 0,
    "geom:bbox": "-122.398800,37.625110,-121.256500,38.164010",
    "geom:latitude": 37.98828421690422,
    "geom:longitude": -121.94402991503227,
    "src:alt_label": "swim-takeoff",
    "src:geom": "swim",
    "swim:elevations": [
      152,
      458,
      667,
      1138,
      1200,
      1321,
      1466,
      1558,
      2200,
      2761,
      3082,
      3106,
      3238,
      3472,
      3565,
      3842,
      3977,
      4520,
      4540,
      4588,
      4669,
      4849,
      5184,
      5279,
      5441,
      5667,
      5963,
      6005,
      6052,
      6251,
      6474,
      6595
    ],
    "swim:geom": "takeoff",
    "swim:timestamps": [
      1782518007,
      1782518029,
      1782518046,
      1782518096,
      1782518105,
      1782518126,
      1782518155,
      1782518163,
      1782518207,
      1782518248,
      1782518278,
      1782518281,
      1782518296,
      1782518329,
      1782518347,
      1782518390,
      1782518404,
      1782518455,
      1782518458,
      1782518470,
      1782518485,
      1782518506,
      1782518548,
      1782518562,
      1782518589,
      1782518616,
      1782518661,
      1782518670,
      1782518679,
      1782518712,
      1782518747,
      1782518769
    ],
    "wof:geomhash": "ccd7cb33415e46ed32707a3cc539ca79",
    "wof:id": 2031651597,
    "wof:repo": "sfomuseum-data-flights-2026-06"
  },
  "bbox": [
    -122.3988,
    37.62511,
    -121.2565,
    38.16401
  ],
  "geometry": {"coordinates":[[-122.38436,37.62511],[-122.3988,37.63623],[-122.3987,37.64956],[-122.36991,37.6848],[-122.36365,37.69219],[-122.34821,37.71052],[-122.33755,37.7426],[-122.34065,37.75273],[-122.36422,37.80416],[-122.38459,37.85396],[-122.38515,37.89397],[-122.3845,37.89801],[-122.37758,37.91808],[-122.33227,37.95099],[-122.29648,37.95953],[-122.20464,37.97712],[-122.17368,37.98326],[-122.05881,38.0057],[-122.05201,38.00709],[-122.02447,38.0128],[-121.98933,38.02002],[-121.9392,38.03018],[-121.83677,38.05073],[-121.80074,38.05786],[-121.73274,38.07134],[-121.66328,38.08499],[-121.54691,38.10766],[-121.52313,38.11235],[-121.4992,38.11698],[-121.41058,38.13418],[-121.31484,38.15271],[-121.2565,38.16401]],"type":"LineString"}
}
