{
  "id": 2031562389,
  "type": "Feature",
  "properties": {
    "geom:area": 0,
    "geom:bbox": "-122.405860,36.719470,-121.876390,37.612860",
    "geom:latitude": 37.223566588640004,
    "geom:longitude": -122.15560699973706,
    "src:alt_label": "swim-approach",
    "src:geom": "swim",
    "swim:elevations": [
      5863,
      5715,
      5201,
      5009,
      4555,
      4490,
      3990,
      3934,
      3611,
      3259,
      3056,
      2921,
      2832,
      2799,
      2660,
      2521,
      2438,
      2438,
      2314,
      2233,
      1976,
      1888,
      1831,
      1829,
      1829,
      1829,
      1829,
      1747,
      1626,
      1471,
      1248,
      1220,
      914,
      914,
      867,
      661,
      639,
      570,
      399,
      295,
      247,
      93,
      173
    ],
    "swim:geom": "approach",
    "swim:timestamps": [
      1781683548,
      1781683567,
      1781683618,
      1781683637,
      1781683675,
      1781683681,
      1781683736,
      1781683743,
      1781683783,
      1781683828,
      1781683858,
      1781683888,
      1781683915,
      1781683933,
      1781683961,
      1781683990,
      1781684038,
      1781684066,
      1781684097,
      1781684112,
      1781684157,
      1781684173,
      1781684192,
      1781684248,
      1781684256,
      1781684278,
      1781684294,
      1781684324,
      1781684344,
      1781684372,
      1781684428,
      1781684433,
      1781684486,
      1781684506,
      1781684535,
      1781684578,
      1781684582,
      1781684600,
      1781684637,
      1781684668,
      1781684676,
      1781684721,
      1781684745
    ],
    "wof:geomhash": "8c35cf7de4c4769570406c8fb65de721",
    "wof:id": 2031562389,
    "wof:repo": "sfomuseum-data-flights-2026-06"
  },
  "bbox": [
    -122.40586,
    36.71947,
    -121.87639,
    37.61286
  ],
  "geometry": {"coordinates":[[-121.87639,36.71947],[-121.89316,36.74701],[-121.91694,36.82392],[-121.92485,36.85209],[-121.94108,36.90953],[-121.94351,36.91855],[-121.97164,36.99947],[-121.97552,37.00959],[-121.99714,37.06489],[-122.02132,37.1271],[-122.05111,37.16104],[-122.10165,37.17176],[-122.14519,37.17822],[-122.17224,37.18228],[-122.21371,37.18843],[-122.25619,37.19511],[-122.32434,37.20644],[-122.36408,37.21317],[-122.4003,37.23063],[-122.40586,37.24703],[-122.38648,37.29345],[-122.37508,37.30774],[-122.36085,37.32506],[-122.29178,37.34779],[-122.28127,37.35023],[-122.2527,37.35682],[-122.23216,37.36153],[-122.19781,37.37646],[-122.18281,37.3946],[-122.16511,37.42084],[-122.13908,37.4707],[-122.13691,37.47483],[-122.13973,37.51692],[-122.15875,37.5273],[-122.18733,37.53987],[-122.2286,37.55713],[-122.23227,37.55861],[-122.24827,37.56551],[-122.2795,37.57862],[-122.30412,37.58902],[-122.31032,37.59164],[-122.34332,37.60547],[-122.36151,37.61286]],"type":"LineString"}
}
