{
  "id": 2031528577,
  "type": "Feature",
  "properties": {
    "geom:area": 0,
    "geom:bbox": "-122.300000,35.889167,-115.270833,37.698611",
    "geom:latitude": 37.188150491940306,
    "geom:longitude": -118.61425943534107,
    "src:alt_label": "swim-path",
    "src:geom": "swim",
    "swim:altitudes": [
      "058",
      "131",
      "176",
      "242",
      "242",
      "259",
      "300C",
      "300C",
      "300C",
      "300C",
      "300C",
      "300C",
      "300C",
      "300C",
      "300C",
      "300C",
      "300C",
      "300",
      "300",
      "250",
      "228",
      "193",
      "154",
      "115",
      "115",
      "098",
      "091",
      "023",
      "023",
      "011"
    ],
    "swim:geom": "path",
    "swim:speeds": [
      236,
      337,
      370,
      425,
      425,
      433,
      459,
      459,
      461,
      462,
      461,
      453,
      454,
      456,
      456,
      459,
      459,
      455,
      453,
      424,
      392,
      345,
      320,
      260,
      260,
      255,
      251,
      202,
      202,
      176
    ],
    "swim:timestamps": [
      1781405900,
      1781406123,
      1781406243,
      1781406484,
      1781406484,
      1781406544,
      1781406827,
      1781406827,
      1781406947,
      1781407007,
      1781407084,
      1781407367,
      1781407548,
      1781407685,
      1781407685,
      1781408028,
      1781408028,
      1781408268,
      1781408328,
      1781408509,
      1781408569,
      1781408689,
      1781408809,
      1781408989,
      1781408989,
      1781409063,
      1781409109,
      1781409484,
      1781409484,
      1781409550
    ],
    "wof:geomhash": "8143fcad07abba400a68cf329d780f1c",
    "wof:id": 2031528577,
    "wof:repo": "sfomuseum-data-flights-2026-06"
  },
  "bbox": [
    -122.3,
    35.88916666666667,
    -115.27083333333333,
    37.698611111111106
  ],
  "geometry": {"coordinates":[[-115.27083333333333,36.051944444444445],[-115.51027777777777,35.88916666666667],[-115.75833333333334,35.8925],[-116.20361111111112,36.11],[-116.20361111111112,36.11],[-116.31777777777778,36.20194444444445],[-116.80805555555555,36.617777777777775],[-116.80805555555555,36.617777777777775],[-116.99916666666667,36.82138888888889],[-117.07333333333332,36.93527777777778],[-117.17694444444444,37.09444444444445],[-117.66277777777778,37.50555555555555],[-118.13388888888889,37.57027777777778],[-118.50444444444445,37.650555555555556],[-118.50444444444445,37.650555555555556],[-119.41194444444444,37.69333333333333],[-119.41194444444444,37.69333333333333],[-120.04972222222221,37.69833333333333],[-120.2063888888889,37.698611111111106],[-120.66638888888889,37.66888888888889],[-120.80527777777777,37.65222222222222],[-121.05972222222222,37.62027777777778],[-121.28055555555555,37.59027777777778],[-121.56194444444444,37.55777777777777],[-121.56194444444444,37.55777777777777],[-121.66666666666667,37.53333333333333],[-121.73277777777778,37.525277777777774],[-122.23333333333333,37.56666666666667],[-122.23333333333333,37.56666666666667],[-122.3,37.583333333333336]],"type":"LineString"}
}
