{
  "id": 2031537551,
  "type": "Feature",
  "properties": {
    "geom:area": 0,
    "geom:bbox": "-122.380000,37.490000,-87.910000,42.050000",
    "geom:latitude": 40.2917728353167,
    "geom:longitude": -105.26277698103488,
    "src:alt_label": "swim-route",
    "src:geom": "swim",
    "swim:geom": "route",
    "wof:geomhash": "739cedb6f63f60125ed93bd452b90d2d",
    "wof:id": 2031537551,
    "wof:repo": "sfomuseum-data-flights-2026-06"
  },
  "bbox": [
    -122.38,
    37.49,
    -87.91,
    42.05
  ],
  "geometry": {"coordinates":[[-87.91,41.98],[-88,41.98],[-88.04,41.99],[-88.16,42],[-88.16,42],[-88.29,42.01],[-88.31,42.01],[-88.44,42.02],[-88.66,42.04],[-88.73,42.04],[-88.79,42.04],[-88.81,42.05],[-88.82,42.05],[-88.89,42.04],[-89.1,42.03],[-89.39,42.01],[-89.56,42],[-89.72,41.99],[-89.93,41.98],[-89.94,41.98],[-90.03,41.97],[-90.12,41.96],[-90.45,41.94],[-90.55,41.93],[-90.61,41.93],[-90.97,41.9],[-91.77,41.84],[-92.13,41.82],[-92.38,41.8],[-93.01,41.76],[-93.41,41.73],[-93.44,41.73],[-93.58,41.73],[-96.04,41.57],[-96.23,41.56],[-96.62,41.53],[-96.82,41.51],[-97.99,41.41],[-98.35,41.38],[-99.03,41.32],[-99.05,41.31],[-99.19,41.3],[-101.3,41.08],[-102,41],[-103.87,40.74],[-104.61,40.63],[-105.13,40.55],[-106.2,40.37],[-107.26,40.19],[-107.56,40.18],[-108.34,40.13],[-108.54,40.25],[-108.67,40.11],[-108.79,40.24],[-108.94,40.4],[-108.95,40.4],[-109.14,40.36],[-109.42,40.37],[-109.78,40.29],[-113.23,39.47],[-113.58,39.38],[-117.28,38.35],[-118.76,37.9],[-119.1,37.86],[-119.5,37.81],[-119.6,37.8],[-119.66,37.79],[-120.07,37.74],[-120.15,37.73],[-120.4,37.7],[-120.47,37.69],[-120.53,37.69],[-120.69,37.67],[-120.75,37.66],[-120.75,37.66],[-120.8,37.65],[-120.96,37.63],[-121,37.63],[-121.01,37.63],[-121.01,37.63],[-121.26,37.59],[-121.39,37.58],[-121.41,37.58],[-121.6,37.55],[-121.61,37.55],[-121.62,37.55],[-121.67,37.54],[-121.74,37.52],[-121.8,37.51],[-121.88,37.49],[-121.93,37.5],[-122.08,37.54],[-122.18,37.57],[-122.28,37.59],[-122.33,37.61],[-122.36,37.61],[-122.38,37.62]],"type":"LineString"}
}
