{
  "id": 2031421773,
  "type": "Feature",
  "properties": {
    "geom:area": 0,
    "geom:bbox": "-122.336111,37.466667,-74.213611,41.115278",
    "geom:latitude": 39.28194696080797,
    "geom:longitude": -98.20705613893647,
    "src:alt_label": "swim-path",
    "src:geom": "swim",
    "swim:altitudes": [
      "045",
      "045",
      "045",
      "045",
      "072",
      "101",
      "127",
      "127",
      "132",
      "132",
      "132",
      "180",
      "180",
      "206",
      "206",
      "243",
      "243",
      "271",
      "296",
      "309",
      "319C",
      "320C",
      "320C",
      "320C",
      "320C",
      "320C",
      "320C",
      "320C",
      "320C",
      "320C",
      "320C",
      "320C",
      "320C",
      "320C",
      "320C",
      "320C",
      "320C",
      "340C",
      "340C",
      "340C",
      "340C",
      "340",
      "340",
      "340",
      "340",
      "340",
      "340",
      "357",
      "360C",
      "360C",
      "360C",
      "360C",
      "360C",
      "360C",
      "360C",
      "360C",
      "360C",
      "360C",
      "360C",
      "360C",
      "360C",
      "360C",
      "360C",
      "360C",
      "360C",
      "360C",
      "360C",
      "360C",
      "360C",
      "360C",
      "360C",
      "360C",
      "360C",
      "360C",
      "360C",
      "360C",
      "360C",
      "360C",
      "360C",
      "360C",
      "360C",
      "360C",
      "360C",
      "360C",
      "360C",
      "360C",
      "360C",
      "360C",
      "360C",
      "360C",
      "360C",
      "360C",
      "360C",
      "360C",
      "360C",
      "360C",
      "360C",
      "360C",
      "360C",
      "360C",
      "360C",
      "360C",
      "360C",
      "360C",
      "360C",
      "360C",
      "360C",
      "360C",
      "360C",
      "360C",
      "360C",
      "360C",
      "360C",
      "360C",
      "360C",
      "360C",
      "360C",
      "360C",
      "360C",
      "360C",
      "360C",
      "360C",
      "360C",
      "360C",
      "360C",
      "360C",
      "360C",
      "360C",
      "360C",
      "360C",
      "360C",
      "360C",
      "360C",
      "360C",
      "360C",
      "360C",
      "360C",
      "360C",
      "360C",
      "360C",
      "360C",
      "360C",
      "360C",
      "360C",
      "360C",
      "360C",
      "360C",
      "360C",
      "360C",
      "360C",
      "360C",
      "360C",
      "360C",
      "360C",
      "360C",
      "360C",
      "360C",
      "360C",
      "360C",
      "360C",
      "360C",
      "360C",
      "360C",
      "360C",
      "360C",
      "360C",
      "360C",
      "360C",
      "360C",
      "360C",
      "360C",
      "360C",
      "360C",
      "360C",
      "360C",
      "360C",
      "360C",
      "360C",
      "360C",
      "360C",
      "360C",
      "360C",
      "360C",
      "360C",
      "360C",
      "360C",
      "360C",
      "360C",
      "360C",
      "360C",
      "360C",
      "360C",
      "360C",
      "360C",
      "360C",
      "360C",
      "360C",
      "360C",
      "360C",
      "360C",
      "360C",
      "360C",
      "360C",
      "360C",
      "360C",
      "360C",
      "360C",
      "360C",
      "360C",
      "360C",
      "360C",
      "360C",
      "360C",
      "360C",
      "360C",
      "360C",
      "360C",
      "360C",
      "360C",
      "360C",
      "360C",
      "360C",
      "360C",
      "360C",
      "360C",
      "360C",
      "360C",
      "360C",
      "360C",
      "360C",
      "360C",
      "360C",
      "360C",
      "360C",
      "360C",
      "360C",
      "360",
      "360",
      "360",
      "360",
      "360",
      "380C",
      "380C",
      "380C",
      "380C",
      "380C",
      "380C",
      "380C",
      "380C",
      "380C",
      "380C",
      "380C",
      "380C",
      "380C",
      "380C",
      "380C",
      "380C",
      "380C",
      "380C",
      "380C",
      "380C",
      "380C",
      "380C",
      "380C",
      "380C",
      "380C",
      "380C",
      "380C",
      "380C",
      "380C",
      "380C",
      "380C",
      "380C",
      "380C",
      "380C",
      "380C",
      "380C",
      "380C",
      "380C",
      "380C",
      "380C",
      "380C",
      "380C",
      "380C",
      "380C",
      "380C",
      "380C",
      "380C",
      "380C",
      "380C",
      "380C",
      "380C",
      "380C",
      "380C",
      "380C",
      "380C",
      "380C",
      "380C",
      "380C",
      "380C",
      "380C",
      "380C",
      "380C",
      "380C",
      "380C",
      "380C",
      "380C",
      "380C",
      "380C",
      "380C",
      "380C",
      "380C",
      "380C",
      "380C",
      "380C",
      "380C",
      "380C",
      "380C",
      "380C",
      "380C",
      "380C",
      "380C",
      "380C",
      "380C",
      "380C",
      "380C",
      "380C",
      "380C",
      "380C",
      "380C",
      "380C",
      "380C",
      "380C",
      "380C",
      "380C",
      "380C",
      "380C",
      "380C",
      "380C",
      "380C",
      "380C",
      "380C",
      "380C",
      "380C",
      "380C",
      "380C",
      "380C",
      "380C",
      "380C",
      "380C",
      "380C",
      "380C",
      "380C",
      "380C",
      "380C",
      "380C",
      "380C",
      "380C",
      "380C",
      "380C",
      "380C",
      "380C",
      "380C",
      "380C",
      "380C",
      "380C",
      "380C",
      "380C",
      "380C",
      "380C",
      "380C",
      "380C",
      "380C",
      "380C",
      "380C",
      "380C",
      "380C",
      "380C",
      "380C",
      "380C",
      "380C",
      "380C",
      "380C",
      "380C",
      "380C",
      "380C",
      "380C",
      "380C",
      "380C",
      "380C",
      "380C",
      "380C",
      "380C",
      "380C",
      "380C",
      "380C",
      "380C",
      "380C",
      "380C",
      "380C",
      "380C",
      "380C",
      "380C",
      "380C",
      "380C",
      "380C",
      "380C",
      "380C",
      "380C",
      "380C",
      "380C",
      "380C",
      "380C",
      "380C",
      "380C",
      "380C",
      "380C",
      "380C",
      "380C",
      "361C",
      "361C",
      "361C",
      "342",
      "317",
      "291",
      "291",
      "269",
      "207",
      "207",
      "193",
      "193",
      "187",
      "175",
      "175",
      "165",
      "123",
      "123",
      "116",
      "097",
      "097",
      "084",
      "084",
      "079",
      "075",
      "075",
      "042",
      "039",
      "039",
      "039",
      "017",
      "017",
      "012",
      "005"
    ],
    "swim:geom": "path",
    "swim:speeds": [
      266,
      266,
      266,
      266,
      265,
      269,
      276,
      276,
      278,
      279,
      279,
      395,
      395,
      403,
      403,
      417,
      417,
      388,
      403,
      409,
      411,
      411,
      411,
      411,
      411,
      411,
      413,
      413,
      414,
      420,
      420,
      421,
      421,
      421,
      421,
      422,
      422,
      414,
      414,
      414,
      414,
      424,
      424,
      424,
      424,
      424,
      424,
      405,
      397,
      397,
      404,
      404,
      404,
      405,
      405,
      403,
      403,
      404,
      404,
      404,
      400,
      400,
      400,
      400,
      400,
      382,
      382,
      381,
      380,
      380,
      381,
      383,
      383,
      382,
      385,
      384,
      384,
      391,
      391,
      391,
      393,
      393,
      393,
      393,
      393,
      391,
      391,
      386,
      385,
      385,
      386,
      386,
      387,
      390,
      390,
      390,
      398,
      398,
      401,
      401,
      402,
      404,
      404,
      401,
      400,
      400,
      399,
      400,
      400,
      403,
      403,
      403,
      406,
      406,
      406,
      412,
      412,
      412,
      412,
      414,
      417,
      417,
      418,
      421,
      422,
      422,
      422,
      422,
      422,
      421,
      421,
      423,
      423,
      423,
      423,
      423,
      420,
      420,
      420,
      419,
      418,
      418,
      419,
      421,
      421,
      421,
      421,
      421,
      421,
      421,
      421,
      421,
      421,
      421,
      421,
      421,
      421,
      422,
      422,
      422,
      422,
      422,
      422,
      422,
      423,
      425,
      425,
      425,
      426,
      426,
      426,
      427,
      427,
      427,
      427,
      426,
      426,
      426,
      426,
      426,
      426,
      426,
      426,
      425,
      424,
      424,
      424,
      422,
      420,
      420,
      420,
      419,
      419,
      416,
      416,
      416,
      416,
      416,
      416,
      416,
      417,
      413,
      413,
      414,
      413,
      413,
      413,
      413,
      413,
      413,
      413,
      412,
      412,
      412,
      412,
      413,
      414,
      414,
      414,
      414,
      415,
      415,
      415,
      417,
      417,
      418,
      417,
      417,
      417,
      417,
      418,
      417,
      417,
      418,
      418,
      417,
      421,
      428,
      428,
      428,
      428,
      414,
      413,
      413,
      412,
      412,
      412,
      409,
      409,
      411,
      411,
      408,
      411,
      411,
      410,
      414,
      414,
      416,
      416,
      416,
      413,
      415,
      415,
      405,
      401,
      401,
      401,
      396,
      396,
      396,
      395,
      398,
      398,
      398,
      397,
      397,
      397,
      397,
      390,
      390,
      388,
      385,
      386,
      386,
      397,
      397,
      397,
      418,
      418,
      418,
      418,
      428,
      428,
      428,
      427,
      429,
      429,
      427,
      427,
      428,
      428,
      428,
      418,
      418,
      420,
      420,
      409,
      395,
      395,
      384,
      384,
      385,
      385,
      385,
      385,
      385,
      385,
      385,
      385,
      392,
      392,
      392,
      395,
      395,
      398,
      398,
      395,
      394,
      394,
      394,
      395,
      393,
      393,
      393,
      393,
      393,
      393,
      393,
      393,
      393,
      393,
      391,
      391,
      391,
      391,
      389,
      389,
      389,
      389,
      389,
      388,
      389,
      389,
      389,
      389,
      389,
      390,
      390,
      390,
      390,
      389,
      389,
      389,
      388,
      388,
      388,
      389,
      389,
      391,
      391,
      392,
      392,
      392,
      395,
      395,
      396,
      396,
      396,
      398,
      398,
      398,
      398,
      398,
      404,
      405,
      405,
      405,
      405,
      405,
      404,
      405,
      402,
      402,
      408,
      408,
      410,
      410,
      411,
      409,
      410,
      411,
      411,
      413,
      413,
      413,
      413,
      413,
      415,
      415,
      395,
      395,
      386,
      383,
      383,
      386,
      386,
      388,
      406,
      411,
      416,
      416,
      416,
      427,
      434,
      425,
      425,
      418,
      387,
      387,
      376,
      376,
      379,
      369,
      369,
      369,
      261,
      261,
      249,
      250,
      250,
      249,
      249,
      243,
      241,
      241,
      176,
      167,
      167,
      167,
      140,
      140,
      136,
      135
    ],
    "swim:timestamps": [
      1780342750,
      1780342750,
      1780342750,
      1780342750,
      1780342821,
      1780342881,
      1780342941,
      1780342941,
      1780342990,
      1780343001,
      1780343001,
      1780343170,
      1780343170,
      1780343241,
      1780343241,
      1780343362,
      1780343362,
      1780343422,
      1780343531,
      1780343602,
      1780343651,
      1780343662,
      1780343662,
      1780343711,
      1780343771,
      1780343771,
      1780343831,
      1780343831,
      1780343842,
      1780344143,
      1780344143,
      1780344263,
      1780344263,
      1780344263,
      1780344263,
      1780344323,
      1780344323,
      1780344503,
      1780344503,
      1780344503,
      1780344503,
      1780344552,
      1780344552,
      1780344552,
      1780344564,
      1780344564,
      1780344564,
      1780344624,
      1780344684,
      1780344684,
      1780344864,
      1780344864,
      1780344864,
      1780344949,
      1780344949,
      1780344984,
      1780344984,
      1780345009,
      1780345009,
      1780345069,
      1780345105,
      1780345105,
      1780345165,
      1780345165,
      1780345165,
      1780345249,
      1780345249,
      1780345285,
      1780345345,
      1780345345,
      1780345489,
      1780345525,
      1780345525,
      1780345549,
      1780345585,
      1780345610,
      1780345610,
      1780345823,
      1780345850,
      1780345883,
      1780346030,
      1780346090,
      1780346123,
      1780346123,
      1780346183,
      1780346331,
      1780346331,
      1780346511,
      1780346571,
      1780346571,
      1780346691,
      1780346691,
      1780346751,
      1780346871,
      1780346871,
      1780346871,
      1780347112,
      1780347112,
      1780347232,
      1780347232,
      1780347292,
      1780347352,
      1780347412,
      1780347537,
      1780347712,
      1780347712,
      1780347773,
      1780347953,
      1780347953,
      1780348073,
      1780348073,
      1780348073,
      1780348253,
      1780348253,
      1780348253,
      1780348445,
      1780348445,
      1780348445,
      1780348445,
      1780348566,
      1780348686,
      1780348686,
      1780348746,
      1780348866,
      1780348986,
      1780348986,
      1780348986,
      1780348986,
      1780349227,
      1780349407,
      1780349467,
      1780349580,
      1780349640,
      1780349640,
      1780349640,
      1780349640,
      1780349881,
      1780349881,
      1780349941,
      1780350001,
      1780350121,
      1780350121,
      1780350181,
      1780350422,
      1780350422,
      1780350422,
      1780350422,
      1780350482,
      1780350482,
      1780350482,
      1780350662,
      1780350662,
      1780350722,
      1780350722,
      1780350782,
      1780350782,
      1780350782,
      1780350902,
      1780350902,
      1780350902,
      1780350902,
      1780350962,
      1780351023,
      1780351023,
      1780351083,
      1780351203,
      1780351203,
      1780351203,
      1780351323,
      1780351323,
      1780351323,
      1780351383,
      1780351443,
      1780351443,
      1780351443,
      1780351503,
      1780351563,
      1780351563,
      1780351563,
      1780351623,
      1780351623,
      1780351864,
      1780351864,
      1780351984,
      1780352044,
      1780352044,
      1780352044,
      1780352104,
      1780352164,
      1780352164,
      1780352164,
      1780352224,
      1780352224,
      1780352405,
      1780352405,
      1780352405,
      1780352465,
      1780352465,
      1780352465,
      1780352465,
      1780352702,
      1780352780,
      1780352780,
      1780352840,
      1780352942,
      1780352942,
      1780353020,
      1780353020,
      1780353020,
      1780353063,
      1780353063,
      1780353080,
      1780353080,
      1780353080,
      1780353183,
      1780353243,
      1780353260,
      1780353260,
      1780353260,
      1780353303,
      1780353320,
      1780353320,
      1780353320,
      1780353423,
      1780353423,
      1780353441,
      1780353483,
      1780353543,
      1780353543,
      1780353543,
      1780353561,
      1780353603,
      1780353603,
      1780353621,
      1780353621,
      1780353724,
      1780353801,
      1780354042,
      1780354042,
      1780354042,
      1780354042,
      1780354402,
      1780354462,
      1780354462,
      1780354522,
      1780354522,
      1780354522,
      1780354582,
      1780354582,
      1780354600,
      1780354600,
      1780354642,
      1780354660,
      1780354660,
      1780354840,
      1780354883,
      1780354883,
      1780354943,
      1780354961,
      1780354961,
      1780355003,
      1780355021,
      1780355021,
      1780355081,
      1780355141,
      1780355141,
      1780355141,
      1780355183,
      1780355183,
      1780355183,
      1780355243,
      1780355261,
      1780355261,
      1780355261,
      1780355381,
      1780355381,
      1780355381,
      1780355381,
      1780355423,
      1780355484,
      1780355561,
      1780355604,
      1780355664,
      1780355664,
      1780355802,
      1780355802,
      1780355802,
      1780355922,
      1780355922,
      1780355922,
      1780355922,
      1780355964,
      1780355964,
      1780355964,
      1780355982,
      1780356024,
      1780356024,
      1780356042,
      1780356042,
      1780356102,
      1780356222,
      1780356222,
      1780356385,
      1780356385,
      1780356402,
      1780356402,
      1780356463,
      1780356523,
      1780356523,
      1780356703,
      1780356703,
      1780356745,
      1780356745,
      1780356745,
      1780356745,
      1780356865,
      1780356883,
      1780356883,
      1780356883,
      1780357046,
      1780357046,
      1780357046,
      1780357106,
      1780357106,
      1780357184,
      1780357184,
      1780357226,
      1780357286,
      1780357346,
      1780357346,
      1780357364,
      1780357406,
      1780357406,
      1780357406,
      1780357406,
      1780357526,
      1780357544,
      1780357544,
      1780357586,
      1780357586,
      1780357586,
      1780357767,
      1780357767,
      1780357784,
      1780357784,
      1780357904,
      1780357904,
      1780357904,
      1780357904,
      1780357947,
      1780357965,
      1780358007,
      1780358007,
      1780358067,
      1780358067,
      1780358067,
      1780358127,
      1780358127,
      1780358187,
      1780358187,
      1780358247,
      1780358265,
      1780358265,
      1780358307,
      1780358325,
      1780358325,
      1780358488,
      1780358488,
      1780358685,
      1780358685,
      1780358926,
      1780358926,
      1780358926,
      1780359166,
      1780359166,
      1780359286,
      1780359286,
      1780359286,
      1780359467,
      1780359467,
      1780359587,
      1780359587,
      1780359587,
      1780359827,
      1780359887,
      1780359947,
      1780359947,
      1780360007,
      1780360007,
      1780360067,
      1780360248,
      1780360359,
      1780360359,
      1780360419,
      1780360419,
      1780360548,
      1780360548,
      1780360668,
      1780360719,
      1780360728,
      1780360899,
      1780360899,
      1780361019,
      1780361080,
      1780361080,
      1780361089,
      1780361089,
      1780361209,
      1780361209,
      1780361380,
      1780361380,
      1780361449,
      1780361509,
      1780361680,
      1780361800,
      1780361800,
      1780361860,
      1780361930,
      1780361981,
      1780362221,
      1780362221,
      1780362221,
      1780362461,
      1780362581,
      1780362701,
      1780362701,
      1780362761,
      1780362942,
      1780362942,
      1780362974,
      1780362974,
      1780363002,
      1780363029,
      1780363029,
      1780363062,
      1780363242,
      1780363242,
      1780363269,
      1780363362,
      1780363362,
      1780363422,
      1780363422,
      1780363509,
      1780363542,
      1780363542,
      1780363755,
      1780363782,
      1780363782,
      1780363782,
      1780363923,
      1780363923,
      1780363963,
      1780364023
    ],
    "wof:geomhash": "6ea74c2baf66ea3ca368a79bed582aed",
    "wof:id": 2031421773,
    "wof:repo": "sfomuseum-data-flights-2026-06"
  },
  "bbox": [
    -122.33611111111111,
    37.46666666666667,
    -74.21361111111112,
    41.11527777777778
  ],
  "geometry": {"coordinates":[[-74.21361111111112,40.80444444444444],[-74.21361111111112,40.80444444444444],[-74.21361111111112,40.80444444444444],[-74.21361111111112,40.80444444444444],[-74.31,40.797777777777775],[-74.40805555555556,40.79138888888889],[-74.48972222222223,40.822500000000005],[-74.48972222222223,40.822500000000005],[-74.52055555555556,40.896388888888886],[-74.51944444444445,40.89555555555555],[-74.51944444444445,40.89555555555555],[-74.86944444444444,40.776666666666664],[-74.86944444444444,40.776666666666664],[-75.01972222222223,40.70888888888889],[-75.01972222222223,40.70888888888889],[-75.2786111111111,40.590833333333336],[-75.2786111111111,40.590833333333336],[-75.40027777777779,40.53527777777778],[-75.625,40.431666666666665],[-75.77694444444444,40.361111111111114],[-75.87833333333333,40.31388888888888],[-75.905,40.30138888888889],[-75.905,40.30138888888889],[-76.00083333333333,40.256388888888885],[-76.1275,40.197222222222216],[-76.1275,40.197222222222216],[-76.2538888888889,40.1375],[-76.2538888888889,40.1375],[-76.28611111111111,40.12222222222222],[-76.92805555555556,39.823888888888895],[-76.92805555555556,39.823888888888895],[-77.18611111111112,39.702222222222225],[-77.18611111111112,39.702222222222225],[-77.18611111111112,39.702222222222225],[-77.18611111111112,39.702222222222225],[-77.31638888888888,39.64055555555556],[-77.31638888888888,39.64055555555556],[-77.69055555555556,39.461666666666666],[-77.69055555555556,39.461666666666666],[-77.69055555555556,39.461666666666666],[-77.69055555555556,39.461666666666666],[-77.82055555555556,39.399166666666666],[-77.82055555555556,39.399166666666666],[-77.82055555555556,39.399166666666666],[-77.82277777777777,39.39805555555556],[-77.82277777777777,39.39805555555556],[-77.82277777777777,39.39805555555556],[-77.95055555555555,39.344722222222224],[-78.07583333333334,39.29527777777778],[-78.07583333333334,39.29527777777778],[-78.46055555555556,39.14111111111111],[-78.46055555555556,39.14111111111111],[-78.46055555555556,39.14111111111111],[-78.63944444444445,39.068333333333335],[-78.63944444444445,39.068333333333335],[-78.74,39.02777777777778],[-78.74,39.02777777777778],[-78.76722222222222,39.0175],[-78.76722222222222,39.0175],[-78.89250000000001,38.96527777777778],[-78.99111111111111,38.92527777777777],[-78.99111111111111,38.92527777777777],[-79.11583333333333,38.87388888888889],[-79.11583333333333,38.87388888888889],[-79.11583333333333,38.87388888888889],[-79.30194444444444,38.83722222222222],[-79.30194444444444,38.83722222222222],[-79.38333333333334,38.83638888888889],[-79.51666666666667,38.83416666666667],[-79.51666666666667,38.83416666666667],[-79.84194444444444,38.82666666666667],[-79.92277777777778,38.82472222222223],[-79.92277777777778,38.82472222222223],[-79.9786111111111,38.82333333333334],[-80.06055555555555,38.82138888888889],[-80.11555555555555,38.819722222222225],[-80.11555555555555,38.819722222222225],[-80.59861111111111,38.80638888888888],[-80.66555555555556,38.80416666666667],[-80.73861111111111,38.801944444444445],[-81.08666666666666,38.790277777777774],[-81.22638888888889,38.785555555555554],[-81.29888888888888,38.782777777777774],[-81.29888888888888,38.782777777777774],[-81.43722222222223,38.77777777777778],[-81.77055555555556,38.764722222222225],[-81.77055555555556,38.764722222222225],[-82.18111111111112,38.748333333333335],[-82.31666666666666,38.74305555555556],[-82.31666666666666,38.74305555555556],[-82.5911111111111,38.731944444444444],[-82.5911111111111,38.731944444444444],[-82.7286111111111,38.72638888888889],[-83.0075,38.71388888888889],[-83.0075,38.71388888888889],[-83.0075,38.71388888888889],[-83.59305555555555,38.68611111111111],[-83.59305555555555,38.68611111111111],[-83.87888888888888,38.671388888888885],[-83.87888888888888,38.671388888888885],[-84.02305555555556,38.663888888888884],[-84.16527777777779,38.65611111111111],[-84.30833333333334,38.64805555555556],[-84.60249999999999,38.64888888888889],[-85.01888888888888,38.6875],[-85.01888888888888,38.6875],[-85.15972222222223,38.69777777777777],[-85.58416666666666,38.719722222222224],[-85.58416666666666,38.719722222222224],[-85.87138888888889,38.73388888888889],[-85.87138888888889,38.73388888888889],[-85.87138888888889,38.73388888888889],[-86.28527777777778,38.75277777777778],[-86.28527777777778,38.75277777777778],[-86.28527777777778,38.75277777777778],[-86.75555555555556,38.77222222222222],[-86.75555555555556,38.77222222222222],[-86.75555555555556,38.77222222222222],[-86.75555555555556,38.77222222222222],[-87.04833333333333,38.78361111111111],[-87.3436111111111,38.79416666666666],[-87.3436111111111,38.79416666666666],[-87.4925,38.799166666666665],[-87.79083333333332,38.80888888888889],[-88.09194444444444,38.81777777777778],[-88.09194444444444,38.81777777777778],[-88.09194444444444,38.81777777777778],[-88.09194444444444,38.81777777777778],[-88.71277777777777,38.83361111111111],[-89.16361111111112,38.84305555555556],[-89.31388888888888,38.84583333333334],[-89.585,38.85027777777778],[-89.73388888888888,38.8525],[-89.73388888888888,38.8525],[-89.73388888888888,38.8525],[-89.73388888888888,38.8525],[-90.34638888888888,38.89361111111111],[-90.34638888888888,38.89361111111111],[-90.47694444444444,38.902499999999996],[-90.62472222222222,38.913333333333334],[-90.94277777777778,38.93583333333333],[-90.94277777777778,38.93583333333333],[-91.08916666666666,38.94583333333333],[-91.68583333333333,38.984722222222224],[-91.68583333333333,38.984722222222224],[-91.68583333333333,38.984722222222224],[-91.68583333333333,38.984722222222224],[-91.83722222222222,38.994166666666665],[-91.83722222222222,38.994166666666665],[-91.83722222222222,38.994166666666665],[-92.27444444444444,39.02027777777778],[-92.27444444444444,39.02027777777778],[-92.4238888888889,39.02861111111111],[-92.4238888888889,39.02861111111111],[-92.57333333333332,39.036944444444444],[-92.57333333333332,39.036944444444444],[-92.57333333333332,39.036944444444444],[-92.89222222222223,39.05416666666667],[-92.89222222222223,39.05416666666667],[-92.89222222222223,39.05416666666667],[-92.89222222222223,39.05416666666667],[-93.04416666666667,39.06194444444444],[-93.165,39.06805555555556],[-93.165,39.06805555555556],[-93.31611111111111,39.07555555555556],[-93.63138888888888,39.09055555555556],[-93.63138888888888,39.09055555555556],[-93.63138888888888,39.09055555555556],[-93.93472222222222,39.10388888888889],[-93.93472222222222,39.10388888888889],[-93.93472222222222,39.10388888888889],[-94.08694444444444,39.11055555555556],[-94.24083333333333,39.11694444444444],[-94.24083333333333,39.11694444444444],[-94.24083333333333,39.11694444444444],[-94.39166666666668,39.12277777777778],[-94.54333333333334,39.12861111111111],[-94.54333333333334,39.12861111111111],[-94.54333333333334,39.12861111111111],[-94.69666666666667,39.13444444444444],[-94.69666666666667,39.13444444444444],[-95.31944444444444,39.15555555555555],[-95.31944444444444,39.15555555555555],[-95.62055555555555,39.164722222222224],[-95.77194444444444,39.16888888888889],[-95.77194444444444,39.16888888888889],[-95.77194444444444,39.16888888888889],[-95.92055555555557,39.17305555555555],[-96.07027777777778,39.17666666666666],[-96.07027777777778,39.17666666666666],[-96.07027777777778,39.17666666666666],[-96.22083333333333,39.180277777777775],[-96.22083333333333,39.180277777777775],[-96.66555555555556,39.19],[-96.66555555555556,39.19],[-96.66555555555556,39.19],[-96.81361111111111,39.19305555555555],[-96.81361111111111,39.19305555555555],[-96.81361111111111,39.19305555555555],[-96.81361111111111,39.19305555555555],[-97.40944444444445,39.2025],[-97.60083333333333,39.20472222222222],[-97.60083333333333,39.20472222222222],[-97.74861111111112,39.20638888888889],[-97.98583333333333,39.20861111111111],[-97.98583333333333,39.20861111111111],[-98.19111111111111,39.21027777777778],[-98.19111111111111,39.21027777777778],[-98.19111111111111,39.21027777777778],[-98.28,39.21083333333333],[-98.28,39.21083333333333],[-98.33916666666666,39.211111111111116],[-98.33916666666666,39.211111111111116],[-98.33916666666666,39.211111111111116],[-98.59083333333332,39.212500000000006],[-98.73305555555555,39.23916666666667],[-98.77638888888889,39.249722222222225],[-98.77638888888889,39.249722222222225],[-98.77638888888889,39.249722222222225],[-98.87722222222222,39.27444444444444],[-98.91916666666667,39.28444444444444],[-98.91916666666667,39.28444444444444],[-98.91916666666667,39.28444444444444],[-99.1413888888889,39.34666666666667],[-99.1413888888889,39.34666666666667],[-99.20194444444445,39.36611111111111],[-99.27777777777777,39.390277777777776],[-99.41694444444445,39.434999999999995],[-99.41694444444445,39.434999999999995],[-99.41694444444445,39.434999999999995],[-99.47722222222222,39.455000000000005],[-99.55944444444444,39.48222222222223],[-99.55944444444444,39.48222222222223],[-99.61749999999999,39.50111111111111],[-99.61749999999999,39.50111111111111],[-99.83333333333333,39.57333333333334],[-100.02361111111111,39.65],[-100.525,39.92638888888889],[-100.525,39.92638888888889],[-100.525,39.92638888888889],[-100.525,39.92638888888889],[-101.24166666666667,40.36],[-101.37027777777777,40.42055555555555],[-101.37027777777777,40.42055555555555],[-101.49777777777778,40.47916666666667],[-101.49777777777778,40.47916666666667],[-101.49777777777778,40.47916666666667],[-101.62916666666666,40.535],[-101.62916666666666,40.535],[-101.65222222222222,40.54222222222222],[-101.65222222222222,40.54222222222222],[-101.75583333333333,40.591944444444444],[-101.77972222222222,40.60027777777778],[-101.77972222222222,40.60027777777778],[-102.16222222222223,40.777499999999996],[-102.26861111111111,40.8325],[-102.26861111111111,40.8325],[-102.39777777777779,40.89611111111111],[-102.41888888888889,40.905277777777776],[-102.41888888888889,40.905277777777776],[-102.53222222222222,40.94972222222222],[-102.55055555555555,40.959722222222226],[-102.55055555555555,40.959722222222226],[-102.69638888888889,40.983333333333334],[-102.84027777777777,41.000277777777775],[-102.84027777777777,41.000277777777775],[-102.84027777777777,41.000277777777775],[-102.95777777777778,41.01722222222222],[-102.95777777777778,41.01722222222222],[-102.95777777777778,41.01722222222222],[-103.09527777777777,41.03583333333333],[-103.12583333333333,41.03805555555555],[-103.12583333333333,41.03805555555555],[-103.12583333333333,41.03805555555555],[-103.40833333333335,41.0775],[-103.40833333333335,41.0775],[-103.40833333333335,41.0775],[-103.40833333333335,41.0775],[-103.51777777777778,41.096111111111114],[-103.6588888888889,41.11527777777778],[-103.82833333333333,41.108333333333334],[-103.93416666666667,41.08444444444444],[-104.0736111111111,41.059444444444445],[-104.0736111111111,41.059444444444445],[-104.39500000000001,41.003055555555555],[-104.39500000000001,41.003055555555555],[-104.39500000000001,41.003055555555555],[-104.70416666666667,40.95111111111111],[-104.70416666666667,40.95111111111111],[-104.70416666666667,40.95111111111111],[-104.70416666666667,40.95111111111111],[-104.82805555555555,40.93111111111111],[-104.82805555555555,40.93111111111111],[-104.82805555555555,40.93111111111111],[-104.85777777777777,40.925],[-104.98083333333334,40.905277777777776],[-104.98083333333334,40.905277777777776],[-105.01138888888889,40.89972222222222],[-105.01138888888889,40.89972222222222],[-105.16444444444446,40.87388888888889],[-105.46833333333333,40.82055555555556],[-105.46833333333333,40.82055555555556],[-105.88305555555554,40.74861111111111],[-105.88305555555554,40.74861111111111],[-105.91694444444445,40.742222222222225],[-105.91694444444445,40.742222222222225],[-106.06027777777777,40.71666666666667],[-106.19833333333334,40.69138888888889],[-106.19833333333334,40.69138888888889],[-106.60722222222222,40.61527777777778],[-106.60722222222222,40.61527777777778],[-106.70333333333333,40.59916666666667],[-106.70333333333333,40.59916666666667],[-106.70333333333333,40.59916666666667],[-106.70333333333333,40.59916666666667],[-106.97888888888889,40.5475],[-107.01666666666667,40.53972222222222],[-107.01666666666667,40.53972222222222],[-107.01666666666667,40.53972222222222],[-107.3611111111111,40.41888888888889],[-107.3611111111111,40.41888888888889],[-107.3611111111111,40.41888888888889],[-107.47805555555556,40.35305555555556],[-107.47805555555556,40.35305555555556],[-107.65472222222223,40.31194444444444],[-107.65472222222223,40.31194444444444],[-107.75694444444444,40.29611111111111],[-107.89555555555556,40.27111111111111],[-108.02805555555555,40.246944444444445],[-108.02805555555555,40.246944444444445],[-108.07027777777778,40.239444444444445],[-108.17611111111111,40.22],[-108.17611111111111,40.22],[-108.17611111111111,40.22],[-108.17611111111111,40.22],[-108.45861111111111,40.16777777777777],[-108.48527777777778,40.16277777777778],[-108.48527777777778,40.16277777777778],[-108.59472222222222,40.1425],[-108.59472222222222,40.1425],[-108.59472222222222,40.1425],[-109.00277777777778,40.065],[-109.00277777777778,40.065],[-109.06027777777777,40.05416666666667],[-109.06027777777777,40.05416666666667],[-109.33027777777778,40.00194444444445],[-109.33027777777778,40.00194444444445],[-109.33027777777778,40.00194444444445],[-109.33027777777778,40.00194444444445],[-109.41055555555556,39.98638888888889],[-109.46555555555555,39.97555555555556],[-109.5461111111111,39.959722222222226],[-109.5461111111111,39.959722222222226],[-109.6825,39.93277777777777],[-109.6825,39.93277777777777],[-109.6825,39.93277777777777],[-109.81944444444444,39.90555555555555],[-109.81944444444444,39.90555555555555],[-109.95472222222223,39.87861111111111],[-109.95472222222223,39.87861111111111],[-110.08972222222222,39.85138888888889],[-110.14583333333334,39.84],[-110.14583333333334,39.84],[-110.22472222222223,39.82416666666667],[-110.28027777777778,39.812777777777775],[-110.28027777777778,39.812777777777775],[-110.63,39.740833333333335],[-110.63,39.740833333333335],[-111.09305555555555,39.64388888888889],[-111.09305555555555,39.64388888888889],[-111.62583333333333,39.529444444444444],[-111.62583333333333,39.529444444444444],[-111.62583333333333,39.529444444444444],[-112.17166666666667,39.409444444444446],[-112.17166666666667,39.409444444444446],[-112.44555555555556,39.348333333333336],[-112.44555555555556,39.348333333333336],[-112.44555555555556,39.348333333333336],[-112.86555555555555,39.25277777777778],[-112.86555555555555,39.25277777777778],[-113.1375,39.19],[-113.1375,39.19],[-113.1375,39.19],[-113.6875,39.06055555555555],[-113.8261111111111,39.027499999999996],[-113.96361111111112,38.99444444444445],[-113.96361111111112,38.99444444444445],[-114.10027777777778,38.961666666666666],[-114.10027777777778,38.961666666666666],[-114.23694444444445,38.92833333333333],[-114.64888888888889,38.827222222222225],[-114.89694444444446,38.76583333333333],[-114.89694444444446,38.76583333333333],[-115.03694444444444,38.730555555555554],[-115.03694444444444,38.730555555555554],[-115.3411111111111,38.653055555555554],[-115.3411111111111,38.653055555555554],[-115.63194444444444,38.578611111111115],[-115.74388888888889,38.55],[-115.77083333333333,38.54277777777778],[-116.16027777777778,38.441111111111105],[-116.16027777777778,38.441111111111105],[-116.43666666666667,38.367777777777775],[-116.57555555555555,38.33083333333334],[-116.57555555555555,38.33083333333334],[-116.60277777777777,38.32333333333334],[-116.60277777777777,38.32333333333334],[-116.88055555555555,38.248333333333335],[-116.88055555555555,38.248333333333335],[-117.26833333333333,38.14277777777778],[-117.26833333333333,38.14277777777778],[-117.4075,38.10416666666667],[-117.53388888888888,38.06916666666667],[-117.89888888888889,37.989444444444445],[-118.16805555555555,37.96083333333333],[-118.16805555555555,37.96083333333333],[-118.30444444444444,37.947222222222216],[-118.47,37.92777777777778],[-118.58611111111111,37.915277777777774],[-119.15027777777779,37.85138888888889],[-119.15027777777779,37.85138888888889],[-119.15027777777779,37.85138888888889],[-119.74333333333334,37.78111111111111],[-120.0461111111111,37.74388888888889],[-120.34472222222222,37.70666666666667],[-120.34472222222222,37.70666666666667],[-120.4888888888889,37.689166666666665],[-120.90194444444445,37.640277777777776],[-120.90194444444445,37.640277777777776],[-121,37.63333333333333],[-121,37.63333333333333],[-121.03333333333333,37.62361111111111],[-121.11666666666666,37.61666666666667],[-121.11666666666666,37.61666666666667],[-121.17305555555556,37.60472222222222],[-121.49361111111111,37.566111111111105],[-121.49361111111111,37.566111111111105],[-121.53333333333333,37.56666666666667],[-121.665,37.54138888888889],[-121.665,37.54138888888889],[-121.74805555555555,37.521388888888886],[-121.74805555555555,37.521388888888886],[-121.85,37.46666666666667],[-121.88527777777779,37.466944444444444],[-121.88527777777779,37.466944444444444],[-122.15,37.516666666666666],[-122.16611111111112,37.533055555555556],[-122.16611111111112,37.533055555555556],[-122.16611111111112,37.533055555555556],[-122.26666666666667,37.583333333333336],[-122.26666666666667,37.583333333333336],[-122.2936111111111,37.58694444444445],[-122.33611111111111,37.60472222222222]],"type":"LineString"}
}
