{
  "id": 2031569087,
  "type": "Feature",
  "properties": {
    "geom:area": 0,
    "geom:bbox": "-122.409240,37.632500,-121.434330,38.516800",
    "geom:latitude": 38.05249168356093,
    "geom:longitude": -121.92239436265821,
    "src:alt_label": "swim-takeoff",
    "src:geom": "swim",
    "swim:elevations": [
      305,
      419,
      799,
      1009,
      1354,
      1586,
      1960,
      2189,
      2425,
      2765,
      3063,
      3228,
      3378,
      3467,
      3588,
      4006,
      4651,
      5016,
      5536,
      5705,
      5827,
      5978,
      6161,
      6187,
      6494,
      6589
    ],
    "swim:geom": "takeoff",
    "swim:timestamps": [
      1781693480,
      1781693490,
      1781693524,
      1781693551,
      1781693607,
      1781693631,
      1781693667,
      1781693691,
      1781693711,
      1781693746,
      1781693773,
      1781693807,
      1781693835,
      1781693856,
      1781693886,
      1781693926,
      1781693967,
      1781694009,
      1781694045,
      1781694076,
      1781694110,
      1781694137,
      1781694173,
      1781694181,
      1781694233,
      1781694257
    ],
    "wof:geomhash": "616946a4636fcf5fde6ed17dc1fa03f3",
    "wof:id": 2031569087,
    "wof:repo": "sfomuseum-data-flights-2026-06"
  },
  "bbox": [
    -122.40924,
    37.6325,
    -121.43433,
    38.5168
  ],
  "geometry": {"coordinates":[[-122.40131,37.6325],[-122.40924,37.63794],[-122.40894,37.66677],[-122.38091,37.67672],[-122.30805,37.69309],[-122.27335,37.70224],[-122.21949,37.71791],[-122.19368,37.7399],[-122.17486,37.76186],[-122.14157,37.79926],[-122.11567,37.82787],[-122.08135,37.86653],[-122.049,37.90139],[-122.02429,37.92875],[-121.98675,37.9698],[-121.93414,38.02775],[-121.88211,38.08515],[-121.82668,38.14595],[-121.77867,38.19823],[-121.73766,38.24315],[-121.68919,38.296],[-121.64878,38.34035],[-121.59435,38.39884],[-121.58214,38.4118],[-121.48507,38.48616],[-121.43433,38.5168]],"type":"LineString"}
}
