{
  "id": 2031665875,
  "type": "Feature",
  "properties": {
    "geom:area": 0,
    "geom:bbox": "-122.612890,36.720460,-121.330130,37.667880",
    "geom:latitude": 37.19902362239202,
    "geom:longitude": -122.07694615929566,
    "src:alt_label": "swim-takeoff",
    "src:geom": "swim",
    "swim:elevations": [
      152,
      357,
      489,
      788,
      829,
      947,
      1334,
      1436,
      2047,
      2410,
      2493,
      2832,
      3188,
      3353,
      3679,
      4149,
      4429,
      4630,
      5132,
      5462,
      5898,
      6255,
      6477,
      6942,
      7191,
      7472,
      7688,
      8071,
      8262,
      8363,
      8717,
      8788,
      9060,
      9208,
      9238
    ],
    "swim:geom": "takeoff",
    "swim:timestamps": [
      1782674427,
      1782674442,
      1782674460,
      1782674518,
      1782674523,
      1782674534,
      1782674577,
      1782674585,
      1782674634,
      1782674662,
      1782674668,
      1782674693,
      1782674727,
      1782674751,
      1782674780,
      1782674815,
      1782674837,
      1782674856,
      1782674901,
      1782674928,
      1782674964,
      1782674998,
      1782675018,
      1782675057,
      1782675079,
      1782675106,
      1782675132,
      1782675176,
      1782675205,
      1782675218,
      1782675268,
      1782675277,
      1782675319,
      1782675342,
      1782675346
    ],
    "wof:geomhash": "ba6212acbd6a5882bc1c6197f9ea84fa",
    "wof:id": 2031665875,
    "wof:repo": "sfomuseum-data-flights-2026-06"
  },
  "bbox": [
    -122.61289,
    36.72046,
    -121.33013,
    37.66788
  ],
  "geometry": {"coordinates":[[-122.38639,37.62369],[-122.39771,37.62857],[-122.41225,37.63477],[-122.47096,37.66045],[-122.47664,37.66291],[-122.4906,37.66788],[-122.54707,37.64763],[-122.5538,37.6398],[-122.58965,37.5821],[-122.60102,37.54507],[-122.60339,37.53702],[-122.61289,37.50299],[-122.58924,37.46095],[-122.55068,37.44128],[-122.50196,37.41598],[-122.44192,37.38154],[-122.40416,37.35934],[-122.37018,37.33924],[-122.28575,37.28937],[-122.23452,37.25921],[-122.16345,37.21727],[-122.09633,37.17765],[-122.05574,37.15368],[-121.97475,37.10574],[-121.92853,37.07833],[-121.87096,37.04419],[-121.81679,37.01191],[-121.72025,36.95518],[-121.65449,36.91611],[-121.62596,36.8989],[-121.51103,36.82997],[-121.49054,36.81742],[-121.39532,36.75889],[-121.33931,36.72597],[-121.33013,36.72046]],"type":"LineString"}
}
