{
  "id": 2031502287,
  "type": "Feature",
  "properties": {
    "geom:area": 0,
    "geom:bbox": "-122.380000,32.900000,-97.040000,38.520000",
    "geom:latitude": 36.291376609386425,
    "geom:longitude": -109.76855881891264,
    "src:alt_label": "swim-route",
    "src:geom": "swim",
    "swim:geom": "route",
    "wof:geomhash": "7dbe570b75861145c3cbef568ea486c7",
    "wof:id": 2031502287,
    "wof:repo": "sfomuseum-data-flights-2026-06"
  },
  "bbox": [
    -122.38,
    32.9,
    -97.04,
    38.52
  ],
  "geometry": {"coordinates":[[-122.38,37.62],[-122.25,37.75],[-122.25,37.75],[-122.19,37.82],[-122.18,37.82],[-122.16,37.85],[-122.11,37.9],[-122.1,37.9],[-122.06,37.95],[-122.04,37.97],[-121.86,37.97],[-121.81,37.97],[-121.72,37.98],[-121.58,37.98],[-121.52,37.98],[-121.36,37.99],[-121.28,37.99],[-121.27,37.99],[-121.1,37.99],[-121,38.01],[-120.81,38.04],[-120.77,38.04],[-120.65,38.06],[-120.23,38.12],[-120.07,38.15],[-119.91,38.17],[-119.76,38.19],[-119.26,38.26],[-119.18,38.27],[-119.07,38.29],[-117.29,38.52],[-117.28,38.52],[-116,38.5],[-114.44,38.13],[-114.16,38.06],[-114.39,38.25],[-114.09,38.14],[-113.89,38],[-113.7,37.95],[-112.93,37.65],[-112.66,37.56],[-112.39,37.45],[-112.24,37.4],[-112.07,37.33],[-111.8,37.22],[-111.57,37.13],[-111.34,37.03],[-109.96,36.45],[-109.73,36.36],[-109.28,36.16],[-109.22,36.13],[-108.78,35.94],[-108.34,35.74],[-107.89,35.54],[-107.23,35.24],[-106.82,35.04],[-106.64,35.02],[-106.46,35],[-104.81,34.79],[-104.55,34.76],[-102.84,34.5],[-102.51,34.46],[-102.46,34.46],[-101.54,34.36],[-101.06,34.3],[-100.59,34.24],[-100.25,34.2],[-99.66,34.02],[-99.54,33.99],[-99.49,33.97],[-99.23,33.89],[-99.05,33.84],[-98.96,33.81],[-98.76,33.74],[-98.71,33.73],[-98.61,33.69],[-98.6,33.69],[-98.55,33.67],[-98.48,33.65],[-98.47,33.65],[-98.26,33.58],[-98.2,33.56],[-98.14,33.55],[-98.08,33.52],[-98.07,33.52],[-98.02,33.51],[-97.92,33.47],[-97.78,33.43],[-97.72,33.41],[-97.64,33.38],[-97.6,33.36],[-97.55,33.33],[-97.46,33.27],[-97.36,33.18],[-97.29,33.11],[-97.27,33.09],[-97.24,33.06],[-97.23,33.05],[-97.18,33],[-97.16,32.99],[-97.16,32.99],[-97.09,32.94],[-97.04,32.9]],"type":"LineString"}
}
