{
  "id": 2031677143,
  "type": "Feature",
  "properties": {
    "geom:area": 0,
    "geom:bbox": "-122.594060,36.722570,-122.298280,37.672790",
    "geom:latitude": 37.23470837028897,
    "geom:longitude": -122.52075149508627,
    "src:alt_label": "swim-takeoff",
    "src:geom": "swim",
    "swim:elevations": [
      378,
      598,
      1051,
      1471,
      1877,
      2526,
      2972,
      3294,
      3476,
      3664,
      3746,
      4239,
      4578,
      4744,
      4911,
      5264,
      5569,
      5806,
      6120,
      6258,
      6619,
      6745,
      7126,
      7209
    ],
    "swim:geom": "takeoff",
    "swim:timestamps": [
      1782779328,
      1782779352,
      1782779394,
      1782779419,
      1782779450,
      1782779484,
      1782779510,
      1782779541,
      1782779570,
      1782779607,
      1782779617,
      1782779655,
      1782779689,
      1782779704,
      1782779718,
      1782779753,
      1782779780,
      1782779808,
      1782779836,
      1782779851,
      1782779901,
      1782779915,
      1782779961,
      1782779971
    ],
    "wof:geomhash": "3b0fb4f00ccc161a82f8ea6e3792e557",
    "wof:id": 2031677143,
    "wof:repo": "sfomuseum-data-flights-2026-06"
  },
  "bbox": [
    -122.59406,
    36.72257,
    -122.29828,
    37.67279
  ],
  "geometry": {"coordinates":[[-122.39511,37.62721],[-122.41483,37.63527],[-122.4592,37.65375],[-122.48955,37.66765],[-122.53625,37.67279],[-122.5832,37.64981],[-122.59406,37.61598],[-122.59179,37.57118],[-122.5918,37.52378],[-122.59152,37.4553],[-122.59078,37.43724],[-122.58541,37.35965],[-122.58072,37.29011],[-122.57888,37.25888],[-122.57708,37.22734],[-122.5727,37.15062],[-122.56926,37.0912],[-122.5636,37.02908],[-122.54096,36.96772],[-122.52162,36.93954],[-122.42918,36.84889],[-122.40328,36.82384],[-122.31586,36.73948],[-122.29828,36.72257]],"type":"LineString"}
}
