{
  "id": 2031466825,
  "type": "Feature",
  "properties": {
    "geom:area": 0,
    "geom:bbox": "-122.400000,33.846944,-97.605278,38.518611",
    "geom:latitude": 36.720645000008815,
    "geom:longitude": -109.15279918503374,
    "src:alt_label": "swim-path",
    "src:geom": "swim",
    "swim:altitudes": [
      "021",
      "068",
      "068",
      "068",
      "111",
      "111",
      "127",
      "203",
      "203",
      "203",
      "203",
      "271",
      "272",
      "272",
      "280",
      "310",
      "323",
      "323",
      "323",
      "330C",
      "330C",
      "330C",
      "330C",
      "330C",
      "330C",
      "330C",
      "330C",
      "331C",
      "331C",
      "331C",
      "330C",
      "330C",
      "330C",
      "330C",
      "330C",
      "330C",
      "330C",
      "330C",
      "330C",
      "330C",
      "330C",
      "330C",
      "330C",
      "330C",
      "330C",
      "330C",
      "330C",
      "330C",
      "330C",
      "331C",
      "331C",
      "331C",
      "330C",
      "330C",
      "330C",
      "330C",
      "331",
      "331",
      "331",
      "350C",
      "350C",
      "350C",
      "350C",
      "350C",
      "350C",
      "350C",
      "350C",
      "350C",
      "350C",
      "350C",
      "350C",
      "350C",
      "350C",
      "350C",
      "350C",
      "350C",
      "350C",
      "350C",
      "350C",
      "350C",
      "350C",
      "350C",
      "350C",
      "350C",
      "350C",
      "350C",
      "350C",
      "350C",
      "350C",
      "350C",
      "350C",
      "350C",
      "350C",
      "350C",
      "350C",
      "350C",
      "350C",
      "350C",
      "350C",
      "350C",
      "350C",
      "350C",
      "350C",
      "350C",
      "350C",
      "350C",
      "350C",
      "350C",
      "350C",
      "350C",
      "350C",
      "350C",
      "350C",
      "350C",
      "350C",
      "350C",
      "350C",
      "350C",
      "350C",
      "350C",
      "350C",
      "350C",
      "350C",
      "350C",
      "350C",
      "350C",
      "350C",
      "350C",
      "349C",
      "350C",
      "350C",
      "350C",
      "350C",
      "350C",
      "350C",
      "350C",
      "350C",
      "350C",
      "350C",
      "350C",
      "350C",
      "350C",
      "350C",
      "350C",
      "350C",
      "350C",
      "350C",
      "350C",
      "350C",
      "350C",
      "350C",
      "350C",
      "350C",
      "350C",
      "350C",
      "350C",
      "350C",
      "350C",
      "350C",
      "350C",
      "350C",
      "350C",
      "350C",
      "350C",
      "350C",
      "350C",
      "350C",
      "350C",
      "350C",
      "350C",
      "350C",
      "350C",
      "350C",
      "350C",
      "350C",
      "350C",
      "350C",
      "350C",
      "350C",
      "350C",
      "351C",
      "350C",
      "350C",
      "350C",
      "350C",
      "350C",
      "350C",
      "350C",
      "350C",
      "350C",
      "350C",
      "350C",
      "350C",
      "350C",
      "350C",
      "350C",
      "350C",
      "350C",
      "350C",
      "350C",
      "350C",
      "350C",
      "350C",
      "350C",
      "350C",
      "350C",
      "350C",
      "350C",
      "350C",
      "350C",
      "350C",
      "350C",
      "350C",
      "350C",
      "350C",
      "350C",
      "350C",
      "350C",
      "350C",
      "351C",
      "351C",
      "351C",
      "350",
      "350",
      "350",
      "343",
      "343",
      "330",
      "330",
      "330",
      "330",
      "330",
      "330",
      "330",
      "325",
      "325",
      "242",
      "242",
      "242",
      "242",
      "220",
      "200",
      "200",
      "200",
      "187",
      "169",
      "158",
      "147",
      "147",
      "132",
      "104",
      "090",
      "090",
      "090",
      "066",
      "066",
      "040",
      "040",
      "040",
      "040",
      "040",
      "040",
      "040",
      "040",
      "040",
      "020",
      "013",
      "013"
    ],
    "swim:geom": "path",
    "swim:speeds": [
      222,
      293,
      293,
      293,
      348,
      348,
      394,
      452,
      452,
      452,
      452,
      506,
      502,
      502,
      514,
      521,
      519,
      519,
      519,
      512,
      514,
      514,
      514,
      513,
      507,
      505,
      505,
      515,
      515,
      515,
      514,
      514,
      514,
      511,
      511,
      511,
      508,
      508,
      507,
      507,
      507,
      507,
      507,
      508,
      508,
      508,
      508,
      507,
      507,
      506,
      506,
      506,
      503,
      503,
      503,
      503,
      501,
      501,
      501,
      492,
      492,
      499,
      499,
      499,
      498,
      498,
      497,
      513,
      498,
      498,
      504,
      504,
      501,
      501,
      496,
      496,
      489,
      489,
      489,
      490,
      490,
      487,
      482,
      476,
      474,
      474,
      474,
      475,
      475,
      475,
      475,
      485,
      485,
      485,
      485,
      486,
      486,
      486,
      487,
      487,
      487,
      486,
      486,
      483,
      483,
      483,
      483,
      477,
      478,
      478,
      479,
      478,
      478,
      478,
      478,
      478,
      478,
      478,
      478,
      478,
      477,
      477,
      477,
      477,
      476,
      476,
      474,
      474,
      473,
      474,
      474,
      474,
      473,
      473,
      472,
      472,
      471,
      471,
      471,
      471,
      468,
      468,
      471,
      472,
      472,
      470,
      470,
      467,
      467,
      462,
      462,
      462,
      462,
      459,
      459,
      457,
      457,
      457,
      457,
      458,
      458,
      458,
      459,
      459,
      462,
      462,
      462,
      465,
      465,
      465,
      465,
      463,
      463,
      462,
      462,
      463,
      463,
      464,
      464,
      464,
      465,
      464,
      464,
      464,
      464,
      462,
      462,
      462,
      470,
      470,
      470,
      470,
      475,
      475,
      475,
      476,
      476,
      476,
      475,
      475,
      474,
      474,
      474,
      474,
      474,
      474,
      475,
      475,
      474,
      474,
      472,
      472,
      472,
      472,
      471,
      471,
      471,
      471,
      471,
      480,
      480,
      480,
      463,
      463,
      463,
      468,
      468,
      465,
      465,
      486,
      486,
      492,
      492,
      492,
      502,
      502,
      467,
      467,
      467,
      467,
      452,
      432,
      432,
      432,
      418,
      407,
      410,
      396,
      396,
      380,
      359,
      315,
      315,
      315,
      296,
      296,
      235,
      223,
      223,
      223,
      223,
      226,
      224,
      224,
      224,
      138,
      139,
      139
    ],
    "swim:timestamps": [
      1780778347,
      1780778462,
      1780778462,
      1780778462,
      1780778586,
      1780778586,
      1780778646,
      1780778886,
      1780778886,
      1780778886,
      1780778886,
      1780779187,
      1780779197,
      1780779197,
      1780779247,
      1780779438,
      1780779487,
      1780779487,
      1780779487,
      1780779558,
      1780779607,
      1780779607,
      1780779607,
      1780779667,
      1780779788,
      1780779798,
      1780779798,
      1780779978,
      1780779978,
      1780779978,
      1780780158,
      1780780158,
      1780780158,
      1780780279,
      1780780279,
      1780780279,
      1780780399,
      1780780399,
      1780780459,
      1780780459,
      1780780508,
      1780780508,
      1780780579,
      1780780819,
      1780780819,
      1780780819,
      1780780819,
      1780780879,
      1780780879,
      1780781060,
      1780781060,
      1780781060,
      1780781180,
      1780781180,
      1780781180,
      1780781180,
      1780781240,
      1780781240,
      1780781240,
      1780781480,
      1780781480,
      1780781540,
      1780781540,
      1780781540,
      1780781600,
      1780781600,
      1780781660,
      1780781753,
      1780781781,
      1780781781,
      1780781813,
      1780781813,
      1780781901,
      1780781901,
      1780781993,
      1780781993,
      1780782113,
      1780782113,
      1780782113,
      1780782141,
      1780782141,
      1780782261,
      1780782321,
      1780782354,
      1780782381,
      1780782381,
      1780782381,
      1780782474,
      1780782474,
      1780782474,
      1780782474,
      1780782714,
      1780782714,
      1780782714,
      1780782714,
      1780782834,
      1780782862,
      1780782862,
      1780782894,
      1780782894,
      1780782922,
      1780783075,
      1780783075,
      1780783195,
      1780783195,
      1780783195,
      1780783195,
      1780783315,
      1780783375,
      1780783375,
      1780783411,
      1780783435,
      1780783435,
      1780783495,
      1780783495,
      1780783591,
      1780783591,
      1780783591,
      1780783675,
      1780783675,
      1780783736,
      1780783772,
      1780783772,
      1780783772,
      1780783808,
      1780783808,
      1780783928,
      1780783928,
      1780783988,
      1780784073,
      1780784073,
      1780784073,
      1780784108,
      1780784108,
      1780784168,
      1780784168,
      1780784193,
      1780784193,
      1780784193,
      1780784193,
      1780784288,
      1780784288,
      1780784373,
      1780784433,
      1780784433,
      1780784493,
      1780784493,
      1780784553,
      1780784553,
      1780784673,
      1780784673,
      1780784673,
      1780784673,
      1780784794,
      1780784794,
      1780784854,
      1780784854,
      1780784914,
      1780784914,
      1780784974,
      1780784974,
      1780784974,
      1780785034,
      1780785034,
      1780785094,
      1780785094,
      1780785094,
      1780785215,
      1780785261,
      1780785261,
      1780785275,
      1780785395,
      1780785395,
      1780785455,
      1780785455,
      1780785515,
      1780785515,
      1780785561,
      1780785575,
      1780785575,
      1780785695,
      1780785742,
      1780785742,
      1780785755,
      1780785755,
      1780785815,
      1780785815,
      1780785815,
      1780786114,
      1780786114,
      1780786114,
      1780786114,
      1780786294,
      1780786294,
      1780786294,
      1780786355,
      1780786355,
      1780786355,
      1780786415,
      1780786415,
      1780786595,
      1780786595,
      1780786595,
      1780786655,
      1780786655,
      1780786655,
      1780786777,
      1780786777,
      1780786837,
      1780786837,
      1780786957,
      1780786957,
      1780786957,
      1780786979,
      1780787039,
      1780787039,
      1780787039,
      1780787100,
      1780787100,
      1780787220,
      1780787220,
      1780787220,
      1780787340,
      1780787340,
      1780787340,
      1780787400,
      1780787400,
      1780787580,
      1780787580,
      1780787640,
      1780787640,
      1780787700,
      1780787700,
      1780787700,
      1780787760,
      1780787760,
      1780788010,
      1780788010,
      1780788010,
      1780788010,
      1780788073,
      1780788133,
      1780788133,
      1780788133,
      1780788193,
      1780788220,
      1780788265,
      1780788286,
      1780788286,
      1780788325,
      1780788385,
      1780788445,
      1780788445,
      1780788445,
      1780788526,
      1780788526,
      1780788650,
      1780788710,
      1780788710,
      1780788710,
      1780788710,
      1780788760,
      1780788770,
      1780788770,
      1780788770,
      1780788940,
      1780789010,
      1780789010
    ],
    "wof:geomhash": "e0884af35715a59a7d9c44e2c13fcfcc",
    "wof:id": 2031466825,
    "wof:repo": "sfomuseum-data-flights-2026-06"
  },
  "bbox": [
    -122.4,
    33.846944444444446,
    -97.60527777777777,
    38.51861111111111
  ],
  "geometry": {"coordinates":[[-122.4,37.65],[-122.21666666666667,37.71666666666667],[-122.21666666666667,37.71666666666667],[-122.21666666666667,37.71666666666667],[-122.03833333333333,37.80888888888889],[-122.03833333333333,37.80888888888889],[-121.90972222222223,37.843333333333334],[-121.33222222222221,37.95],[-121.33222222222221,37.95],[-121.33222222222221,37.95],[-121.33222222222221,37.95],[-120.46111111111111,38.089444444444446],[-120.43944444444445,38.09138888888889],[-120.43944444444445,38.09138888888889],[-120.28555555555555,38.115833333333335],[-119.7213888888889,38.1975],[-119.56611111111111,38.22027777777778],[-119.56611111111111,38.22027777777778],[-119.56611111111111,38.22027777777778],[-119.36638888888888,38.24722222222222],[-119.22527777777778,38.26833333333333],[-119.22527777777778,38.26833333333333],[-119.22527777777778,38.26833333333333],[-119.04861111111111,38.2925],[-118.69611111111111,38.34027777777778],[-118.66194444444444,38.344166666666666],[-118.66194444444444,38.344166666666666],[-118.1286111111111,38.415277777777774],[-118.1286111111111,38.415277777777774],[-118.1286111111111,38.415277777777774],[-117.58555555555554,38.48388888888889],[-117.58555555555554,38.48388888888889],[-117.58555555555554,38.48388888888889],[-117.22277777777778,38.51861111111111],[-117.22277777777778,38.51861111111111],[-117.22277777777778,38.51861111111111],[-116.86083333333333,38.507777777777775],[-116.86083333333333,38.507777777777775],[-116.68027777777779,38.50194444444445],[-116.68027777777779,38.50194444444445],[-116.53361111111111,38.496944444444445],[-116.53361111111111,38.496944444444445],[-116.31833333333333,38.489444444444445],[-115.59694444444445,38.46083333333333],[-115.59694444444445,38.46083333333333],[-115.59694444444445,38.46083333333333],[-115.59694444444445,38.46083333333333],[-115.41777777777779,38.45305555555556],[-115.41777777777779,38.45305555555556],[-114.89500000000001,38.428888888888885],[-114.89500000000001,38.428888888888885],[-114.89500000000001,38.428888888888885],[-114.54166666666667,38.41111111111111],[-114.54166666666667,38.41111111111111],[-114.54166666666667,38.41111111111111],[-114.54166666666667,38.41111111111111],[-114.36694444444444,38.400277777777774],[-114.36694444444444,38.400277777777774],[-114.36694444444444,38.400277777777774],[-113.69722222222222,38.24944444444444],[-113.69722222222222,38.24944444444444],[-113.52722222222222,38.214444444444446],[-113.52722222222222,38.214444444444446],[-113.52722222222222,38.214444444444446],[-113.35499999999999,38.19444444444444],[-113.35499999999999,38.19444444444444],[-113.17888888888889,38.17388888888889],[-112.89583333333334,38.14111111111111],[-112.82944444444443,38.13305555555556],[-112.82944444444443,38.13305555555556],[-112.72166666666666,38.11972222222222],[-112.72166666666666,38.11972222222222],[-112.4775,38.08972222222222],[-112.4775,38.08972222222222],[-112.20111111111112,38.05583333333333],[-112.20111111111112,38.05583333333333],[-111.89333333333335,38.0175],[-111.89333333333335,38.0175],[-111.89333333333335,38.0175],[-111.79027777777777,38.005],[-111.79027777777777,38.005],[-111.46527777777779,37.91638888888889],[-111.30583333333333,37.86694444444444],[-111.24416666666667,37.84805555555556],[-111.15222222222222,37.81944444444445],[-111.15222222222222,37.81944444444445],[-111.15222222222222,37.81944444444445],[-110.93555555555555,37.751666666666665],[-110.93555555555555,37.751666666666665],[-110.93555555555555,37.751666666666665],[-110.93555555555555,37.751666666666665],[-110.29888888888888,37.54972222222222],[-110.29888888888888,37.54972222222222],[-110.29888888888888,37.54972222222222],[-110.29888888888888,37.54972222222222],[-109.98416666666667,37.448055555555555],[-109.9113888888889,37.424166666666665],[-109.9113888888889,37.424166666666665],[-109.825,37.39611111111111],[-109.825,37.39611111111111],[-109.75583333333333,37.37361111111111],[-109.35444444444444,37.24138888888889],[-109.35444444444444,37.24138888888889],[-109.04277777777777,37.1375],[-109.04277777777777,37.1375],[-109.04277777777777,37.1375],[-109.04277777777777,37.1375],[-108.73666666666666,37.03916666666667],[-108.57722222222222,36.99777777777778],[-108.57722222222222,36.99777777777778],[-108.4888888888889,36.974722222222226],[-108.41861111111112,36.95638888888889],[-108.41861111111112,36.95638888888889],[-108.2625,36.915277777777774],[-108.2625,36.915277777777774],[-108.00944444444444,36.84861111111111],[-108.00944444444444,36.84861111111111],[-108.00944444444444,36.84861111111111],[-107.78916666666666,36.78972222222222],[-107.78916666666666,36.78972222222222],[-107.63055555555555,36.74722222222222],[-107.53861111111111,36.722500000000004],[-107.53861111111111,36.722500000000004],[-107.53861111111111,36.722500000000004],[-107.44333333333334,36.696666666666665],[-107.44333333333334,36.696666666666665],[-107.13472222222222,36.61222222222222],[-107.13472222222222,36.61222222222222],[-106.98027777777779,36.569722222222225],[-106.76527777777778,36.51],[-106.76527777777778,36.51],[-106.76527777777778,36.51],[-106.67194444444445,36.48388888888889],[-106.67194444444445,36.48388888888889],[-106.5175,36.44083333333333],[-106.5175,36.44083333333333],[-106.4388888888889,36.41861111111111],[-106.4388888888889,36.41861111111111],[-106.4388888888889,36.41861111111111],[-106.4388888888889,36.41861111111111],[-106.19944444444445,36.35055555555556],[-106.19944444444445,36.35055555555556],[-105.98277777777778,36.288888888888884],[-105.835,36.25388888888889],[-105.835,36.25388888888889],[-105.67777777777778,36.21805555555556],[-105.67777777777778,36.21805555555556],[-105.51972222222223,36.18194444444444],[-105.51972222222223,36.18194444444444],[-105.22777777777777,36.08888888888889],[-105.22777777777777,36.08888888888889],[-105.22777777777777,36.08888888888889],[-105.22777777777777,36.08888888888889],[-104.98361111111112,35.93083333333333],[-104.98361111111112,35.93083333333333],[-104.86749999999999,35.845555555555556],[-104.86749999999999,35.845555555555556],[-104.75083333333333,35.75944444444445],[-104.75083333333333,35.75944444444445],[-104.63527777777779,35.672777777777775],[-104.63527777777779,35.672777777777775],[-104.63527777777779,35.672777777777775],[-104.51972222222223,35.58694444444445],[-104.51972222222223,35.58694444444445],[-104.40138888888889,35.49944444444444],[-104.40138888888889,35.49944444444444],[-104.40138888888889,35.49944444444444],[-104.10111111111111,35.41027777777778],[-103.99666666666667,35.38472222222222],[-103.99666666666667,35.38472222222222],[-103.9775,35.38333333333333],[-103.67194444444445,35.31583333333333],[-103.67194444444445,35.31583333333333],[-103.51861111111111,35.28194444444444],[-103.51861111111111,35.28194444444444],[-103.36805555555554,35.25],[-103.36805555555554,35.25],[-103.26527777777778,35.24027777777778],[-103.20972222222223,35.23444444444444],[-103.20972222222223,35.23444444444444],[-102.88916666666667,35.20305555555556],[-102.76694444444445,35.19027777777777],[-102.76694444444445,35.19027777777777],[-102.73583333333333,35.18694444444444],[-102.73583333333333,35.18694444444444],[-102.58083333333333,35.16583333333333],[-102.58083333333333,35.16583333333333],[-102.58083333333333,35.16583333333333],[-101.8325,34.96611111111111],[-101.8325,34.96611111111111],[-101.8325,34.96611111111111],[-101.8325,34.96611111111111],[-101.40472222222223,34.74666666666667],[-101.40472222222223,34.74666666666667],[-101.40472222222223,34.74666666666667],[-101.28305555555555,34.66083333333333],[-101.28305555555555,34.66083333333333],[-101.28305555555555,34.66083333333333],[-101.1613888888889,34.57611111111112],[-101.1613888888889,34.57611111111112],[-100.76277777777777,34.3775],[-100.76277777777777,34.3775],[-100.76277777777777,34.3775],[-100.60527777777777,34.36972222222222],[-100.60527777777777,34.36972222222222],[-100.60527777777777,34.36972222222222],[-100.2961111111111,34.29944444444444],[-100.2961111111111,34.29944444444444],[-100.14500000000001,34.26277777777778],[-100.14500000000001,34.26277777777778],[-99.83944444444444,34.18805555555555],[-99.83944444444444,34.18805555555555],[-99.83944444444444,34.18805555555555],[-99.78166666666667,34.17361111111111],[-99.63,34.13611111111111],[-99.63,34.13611111111111],[-99.63,34.13611111111111],[-99.4775,34.098333333333336],[-99.4775,34.098333333333336],[-99.16833333333334,34.02027777777778],[-99.16833333333334,34.02027777777778],[-99.16833333333334,34.02027777777778],[-98.89222222222223,33.95027777777778],[-98.89222222222223,33.95027777777778],[-98.89222222222223,33.95027777777778],[-98.74111111111111,33.91166666666666],[-98.74111111111111,33.91166666666666],[-98.2925,33.846944444444446],[-98.2925,33.846944444444446],[-98.1525,33.90694444444444],[-98.1525,33.90694444444444],[-98.07944444444443,34.028055555555554],[-98.07944444444443,34.028055555555554],[-98.07944444444443,34.028055555555554],[-98.02916666666667,34.17111111111111],[-98.02916666666667,34.17111111111111],[-97.83305555555555,34.734722222222224],[-97.83305555555555,34.734722222222224],[-97.83305555555555,34.734722222222224],[-97.83305555555555,34.734722222222224],[-97.78944444444444,34.85944444444445],[-97.75194444444445,34.97694444444445],[-97.75194444444445,34.97694444444445],[-97.75194444444445,34.97694444444445],[-97.74138888888889,35.06583333333333],[-97.73277777777778,35.14666666666667],[-97.72916666666667,35.20666666666667],[-97.72722222222222,35.27027777777778],[-97.72722222222222,35.27027777777778],[-97.7225,35.33166666666667],[-97.71222222222222,35.433611111111105],[-97.70972222222223,35.525],[-97.70972222222223,35.525],[-97.70972222222223,35.525],[-97.70777777777778,35.64111111111111],[-97.70777777777778,35.64111111111111],[-97.6125,35.69777777777777],[-97.60583333333332,35.63666666666666],[-97.60583333333332,35.63666666666666],[-97.60583333333332,35.63666666666666],[-97.60583333333332,35.63666666666666],[-97.60722222222222,35.58111111111111],[-97.60583333333332,35.57416666666667],[-97.60583333333332,35.57416666666667],[-97.60583333333332,35.57416666666667],[-97.60527777777777,35.44194444444444],[-97.60583333333332,35.397777777777776],[-97.60583333333332,35.397777777777776]],"type":"LineString"}
}
