{
  "id": 2031483507,
  "type": "Feature",
  "properties": {
    "geom:area": 0,
    "geom:bbox": "-156.183333,19.700000,-122.083333,37.620556",
    "geom:latitude": 29.6237978894348,
    "geom:longitude": -139.70563251724266,
    "src:alt_label": "swim-path",
    "src:geom": "swim",
    "swim:altitudes": [
      "001",
      "001",
      "024C",
      "024C",
      "024C",
      "024C",
      "096C",
      "096C",
      "096C",
      "096C",
      "123C",
      "123C",
      "152C",
      "152C",
      "152C",
      "152C",
      "193C",
      "193C",
      "193C",
      "218C",
      "218C",
      "218C",
      "218C",
      "267C",
      "267C",
      "267C",
      "267C",
      "330",
      "330",
      "330",
      "330",
      "330",
      "330",
      "330",
      "330",
      "330",
      "330",
      "330",
      "330",
      "330",
      "330",
      "330",
      "330C",
      "330C",
      "330C",
      "330C",
      "330C",
      "330C",
      "330C",
      "330C",
      "330C",
      "330C",
      "330",
      "330",
      "330",
      "330",
      "330",
      "330",
      "330",
      "330",
      "330",
      "317",
      "280C",
      "251",
      "251",
      "239C",
      "239C",
      "219C",
      "200C",
      "200C",
      "200C",
      "192",
      "154",
      "154",
      "154",
      "114",
      "114",
      "114",
      "100C",
      "100",
      "100",
      "100C",
      "100",
      "100",
      "100C",
      "100",
      "092",
      "092",
      "079",
      "067",
      "067",
      "067",
      "059",
      "050",
      "050",
      "046",
      "041",
      "041",
      "037",
      "033",
      "033",
      "030",
      "030",
      "029",
      "027",
      "027",
      "013",
      "006",
      "006",
      "001"
    ],
    "swim:geom": "path",
    "swim:speeds": [
      110,
      110,
      220,
      220,
      220,
      220,
      280,
      280,
      280,
      280,
      340,
      340,
      390,
      390,
      390,
      390,
      440,
      440,
      440,
      460,
      460,
      460,
      460,
      510,
      510,
      510,
      510,
      510,
      510,
      510,
      510,
      500,
      500,
      500,
      500,
      510,
      500,
      500,
      500,
      500,
      500,
      500,
      496,
      496,
      496,
      495,
      495,
      495,
      490,
      487,
      487,
      487,
      480,
      480,
      490,
      490,
      484,
      485,
      490,
      490,
      490,
      486,
      480,
      455,
      455,
      450,
      450,
      440,
      420,
      420,
      420,
      415,
      416,
      416,
      416,
      379,
      379,
      379,
      323,
      270,
      270,
      275,
      268,
      268,
      271,
      253,
      227,
      227,
      259,
      265,
      265,
      265,
      250,
      250,
      217,
      204,
      189,
      189,
      163,
      167,
      167,
      146,
      146,
      149,
      147,
      147,
      138,
      140,
      140,
      122
    ],
    "swim:timestamps": [
      1780956390,
      1780956390,
      1780956488,
      1780956488,
      1780956488,
      1780956488,
      1780956669,
      1780956669,
      1780956669,
      1780956669,
      1780956789,
      1780956789,
      1780956909,
      1780956909,
      1780956909,
      1780956909,
      1780957090,
      1780957090,
      1780957090,
      1780957210,
      1780957210,
      1780957210,
      1780957210,
      1780957511,
      1780957511,
      1780957511,
      1780957511,
      1780957872,
      1780957872,
      1780957872,
      1780957872,
      1780958173,
      1780958173,
      1780958173,
      1780958173,
      1780958745,
      1780958751,
      1780958751,
      1780958873,
      1780958873,
      1780958873,
      1780958873,
      1780970510,
      1780970510,
      1780970510,
      1780970630,
      1780970690,
      1780970690,
      1780970750,
      1780970810,
      1780970810,
      1780970810,
      1780971022,
      1780971022,
      1780971082,
      1780971082,
      1780971111,
      1780971231,
      1780971322,
      1780971322,
      1780971322,
      1780971411,
      1780971503,
      1780971591,
      1780971591,
      1780971623,
      1780971623,
      1780971683,
      1780971743,
      1780971743,
      1780971743,
      1780971771,
      1780971892,
      1780971892,
      1780971892,
      1780972031,
      1780972031,
      1780972031,
      1780972192,
      1780972235,
      1780972235,
      1780972252,
      1780972295,
      1780972295,
      1780972312,
      1780972415,
      1780972475,
      1780972475,
      1780972612,
      1780972672,
      1780972672,
      1780972672,
      1780972733,
      1780972769,
      1780972830,
      1780972853,
      1780972889,
      1780972889,
      1780972955,
      1780972973,
      1780972973,
      1780973033,
      1780973033,
      1780973075,
      1780973093,
      1780973093,
      1780973195,
      1780973255,
      1780973255,
      1780973333
    ],
    "wof:geomhash": "769c481671b9e05561dba4d54b125909",
    "wof:id": 2031483507,
    "wof:repo": "sfomuseum-data-flights-2026-06"
  },
  "bbox": [
    -156.18333333333334,
    19.7,
    -122.08333333333333,
    37.620555555555555
  ],
  "geometry": {"coordinates":[[-156.03333333333333,19.733333333333334],[-156.03333333333333,19.733333333333334],[-156.08333333333334,19.7],[-156.08333333333334,19.7],[-156.08333333333334,19.7],[-156.08333333333334,19.7],[-156.18333333333334,19.9],[-156.18333333333334,19.9],[-156.18333333333334,19.9],[-156.18333333333334,19.9],[-156.15,20.066666666666666],[-156.15,20.066666666666666],[-156,20.216666666666665],[-156,20.216666666666665],[-156,20.216666666666665],[-156,20.216666666666665],[-155.75,20.466666666666665],[-155.75,20.466666666666665],[-155.75,20.466666666666665],[-155.6,20.683333333333334],[-155.6,20.683333333333334],[-155.6,20.683333333333334],[-155.6,20.683333333333334],[-155.18333333333334,21.25],[-155.18333333333334,21.25],[-155.18333333333334,21.25],[-155.18333333333334,21.25],[-154.68333333333334,21.966666666666665],[-154.68333333333334,21.966666666666665],[-154.68333333333334,21.966666666666665],[-154.68333333333334,21.966666666666665],[-154.25,22.55],[-154.25,22.55],[-154.25,22.55],[-154.25,22.55],[-153.45,23.65],[-153.43333333333334,23.666666666666668],[-153.43333333333334,23.666666666666668],[-153.21666666666667,23.866666666666667],[-153.21666666666667,23.866666666666667],[-153.21666666666667,23.866666666666667],[-153.21666666666667,23.866666666666667],[-126.55055555555555,35.60027777777778],[-126.55055555555555,35.60027777777778],[-126.55055555555555,35.60027777777778],[-126.23055555555555,35.69277777777778],[-126.0736111111111,35.73916666666667],[-126.0736111111111,35.73916666666667],[-125.92416666666666,35.79972222222222],[-125.7825,35.86833333333333],[-125.7825,35.86833333333333],[-125.7825,35.86833333333333],[-125.28333333333333,36.11666666666667],[-125.28333333333333,36.11666666666667],[-125.13333333333334,36.18333333333333],[-125.13333333333334,36.18333333333333],[-125.07388888888889,36.216944444444444],[-124.78611111111111,36.35638888888889],[-124.55,36.45],[-124.55,36.45],[-124.55,36.45],[-124.35416666666666,36.56333333333333],[-124.11666666666666,36.65],[-123.93444444444445,36.761944444444445],[-123.93444444444445,36.761944444444445],[-123.85,36.78333333333333],[-123.85,36.78333333333333],[-123.71666666666667,36.85],[-123.6,36.9],[-123.6,36.9],[-123.6,36.9],[-123.54972222222221,36.94194444444444],[-123.30138888888888,37.05694444444444],[-123.30138888888888,37.05694444444444],[-123.30138888888888,37.05694444444444],[-123,37.2],[-123,37.2],[-123,37.2],[-122.71722222222222,37.25888888888889],[-122.63333333333334,37.233333333333334],[-122.63333333333334,37.233333333333334],[-122.62194444444444,37.23972222222222],[-122.53333333333333,37.21666666666667],[-122.53333333333333,37.21666666666667],[-122.53166666666667,37.22138888888889],[-122.36666666666666,37.21666666666667],[-122.38333333333334,37.266666666666666],[-122.38333333333334,37.266666666666666],[-122.42444444444445,37.35638888888889],[-122.33361111111111,37.36055555555556],[-122.33361111111111,37.36055555555556],[-122.33361111111111,37.36055555555556],[-122.24388888888889,37.36416666666667],[-122.2,37.38333333333333],[-122.11666666666666,37.416666666666664],[-122.10277777777777,37.42611111111111],[-122.08333333333333,37.45],[-122.08333333333333,37.45],[-122.1,37.5],[-122.11749999999999,37.513888888888886],[-122.11749999999999,37.513888888888886],[-122.16444444444446,37.532777777777774],[-122.16444444444446,37.532777777777774],[-122.2,37.55],[-122.21083333333334,37.55222222222222],[-122.21083333333334,37.55222222222222],[-122.28333333333333,37.583333333333336],[-122.33333333333333,37.6],[-122.33333333333333,37.6],[-122.37388888888889,37.620555555555555]],"type":"LineString"}
}
