{
  "id": 2031424581,
  "type": "Feature",
  "properties": {
    "geom:area": 0,
    "geom:bbox": "-122.535680,36.718710,-121.293420,37.668170",
    "geom:latitude": 37.19624898630802,
    "geom:longitude": -121.99281035273683,
    "src:alt_label": "swim-takeoff",
    "src:geom": "swim",
    "swim:elevations": [
      483,
      926,
      1142,
      1217,
      1453,
      1928,
      2728,
      2928,
      3205,
      3290,
      3590,
      3944,
      4536,
      4846,
      5172,
      5273,
      5815,
      6092,
      6225,
      6600,
      6857,
      6953,
      7626,
      7849,
      8056,
      8199,
      8467,
      8513
    ],
    "swim:geom": "takeoff",
    "swim:timestamps": [
      1780308487,
      1780308533,
      1780308566,
      1780308576,
      1780308602,
      1780308631,
      1780308682,
      1780308696,
      1780308720,
      1780308732,
      1780308778,
      1780308812,
      1780308867,
      1780308895,
      1780308923,
      1780308932,
      1780308984,
      1780309010,
      1780309026,
      1780309070,
      1780309098,
      1780309110,
      1780309199,
      1780309225,
      1780309263,
      1780309292,
      1780309345,
      1780309352
    ],
    "wof:geomhash": "5f66dc1b2c121de297601d207f5c8ffb",
    "wof:id": 2031424581,
    "wof:repo": "sfomuseum-data-flights-2026-06"
  },
  "bbox": [
    -122.53568,
    36.71871,
    -121.29342,
    37.66817
  ],
  "geometry": {"coordinates":[[-122.41036,37.63405],[-122.45081,37.65145],[-122.48652,37.66614],[-122.50026,37.66817],[-122.53379,37.65372],[-122.53568,37.61759],[-122.50375,37.55584],[-122.49567,37.538],[-122.48214,37.50699],[-122.47316,37.4922],[-122.40332,37.44676],[-122.34466,37.40813],[-122.24992,37.34566],[-122.19975,37.3129],[-122.14956,37.28028],[-122.13352,37.26988],[-122.03652,37.20687],[-121.98681,37.17449],[-121.95663,37.1548],[-121.8707,37.09875],[-121.81601,37.06292],[-121.7927,37.04767],[-121.61434,36.93044],[-121.55992,36.89563],[-121.48084,36.84269],[-121.42035,36.80241],[-121.30802,36.729],[-121.29342,36.71871]],"type":"LineString"}
}
