{
  "id": 2031465013,
  "type": "Feature",
  "properties": {
    "geom:area": 0,
    "geom:bbox": "-122.750000,37.414167,-73.526389,45.410278",
    "geom:latitude": 43.041676778229785,
    "geom:longitude": -98.79357158125458,
    "src:alt_label": "swim-path",
    "src:geom": "swim",
    "swim:altitudes": [
      "060",
      "060",
      "060",
      "060",
      "102",
      "102",
      "102",
      "120",
      "120",
      "120",
      "143",
      "168",
      "169",
      "169",
      "202",
      "202",
      "202",
      "237",
      "246",
      "246",
      "255",
      "261",
      "267",
      "267",
      "298",
      "298",
      "310",
      "319C",
      "319C",
      "319C",
      "320C",
      "320C",
      "320C",
      "321C",
      "321C",
      "320C",
      "320C",
      "320C",
      "320C",
      "320C",
      "320C",
      "320C",
      "320C",
      "319C",
      "320C",
      "320C",
      "320C",
      "320C",
      "320C",
      "320C",
      "320C",
      "320C",
      "320C",
      "320C",
      "320C",
      "320C",
      "320C",
      "320C",
      "320C",
      "320C",
      "320C",
      "320C",
      "320C",
      "320C",
      "320C",
      "320C",
      "320C",
      "320C",
      "320C",
      "320C",
      "320",
      "320",
      "324",
      "324",
      "328",
      "333",
      "333",
      "336",
      "340C",
      "340C",
      "340C",
      "340C",
      "340C",
      "340C",
      "340C",
      "340C",
      "340C",
      "340C",
      "340C",
      "340C",
      "340C",
      "340C",
      "340C",
      "340C",
      "340C",
      "340C",
      "340C",
      "340C",
      "340C",
      "340C",
      "340C",
      "340C",
      "340C",
      "340C",
      "340C",
      "340C",
      "340C",
      "340C",
      "340C",
      "340C",
      "340C",
      "340C",
      "340C",
      "341C",
      "320C",
      "320C",
      "320C",
      "320C",
      "320C",
      "320C",
      "320C",
      "320C",
      "320C",
      "320C",
      "320C",
      "320C",
      "320C",
      "320C",
      "320C",
      "320C",
      "320C",
      "320C",
      "320C",
      "320C",
      "320C",
      "320C",
      "320C",
      "320C",
      "320C",
      "320C",
      "320C",
      "320C",
      "320C",
      "320C",
      "327",
      "327",
      "327",
      "327",
      "340C",
      "340C",
      "340C",
      "340C",
      "340C",
      "340C",
      "340C",
      "340C",
      "340C",
      "340C",
      "340C",
      "340C",
      "340C",
      "340C",
      "340C",
      "340C",
      "340C",
      "340C",
      "340C",
      "340C",
      "340C",
      "340C",
      "340C",
      "340C",
      "340C",
      "340C",
      "340C",
      "340C",
      "340C",
      "340C",
      "340C",
      "340C",
      "340C",
      "340C",
      "340C",
      "340C",
      "340C",
      "340C",
      "340C",
      "340C",
      "340C",
      "340C",
      "340C",
      "340C",
      "340C",
      "340C",
      "340C",
      "340C",
      "340C",
      "340C",
      "340C",
      "340C",
      "340C",
      "340C",
      "340C",
      "340C",
      "340C",
      "340C",
      "340C",
      "340C",
      "340C",
      "340C",
      "340C",
      "340C",
      "340C",
      "340C",
      "340C",
      "340C",
      "340C",
      "340C",
      "340C",
      "340C",
      "340C",
      "340C",
      "340C",
      "340C",
      "340C",
      "340C",
      "340C",
      "340C",
      "340C",
      "343",
      "350",
      "350",
      "350",
      "350",
      "360C",
      "360C",
      "360C",
      "360C",
      "360C",
      "360C",
      "360C",
      "360C",
      "360C",
      "360C",
      "360C",
      "360C",
      "360C",
      "360C",
      "360C",
      "360C",
      "360C",
      "360C",
      "360C",
      "360C",
      "360C",
      "360C",
      "360C",
      "360C",
      "360C",
      "360C",
      "360C",
      "360C",
      "360C",
      "360C",
      "360C",
      "360C",
      "360C",
      "360C",
      "360C",
      "360C",
      "360C",
      "360C",
      "360C",
      "360C",
      "360C",
      "360C",
      "360C",
      "360C",
      "360C",
      "360C",
      "360C",
      "360C",
      "360C",
      "360C",
      "361C",
      "361C",
      "361C",
      "360C",
      "360C",
      "360C",
      "360C",
      "360C",
      "360C",
      "360C",
      "360C",
      "360C",
      "360C",
      "360C",
      "360C",
      "360C",
      "360C",
      "360C",
      "360C",
      "360C",
      "360C",
      "360C",
      "360C",
      "361C",
      "360C",
      "360C",
      "360C",
      "360C",
      "360C",
      "360C",
      "360C",
      "360C",
      "360C",
      "360C",
      "360C",
      "360C",
      "360C",
      "360C",
      "360C",
      "360C",
      "360C",
      "360C",
      "359C",
      "360C",
      "360C",
      "360C",
      "360C",
      "360C",
      "360C",
      "360C",
      "360C",
      "360C",
      "360C",
      "360C",
      "360C",
      "360C",
      "360C",
      "360C",
      "360C",
      "360C",
      "360C",
      "360C",
      "316",
      "316",
      "307",
      "307",
      "297",
      "297",
      "276",
      "258",
      "258",
      "258",
      "200",
      "189",
      "189",
      "175",
      "175",
      "162",
      "144",
      "144",
      "144",
      "110",
      "110",
      "110",
      "110",
      "087",
      "087",
      "063",
      "063",
      "060",
      "019",
      "019",
      "019",
      "005",
      "005",
      "005"
    ],
    "swim:geom": "path",
    "swim:speeds": [
      298,
      298,
      298,
      298,
      296,
      296,
      296,
      350,
      350,
      350,
      373,
      382,
      383,
      383,
      392,
      392,
      392,
      427,
      435,
      435,
      443,
      448,
      450,
      450,
      426,
      426,
      424,
      400,
      400,
      400,
      398,
      398,
      397,
      397,
      397,
      396,
      391,
      391,
      391,
      391,
      391,
      391,
      390,
      410,
      409,
      409,
      409,
      409,
      417,
      417,
      416,
      416,
      416,
      416,
      416,
      416,
      416,
      418,
      418,
      417,
      416,
      415,
      415,
      415,
      415,
      414,
      414,
      414,
      411,
      408,
      403,
      403,
      402,
      402,
      403,
      403,
      403,
      403,
      403,
      403,
      403,
      400,
      400,
      400,
      400,
      400,
      400,
      400,
      400,
      400,
      404,
      404,
      404,
      404,
      408,
      411,
      411,
      411,
      411,
      412,
      412,
      412,
      412,
      417,
      417,
      417,
      416,
      416,
      416,
      421,
      421,
      421,
      421,
      424,
      427,
      427,
      429,
      429,
      429,
      427,
      427,
      428,
      428,
      428,
      428,
      427,
      427,
      427,
      427,
      430,
      430,
      430,
      430,
      428,
      428,
      428,
      428,
      428,
      428,
      430,
      430,
      430,
      431,
      431,
      432,
      432,
      432,
      432,
      433,
      433,
      433,
      433,
      431,
      431,
      431,
      431,
      431,
      432,
      432,
      434,
      434,
      434,
      434,
      434,
      434,
      436,
      438,
      438,
      438,
      441,
      441,
      442,
      442,
      442,
      442,
      442,
      442,
      442,
      442,
      442,
      439,
      439,
      439,
      439,
      438,
      438,
      438,
      439,
      439,
      439,
      440,
      440,
      440,
      440,
      440,
      440,
      439,
      439,
      435,
      435,
      435,
      433,
      433,
      433,
      431,
      431,
      431,
      431,
      431,
      431,
      431,
      431,
      431,
      428,
      427,
      427,
      426,
      425,
      425,
      423,
      423,
      423,
      423,
      424,
      424,
      424,
      424,
      424,
      424,
      429,
      429,
      429,
      429,
      429,
      423,
      423,
      423,
      422,
      422,
      422,
      422,
      422,
      419,
      419,
      412,
      412,
      410,
      410,
      409,
      409,
      409,
      410,
      410,
      410,
      410,
      410,
      410,
      410,
      410,
      410,
      410,
      412,
      411,
      411,
      411,
      417,
      417,
      394,
      394,
      394,
      394,
      405,
      405,
      405,
      408,
      411,
      411,
      413,
      413,
      413,
      411,
      411,
      408,
      409,
      410,
      410,
      410,
      407,
      407,
      406,
      402,
      401,
      401,
      404,
      401,
      401,
      401,
      401,
      401,
      400,
      400,
      401,
      401,
      402,
      402,
      396,
      398,
      396,
      395,
      394,
      389,
      390,
      390,
      388,
      386,
      386,
      386,
      383,
      383,
      383,
      383,
      383,
      381,
      381,
      381,
      379,
      379,
      380,
      380,
      380,
      378,
      378,
      378,
      375,
      377,
      377,
      381,
      381,
      381,
      380,
      380,
      380,
      380,
      380,
      380,
      380,
      405,
      405,
      411,
      411,
      419,
      419,
      414,
      394,
      394,
      394,
      361,
      378,
      378,
      379,
      379,
      377,
      365,
      365,
      365,
      292,
      269,
      269,
      269,
      258,
      258,
      254,
      254,
      210,
      162,
      162,
      162,
      125,
      125,
      125
    ],
    "swim:timestamps": [
      1780775952,
      1780775952,
      1780775952,
      1780775952,
      1780776073,
      1780776073,
      1780776073,
      1780776193,
      1780776193,
      1780776193,
      1780776271,
      1780776373,
      1780776433,
      1780776433,
      1780776613,
      1780776613,
      1780776613,
      1780776854,
      1780776914,
      1780776914,
      1780776986,
      1780777046,
      1780777094,
      1780777094,
      1780777274,
      1780777274,
      1780777346,
      1780777466,
      1780777466,
      1780777466,
      1780777515,
      1780777515,
      1780777586,
      1780777707,
      1780777707,
      1780777767,
      1780778007,
      1780778007,
      1780778116,
      1780778127,
      1780778127,
      1780778127,
      1780778247,
      1780778969,
      1780779089,
      1780779089,
      1780779089,
      1780779089,
      1780779329,
      1780779329,
      1780779449,
      1780779449,
      1780779449,
      1780779569,
      1780779569,
      1780779569,
      1780779569,
      1780779723,
      1780779723,
      1780779903,
      1780779930,
      1780779990,
      1780779990,
      1780779990,
      1780780024,
      1780780110,
      1780780170,
      1780780204,
      1780780324,
      1780780444,
      1780780591,
      1780780591,
      1780780651,
      1780780651,
      1780780684,
      1780780745,
      1780780745,
      1780780771,
      1780780817,
      1780780817,
      1780780817,
      1780780937,
      1780780937,
      1780780997,
      1780781012,
      1780781012,
      1780781012,
      1780781117,
      1780781117,
      1780781117,
      1780781297,
      1780781297,
      1780781297,
      1780781297,
      1780781417,
      1780781538,
      1780781538,
      1780781538,
      1780781538,
      1780781718,
      1780781718,
      1780781718,
      1780781718,
      1780781970,
      1780782030,
      1780782030,
      1780782090,
      1780782090,
      1780782090,
      1780782331,
      1780782331,
      1780782331,
      1780782331,
      1780782391,
      1780782571,
      1780782571,
      1780782631,
      1780782631,
      1780782631,
      1780782691,
      1780782691,
      1780782871,
      1780782871,
      1780782871,
      1780782871,
      1780783184,
      1780783184,
      1780783184,
      1780783184,
      1780783484,
      1780783484,
      1780783484,
      1780783484,
      1780783604,
      1780783604,
      1780783665,
      1780783665,
      1780783665,
      1780783665,
      1780783845,
      1780783845,
      1780783845,
      1780783905,
      1780783905,
      1780784085,
      1780784085,
      1780784085,
      1780784085,
      1780784205,
      1780784205,
      1780784205,
      1780784205,
      1780784325,
      1780784386,
      1780784386,
      1780784386,
      1780784386,
      1780784566,
      1780784566,
      1780785167,
      1780785167,
      1780785167,
      1780785287,
      1780785287,
      1780785287,
      1780785359,
      1780785419,
      1780785419,
      1780785419,
      1780785599,
      1780785599,
      1780785659,
      1780785719,
      1780785719,
      1780785719,
      1780785719,
      1780785900,
      1780785900,
      1780785900,
      1780785900,
      1780786200,
      1780786200,
      1780786260,
      1780786260,
      1780786561,
      1780786561,
      1780786561,
      1780786619,
      1780786619,
      1780786619,
      1780786920,
      1780786920,
      1780786920,
      1780786980,
      1780786980,
      1780786980,
      1780787041,
      1780787041,
      1780787160,
      1780787160,
      1780787160,
      1780787220,
      1780787220,
      1780787220,
      1780787462,
      1780787462,
      1780787462,
      1780787522,
      1780787522,
      1780787702,
      1780787702,
      1780787702,
      1780787702,
      1780787821,
      1780787882,
      1780787882,
      1780787941,
      1780788003,
      1780788003,
      1780788061,
      1780788061,
      1780788061,
      1780788061,
      1780788182,
      1780788182,
      1780788182,
      1780788182,
      1780788242,
      1780788242,
      1780788425,
      1780788486,
      1780788486,
      1780788486,
      1780788486,
      1780788666,
      1780788666,
      1780788666,
      1780788722,
      1780788722,
      1780788786,
      1780788786,
      1780788786,
      1780788966,
      1780788966,
      1780789083,
      1780789083,
      1780789146,
      1780789146,
      1780789206,
      1780789206,
      1780789206,
      1780789327,
      1780789327,
      1780789387,
      1780789447,
      1780789447,
      1780789447,
      1780789507,
      1780789507,
      1780789507,
      1780789567,
      1780789927,
      1780789987,
      1780789987,
      1780789987,
      1780790048,
      1780790048,
      1780790168,
      1780790168,
      1780790168,
      1780790168,
      1780790468,
      1780790468,
      1780790468,
      1780791189,
      1780791309,
      1780791309,
      1780791429,
      1780791429,
      1780791429,
      1780791550,
      1780791550,
      1780791670,
      1780791730,
      1780791850,
      1780791850,
      1780791850,
      1780792030,
      1780792030,
      1780792090,
      1780792210,
      1780792270,
      1780792331,
      1780792342,
      1780792391,
      1780792391,
      1780792391,
      1780792451,
      1780792451,
      1780792511,
      1780792511,
      1780792691,
      1780792691,
      1780792763,
      1780792763,
      1780792931,
      1780792943,
      1780792991,
      1780793063,
      1780793123,
      1780793292,
      1780793303,
      1780793303,
      1780793472,
      1780793543,
      1780793543,
      1780793543,
      1780793833,
      1780793833,
      1780793833,
      1780793893,
      1780793953,
      1780794133,
      1780794133,
      1780794204,
      1780794384,
      1780794433,
      1780794444,
      1780794504,
      1780794504,
      1780794744,
      1780794744,
      1780794744,
      1780794865,
      1780794925,
      1780794925,
      1780795045,
      1780795045,
      1780795165,
      1780795285,
      1780795285,
      1780795285,
      1780795405,
      1780795465,
      1780795465,
      1780795465,
      1780795765,
      1780795765,
      1780795825,
      1780795825,
      1780795885,
      1780795885,
      1780796006,
      1780796066,
      1780796066,
      1780796066,
      1780796246,
      1780796275,
      1780796275,
      1780796317,
      1780796317,
      1780796366,
      1780796426,
      1780796426,
      1780796426,
      1780796606,
      1780796666,
      1780796666,
      1780796666,
      1780796786,
      1780796786,
      1780796907,
      1780796907,
      1780796967,
      1780797207,
      1780797207,
      1780797207,
      1780797327,
      1780797327,
      1780797327
    ],
    "wof:geomhash": "194eaae945697855a353cf6f193ef3c4",
    "wof:id": 2031465013,
    "wof:repo": "sfomuseum-data-flights-2026-06"
  },
  "bbox": [
    -122.75,
    37.41416666666667,
    -73.52638888888889,
    45.41027777777778
  ],
  "geometry": {"coordinates":[[-73.64083333333333,40.613055555555555],[-73.64083333333333,40.613055555555555],[-73.64083333333333,40.613055555555555],[-73.64083333333333,40.613055555555555],[-73.52638888888889,40.74138888888889],[-73.52638888888889,40.74138888888889],[-73.52638888888889,40.74138888888889],[-73.60027777777778,40.900277777777774],[-73.60027777777778,40.900277777777774],[-73.60027777777778,40.900277777777774],[-73.73333333333333,41],[-73.91194444444444,41.11083333333333],[-74.02833333333334,41.17027777777778],[-74.02833333333334,41.17027777777778],[-74.40166666666667,41.35027777777778],[-74.40166666666667,41.35027777777778],[-74.40166666666667,41.35027777777778],[-74.935,41.56166666666666],[-75.08111111111111,41.61416666666667],[-75.08111111111111,41.61416666666667],[-75.25666666666666,41.6875],[-75.39055555555557,41.75972222222222],[-75.495,41.816111111111105],[-75.495,41.816111111111105],[-75.89500000000001,42.03055555555555],[-75.89500000000001,42.03055555555555],[-76.03333333333333,42.1325],[-76.27111111111111,42.27833333333333],[-76.27111111111111,42.27833333333333],[-76.27111111111111,42.27833333333333],[-76.38027777777778,42.30888888888889],[-76.38027777777778,42.30888888888889],[-76.54972222222221,42.35666666666667],[-76.83138888888888,42.42777777777778],[-76.83138888888888,42.42777777777778],[-76.97194444444445,42.46194444444445],[-77.53333333333333,42.596944444444446],[-77.53333333333333,42.596944444444446],[-77.79333333333334,42.65833333333333],[-77.81222222222222,42.66277777777778],[-77.81222222222222,42.66277777777778],[-77.81222222222222,42.66277777777778],[-78.07833333333333,42.724722222222226],[-79.8175,43.112500000000004],[-80.11944444444444,43.17638888888889],[-80.11944444444444,43.17638888888889],[-80.11944444444444,43.17638888888889],[-80.11944444444444,43.17638888888889],[-80.73055555555555,43.30333333333333],[-80.73055555555555,43.30333333333333],[-81.03444444444445,43.365],[-81.03444444444445,43.365],[-81.03444444444445,43.365],[-81.34805555555555,43.427499999999995],[-81.34805555555555,43.427499999999995],[-81.34805555555555,43.427499999999995],[-81.34805555555555,43.427499999999995],[-81.7611111111111,43.50861111111111],[-81.7611111111111,43.50861111111111],[-82.22416666666666,43.597500000000004],[-82.27444444444444,43.606944444444444],[-82.42722222222223,43.63583333333333],[-82.42722222222223,43.63583333333333],[-82.42722222222223,43.63583333333333],[-82.52972222222222,43.65472222222222],[-82.73388888888888,43.69277777777778],[-82.8863888888889,43.72083333333334],[-82.99027777777778,43.73972222222222],[-83.2936111111111,43.794444444444444],[-83.59388888888888,43.84777777777778],[-83.95416666666667,43.910555555555554],[-83.95416666666667,43.910555555555554],[-84.10277777777777,43.93611111111111],[-84.10277777777777,43.93611111111111],[-84.19527777777778,43.95166666666667],[-84.34083333333332,43.97638888888889],[-84.34083333333332,43.97638888888889],[-84.40583333333333,43.987500000000004],[-84.49083333333333,44.001666666666665],[-84.49083333333333,44.001666666666665],[-84.49083333333333,44.001666666666665],[-84.81833333333333,44.05583333333333],[-84.81833333333333,44.05583333333333],[-84.96861111111112,44.080555555555556],[-85.00333333333333,44.086111111111116],[-85.00333333333333,44.086111111111116],[-85.00333333333333,44.086111111111116],[-85.27222222222223,44.129444444444445],[-85.27222222222223,44.129444444444445],[-85.27222222222223,44.129444444444445],[-85.72944444444444,44.20138888888889],[-85.72944444444444,44.20138888888889],[-85.72944444444444,44.20138888888889],[-85.72944444444444,44.20138888888889],[-86.04083333333332,44.24944444444444],[-86.35555555555555,44.29694444444444],[-86.35555555555555,44.29694444444444],[-86.35555555555555,44.29694444444444],[-86.35555555555555,44.29694444444444],[-86.82888888888888,44.36638888888889],[-86.82888888888888,44.36638888888889],[-86.82888888888888,44.36638888888889],[-86.82888888888888,44.36638888888889],[-87.49416666666667,44.46083333333333],[-87.6538888888889,44.48277777777778],[-87.6538888888889,44.48277777777778],[-87.81333333333333,44.50472222222222],[-87.81333333333333,44.50472222222222],[-87.81333333333333,44.50472222222222],[-88.43361111111112,44.58833333333334],[-88.43361111111112,44.58833333333334],[-88.43361111111112,44.58833333333334],[-88.43361111111112,44.58833333333334],[-88.62833333333333,44.61472222222223],[-89.11638888888888,44.678888888888885],[-89.11638888888888,44.678888888888885],[-89.28,44.69972222222222],[-89.28,44.69972222222222],[-89.28,44.69972222222222],[-89.44194444444445,44.72027777777778],[-89.44194444444445,44.72027777777778],[-89.93722222222223,44.78194444444444],[-89.93722222222223,44.78194444444444],[-89.93722222222223,44.78194444444444],[-89.93722222222223,44.78194444444444],[-90.78138888888888,44.88138888888889],[-90.78138888888888,44.88138888888889],[-90.78138888888888,44.88138888888889],[-90.78138888888888,44.88138888888889],[-91.61027777777777,44.97277777777778],[-91.61027777777777,44.97277777777778],[-91.61027777777777,44.97277777777778],[-91.61027777777777,44.97277777777778],[-91.94027777777778,45.0075],[-91.94027777777778,45.0075],[-92.10499999999999,45.024166666666666],[-92.10499999999999,45.024166666666666],[-92.10499999999999,45.024166666666666],[-92.10499999999999,45.024166666666666],[-92.60416666666666,45.073888888888895],[-92.60416666666666,45.073888888888895],[-92.60416666666666,45.073888888888895],[-92.77055555555556,45.08972222222222],[-92.77055555555556,45.08972222222222],[-93.2375,45.13388888888889],[-93.2375,45.13388888888889],[-93.2375,45.13388888888889],[-93.2375,45.13388888888889],[-93.60722222222222,45.163888888888884],[-93.60722222222222,45.163888888888884],[-93.60722222222222,45.163888888888884],[-93.60722222222222,45.163888888888884],[-93.97305555555556,45.190555555555555],[-94.14222222222223,45.2025],[-94.14222222222223,45.2025],[-94.14222222222223,45.2025],[-94.14222222222223,45.2025],[-94.64750000000001,45.23638888888889],[-94.64750000000001,45.23638888888889],[-96.35055555555554,45.33444444444444],[-96.35055555555554,45.33444444444444],[-96.35055555555554,45.33444444444444],[-96.69305555555556,45.35138888888889],[-96.69305555555556,45.35138888888889],[-96.69305555555556,45.35138888888889],[-96.89888888888889,45.36055555555556],[-97.07111111111111,45.36833333333333],[-97.07111111111111,45.36833333333333],[-97.07111111111111,45.36833333333333],[-97.58972222222222,45.39],[-97.58972222222222,45.39],[-97.76555555555555,45.39666666666667],[-97.93916666666667,45.403055555555554],[-97.93916666666667,45.403055555555554],[-97.93916666666667,45.403055555555554],[-97.93916666666667,45.403055555555554],[-98.45805555555556,45.41027777777778],[-98.45805555555556,45.41027777777778],[-98.45805555555556,45.41027777777778],[-98.45805555555556,45.41027777777778],[-99.31694444444445,45.331944444444446],[-99.31694444444445,45.331944444444446],[-99.48805555555556,45.315555555555555],[-99.48805555555556,45.315555555555555],[-100.33055555555555,45.231388888888894],[-100.33055555555555,45.231388888888894],[-100.33055555555555,45.231388888888894],[-100.50222222222222,45.21333333333334],[-100.50222222222222,45.21333333333334],[-100.50222222222222,45.21333333333334],[-101.35249999999999,45.12027777777778],[-101.35249999999999,45.12027777777778],[-101.35249999999999,45.12027777777778],[-101.52222222222223,45.100833333333334],[-101.52222222222223,45.100833333333334],[-101.52222222222223,45.100833333333334],[-101.72500000000001,45.07638888888889],[-101.72500000000001,45.07638888888889],[-102.01888888888888,45.01611111111111],[-102.01888888888888,45.01611111111111],[-102.01888888888888,45.01611111111111],[-102.17888888888889,44.98277777777778],[-102.17888888888889,44.98277777777778],[-102.17888888888889,44.98277777777778],[-102.85666666666665,44.83916666666667],[-102.85666666666665,44.83916666666667],[-102.85666666666665,44.83916666666667],[-103.01972222222223,44.803888888888885],[-103.01972222222223,44.803888888888885],[-103.49777777777778,44.69888888888889],[-103.49777777777778,44.69888888888889],[-103.49777777777778,44.69888888888889],[-103.49777777777778,44.69888888888889],[-103.81611111111111,44.6275],[-103.97472222222223,44.59166666666667],[-103.97472222222223,44.59166666666667],[-104.13111111111111,44.55583333333333],[-104.28833333333333,44.51972222222222],[-104.28833333333333,44.51972222222222],[-104.44333333333334,44.48388888888889],[-104.44333333333334,44.48388888888889],[-104.44333333333334,44.48388888888889],[-104.44333333333334,44.48388888888889],[-104.75444444444445,44.41111111111111],[-104.75444444444445,44.41111111111111],[-104.75444444444445,44.41111111111111],[-104.75444444444445,44.41111111111111],[-104.91055555555556,44.37444444444444],[-104.91055555555556,44.37444444444444],[-105.38361111111112,44.26111111111111],[-105.54166666666667,44.222500000000004],[-105.54166666666667,44.222500000000004],[-105.54166666666667,44.222500000000004],[-105.54166666666667,44.222500000000004],[-106.00361111111111,44.10861111111111],[-106.00361111111111,44.10861111111111],[-106.00361111111111,44.10861111111111],[-106.15527777777778,44.07055555555556],[-106.15527777777778,44.07055555555556],[-106.3086111111111,44.032222222222224],[-106.3086111111111,44.032222222222224],[-106.3086111111111,44.032222222222224],[-106.76166666666667,43.90888888888889],[-106.76166666666667,43.90888888888889],[-107.05416666666666,43.82666666666667],[-107.05416666666666,43.82666666666667],[-107.20166666666667,43.78444444444444],[-107.20166666666667,43.78444444444444],[-107.3461111111111,43.74277777777778],[-107.3461111111111,43.74277777777778],[-107.3461111111111,43.74277777777778],[-107.64833333333334,43.655277777777776],[-107.64833333333334,43.655277777777776],[-107.7936111111111,43.613055555555555],[-107.93833333333333,43.57055555555556],[-107.93833333333333,43.57055555555556],[-107.93833333333333,43.57055555555556],[-108.08222222222221,43.52833333333333],[-108.08222222222221,43.52833333333333],[-108.08222222222221,43.52833333333333],[-108.22888888888889,43.484722222222224],[-109.10638888888889,43.23388888888889],[-109.25083333333333,43.19194444444444],[-109.25083333333333,43.19194444444444],[-109.25083333333333,43.19194444444444],[-109.39916666666667,43.14833333333333],[-109.39916666666667,43.14833333333333],[-109.68805555555556,43.06361111111111],[-109.68805555555556,43.06361111111111],[-109.68805555555556,43.06361111111111],[-109.68805555555556,43.06361111111111],[-110.39055555555557,42.8525],[-110.39055555555557,42.8525],[-110.39055555555557,42.8525],[-112.09277777777777,42.31722222222223],[-112.37333333333332,42.22555555555556],[-112.37333333333332,42.22555555555556],[-112.65444444444445,42.13166666666667],[-112.65444444444445,42.13166666666667],[-112.65444444444445,42.13166666666667],[-112.93305555555555,42.03666666666666],[-112.93305555555555,42.03666666666666],[-113.20861111111111,41.94194444444444],[-113.34527777777777,41.894444444444446],[-113.62222222222222,41.7975],[-113.62222222222222,41.7975],[-113.62222222222222,41.7975],[-114.03055555555555,41.65333333333333],[-114.03055555555555,41.65333333333333],[-114.16527777777779,41.605000000000004],[-114.4325,41.50888888888889],[-114.5675,41.46027777777778],[-114.70055555555555,41.41166666666666],[-114.72027777777778,41.40416666666667],[-114.83361111111111,41.363055555555555],[-114.83361111111111,41.363055555555555],[-114.83361111111111,41.363055555555555],[-114.9575,41.3175],[-114.9575,41.3175],[-115.11722222222221,41.25861111111111],[-115.11722222222221,41.25861111111111],[-115.51444444444445,41.11055555555556],[-115.51444444444445,41.11055555555556],[-115.64722222222223,41.06083333333333],[-115.64722222222223,41.06083333333333],[-116.03555555555555,40.91305555555555],[-116.03666666666666,40.91277777777778],[-116.16444444444446,40.86388888888889],[-116.2936111111111,40.814166666666665],[-116.42055555555557,40.765],[-116.79777777777778,40.61805555555556],[-116.825,40.6075],[-116.825,40.6075],[-117.18444444444445,40.50111111111111],[-117.34416666666667,40.45916666666667],[-117.34416666666667,40.45916666666667],[-117.34416666666667,40.45916666666667],[-117.97361111111111,40.29083333333333],[-117.97361111111111,40.29083333333333],[-117.97361111111111,40.29083333333333],[-118.1036111111111,40.255833333333335],[-118.23361111111112,40.22],[-118.62527777777777,40.11194444444445],[-118.62527777777777,40.11194444444445],[-118.78055555555555,40.06472222222222],[-119.15944444444445,39.94972222222222],[-119.25944444444444,39.91916666666666],[-119.2875,39.910555555555554],[-119.41222222222223,39.871944444444445],[-119.41222222222223,39.871944444444445],[-119.9175,39.715],[-119.9175,39.715],[-119.9175,39.715],[-120.16166666666668,39.63805555555555],[-120.28666666666666,39.598333333333336],[-120.28666666666666,39.598333333333336],[-120.53944444444444,39.5175],[-120.53944444444444,39.5175],[-120.78722222222223,39.42805555555555],[-121.01222222222222,39.31055555555555],[-121.01222222222222,39.31055555555555],[-121.01222222222222,39.31055555555555],[-121.25055555555555,39.16972222222222],[-121.35749999999999,39.10472222222222],[-121.35749999999999,39.10472222222222],[-121.35749999999999,39.10472222222222],[-121.8963888888889,38.772777777777776],[-121.8963888888889,38.772777777777776],[-122.01,38.702222222222225],[-122.01,38.702222222222225],[-122.12666666666667,38.629444444444445],[-122.12666666666667,38.629444444444445],[-122.3586111111111,38.48361111111111],[-122.46694444444445,38.41583333333333],[-122.46694444444445,38.41583333333333],[-122.46694444444445,38.41583333333333],[-122.75,38.21666666666667],[-122.75,38.15],[-122.75,38.15],[-122.73333333333333,38.083333333333336],[-122.73333333333333,38.083333333333336],[-122.7063888888889,38.0125],[-122.67916666666667,37.91694444444444],[-122.67916666666667,37.91694444444444],[-122.67916666666667,37.91694444444444],[-122.45,37.68805555555555],[-122.39027777777778,37.63194444444444],[-122.39027777777778,37.63194444444444],[-122.39027777777778,37.63194444444444],[-122.30583333333333,37.50472222222222],[-122.30583333333333,37.50472222222222],[-122.18361111111112,37.41416666666667],[-122.18361111111112,37.41416666666667],[-122.11777777777777,37.44194444444444],[-122.24861111111112,37.56777777777778],[-122.24861111111112,37.56777777777778],[-122.24861111111112,37.56777777777778],[-122.32888888888888,37.60166666666667],[-122.32888888888888,37.60166666666667],[-122.32888888888888,37.60166666666667]],"type":"LineString"}
}
