{
  "id": 2031537777,
  "type": "Feature",
  "properties": {
    "geom:area": 0,
    "geom:bbox": "-123.470050,37.205300,-122.119580,37.611910",
    "geom:latitude": 37.31948923275829,
    "geom:longitude": -122.6521076734617,
    "src:alt_label": "swim-approach",
    "src:geom": "swim",
    "swim:elevations": [
      4206,
      3955,
      3725,
      3420,
      3049,
      3048,
      3048,
      3048,
      3048,
      3048,
      3048,
      3017,
      2808,
      2681,
      2652,
      2465,
      2425,
      2253,
      2086,
      1991,
      1836,
      1829,
      1829,
      1829,
      1829,
      1829,
      1829,
      1829,
      1645,
      1571,
      1380,
      1219,
      1066,
      1004,
      848,
      730,
      574,
      456,
      358,
      183,
      142,
      38
    ],
    "swim:geom": "approach",
    "swim:timestamps": [
      1781431491,
      1781431520,
      1781431546,
      1781431582,
      1781431640,
      1781431672,
      1781431695,
      1781431715,
      1781431763,
      1781431786,
      1781431808,
      1781431837,
      1781431880,
      1781431918,
      1781431928,
      1781431978,
      1781431991,
      1781432026,
      1781432066,
      1781432084,
      1781432119,
      1781432140,
      1781432168,
      1781432199,
      1781432241,
      1781432276,
      1781432302,
      1781432323,
      1781432361,
      1781432372,
      1781432409,
      1781432444,
      1781432481,
      1781432504,
      1781432544,
      1781432568,
      1781432600,
      1781432627,
      1781432657,
      1781432697,
      1781432711,
      1781432735
    ],
    "wof:geomhash": "9668177bc87513b02fd6ca5481a44ddd",
    "wof:id": 2031537777,
    "wof:repo": "sfomuseum-data-flights-2026-06"
  },
  "bbox": [
    -123.47005,
    37.2053,
    -122.11958,
    37.61191
  ],
  "geometry": {"coordinates":[[-123.47005,37.30302],[-123.40879,37.29842],[-123.35334,37.29439],[-123.27781,37.28899],[-123.15875,37.2801],[-123.0918,37.27521],[-123.04323,37.2715],[-123.00144,37.26833],[-122.90082,37.26055],[-122.85345,37.26172],[-122.81309,37.2694],[-122.76085,37.27844],[-122.69085,37.26524],[-122.63108,37.25271],[-122.61629,37.24957],[-122.54602,37.23484],[-122.52851,37.23121],[-122.47998,37.22141],[-122.424,37.21006],[-122.40038,37.2053],[-122.35408,37.2145],[-122.32867,37.22463],[-122.29559,37.2377],[-122.25768,37.25256],[-122.20755,37.27206],[-122.17269,37.29616],[-122.15922,37.3212],[-122.14792,37.3431],[-122.12828,37.38144],[-122.12283,37.3924],[-122.11958,37.43078],[-122.13263,37.46742],[-122.14615,37.50508],[-122.16006,37.52538],[-122.19767,37.54614],[-122.22121,37.55631],[-122.25175,37.56922],[-122.27318,37.57824],[-122.29501,37.5874],[-122.32524,37.60007],[-122.33541,37.60427],[-122.35327,37.61191]],"type":"LineString"}
}
