{
  "id": 2031421791,
  "type": "Feature",
  "properties": {
    "geom:area": 0,
    "geom:bbox": "-122.358580,37.492960,-121.258610,37.614350",
    "geom:latitude": 37.54268424010517,
    "geom:longitude": -121.81565889316245,
    "src:alt_label": "swim-approach",
    "src:geom": "swim",
    "swim:elevations": [
      4607,
      4583,
      4572,
      4255,
      4034,
      3892,
      3762,
      3568,
      3353,
      3352,
      3352,
      3353,
      3115,
      3006,
      2642,
      2575,
      2163,
      2163,
      2133,
      1986,
      1894,
      1678,
      1552,
      1334,
      1216,
      995,
      803,
      660,
      570,
      484,
      307,
      208,
      180,
      58,
      0
    ],
    "swim:geom": "approach",
    "swim:timestamps": [
      1780352607,
      1780352618,
      1780352650,
      1780352698,
      1780352725,
      1780352740,
      1780352753,
      1780352774,
      1780352816,
      1780352844,
      1780352860,
      1780352887,
      1780352935,
      1780352948,
      1780352995,
      1780353004,
      1780353053,
      1780353056,
      1780353064,
      1780353109,
      1780353124,
      1780353163,
      1780353182,
      1780353220,
      1780353253,
      1780353289,
      1780353327,
      1780353358,
      1780353376,
      1780353400,
      1780353440,
      1780353463,
      1780353470,
      1780353497,
      1780353511
    ],
    "wof:geomhash": "54def6bbd6239b3deea858d27805005d",
    "wof:id": 2031421791,
    "wof:repo": "sfomuseum-data-flights-2026-06"
  },
  "bbox": [
    -122.35858,
    37.49296,
    -121.25861,
    37.61435
  ],
  "geometry": {"coordinates":[[-121.25861,37.59337],[-121.28038,37.59047],[-121.33376,37.58447],[-121.40817,37.57627],[-121.44889,37.57167],[-121.47135,37.56875],[-121.49108,37.56621],[-121.52126,37.56287],[-121.58308,37.55584],[-121.62379,37.55009],[-121.64632,37.54507],[-121.68447,37.53577],[-121.75431,37.52037],[-121.77254,37.51637],[-121.8353,37.50042],[-121.84806,37.4972],[-121.91282,37.49296],[-121.91682,37.49322],[-121.92811,37.49384],[-121.98125,37.497],[-121.99868,37.49785],[-122.04138,37.50034],[-122.06218,37.50159],[-122.10122,37.50621],[-122.13171,37.51869],[-122.16782,37.53385],[-122.2043,37.54924],[-122.2343,37.56182],[-122.25052,37.56865],[-122.2703,37.57702],[-122.3016,37.59019],[-122.32118,37.59841],[-122.32695,37.6008],[-122.34797,37.60967],[-122.35858,37.61435]],"type":"LineString"}
}
