{
  "id": 2031635899,
  "type": "Feature",
  "properties": {
    "geom:area": 0,
    "geom:bbox": "-122.359060,37.434880,-121.247720,37.662290",
    "geom:latitude": 37.56107408755316,
    "geom:longitude": -121.84721103835699,
    "src:alt_label": "swim-approach",
    "src:geom": "swim",
    "swim:elevations": [
      4751,
      4625,
      4511,
      4328,
      4101,
      4066,
      3674,
      3592,
      3410,
      3396,
      3348,
      3172,
      3047,
      3048,
      3048,
      3048,
      3048,
      3048,
      3048,
      3048,
      3048,
      3048,
      3040,
      2847,
      2744,
      2743,
      2743,
      2743,
      2743,
      2743,
      2743,
      2743,
      2743,
      2743,
      2477,
      2438,
      2438,
      2280,
      2218,
      2179,
      2135,
      2134,
      2080,
      1895,
      1826,
      1829,
      1617,
      1569,
      1522,
      1439,
      1307,
      1138,
      1030,
      896,
      788,
      765,
      623,
      450,
      317,
      227,
      100,
      0
    ],
    "swim:geom": "approach",
    "swim:timestamps": [
      1782422700,
      1782422718,
      1782422730,
      1782422755,
      1782422787,
      1782422791,
      1782422842,
      1782422855,
      1782422897,
      1782422907,
      1782422932,
      1782422956,
      1782422981,
      1782423028,
      1782423043,
      1782423049,
      1782423075,
      1782423087,
      1782423114,
      1782423132,
      1782423163,
      1782423174,
      1782423192,
      1782423223,
      1782423238,
      1782423241,
      1782423253,
      1782423280,
      1782423325,
      1782423348,
      1782423368,
      1782423400,
      1782423418,
      1782423424,
      1782423466,
      1782423506,
      1782423520,
      1782423557,
      1782423567,
      1782423573,
      1782423588,
      1782423603,
      1782423636,
      1782423661,
      1782423679,
      1782423682,
      1782423716,
      1782423722,
      1782423734,
      1782423752,
      1782423770,
      1782423805,
      1782423835,
      1782423867,
      1782423896,
      1782423902,
      1782423938,
      1782423980,
      1782424010,
      1782424032,
      1782424063,
      1782424089
    ],
    "wof:geomhash": "a6780a9c738726ad49fbed5308a4df5c",
    "wof:id": 2031635899,
    "wof:repo": "sfomuseum-data-flights-2026-06"
  },
  "bbox": [
    -122.35906,
    37.43488,
    -121.24772,
    37.66229
  ],
  "geometry": {"coordinates":[[-121.24772,37.59492],[-121.27749,37.59067],[-121.29811,37.58821],[-121.34064,37.58389],[-121.39456,37.57778],[-121.40211,37.57685],[-121.487,37.56694],[-121.50746,37.56451],[-121.57516,37.55704],[-121.59088,37.55517],[-121.62601,37.55031],[-121.65772,37.55572],[-121.68597,37.57222],[-121.7385,37.60317],[-121.75534,37.61311],[-121.76216,37.61703],[-121.79093,37.63377],[-121.80516,37.64204],[-121.83524,37.65941],[-121.85884,37.66229],[-121.90267,37.65869],[-121.91693,37.65759],[-121.94233,37.65559],[-121.98518,37.65199],[-122.00585,37.65018],[-122.00992,37.64986],[-122.02582,37.64784],[-122.04774,37.62605],[-122.007,37.58953],[-121.9761,37.57918],[-121.94696,37.5692],[-121.90245,37.55404],[-121.87833,37.54603],[-121.86982,37.54318],[-121.81404,37.51971],[-121.81414,37.47646],[-121.81831,37.46051],[-121.85117,37.43488],[-121.86331,37.43526],[-121.87134,37.43561],[-121.89133,37.43643],[-121.91124,37.43716],[-121.95396,37.44398],[-121.984,37.45583],[-122.00459,37.46458],[-122.00796,37.46606],[-122.04608,37.48247],[-122.05278,37.48529],[-122.0659,37.49085],[-122.08438,37.49856],[-122.10357,37.5066],[-122.13962,37.52196],[-122.16654,37.53331],[-122.19219,37.54408],[-122.21341,37.55312],[-122.21771,37.55488],[-122.24457,37.56619],[-122.27751,37.58011],[-122.30002,37.58952],[-122.31712,37.59683],[-122.33964,37.6063],[-122.35906,37.6136]],"type":"LineString"}
}
