{
  "id": 2031426055,
  "type": "Feature",
  "properties": {
    "geom:area": 0,
    "geom:bbox": "-122.530556,30.005833,-95.396111,37.657778",
    "geom:latitude": 34.583991794280834,
    "geom:longitude": -108.9166358239309,
    "src:alt_label": "swim-path",
    "src:geom": "swim",
    "swim:altitudes": [
      "006",
      "028",
      "028",
      "049",
      "049",
      "068",
      "068",
      "068",
      "093",
      "093",
      "109",
      "121",
      "137",
      "137",
      "137",
      "155",
      "155",
      "155",
      "172",
      "172",
      "190",
      "205",
      "205",
      "205",
      "243",
      "243",
      "243",
      "243",
      "255",
      "255",
      "265",
      "265",
      "265",
      "265",
      "265",
      "273",
      "292",
      "292",
      "292",
      "303",
      "303",
      "303",
      "314",
      "314",
      "321",
      "321",
      "342",
      "350C",
      "350C",
      "350C",
      "350C",
      "350C",
      "350C",
      "350C",
      "350C",
      "350C",
      "350C",
      "350C",
      "350C",
      "350C",
      "350C",
      "350C",
      "350C",
      "350C",
      "350C",
      "350C",
      "350C",
      "350C",
      "350C",
      "350C",
      "350C",
      "350C",
      "350C",
      "350C",
      "350C",
      "350C",
      "350C",
      "350C",
      "350C",
      "350C",
      "350C",
      "350C",
      "350C",
      "350C",
      "350C",
      "350C",
      "350C",
      "350C",
      "350C",
      "350C",
      "350C",
      "350C",
      "350C",
      "350C",
      "350C",
      "350C",
      "350C",
      "350C",
      "350C",
      "350C",
      "350C",
      "350C",
      "350C",
      "350C",
      "350C",
      "350C",
      "350C",
      "350C",
      "350C",
      "350C",
      "350C",
      "350C",
      "350C",
      "350C",
      "350C",
      "350C",
      "350C",
      "350C",
      "350C",
      "350C",
      "350C",
      "350C",
      "350C",
      "350C",
      "350C",
      "350C",
      "350C",
      "350C",
      "350C",
      "350C",
      "350C",
      "350C",
      "350C",
      "350C",
      "350C",
      "350C",
      "350C",
      "350C",
      "350C",
      "350C",
      "350C",
      "350C",
      "350C",
      "350C",
      "350C",
      "350C",
      "350C",
      "350C",
      "350C",
      "350C",
      "350C",
      "350C",
      "350C",
      "350C",
      "350C",
      "350C",
      "350C",
      "350C",
      "350C",
      "350C",
      "350C",
      "350C",
      "350C",
      "350C",
      "350C",
      "350C",
      "350C",
      "350C",
      "350C",
      "350C",
      "350C",
      "350C",
      "350C",
      "350C",
      "350C",
      "350C",
      "350C",
      "350C",
      "350C",
      "350C",
      "350C",
      "350C",
      "350C",
      "350C",
      "350C",
      "350C",
      "350C",
      "350C",
      "350C",
      "350C",
      "350C",
      "350C",
      "350C",
      "350C",
      "350C",
      "350C",
      "350C",
      "350C",
      "350C",
      "350C",
      "350C",
      "350C",
      "350C",
      "350C",
      "350C",
      "350C",
      "350C",
      "350C",
      "350C",
      "350C",
      "350C",
      "350C",
      "350C",
      "350C",
      "350C",
      "350C",
      "350C",
      "350C",
      "350C",
      "350C",
      "350C",
      "350C",
      "350C",
      "350C",
      "350C",
      "350C",
      "350C",
      "350C",
      "350C",
      "350",
      "331C",
      "331C",
      "330C",
      "330C",
      "330C",
      "330C",
      "330C",
      "330C",
      "330C",
      "318",
      "268",
      "211",
      "211",
      "211",
      "188",
      "188",
      "165",
      "145",
      "124",
      "124",
      "121",
      "101",
      "101",
      "101",
      "073",
      "073",
      "073",
      "063",
      "052",
      "051",
      "051",
      "034",
      "034",
      "034",
      "034",
      "031",
      "017",
      "017",
      "017",
      "015",
      "007",
      "007",
      "007"
    ],
    "swim:geom": "path",
    "swim:speeds": [
      169,
      192,
      192,
      224,
      224,
      262,
      262,
      262,
      274,
      274,
      311,
      363,
      358,
      358,
      358,
      398,
      398,
      383,
      409,
      409,
      413,
      416,
      416,
      416,
      458,
      445,
      445,
      445,
      454,
      454,
      474,
      474,
      474,
      463,
      463,
      472,
      494,
      494,
      488,
      494,
      494,
      494,
      494,
      494,
      493,
      493,
      497,
      499,
      499,
      499,
      499,
      501,
      502,
      502,
      502,
      502,
      503,
      503,
      503,
      501,
      501,
      501,
      501,
      501,
      499,
      499,
      498,
      498,
      498,
      498,
      480,
      480,
      480,
      473,
      473,
      474,
      474,
      474,
      471,
      471,
      471,
      471,
      475,
      475,
      475,
      475,
      484,
      484,
      481,
      481,
      481,
      481,
      479,
      479,
      479,
      478,
      478,
      478,
      476,
      475,
      475,
      475,
      474,
      475,
      475,
      475,
      474,
      474,
      479,
      479,
      481,
      481,
      481,
      481,
      486,
      486,
      486,
      489,
      489,
      489,
      488,
      488,
      491,
      491,
      494,
      496,
      496,
      495,
      495,
      497,
      498,
      498,
      498,
      498,
      498,
      498,
      498,
      496,
      496,
      496,
      496,
      495,
      495,
      495,
      495,
      495,
      496,
      496,
      496,
      496,
      500,
      500,
      500,
      500,
      500,
      498,
      498,
      498,
      498,
      498,
      498,
      498,
      501,
      501,
      501,
      504,
      504,
      504,
      504,
      504,
      504,
      504,
      504,
      504,
      504,
      504,
      503,
      505,
      505,
      506,
      506,
      498,
      498,
      498,
      496,
      496,
      494,
      494,
      489,
      489,
      489,
      489,
      490,
      490,
      492,
      492,
      492,
      492,
      492,
      485,
      485,
      483,
      481,
      481,
      480,
      480,
      486,
      487,
      487,
      489,
      489,
      489,
      488,
      488,
      479,
      479,
      479,
      476,
      476,
      476,
      477,
      477,
      477,
      477,
      477,
      477,
      478,
      478,
      478,
      478,
      484,
      484,
      486,
      487,
      487,
      486,
      486,
      488,
      488,
      485,
      451,
      435,
      435,
      435,
      433,
      433,
      424,
      404,
      382,
      382,
      384,
      316,
      316,
      316,
      283,
      283,
      283,
      268,
      267,
      269,
      269,
      255,
      259,
      259,
      259,
      235,
      199,
      199,
      199,
      195,
      157,
      157,
      157
    ],
    "swim:timestamps": [
      1780352311,
      1780352381,
      1780352381,
      1780352441,
      1780352441,
      1780352501,
      1780352501,
      1780352501,
      1780352561,
      1780352561,
      1780352621,
      1780352681,
      1780352748,
      1780352748,
      1780352748,
      1780352801,
      1780352801,
      1780352808,
      1780352862,
      1780352862,
      1780352928,
      1780352988,
      1780352988,
      1780352988,
      1780353162,
      1780353169,
      1780353169,
      1780353169,
      1780353229,
      1780353229,
      1780353282,
      1780353282,
      1780353282,
      1780353289,
      1780353289,
      1780353349,
      1780353462,
      1780353462,
      1780353469,
      1780353522,
      1780353522,
      1780353522,
      1780353589,
      1780353589,
      1780353643,
      1780353643,
      1780353823,
      1780353883,
      1780353883,
      1780353883,
      1780353883,
      1780353943,
      1780354003,
      1780354003,
      1780354010,
      1780354010,
      1780354070,
      1780354130,
      1780354190,
      1780354243,
      1780354243,
      1780354250,
      1780354250,
      1780354250,
      1780354364,
      1780354364,
      1780354424,
      1780354484,
      1780354484,
      1780354484,
      1780354604,
      1780354604,
      1780354604,
      1780354784,
      1780354784,
      1780354844,
      1780354844,
      1780354904,
      1780355032,
      1780355032,
      1780355032,
      1780355032,
      1780355212,
      1780355212,
      1780355212,
      1780355212,
      1780355398,
      1780355398,
      1780355452,
      1780355512,
      1780355512,
      1780355512,
      1780355632,
      1780355632,
      1780355632,
      1780355693,
      1780355693,
      1780355693,
      1780355753,
      1780355813,
      1780355819,
      1780355819,
      1780355873,
      1780355879,
      1780355879,
      1780355879,
      1780355933,
      1780355933,
      1780355999,
      1780355999,
      1780356053,
      1780356053,
      1780356053,
      1780356059,
      1780356233,
      1780356240,
      1780356240,
      1780356293,
      1780356293,
      1780356293,
      1780356300,
      1780356300,
      1780356360,
      1780356360,
      1780356420,
      1780356474,
      1780356474,
      1780356480,
      1780356480,
      1780356540,
      1780356594,
      1780356654,
      1780356660,
      1780356660,
      1780356720,
      1780356720,
      1780356720,
      1780356894,
      1780356894,
      1780356894,
      1780356901,
      1780356954,
      1780356961,
      1780356961,
      1780357015,
      1780357015,
      1780357081,
      1780357081,
      1780357081,
      1780357081,
      1780357381,
      1780357381,
      1780357441,
      1780357441,
      1780357441,
      1780357562,
      1780357562,
      1780357682,
      1780357682,
      1780357682,
      1780357742,
      1780357742,
      1780357922,
      1780357922,
      1780357922,
      1780358042,
      1780358042,
      1780358042,
      1780358042,
      1780358102,
      1780358102,
      1780358102,
      1780358162,
      1780358162,
      1780358343,
      1780358343,
      1780358403,
      1780358463,
      1780358463,
      1780358583,
      1780358583,
      1780358823,
      1780358823,
      1780359184,
      1780359224,
      1780359224,
      1780359284,
      1780359284,
      1780359484,
      1780359524,
      1780359584,
      1780359605,
      1780359665,
      1780359725,
      1780359824,
      1780359824,
      1780359905,
      1780359905,
      1780359945,
      1780360085,
      1780360085,
      1780360185,
      1780360245,
      1780360245,
      1780360305,
      1780360305,
      1780360485,
      1780360545,
      1780360545,
      1780360666,
      1780360666,
      1780360666,
      1780360846,
      1780360846,
      1780360966,
      1780361004,
      1780361004,
      1780361146,
      1780361184,
      1780361184,
      1780361206,
      1780361206,
      1780361305,
      1780361507,
      1780361507,
      1780361507,
      1780361725,
      1780361725,
      1780361725,
      1780361906,
      1780362086,
      1780362086,
      1780362146,
      1780362266,
      1780362326,
      1780362386,
      1780362386,
      1780362566,
      1780362566,
      1780362687,
      1780362867,
      1780362987,
      1780362987,
      1780362987,
      1780363047,
      1780363047,
      1780363107,
      1780363167,
      1780363215,
      1780363215,
      1780363227,
      1780363330,
      1780363330,
      1780363330,
      1780363528,
      1780363528,
      1780363528,
      1780363567,
      1780363633,
      1780363648,
      1780363648,
      1780363753,
      1780363768,
      1780363768,
      1780363768,
      1780363873,
      1780363987,
      1780363987,
      1780363987,
      1780364009,
      1780364054,
      1780364054,
      1780364054
    ],
    "wof:geomhash": "b2975b0c387ebd96bcfc3aee02ea11c6",
    "wof:id": 2031426055,
    "wof:repo": "sfomuseum-data-flights-2026-06"
  },
  "bbox": [
    -122.53055555555555,
    30.00583333333333,
    -95.39611111111111,
    37.657777777777774
  ],
  "geometry": {"coordinates":[[-122.4,37.63333333333333],[-122.46111111111111,37.65555555555555],[-122.46111111111111,37.65555555555555],[-122.53055555555555,37.657777777777774],[-122.53055555555555,37.657777777777774],[-122.52527777777777,37.592222222222226],[-122.52527777777777,37.592222222222226],[-122.52527777777777,37.592222222222226],[-122.49027777777778,37.52222222222222],[-122.49027777777778,37.52222222222222],[-122.42500000000001,37.46138888888889],[-122.32305555555556,37.40861111111111],[-122.21138888888889,37.34166666666667],[-122.21138888888889,37.34166666666667],[-122.21138888888889,37.34166666666667],[-122.12083333333332,37.263888888888886],[-122.12083333333332,37.263888888888886],[-122.11166666666666,37.263888888888886],[-121.98583333333333,37.23166666666667],[-121.98583333333333,37.23166666666667],[-121.82972222222222,37.21194444444445],[-121.68527777777778,37.18944444444444],[-121.68527777777778,37.18944444444444],[-121.68527777777778,37.18944444444444],[-121.23666666666666,37.1175],[-121.22416666666666,37.1175],[-121.22416666666666,37.1175],[-121.22416666666666,37.1175],[-121.06472222222222,37.09138888888889],[-121.06472222222222,37.09138888888889],[-120.91527777777779,37.06722222222223],[-120.91527777777779,37.06722222222223],[-120.91527777777779,37.06722222222223],[-120.90222222222222,37.06666666666667],[-120.90222222222222,37.06666666666667],[-120.7363888888889,37.04],[-120.41250000000001,36.98638888888889],[-120.41250000000001,36.98638888888889],[-120.39722222222223,36.98527777777778],[-120.24527777777777,36.95916666666667],[-120.24527777777777,36.95916666666667],[-120.24527777777777,36.95916666666667],[-120.06222222222222,36.95527777777778],[-120.06222222222222,36.95527777777778],[-119.92555555555556,36.98833333333334],[-119.92555555555556,36.98833333333334],[-119.42916666666667,37.108333333333334],[-119.26194444444444,37.14888888888889],[-119.26194444444444,37.14888888888889],[-119.26194444444444,37.14888888888889],[-119.26194444444444,37.14888888888889],[-119.09333333333333,37.18888888888888],[-118.92500000000001,37.228611111111114],[-118.92500000000001,37.228611111111114],[-118.91638888888889,37.230555555555554],[-118.91638888888889,37.230555555555554],[-118.74833333333333,37.26972222222222],[-118.57472222222222,37.28777777777778],[-118.39972222222222,37.30138888888889],[-118.22583333333334,37.314166666666665],[-118.22583333333334,37.314166666666665],[-118.2075,37.315555555555555],[-118.2075,37.315555555555555],[-118.2075,37.315555555555555],[-117.88166666666666,37.33916666666667],[-117.88166666666666,37.33916666666667],[-117.70916666666668,37.35138888888889],[-117.53805555555556,37.363055555555555],[-117.53805555555556,37.363055555555555],[-117.53805555555556,37.363055555555555],[-117.215,37.321111111111115],[-117.215,37.321111111111115],[-117.215,37.321111111111115],[-116.93611111111112,36.99722222222222],[-116.93611111111112,36.99722222222222],[-116.8425,36.886944444444445],[-116.8425,36.886944444444445],[-116.75055555555555,36.778055555555554],[-116.54944444444445,36.53916666666667],[-116.54944444444445,36.53916666666667],[-116.54944444444445,36.53916666666667],[-116.54944444444445,36.53916666666667],[-116.26361111111112,36.236111111111114],[-116.26361111111112,36.236111111111114],[-116.26361111111112,36.236111111111114],[-116.26361111111112,36.236111111111114],[-115.79222222222222,36.09166666666667],[-115.79222222222222,36.09166666666667],[-115.64027777777778,36.044999999999995],[-115.4888888888889,35.998333333333335],[-115.4888888888889,35.998333333333335],[-115.4888888888889,35.998333333333335],[-115.18694444444445,35.90416666666667],[-115.18694444444445,35.90416666666667],[-115.18694444444445,35.90416666666667],[-115.03416666666666,35.85638888888889],[-115.03416666666666,35.85638888888889],[-115.03416666666666,35.85638888888889],[-114.88444444444445,35.809444444444445],[-114.73361111111112,35.76166666666666],[-114.73388888888888,35.760555555555555],[-114.73388888888888,35.760555555555555],[-114.58361111111111,35.71388888888889],[-114.5825,35.71361111111111],[-114.5825,35.71361111111111],[-114.5825,35.71361111111111],[-114.43194444444445,35.665],[-114.43194444444445,35.665],[-114.27472222222222,35.635555555555555],[-114.27472222222222,35.635555555555555],[-114.11999999999999,35.62777777777778],[-114.11999999999999,35.62777777777778],[-114.11999999999999,35.62777777777778],[-114.10916666666667,35.6275],[-113.62194444444444,35.6025],[-113.58888888888889,35.600833333333334],[-113.58888888888889,35.600833333333334],[-113.455,35.593611111111116],[-113.455,35.593611111111116],[-113.455,35.593611111111116],[-113.42555555555556,35.591944444444444],[-113.42555555555556,35.591944444444444],[-113.25416666666666,35.58222222222223],[-113.25416666666666,35.58222222222223],[-113.08333333333333,35.57222222222222],[-112.93944444444445,35.56388888888888],[-112.93944444444445,35.56388888888888],[-112.90916666666668,35.56222222222222],[-112.90916666666668,35.56222222222222],[-112.77444444444444,35.55416666666667],[-112.5936111111111,35.543055555555554],[-112.42611111111111,35.5325],[-112.43194444444445,35.533055555555556],[-112.43194444444445,35.533055555555556],[-112.26027777777777,35.52222222222222],[-112.26027777777777,35.52222222222222],[-112.26027777777777,35.52222222222222],[-111.75361111111111,35.488055555555555],[-111.75361111111111,35.488055555555555],[-111.75361111111111,35.488055555555555],[-111.75611111111111,35.488055555555555],[-111.58388888888888,35.476111111111116],[-111.58638888888889,35.47638888888889],[-111.58638888888889,35.47638888888889],[-111.41694444444445,35.46416666666667],[-111.41694444444445,35.46416666666667],[-111.22500000000001,35.45027777777778],[-111.22500000000001,35.45027777777778],[-111.22500000000001,35.45027777777778],[-111.22500000000001,35.45027777777778],[-110.38055555555555,35.385],[-110.38055555555555,35.385],[-110.21166666666667,35.37138888888889],[-110.21166666666667,35.37138888888889],[-110.21166666666667,35.37138888888889],[-109.87666666666667,35.343333333333334],[-109.87666666666667,35.343333333333334],[-109.54222222222222,35.31444444444444],[-109.54222222222222,35.31444444444444],[-109.54222222222222,35.31444444444444],[-109.37305555555555,35.29944444444444],[-109.37305555555555,35.29944444444444],[-108.8711111111111,35.25361111111111],[-108.8711111111111,35.25361111111111],[-108.8711111111111,35.25361111111111],[-108.53111111111112,35.22138888888889],[-108.53111111111112,35.22138888888889],[-108.53111111111112,35.22138888888889],[-108.53111111111112,35.22138888888889],[-108.36166666666666,35.205000000000005],[-108.36166666666666,35.205000000000005],[-108.36166666666666,35.205000000000005],[-108.19277777777778,35.18833333333333],[-108.19277777777778,35.18833333333333],[-107.68722222222223,35.136944444444445],[-107.68722222222223,35.136944444444445],[-107.51916666666666,35.11944444444445],[-107.33555555555554,35.10027777777778],[-107.33555555555554,35.10027777777778],[-106.995,35.06333333333333],[-106.995,35.06333333333333],[-106.37972222222221,34.84111111111111],[-106.37972222222221,34.84111111111111],[-105.50805555555556,34.44694444444444],[-105.39055555555557,34.409166666666664],[-105.39055555555557,34.409166666666664],[-105.23861111111111,34.36027777777778],[-105.23861111111111,34.36027777777778],[-104.7363888888889,34.21666666666667],[-104.615,34.18666666666666],[-104.45944444444444,34.14722222222222],[-104.42500000000001,34.13861111111111],[-104.2675,34.09916666666667],[-104.11222222222221,34.061388888888885],[-103.83138888888888,33.98583333333333],[-103.83138888888888,33.98583333333333],[-103.64916666666667,33.92444444444444],[-103.64916666666667,33.92444444444444],[-103.53027777777778,33.87694444444445],[-103.23416666666667,33.70916666666667],[-103.23416666666667,33.70916666666667],[-103,33.57138888888889],[-102.86916666666666,33.49388888888889],[-102.86916666666666,33.49388888888889],[-102.73944444444444,33.41638888888889],[-102.73944444444444,33.41638888888889],[-102.34472222222222,33.17944444444444],[-102.2125,33.099722222222226],[-102.2125,33.099722222222226],[-101.94805555555556,32.93888888888888],[-101.94805555555556,32.93888888888888],[-101.94805555555556,32.93888888888888],[-101.57444444444444,32.709722222222226],[-101.57444444444444,32.709722222222226],[-101.32111111111111,32.55333333333333],[-101.24027777777778,32.50194444444445],[-101.24027777777778,32.50194444444445],[-100.94527777777778,32.31888888888889],[-100.86166666666666,32.266666666666666],[-100.86166666666666,32.266666666666666],[-100.81916666666666,32.24],[-100.81916666666666,32.24],[-100.61,32.10666666666667],[-100.16972222222223,31.828055555555554],[-100.16972222222223,31.828055555555554],[-100.16972222222223,31.828055555555554],[-99.73,31.545555555555556],[-99.73,31.545555555555556],[-99.73,31.545555555555556],[-99.33444444444444,31.336944444444445],[-98.89472222222223,31.19472222222222],[-98.89472222222223,31.19472222222222],[-98.74694444444445,31.146666666666665],[-98.45361111111112,31.05027777777778],[-98.30527777777777,31.00111111111111],[-98.16166666666668,30.953611111111112],[-98.16166666666668,30.953611111111112],[-97.70666666666666,30.853055555555557],[-97.70666666666666,30.853055555555557],[-97.40055555555556,30.82138888888889],[-96.96166666666667,30.76833333333333],[-96.69083333333333,30.700555555555553],[-96.69083333333333,30.700555555555553],[-96.69083333333333,30.700555555555553],[-96.55583333333333,30.66638888888889],[-96.55583333333333,30.66638888888889],[-96.42722222222223,30.633888888888887],[-96.30055555555555,30.601944444444445],[-96.17916666666667,30.570555555555554],[-96.17916666666667,30.570555555555554],[-96.1575,30.565555555555555],[-95.97194444444445,30.51722222222222],[-95.97194444444445,30.51722222222222],[-95.97194444444445,30.51722222222222],[-95.85277777777777,30.326666666666668],[-95.85277777777777,30.326666666666668],[-95.85277777777777,30.326666666666668],[-95.8386111111111,30.26638888888889],[-95.79416666666667,30.193333333333335],[-95.79138888888889,30.18888888888889],[-95.79138888888889,30.18888888888889],[-95.71722222222222,30.064722222222223],[-95.71527777777779,30.060277777777777],[-95.71527777777779,30.060277777777777],[-95.71527777777779,30.060277777777777],[-95.59888888888888,30.00583333333333],[-95.45611111111111,30.00777777777778],[-95.45611111111111,30.00777777777778],[-95.45611111111111,30.00777777777778],[-95.44472222222223,30.006944444444443],[-95.39611111111111,30.00638888888889],[-95.39611111111111,30.00638888888889],[-95.39611111111111,30.00638888888889]],"type":"LineString"}
}
