{
  "id": 2031528797,
  "type": "Feature",
  "properties": {
    "geom:area": 0,
    "geom:bbox": "-122.361690,37.447760,-121.264090,37.615080",
    "geom:latitude": 37.53847124416824,
    "geom:longitude": -121.82229792480346,
    "src:alt_label": "swim-approach",
    "src:geom": "swim",
    "swim:elevations": [
      4555,
      4289,
      3962,
      3541,
      3441,
      3293,
      3180,
      3047,
      2862,
      2805,
      2744,
      2535,
      2330,
      2134,
      2134,
      2134,
      2134,
      2076,
      1944,
      1777,
      1546,
      1342,
      1103,
      845,
      701,
      533,
      404,
      363,
      269,
      63,
      96
    ],
    "swim:geom": "approach",
    "swim:timestamps": [
      1781344481,
      1781344507,
      1781344540,
      1781344582,
      1781344592,
      1781344609,
      1781344620,
      1781344670,
      1781344700,
      1781344719,
      1781344740,
      1781344781,
      1781344810,
      1781344857,
      1781344861,
      1781344913,
      1781344923,
      1781344964,
      1781345003,
      1781345030,
      1781345057,
      1781345080,
      1781345119,
      1781345155,
      1781345182,
      1781345218,
      1781345246,
      1781345258,
      1781345281,
      1781345330,
      1781345346
    ],
    "wof:geomhash": "991ff37eb07cfa8e2ca143baf9c6eac7",
    "wof:id": 2031528797,
    "wof:repo": "sfomuseum-data-flights-2026-06"
  },
  "bbox": [
    -122.36169,
    37.44776,
    -121.26409,
    37.61508
  ],
  "geometry": {"coordinates":[[-121.26409,37.59253],[-121.31762,37.58602],[-121.38733,37.5786],[-121.47236,37.5686],[-121.49166,37.56628],[-121.52448,37.56247],[-121.54662,37.55998],[-121.63823,37.54792],[-121.68761,37.55208],[-121.71601,37.56115],[-121.74604,37.57066],[-121.80126,37.56467],[-121.81678,37.5343],[-121.83316,37.48292],[-121.8344,37.4791],[-121.8906,37.44934],[-121.90521,37.44777],[-121.96291,37.44776],[-122.01165,37.46756],[-122.04419,37.48187],[-122.07813,37.49596],[-122.10631,37.50781],[-122.15276,37.52752],[-122.19536,37.54548],[-122.22462,37.55779],[-122.25812,37.57191],[-122.28057,37.58129],[-122.29038,37.58556],[-122.30907,37.59332],[-122.34859,37.60992],[-122.36169,37.61508]],"type":"LineString"}
}
