{
  "id": 2031443263,
  "type": "Feature",
  "properties": {
    "geom:area": 0,
    "geom:bbox": "-122.380000,37.620000,-87.510000,42.530000",
    "geom:latitude": 40.85329288324122,
    "geom:longitude": -104.82257218334642,
    "src:alt_label": "swim-route",
    "src:geom": "swim",
    "swim:geom": "route",
    "wof:geomhash": "e272cfeede500b287272d5ae92549ec7",
    "wof:id": 2031443263,
    "wof:repo": "sfomuseum-data-flights-2026-06"
  },
  "bbox": [
    -122.38,
    37.62,
    -87.51,
    42.53
  ],
  "geometry": {"coordinates":[[-122.38,37.62],[-122.28,37.68],[-122.28,37.68],[-122.27,37.69],[-122.21,37.72],[-122.21,37.72],[-122.21,37.72],[-122.18,37.74],[-122.17,37.74],[-122.16,37.75],[-122.11,37.77],[-122.09,37.78],[-122,37.83],[-121.94,37.85],[-121.77,37.92],[-121.75,37.93],[-121.55,38.01],[-121.41,38.06],[-121.36,38.08],[-121.16,38.16],[-121.04,38.21],[-121.03,38.21],[-120.99,38.21],[-120.91,38.22],[-120.68,38.26],[-120.59,38.27],[-120.51,38.28],[-120.43,38.29],[-120.26,38.31],[-119.74,38.38],[-119.22,38.45],[-118.23,38.57],[-117.3,38.68],[-117.29,38.68],[-116.05,38.89],[-114.68,39.1],[-114.46,39.13],[-114,39.2],[-113.32,39.29],[-113.25,39.3],[-113.19,39.31],[-113.05,39.35],[-110.82,39.99],[-110.52,40.04],[-110.26,40.22],[-110.14,40.25],[-110.09,40.26],[-109.91,40.3],[-109.74,40.4],[-109.13,40.49],[-109.07,40.5],[-107.06,40.94],[-106.21,41.16],[-105,41.34],[-104.57,41.43],[-103.63,41.62],[-102.92,41.7],[-102.06,41.91],[-100.95,42.01],[-99.75,42.18],[-99.2,42.22],[-98.96,42.25],[-97.16,42.36],[-96.87,42.37],[-96.29,42.4],[-95.77,42.43],[-93.39,42.5],[-93.12,42.51],[-92.06,42.52],[-91.43,42.53],[-90.82,42.53],[-90.67,42.53],[-90.45,42.52],[-90.32,42.52],[-90.15,42.52],[-90.13,42.52],[-89.78,42.52],[-89.68,42.51],[-89.62,42.5],[-89.4,42.47],[-89.32,42.46],[-89.12,42.44],[-89.06,42.43],[-88.89,42.41],[-88.82,42.4],[-88.81,42.4],[-88.69,42.38],[-88.67,42.38],[-88.63,42.38],[-88.57,42.37],[-88.52,42.36],[-88.5,42.36],[-88.43,42.35],[-88.39,42.34],[-88.31,42.3],[-88.15,42.2],[-88.07,42.13],[-88.03,42.09],[-87.79,42.09],[-87.54,42.09],[-87.51,42.09],[-87.55,42.08],[-87.69,42.04],[-87.8,42.01],[-87.9,41.98],[-87.91,41.98]],"type":"LineString"}
}
