{
  "id": 2031551193,
  "type": "Feature",
  "properties": {
    "geom:area": 0,
    "geom:bbox": "-122.546430,37.190930,-121.249500,37.662070",
    "geom:latitude": 37.379469997155844,
    "geom:longitude": -121.99689044465559,
    "src:alt_label": "swim-takeoff",
    "src:geom": "swim",
    "swim:elevations": [
      260,
      423,
      757,
      1052,
      1350,
      1374,
      1564,
      1849,
      2066,
      2237,
      2570,
      3074,
      3105,
      3470,
      3812,
      4097,
      4476,
      4856,
      4993,
      5203,
      5384,
      5449,
      5524,
      5663,
      5965,
      6129,
      6448,
      6525,
      6678,
      6878,
      7016,
      7068,
      7439,
      7639,
      7719,
      7952
    ],
    "swim:geom": "takeoff",
    "swim:timestamps": [
      1781569583,
      1781569598,
      1781569624,
      1781569659,
      1781569707,
      1781569710,
      1781569729,
      1781569750,
      1781569765,
      1781569780,
      1781569810,
      1781569858,
      1781569861,
      1781569912,
      1781569947,
      1781569973,
      1781570004,
      1781570035,
      1781570049,
      1781570068,
      1781570092,
      1781570113,
      1781570127,
      1781570147,
      1781570185,
      1781570203,
      1781570239,
      1781570248,
      1781570266,
      1781570290,
      1781570305,
      1781570312,
      1781570360,
      1781570387,
      1781570402,
      1781570437
    ],
    "wof:geomhash": "87685447b2c9441afb24ef360cf7b7c3",
    "wof:id": 2031551193,
    "wof:repo": "sfomuseum-data-flights-2026-06"
  },
  "bbox": [
    -122.54643,
    37.19093,
    -121.2495,
    37.66207
  ],
  "geometry": {"coordinates":[[-122.40025,37.63185],[-122.41408,37.63774],[-122.43949,37.64745],[-122.47595,37.66207],[-122.53594,37.65628],[-122.53866,37.65321],[-122.54643,37.62973],[-122.53732,37.60315],[-122.52672,37.58584],[-122.51548,37.56842],[-122.49515,37.53202],[-122.45076,37.47662],[-122.44653,37.47411],[-122.36969,37.42963],[-122.30727,37.40498],[-122.25674,37.39529],[-122.19568,37.38321],[-122.13407,37.37097],[-122.10798,37.36574],[-122.06994,37.35811],[-122.02222,37.34866],[-121.97889,37.33997],[-121.95029,37.33421],[-121.90711,37.32552],[-121.82284,37.30851],[-121.78249,37.30034],[-121.70309,37.28424],[-121.68294,37.28015],[-121.64172,37.27176],[-121.58729,37.2607],[-121.55546,37.25417],[-121.53817,37.25065],[-121.42915,37.2282],[-121.36702,37.21541],[-121.3322,37.20826],[-121.2495,37.19093]],"type":"LineString"}
}
