{
  "id": 2031546841,
  "type": "Feature",
  "properties": {
    "geom:area": 0,
    "geom:bbox": "-122.356550,37.431380,-121.242720,37.613370",
    "geom:latitude": 37.54176652570932,
    "geom:longitude": -121.80964591097505,
    "src:alt_label": "swim-approach",
    "src:geom": "swim",
    "swim:elevations": [
      4408,
      4069,
      3909,
      3688,
      3591,
      3422,
      3353,
      3289,
      3078,
      3047,
      3048,
      3048,
      2835,
      2551,
      2463,
      2438,
      2438,
      2438,
      2284,
      2223,
      2009,
      1826,
      1829,
      1799,
      1564,
      1231,
      1046,
      808,
      674,
      624,
      545,
      423,
      277,
      217,
      3
    ],
    "swim:geom": "approach",
    "swim:timestamps": [
      1781509770,
      1781509813,
      1781509837,
      1781509878,
      1781509899,
      1781509934,
      1781509963,
      1781509990,
      1781510030,
      1781510051,
      1781510092,
      1781510111,
      1781510149,
      1781510188,
      1781510203,
      1781510210,
      1781510228,
      1781510262,
      1781510302,
      1781510322,
      1781510365,
      1781510398,
      1781510407,
      1781510435,
      1781510481,
      1781510518,
      1781510538,
      1781510572,
      1781510595,
      1781510607,
      1781510623,
      1781510650,
      1781510682,
      1781510700,
      1781510747
    ],
    "wof:geomhash": "5a36a8673821f792f4fbb8514f4a08c2",
    "wof:id": 2031546841,
    "wof:repo": "sfomuseum-data-flights-2026-06"
  },
  "bbox": [
    -122.35655,
    37.43138,
    -121.24272,
    37.61337
  ],
  "geometry": {"coordinates":[[-121.24272,37.59537],[-121.32722,37.58509],[-121.37127,37.5803],[-121.44671,37.57166],[-121.48356,37.56741],[-121.53886,37.56086],[-121.58467,37.55555],[-121.62646,37.55921],[-121.68109,37.5842],[-121.70817,37.59703],[-121.76691,37.61051],[-121.79091,37.598],[-121.79926,37.5544],[-121.81455,37.51095],[-121.82333,37.49435],[-121.82619,37.4869],[-121.83397,37.4659],[-121.87051,37.44094],[-121.92828,37.43387],[-121.95763,37.43138],[-121.99035,37.46068],[-122.02119,37.47872],[-122.03265,37.47867],[-122.06405,37.49112],[-122.11505,37.51135],[-122.15297,37.52751],[-122.17375,37.53645],[-122.20831,37.55086],[-122.23198,37.56097],[-122.24414,37.56607],[-122.25897,37.57245],[-122.28199,37.58183],[-122.30735,37.59274],[-122.32138,37.5985],[-122.35655,37.61337]],"type":"LineString"}
}
