{
  "id": 2031526451,
  "type": "Feature",
  "properties": {
    "geom:area": 0,
    "geom:bbox": "-123.760000,37.620000,-122.310000,47.450000",
    "geom:latitude": 42.636161757803215,
    "geom:longitude": -123.19506763827837,
    "src:alt_label": "swim-route",
    "src:geom": "swim",
    "swim:geom": "route",
    "wof:geomhash": "9d57b4e57c9e9e32d81a614616b8fa32",
    "wof:id": 2031526451,
    "wof:repo": "sfomuseum-data-flights-2026-06"
  },
  "bbox": [
    -123.76,
    37.62,
    -122.31,
    47.45
  ],
  "geometry": {"coordinates":[[-122.31,47.45],[-122.31,47.4],[-122.31,47.36],[-122.31,47.33],[-122.31,47.32],[-122.36,47.32],[-122.44,47.31],[-122.45,47.31],[-122.48,47.31],[-122.57,47.31],[-122.72,47.31],[-122.77,47.32],[-122.95,47.27],[-123,47.25],[-123.04,47.24],[-123.1,47.19],[-123.17,47.09],[-123.31,46.91],[-123.31,46.89],[-123.31,46.77],[-123.31,46.71],[-123.31,46.69],[-123.31,46.53],[-123.31,46.46],[-123.31,46.31],[-123.31,46],[-123.32,45.96],[-123.33,44.5],[-123.32,44.18],[-123.29,43.55],[-123.25,42.48],[-123.22,41.62],[-123.21,41.34],[-123.21,41.33],[-123.24,40.54],[-123.22,40.39],[-123.73,40.19],[-123.76,40.15],[-123.76,40.07],[-123.75,39.99],[-123.74,39.96],[-123.54,39.61],[-123.51,39.56],[-123.4,39.36],[-123.37,39.32],[-123.28,39.16],[-123.27,39.14],[-123.23,39.07],[-123.07,38.78],[-123.05,38.74],[-122.82,38.32],[-122.82,38.31],[-122.77,38.22],[-122.75,38.16],[-122.7,38],[-122.69,37.95],[-122.67,37.9],[-122.65,37.87],[-122.59,37.82],[-122.58,37.81],[-122.53,37.77],[-122.51,37.74],[-122.5,37.74],[-122.5,37.73],[-122.44,37.68],[-122.37,37.62],[-122.38,37.62]],"type":"LineString"}
}
