{
  "id": 2031505901,
  "type": "Feature",
  "properties": {
    "geom:area": 0,
    "geom:bbox": "-122.418290,37.628360,-121.296640,37.955050",
    "geom:latitude": 37.82341859841993,
    "geom:longitude": -121.88257558333211,
    "src:alt_label": "swim-takeoff",
    "src:geom": "swim",
    "swim:elevations": [
      122,
      493,
      649,
      812,
      1072,
      1216,
      1771,
      1910,
      2411,
      2624,
      3055,
      3233,
      3652,
      4316,
      4469,
      4705,
      4957,
      5137,
      5298,
      5567,
      5737,
      5891,
      6114,
      6284
    ],
    "swim:geom": "takeoff",
    "swim:timestamps": [
      1781128495,
      1781128530,
      1781128542,
      1781128560,
      1781128586,
      1781128611,
      1781128665,
      1781128680,
      1781128721,
      1781128747,
      1781128788,
      1781128810,
      1781128868,
      1781128940,
      1781128958,
      1781128985,
      1781129021,
      1781129046,
      1781129064,
      1781129090,
      1781129109,
      1781129127,
      1781129158,
      1781129183
    ],
    "wof:geomhash": "01d365fe0150962d9a46fae458584bfe",
    "wof:id": 2031505901,
    "wof:repo": "sfomuseum-data-flights-2026-06"
  },
  "bbox": [
    -122.41829,
    37.62836,
    -121.29664,
    37.95505
  ],
  "geometry": {"coordinates":[[-122.39225,37.62836],[-122.41829,37.64872],[-122.41539,37.65817],[-122.39865,37.66596],[-122.37061,37.6697],[-122.34115,37.67926],[-122.27043,37.70016],[-122.24878,37.70672],[-122.19203,37.72712],[-122.15657,37.74674],[-122.0995,37.77795],[-122.06775,37.79379],[-121.97081,37.8336],[-121.82595,37.85912],[-121.78905,37.86613],[-121.73281,37.87681],[-121.65602,37.89066],[-121.60124,37.90069],[-121.56192,37.9079],[-121.5048,37.91795],[-121.46292,37.92518],[-121.42208,37.93218],[-121.35242,37.94487],[-121.29664,37.95505]],"type":"LineString"}
}
