{
  "id": 2031542049,
  "type": "Feature",
  "properties": {
    "geom:area": 0,
    "geom:bbox": "-122.556940,37.164380,-122.401110,37.668030",
    "geom:latitude": 37.46273264958309,
    "geom:longitude": -122.5267423962217,
    "src:alt_label": "swim-takeoff",
    "src:geom": "swim",
    "swim:elevations": [
      274,
      402,
      1037,
      1211,
      1307,
      1598,
      2204,
      2477,
      2816,
      3133,
      3524,
      3611,
      3741,
      3919,
      4375,
      4534
    ],
    "swim:geom": "takeoff",
    "swim:timestamps": [
      1781437283,
      1781437290,
      1781437346,
      1781437372,
      1781437384,
      1781437421,
      1781437463,
      1781437483,
      1781437507,
      1781437530,
      1781437586,
      1781437602,
      1781437629,
      1781437651,
      1781437707,
      1781437720
    ],
    "wof:geomhash": "6ad5a1dffb122f0c368ab7b40291e99a",
    "wof:id": 2031542049,
    "wof:repo": "sfomuseum-data-flights-2026-06"
  },
  "bbox": [
    -122.55694,
    37.16438,
    -122.40111,
    37.66803
  ],
  "geometry": {"coordinates":[[-122.40111,37.62925],[-122.40801,37.63202],[-122.46088,37.65543],[-122.48878,37.66681],[-122.50565,37.66803],[-122.53626,37.63607],[-122.53509,37.58299],[-122.53571,37.55783],[-122.53749,37.52513],[-122.53971,37.49417],[-122.54459,37.41212],[-122.54566,37.38458],[-122.54789,37.33828],[-122.55013,37.29656],[-122.55564,37.19072],[-122.55694,37.16438]],"type":"LineString"}
}
