{
  "id": 2031461597,
  "type": "Feature",
  "properties": {
    "geom:area": 0,
    "geom:bbox": "-122.546640,36.722100,-121.360120,37.666290",
    "geom:latitude": 37.190978048937126,
    "geom:longitude": -122.03901190016693,
    "src:alt_label": "swim-takeoff",
    "src:geom": "swim",
    "swim:elevations": [
      91,
      213,
      552,
      1191,
      1469,
      1862,
      1917,
      2755,
      3005,
      3258,
      3727,
      4145,
      4490,
      4721,
      5082,
      5442,
      5850,
      6005,
      6419,
      6586,
      6944,
      7123,
      7651,
      7912,
      7965,
      8402,
      8763,
      8961,
      9289,
      9449,
      9449
    ],
    "swim:geom": "takeoff",
    "swim:timestamps": [
      1780656472,
      1780656481,
      1780656512,
      1780656568,
      1780656597,
      1780656627,
      1780656631,
      1780656686,
      1780656703,
      1780656725,
      1780656776,
      1780656807,
      1780656833,
      1780656851,
      1780656886,
      1780656920,
      1780656956,
      1780656970,
      1780657009,
      1780657025,
      1780657064,
      1780657084,
      1780657136,
      1780657165,
      1780657172,
      1780657222,
      1780657254,
      1780657274,
      1780657310,
      1780657333,
      1780657354
    ],
    "wof:geomhash": "68759b4bc9dfdcbfb451924d5b90385e",
    "wof:id": 2031461597,
    "wof:repo": "sfomuseum-data-flights-2026-06"
  },
  "bbox": [
    -122.54664,
    36.7221,
    -121.36012,
    37.66629
  ],
  "geometry": {"coordinates":[[-122.38953,37.62481],[-122.3975,37.62828],[-122.42644,37.64109],[-122.485,37.66629],[-122.52598,37.66328],[-122.54664,37.63075],[-122.54612,37.6255],[-122.51068,37.55637],[-122.49846,37.53378],[-122.48294,37.5059],[-122.41379,37.44509],[-122.36558,37.40956],[-122.3243,37.37913],[-122.29594,37.35824],[-122.23898,37.31636],[-122.18271,37.27488],[-122.12128,37.22946],[-122.0976,37.21194],[-122.02909,37.16096],[-122.00102,37.14012],[-121.93144,37.08842],[-121.89437,37.06077],[-121.79955,36.98986],[-121.74262,36.94909],[-121.72929,36.93933],[-121.6368,36.87011],[-121.57537,36.82304],[-121.54067,36.79464],[-121.4718,36.74619],[-121.41284,36.73209],[-121.36012,36.7221]],"type":"LineString"}
}
