{
  "id": 2031450167,
  "type": "Feature",
  "properties": {
    "geom:area": 0,
    "geom:bbox": "-150.000000,37.620000,-122.380000,61.170000",
    "geom:latitude": 51.01940932683691,
    "geom:longitude": -134.8510385697731,
    "src:alt_label": "swim-route",
    "src:geom": "swim",
    "swim:geom": "route",
    "wof:geomhash": "e1890f7c6e02484a931147914eedf797",
    "wof:id": 2031450167,
    "wof:repo": "sfomuseum-data-flights-2026-06"
  },
  "bbox": [
    -150,
    37.62,
    -122.38,
    61.17
  ],
  "geometry": {"coordinates":[[-122.38,37.62],[-122.49,37.67],[-122.49,37.67],[-122.5,37.67],[-122.56,37.71],[-122.56,37.71],[-122.59,37.73],[-122.65,37.76],[-122.66,37.77],[-122.74,37.81],[-122.76,37.82],[-122.79,37.87],[-122.8,37.87],[-122.84,37.88],[-122.93,37.99],[-122.94,38],[-122.97,38.02],[-123.12,38.21],[-123.19,38.29],[-123.27,38.39],[-123.31,38.45],[-123.32,38.46],[-123.43,38.6],[-123.48,38.66],[-123.57,38.78],[-123.75,39],[-123.75,39.01],[-123.86,39.18],[-124.08,39.53],[-124.51,40.22],[-126.18,42.72],[-126.64,43.41],[-126.66,43.44],[-127.64,44.87],[-127.7,44.93],[-129.23,47.01],[-129.77,47.69],[-129.77,47.7],[-130.2,48.23],[-130.8,48.96],[-131.71,50.01],[-131.88,50.2],[-132.05,50.37],[-132.32,50.64],[-132.69,51],[-133.73,52.01],[-134.84,53.01],[-136,54],[-137.06,54.67],[-145.51,59.07],[-145.73,59.16],[-146.35,59.42],[-146.77,59.74],[-147.1,59.97],[-147.15,60.01],[-147.34,60.15],[-147.36,60.17],[-147.83,60.49],[-148.29,60.81],[-148.51,60.85],[-148.83,60.91],[-149.25,60.98],[-149.33,61],[-149.43,61.03],[-149.55,61.06],[-149.65,61.09],[-149.7,61.1],[-149.85,61.14],[-149.96,61.17],[-150,61.17]],"type":"LineString"}
}
