{
  "id": 2031489829,
  "type": "Feature",
  "properties": {
    "geom:area": 0,
    "geom:bbox": "-123.123390,37.390370,-122.096930,38.506680",
    "geom:latitude": 37.83376722669242,
    "geom:longitude": -122.55471980089887,
    "src:alt_label": "swim-approach",
    "src:geom": "swim",
    "swim:elevations": [
      7315,
      6950,
      6590,
      6408,
      6252,
      5736,
      5453,
      5304,
      4851,
      4612,
      4532,
      4267,
      4221,
      3499,
      3383,
      3352,
      3353,
      3353,
      3353,
      3353,
      3353,
      3074,
      2736,
      2391,
      2173,
      1886,
      1855,
      1544,
      1378,
      1359,
      1256,
      1219,
      1219,
      1219,
      1149,
      1108,
      1000,
      915,
      893,
      790,
      657,
      427,
      319,
      198,
      127,
      48
    ],
    "swim:geom": "approach",
    "swim:timestamps": [
      1780998977,
      1780999015,
      1780999045,
      1780999066,
      1780999084,
      1780999135,
      1780999164,
      1780999180,
      1780999228,
      1780999254,
      1780999264,
      1780999309,
      1780999323,
      1780999369,
      1780999404,
      1780999413,
      1780999456,
      1780999493,
      1780999500,
      1780999554,
      1780999569,
      1780999607,
      1780999642,
      1780999675,
      1780999697,
      1780999737,
      1780999744,
      1780999795,
      1780999827,
      1780999834,
      1780999850,
      1780999885,
      1780999895,
      1780999939,
      1780999978,
      1780999984,
      1781000004,
      1781000030,
      1781000062,
      1781000078,
      1781000108,
      1781000156,
      1781000183,
      1781000213,
      1781000232,
      1781000255
    ],
    "wof:geomhash": "880f18aa9e43c1cf497d4323b164f3fd",
    "wof:id": 2031489829,
    "wof:repo": "sfomuseum-data-flights-2026-06"
  },
  "bbox": [
    -123.12339,
    37.39037,
    -122.09693,
    38.50668
  ],
  "geometry": {"coordinates":[[-123.12339,38.50668],[-123.06326,38.44197],[-123.02132,38.3832],[-122.99209,38.34236],[-122.96741,38.30794],[-122.89833,38.21182],[-122.86101,38.16012],[-122.83881,38.1294],[-122.77702,38.04391],[-122.74445,37.99892],[-122.73143,37.98077],[-122.67421,37.90407],[-122.65419,37.88205],[-122.58386,37.81485],[-122.53475,37.76883],[-122.52378,37.7585],[-122.47254,37.71018],[-122.43336,37.67333],[-122.42623,37.66665],[-122.37097,37.61457],[-122.35785,37.59862],[-122.3362,37.55438],[-122.31359,37.51549],[-122.29175,37.48065],[-122.27666,37.45702],[-122.2501,37.41487],[-122.24428,37.40757],[-122.17959,37.39037],[-122.13795,37.39175],[-122.13092,37.39504],[-122.11816,37.40488],[-122.10139,37.4332],[-122.09693,37.44142],[-122.09876,37.47954],[-122.12002,37.5094],[-122.12447,37.51344],[-122.14216,37.52285],[-122.16734,37.53349],[-122.19764,37.54638],[-122.21246,37.55264],[-122.2399,37.56423],[-122.28057,37.58136],[-122.30101,37.58992],[-122.32273,37.5991],[-122.3367,37.60494],[-122.35302,37.6118]],"type":"LineString"}
}
