{
  "id": 2031520047,
  "type": "Feature",
  "properties": {
    "geom:area": 0,
    "geom:bbox": "-122.761660,37.519910,-122.063600,38.488900",
    "geom:latitude": 37.85723760228351,
    "geom:longitude": -122.47027326250328,
    "src:alt_label": "swim-approach",
    "src:geom": "swim",
    "swim:elevations": [
      7164,
      6977,
      6613,
      6538,
      6297,
      5941,
      5596,
      5278,
      5123,
      4983,
      4309,
      4151,
      3630,
      3441,
      3418,
      3353,
      3353,
      3291,
      3028,
      2776,
      2216,
      1929,
      1831,
      1829,
      1776,
      1510,
      1423,
      1115,
      1081,
      1051,
      930,
      813,
      675,
      561,
      367,
      196,
      89,
      366
    ],
    "swim:geom": "approach",
    "swim:timestamps": [
      1781267869,
      1781267891,
      1781267935,
      1781267945,
      1781267972,
      1781268014,
      1781268048,
      1781268084,
      1781268103,
      1781268122,
      1781268198,
      1781268218,
      1781268267,
      1781268297,
      1781268308,
      1781268354,
      1781268373,
      1781268394,
      1781268429,
      1781268450,
      1781268497,
      1781268530,
      1781268562,
      1781268588,
      1781268620,
      1781268656,
      1781268669,
      1781268716,
      1781268721,
      1781268735,
      1781268771,
      1781268805,
      1781268829,
      1781268849,
      1781268895,
      1781268940,
      1781268963,
      1781268992
    ],
    "wof:geomhash": "5ed2a85349a4380a744f2822efa95b98",
    "wof:id": 2031520047,
    "wof:repo": "sfomuseum-data-flights-2026-06"
  },
  "bbox": [
    -122.76166,
    37.51991,
    -122.0636,
    38.4889
  ],
  "geometry": {"coordinates":[[-122.69358,38.4889],[-122.70475,38.44938],[-122.72645,38.37188],[-122.73088,38.35586],[-122.74441,38.3075],[-122.76166,38.2338],[-122.75301,38.1746],[-122.73402,38.10936],[-122.72425,38.07609],[-122.71491,38.04384],[-122.67533,37.91443],[-122.65517,37.88405],[-122.58567,37.8172],[-122.54536,37.77886],[-122.53184,37.76615],[-122.47661,37.71656],[-122.44658,37.70501],[-122.41419,37.69623],[-122.36237,37.68249],[-122.33101,37.67393],[-122.26254,37.65578],[-122.21706,37.64365],[-122.17084,37.63243],[-122.13594,37.61992],[-122.09624,37.60086],[-122.0636,37.57087],[-122.06405,37.55703],[-122.10505,37.52074],[-122.11155,37.51991],[-122.13028,37.51992],[-122.17087,37.53492],[-122.20483,37.54942],[-122.22917,37.55971],[-122.24914,37.56813],[-122.28993,37.58528],[-122.32384,37.59948],[-122.34094,37.60675],[-122.35977,37.61397]],"type":"LineString"}
}
