{
  "id": 2031673731,
  "type": "Feature",
  "properties": {
    "geom:area": 0,
    "geom:bbox": "-122.044770,37.463270,-121.295110,37.650520",
    "geom:latitude": 37.56017667869552,
    "geom:longitude": -121.73781422353856,
    "src:alt_label": "swim-approach",
    "src:geom": "swim",
    "swim:elevations": [
      4907,
      4740,
      4561,
      4371,
      4121,
      3909,
      3810,
      3599,
      3468,
      3376,
      3099,
      3048,
      3048,
      3048,
      3048,
      3048,
      3048,
      3048,
      3048,
      2668,
      2453,
      2438,
      2411,
      2233,
      2118,
      1829,
      1834,
      1647
    ],
    "swim:geom": "approach",
    "swim:timestamps": [
      1782746725,
      1782746745,
      1782746775,
      1782746810,
      1782746840,
      1782746876,
      1782746888,
      1782746914,
      1782746932,
      1782746946,
      1782746984,
      1782747003,
      1782747049,
      1782747061,
      1782747078,
      1782747118,
      1782747135,
      1782747166,
      1782747182,
      1782747267,
      1782747296,
      1782747323,
      1782747349,
      1782747374,
      1782747390,
      1782747439,
      1782747459,
      1782747508
    ],
    "wof:geomhash": "7d00286fc1b1d86dc66901474e2c1801",
    "wof:id": 2031673731,
    "wof:repo": "sfomuseum-data-flights-2026-06"
  },
  "bbox": [
    -122.04477,
    37.46327,
    -121.29511,
    37.65052
  ],
  "geometry": {"coordinates":[[-121.29511,37.58868],[-121.33332,37.58451],[-121.38863,37.57863],[-121.45138,37.57104],[-121.50088,37.56505],[-121.55628,37.55868],[-121.57547,37.55655],[-121.61481,37.55192],[-121.64277,37.54716],[-121.6623,37.54853],[-121.71005,37.56876],[-121.73397,37.57935],[-121.79173,37.60493],[-121.80689,37.61154],[-121.82793,37.62077],[-121.87779,37.64235],[-121.89938,37.65052],[-121.94208,37.64192],[-121.95511,37.6253],[-121.88606,37.55318],[-121.84866,37.54278],[-121.83122,37.51663],[-121.84503,37.48804],[-121.87697,37.47762],[-121.89896,37.47481],[-121.96738,37.46535],[-121.99385,37.46327],[-122.04477,37.48138]],"type":"LineString"}
}
