{
  "id": 2031542129,
  "type": "Feature",
  "properties": {
    "geom:area": 0,
    "geom:bbox": "-122.737778,37.633333,-122.230278,45.576111",
    "geom:latitude": 41.66391404770826,
    "geom:longitude": -122.49787707419141,
    "src:alt_label": "swim-path",
    "src:geom": "swim",
    "swim:altitudes": [
      "008",
      "008",
      "051",
      "051",
      "082",
      "126",
      "126",
      "185",
      "201",
      "237",
      "263",
      "296",
      "312",
      "312",
      "326",
      "326",
      "326",
      "340",
      "360C",
      "360C",
      "360C",
      "360C",
      "360C",
      "360C",
      "360C",
      "360C",
      "360C",
      "360C",
      "360C",
      "360C",
      "360C",
      "360C",
      "360C",
      "360C",
      "360C",
      "360C",
      "360C",
      "360C",
      "360C",
      "360C",
      "360C",
      "360C",
      "360C",
      "360C",
      "360C",
      "360C",
      "360C",
      "360C",
      "360C",
      "360",
      "360",
      "346",
      "346",
      "346",
      "317",
      "317",
      "317",
      "226",
      "226",
      "226",
      "184",
      "184",
      "175",
      "163",
      "143",
      "143",
      "139",
      "139",
      "121",
      "121",
      "108",
      "108",
      "092",
      "092",
      "082",
      "082",
      "082",
      "074",
      "063",
      "057",
      "057",
      "045",
      "045",
      "030",
      "030",
      "025",
      "025",
      "012",
      "012",
      "006",
      "004"
    ],
    "swim:geom": "path",
    "swim:speeds": [
      175,
      175,
      275,
      275,
      283,
      327,
      327,
      416,
      431,
      447,
      467,
      468,
      461,
      461,
      458,
      458,
      458,
      452,
      447,
      447,
      446,
      445,
      443,
      440,
      440,
      440,
      436,
      436,
      436,
      432,
      432,
      431,
      431,
      426,
      426,
      426,
      424,
      424,
      426,
      426,
      426,
      429,
      429,
      428,
      428,
      428,
      424,
      424,
      424,
      423,
      423,
      417,
      417,
      417,
      424,
      424,
      424,
      403,
      403,
      403,
      380,
      380,
      368,
      367,
      352,
      352,
      320,
      320,
      301,
      301,
      293,
      293,
      285,
      285,
      266,
      266,
      266,
      210,
      206,
      208,
      208,
      203,
      203,
      196,
      196,
      204,
      204,
      186,
      186,
      152,
      154
    ],
    "swim:timestamps": [
      1781491740,
      1781491740,
      1781491881,
      1781491881,
      1781491941,
      1781492060,
      1781492060,
      1781492240,
      1781492300,
      1781492420,
      1781492542,
      1781492662,
      1781492722,
      1781492722,
      1781492782,
      1781492782,
      1781492782,
      1781492842,
      1781492963,
      1781492963,
      1781493023,
      1781493083,
      1781493143,
      1781493203,
      1781493203,
      1781493203,
      1781493323,
      1781493323,
      1781493323,
      1781493563,
      1781493563,
      1781493623,
      1781493623,
      1781493804,
      1781493804,
      1781493804,
      1781493984,
      1781494044,
      1781494104,
      1781494104,
      1781494104,
      1781494343,
      1781494343,
      1781494404,
      1781494404,
      1781494404,
      1781494583,
      1781494583,
      1781494583,
      1781494763,
      1781494763,
      1781494883,
      1781494883,
      1781494883,
      1781495064,
      1781495064,
      1781495064,
      1781495304,
      1781495304,
      1781495304,
      1781495424,
      1781495424,
      1781495448,
      1781495484,
      1781495544,
      1781495544,
      1781495586,
      1781495586,
      1781495664,
      1781495664,
      1781495724,
      1781495724,
      1781495785,
      1781495785,
      1781495845,
      1781495845,
      1781495845,
      1781495905,
      1781495941,
      1781495965,
      1781495965,
      1781496007,
      1781496007,
      1781496067,
      1781496067,
      1781496145,
      1781496145,
      1781496205,
      1781496205,
      1781496242,
      1781496263
    ],
    "wof:geomhash": "bea667599d87358828ae5f283cbd3e8c",
    "wof:id": 2031542129,
    "wof:repo": "sfomuseum-data-flights-2026-06"
  },
  "bbox": [
    -122.73777777777778,
    37.63333333333333,
    -122.23027777777779,
    45.57611111111112
  ],
  "geometry": {"coordinates":[[-122.4,37.63333333333333],[-122.4,37.63333333333333],[-122.33888888888889,37.73416666666667],[-122.33888888888889,37.73416666666667],[-122.3261111111111,37.81194444444444],[-122.29527777777777,37.98694444444445],[-122.29527777777777,37.98694444444445],[-122.23027777777779,38.32222222222222],[-122.2363888888889,38.44277777777778],[-122.26388888888889,38.691111111111105],[-122.29055555555556,38.94638888888888],[-122.31222222222222,39.20722222222223],[-122.32277777777777,39.33527777777778],[-122.32277777777777,39.33527777777778],[-122.33305555555555,39.463055555555556],[-122.33305555555555,39.463055555555556],[-122.33305555555555,39.463055555555556],[-122.34388888888888,39.59],[-122.36444444444444,39.83583333333333],[-122.36444444444444,39.83583333333333],[-122.37472222222222,39.96138888888889],[-122.38472222222222,40.086111111111116],[-122.3963888888889,40.21472222222223],[-122.40694444444445,40.33638888888889],[-122.40694444444445,40.33638888888889],[-122.40694444444445,40.33638888888889],[-122.42777777777778,40.57833333333333],[-122.42777777777778,40.57833333333333],[-122.42777777777778,40.57833333333333],[-122.46944444444445,41.059999999999995],[-122.46944444444445,41.059999999999995],[-122.47972222222222,41.177499999999995],[-122.47972222222222,41.177499999999995],[-122.50972222222222,41.5175],[-122.50972222222222,41.5175],[-122.50972222222222,41.5175],[-122.54138888888889,41.8725],[-122.55194444444444,41.99055555555556],[-122.56277777777777,42.11055555555556],[-122.56277777777777,42.11055555555556],[-122.56277777777777,42.11055555555556],[-122.60638888888889,42.59027777777778],[-122.60638888888889,42.59027777777778],[-122.61722222222221,42.7075],[-122.61722222222221,42.7075],[-122.61722222222221,42.7075],[-122.64944444444446,43.05583333333333],[-122.64944444444446,43.05583333333333],[-122.64944444444446,43.05583333333333],[-122.6825,43.40972222222222],[-122.6825,43.40972222222222],[-122.70444444444445,43.64083333333333],[-122.70444444444445,43.64083333333333],[-122.70444444444445,43.64083333333333],[-122.73777777777778,43.990833333333335],[-122.73777777777778,43.990833333333335],[-122.73777777777778,43.990833333333335],[-122.72305555555556,44.45416666666667],[-122.72305555555556,44.45416666666667],[-122.72305555555556,44.45416666666667],[-122.70111111111112,44.67583333333333],[-122.70111111111112,44.67583333333333],[-122.69611111111111,44.723333333333336],[-122.69111111111111,44.775277777777774],[-122.68111111111112,44.87361111111111],[-122.68111111111112,44.87361111111111],[-122.67361111111111,44.94638888888888],[-122.67361111111111,44.94638888888888],[-122.66305555555556,45.05361111111111],[-122.66305555555556,45.05361111111111],[-122.64583333333334,45.13138888888889],[-122.64583333333334,45.13138888888889],[-122.58055555555555,45.19472222222222],[-122.58055555555555,45.19472222222222],[-122.5213888888889,45.25805555555556],[-122.5213888888889,45.25805555555556],[-122.5213888888889,45.25805555555556],[-122.48027777777779,45.312777777777775],[-122.46166666666667,45.347500000000004],[-122.45,45.365833333333335],[-122.45,45.365833333333335],[-122.435,45.405],[-122.435,45.405],[-122.41555555555556,45.459722222222226],[-122.41555555555556,45.459722222222226],[-122.4363888888889,45.5225],[-122.4363888888889,45.5225],[-122.49333333333334,45.55444444444444],[-122.49333333333334,45.55444444444444],[-122.53055555555555,45.569722222222225],[-122.54777777777778,45.57611111111112]],"type":"LineString"}
}
