{
  "id": 2031474395,
  "type": "Feature",
  "properties": {
    "geom:area": 0,
    "geom:bbox": "-123.503850,37.137350,-122.199720,37.608020",
    "geom:latitude": 37.29538585277721,
    "geom:longitude": -122.70306795966229,
    "src:alt_label": "swim-approach",
    "src:geom": "swim",
    "swim:elevations": [
      5909,
      5678,
      5279,
      5064,
      4814,
      4407,
      4102,
      4012,
      3754,
      3300,
      3064,
      3047,
      3048,
      3047,
      3048,
      2947,
      2534,
      2452,
      2438,
      2438,
      2324,
      2282,
      2147,
      1908,
      1829,
      1829,
      1829,
      1829,
      1829,
      1608,
      1524,
      1524,
      1524,
      1524,
      1524,
      793,
      568,
      539,
      314,
      271,
      82,
      61
    ],
    "swim:geom": "approach",
    "swim:timestamps": [
      1780843181,
      1780843205,
      1780843245,
      1780843269,
      1780843296,
      1780843340,
      1780843374,
      1780843382,
      1780843413,
      1780843458,
      1780843487,
      1780843505,
      1780843531,
      1780843574,
      1780843609,
      1780843635,
      1780843707,
      1780843723,
      1780843765,
      1780843782,
      1780843812,
      1780843821,
      1780843842,
      1780843884,
      1780843903,
      1780843942,
      1780843973,
      1780843985,
      1780844011,
      1780844049,
      1780844075,
      1780844104,
      1780844118,
      1780844157,
      1780844165,
      1780844313,
      1780844365,
      1780844372,
      1780844421,
      1780844433,
      1780844485,
      1780844490
    ],
    "wof:geomhash": "962b82176c735a1baefcbf27562b72b1",
    "wof:id": 2031474395,
    "wof:repo": "sfomuseum-data-flights-2026-06"
  },
  "bbox": [
    -123.50385,
    37.13735,
    -122.19972,
    37.60802
  ],
  "geometry": {"coordinates":[[-123.50385,37.13735],[-123.44988,37.14717],[-123.36163,37.16407],[-123.30957,37.17406],[-123.25303,37.18466],[-123.15967,37.20222],[-123.09081,37.21519],[-123.07406,37.21831],[-123.01233,37.22987],[-122.92351,37.24659],[-122.86621,37.25713],[-122.8332,37.26465],[-122.78879,37.27498],[-122.72389,37.29015],[-122.67487,37.3017],[-122.63764,37.31045],[-122.53779,37.33338],[-122.51528,37.33855],[-122.46438,37.31981],[-122.46127,37.30022],[-122.46855,37.26657],[-122.47094,37.25598],[-122.47576,37.23267],[-122.44262,37.19685],[-122.41704,37.19905],[-122.37424,37.22109],[-122.33944,37.23975],[-122.32695,37.24777],[-122.30234,37.26694],[-122.2799,37.302],[-122.26569,37.32695],[-122.24992,37.35465],[-122.24237,37.368],[-122.22076,37.40629],[-122.21653,37.41397],[-122.19972,37.54509],[-122.25001,37.56616],[-122.25684,37.56907],[-122.29729,37.58616],[-122.30702,37.59019],[-122.34621,37.60658],[-122.34959,37.60802]],"type":"LineString"}
}
