{
  "id": 2031687655,
  "type": "Feature",
  "properties": {
    "geom:area": 0,
    "geom:bbox": "-122.416590,37.641190,-121.298760,38.103760",
    "geom:latitude": 37.87646332182539,
    "geom:longitude": -121.86749749744497,
    "src:alt_label": "swim-takeoff",
    "src:geom": "swim",
    "swim:elevations": [
      510,
      745,
      939,
      1261,
      1345,
      1863,
      2662,
      2796,
      3301,
      3396,
      3661,
      3734,
      4046,
      4532,
      4685,
      4902,
      5100,
      5247,
      5574,
      5699,
      6075,
      6165,
      6347,
      6412
    ],
    "swim:geom": "takeoff",
    "swim:timestamps": [
      1782823138,
      1782823158,
      1782823181,
      1782823221,
      1782823231,
      1782823282,
      1782823341,
      1782823351,
      1782823404,
      1782823418,
      1782823468,
      1782823484,
      1782823512,
      1782823557,
      1782823571,
      1782823595,
      1782823617,
      1782823634,
      1782823671,
      1782823685,
      1782823728,
      1782823740,
      1782823765,
      1782823771
    ],
    "wof:geomhash": "28dd746ebcf753a562822beeec805cf8",
    "wof:id": 2031687655,
    "wof:repo": "sfomuseum-data-flights-2026-06"
  },
  "bbox": [
    -122.41659,
    37.64119,
    -121.29876,
    38.10376
  ],
  "geometry": {"coordinates":[[-122.41375,37.64119],[-122.41659,37.6592],[-122.40027,37.67589],[-122.34771,37.68497],[-122.33445,37.68794],[-122.25587,37.70776],[-122.16769,37.7418],[-122.15307,37.7498],[-122.07396,37.79119],[-122.05144,37.80272],[-121.96211,37.84406],[-121.92943,37.85709],[-121.87303,37.87952],[-121.77634,37.91764],[-121.747,37.92933],[-121.69693,37.94936],[-121.64762,37.96838],[-121.60986,37.98269],[-121.52753,38.0143],[-121.49703,38.02616],[-121.39704,38.06528],[-121.37012,38.07587],[-121.31218,38.09855],[-121.29876,38.10376]],"type":"LineString"}
}
