{
  "id": 2031509911,
  "type": "Feature",
  "properties": {
    "geom:area": 0,
    "geom:bbox": "-122.362740,37.448380,-121.263370,37.615220",
    "geom:latitude": 37.53116313489571,
    "geom:longitude": -121.82059252939119,
    "src:alt_label": "swim-approach",
    "src:geom": "swim",
    "swim:elevations": [
      4620,
      4367,
      4185,
      3887,
      3707,
      3368,
      3141,
      3048,
      3016,
      2983,
      2987,
      2866,
      2770,
      2638,
      2529,
      2362,
      2287,
      2271,
      2153,
      2008,
      1746,
      1517,
      1448,
      1353,
      1219,
      1003,
      812,
      607,
      463,
      365,
      351,
      215,
      107,
      419
    ],
    "swim:geom": "approach",
    "swim:timestamps": [
      1781169386,
      1781169410,
      1781169426,
      1781169455,
      1781169472,
      1781169506,
      1781169538,
      1781169563,
      1781169574,
      1781169596,
      1781169600,
      1781169640,
      1781169670,
      1781169694,
      1781169726,
      1781169772,
      1781169787,
      1781169793,
      1781169827,
      1781169856,
      1781169893,
      1781169925,
      1781169930,
      1781169940,
      1781169962,
      1781169996,
      1781170028,
      1781170063,
      1781170088,
      1781170104,
      1781170114,
      1781170143,
      1781170172,
      1781170202
    ],
    "wof:geomhash": "4bff10004aaafd60c15e5bb467f63cca",
    "wof:id": 2031509911,
    "wof:repo": "sfomuseum-data-flights-2026-06"
  },
  "bbox": [
    -122.36274,
    37.44838,
    -121.26337,
    37.61522
  ],
  "geometry": {"coordinates":[[-121.26337,37.59269],[-121.31082,37.58688],[-121.34398,37.58348],[-121.40323,37.57683],[-121.43702,37.57287],[-121.50441,37.56487],[-121.56582,37.55783],[-121.61204,37.5522],[-121.63178,37.54873],[-121.66619,37.54045],[-121.67233,37.53904],[-121.72022,37.51329],[-121.74229,37.48311],[-121.77518,37.4771],[-121.82003,37.47745],[-121.88512,37.46396],[-121.90508,37.45858],[-121.9134,37.45627],[-121.95845,37.44838],[-121.99339,37.46051],[-122.03774,37.47857],[-122.07678,37.49403],[-122.08414,37.4971],[-122.09615,37.50301],[-122.12363,37.51522],[-122.16298,37.53193],[-122.19899,37.54702],[-122.23928,37.56398],[-122.26653,37.57541],[-122.28269,37.5823],[-122.29232,37.58623],[-122.31658,37.59657],[-122.3392,37.60599],[-122.36274,37.61522]],"type":"LineString"}
}
