{
  "id": 2031442831,
  "type": "Feature",
  "properties": {
    "geom:area": 0,
    "geom:bbox": "-122.390000,37.620000,-76.390000,42.610000",
    "geom:latitude": 40.444258496006796,
    "geom:longitude": -99.36697838000757,
    "src:alt_label": "swim-route",
    "src:geom": "swim",
    "swim:geom": "route",
    "wof:geomhash": "74a3ebcec16cb3a6d7616bae7602adc9",
    "wof:id": 2031442831,
    "wof:repo": "sfomuseum-data-flights-2026-06"
  },
  "bbox": [
    -122.39,
    37.62,
    -76.39,
    42.61
  ],
  "geometry": {"coordinates":[[-122.38,37.62],[-122.3,37.68],[-122.31,37.7],[-122.31,37.7],[-122.34,37.75],[-122.34,37.76],[-122.35,37.76],[-122.36,37.79],[-122.38,37.83],[-122.39,37.85],[-122.39,37.85],[-122.38,37.94],[-122.31,37.96],[-122.1,38],[-122.03,38.01],[-121.95,38.03],[-121.81,38.06],[-121.7,38.08],[-121.57,38.1],[-121.54,38.11],[-121.46,38.12],[-121.21,38.17],[-121.11,38.19],[-121.04,38.21],[-121.02,38.21],[-120.96,38.22],[-120.92,38.22],[-120.5,38.28],[-119.22,38.45],[-118.96,38.48],[-118.6,38.53],[-118.23,38.57],[-117.94,38.61],[-117.77,38.63],[-117.3,38.68],[-117.29,38.68],[-116.05,38.89],[-115.82,38.92],[-114.68,39.1],[-114.46,39.13],[-114,39.2],[-113.32,39.29],[-113.25,39.3],[-112.98,39.35],[-109.61,39.85],[-109.55,39.86],[-108.35,40.01],[-107.88,40.11],[-107.41,40.23],[-106.79,40.35],[-106.55,40.41],[-105.33,40.66],[-105.23,40.68],[-104.59,40.8],[-103.62,40.98],[-103.51,41],[-102.98,41.1],[-102.26,41.25],[-101.3,41.45],[-101.02,41.5],[-100.55,41.6],[-99.53,41.79],[-99.02,41.88],[-98.75,41.93],[-97.12,42.2],[-96.85,42.24],[-96.3,42.33],[-96.05,42.36],[-95.3,42.47],[-95.05,42.51],[-94.74,42.55],[-94.29,42.61],[-93.2,42.44],[-93.15,42.44],[-92.87,42.39],[-90.34,41.96],[-90.08,41.91],[-89.16,41.73],[-88.71,41.64],[-88.35,41.57],[-88,41.5],[-87,41.26],[-86.85,41.23],[-86.58,41.16],[-85.95,41.01],[-85.77,40.97],[-84.69,40.7],[-83.17,40.31],[-83.17,40.31],[-82.59,40.15],[-81.99,40.11],[-81.61,40.08],[-81.32,40.06],[-80.84,40.02],[-80.82,40.02],[-80.64,39.92],[-80.04,39.86],[-80.03,39.86],[-79.91,39.84],[-79.82,39.82],[-79.59,39.77],[-79.09,39.66],[-79.09,39.66],[-79,39.64],[-78.8,39.6],[-78.62,39.56],[-78.61,39.55],[-78.41,39.51],[-78.4,39.51],[-78.28,39.48],[-78.14,39.45],[-78.08,39.45],[-78.03,39.45],[-77.97,39.45],[-77.78,39.45],[-77.77,39.45],[-77.74,39.45],[-77.69,39.45],[-77.66,39.45],[-77.54,39.45],[-77.42,39.45],[-77.36,39.45],[-77.3,39.44],[-77.3,39.44],[-77.3,39.44],[-77.29,39.44],[-77.29,39.44],[-77.28,39.44],[-77.18,39.44],[-77.07,39.43],[-77.06,39.43],[-76.94,39.43],[-76.82,39.42],[-76.74,39.42],[-76.71,39.41],[-76.59,39.38],[-76.52,39.36],[-76.51,39.36],[-76.49,39.34],[-76.45,39.28],[-76.43,39.26],[-76.41,39.23],[-76.39,39.21],[-76.47,39.2],[-76.58,39.19],[-76.67,39.18]],"type":"LineString"}
}
