{
  "id": 2031528597,
  "type": "Feature",
  "properties": {
    "geom:area": 0,
    "geom:bbox": "-156.116667,19.700000,-122.100000,37.602222",
    "geom:latitude": 29.586644006199563,
    "geom:longitude": -139.7374175043319,
    "src:alt_label": "swim-path",
    "src:geom": "swim",
    "swim:altitudes": [
      "026C",
      "026C",
      "026C",
      "026C",
      "047C",
      "047C",
      "047C",
      "122C",
      "122C",
      "122C",
      "122C",
      "208C",
      "208C",
      "208C",
      "239C",
      "239C",
      "262C",
      "262C",
      "262C",
      "262C",
      "272C",
      "272C",
      "272C",
      "307C",
      "307C",
      "307C",
      "317C",
      "325C",
      "325C",
      "325C",
      "325C",
      "340",
      "340",
      "340",
      "340",
      "340",
      "340",
      "340",
      "340",
      "340",
      "340",
      "340",
      "340",
      "340",
      "340",
      "340",
      "340",
      "340",
      "340",
      "340",
      "340",
      "340",
      "340",
      "340",
      "340",
      "340",
      "340",
      "340",
      "340",
      "340",
      "340",
      "340",
      "340",
      "340",
      "340C",
      "340C",
      "340C",
      "340C",
      "340C",
      "340C",
      "340C",
      "340C",
      "340C",
      "340",
      "340",
      "340",
      "340",
      "340",
      "340",
      "340",
      "340",
      "340",
      "340",
      "340",
      "340",
      "340",
      "340",
      "340",
      "340",
      "340",
      "340",
      "340",
      "340",
      "340",
      "340",
      "340",
      "333",
      "316",
      "316",
      "312C",
      "312C",
      "312C",
      "312C",
      "252",
      "252",
      "232",
      "232",
      "232",
      "228C",
      "228C",
      "228C",
      "228C",
      "154",
      "154",
      "154",
      "154",
      "154",
      "106",
      "106",
      "106",
      "106",
      "106",
      "100C",
      "100C",
      "100C",
      "098C",
      "098C",
      "098C",
      "098C",
      "098C",
      "084",
      "084",
      "084",
      "084",
      "069",
      "069",
      "070",
      "070",
      "070",
      "070",
      "070",
      "070",
      "040",
      "040",
      "040",
      "028",
      "028",
      "027",
      "027",
      "019",
      "019",
      "004",
      "004"
    ],
    "swim:geom": "path",
    "swim:speeds": [
      220,
      220,
      220,
      220,
      260,
      260,
      260,
      300,
      300,
      300,
      300,
      410,
      410,
      410,
      410,
      410,
      420,
      420,
      420,
      420,
      430,
      430,
      430,
      460,
      460,
      460,
      460,
      470,
      470,
      470,
      470,
      480,
      480,
      480,
      460,
      460,
      460,
      450,
      450,
      450,
      450,
      450,
      450,
      450,
      440,
      440,
      440,
      440,
      440,
      440,
      440,
      410,
      410,
      410,
      410,
      410,
      410,
      430,
      430,
      430,
      430,
      430,
      430,
      430,
      476,
      475,
      475,
      475,
      475,
      475,
      474,
      474,
      474,
      470,
      470,
      470,
      470,
      474,
      474,
      475,
      475,
      480,
      480,
      475,
      475,
      480,
      480,
      474,
      480,
      474,
      474,
      474,
      474,
      480,
      480,
      480,
      475,
      474,
      474,
      480,
      480,
      480,
      480,
      434,
      434,
      422,
      422,
      422,
      420,
      420,
      420,
      420,
      371,
      371,
      371,
      371,
      371,
      348,
      348,
      348,
      348,
      348,
      326,
      326,
      326,
      326,
      326,
      326,
      326,
      326,
      242,
      242,
      242,
      242,
      235,
      235,
      237,
      237,
      237,
      237,
      237,
      237,
      201,
      201,
      201,
      184,
      184,
      177,
      177,
      172,
      172,
      155,
      155
    ],
    "swim:timestamps": [
      1781341082,
      1781341082,
      1781341082,
      1781341082,
      1781341142,
      1781341142,
      1781341142,
      1781341322,
      1781341322,
      1781341322,
      1781341322,
      1781341684,
      1781341684,
      1781341684,
      1781341804,
      1781341804,
      1781341924,
      1781341924,
      1781341924,
      1781341924,
      1781341984,
      1781341984,
      1781341984,
      1781342225,
      1781342225,
      1781342225,
      1781342285,
      1781342345,
      1781342345,
      1781342345,
      1781342345,
      1781342466,
      1781342466,
      1781342466,
      1781342706,
      1781342706,
      1781342706,
      1781342827,
      1781342827,
      1781342827,
      1781342827,
      1781342886,
      1781342947,
      1781342947,
      1781343067,
      1781343067,
      1781343127,
      1781343127,
      1781343127,
      1781343127,
      1781343127,
      1781343428,
      1781343428,
      1781343428,
      1781343609,
      1781343609,
      1781343609,
      1781343760,
      1781343760,
      1781343760,
      1781343760,
      1781343760,
      1781343760,
      1781343760,
      1781355851,
      1781355911,
      1781355911,
      1781355911,
      1781355911,
      1781355911,
      1781356091,
      1781356091,
      1781356091,
      1781356097,
      1781356097,
      1781356097,
      1781356097,
      1781356271,
      1781356271,
      1781356331,
      1781356331,
      1781356398,
      1781356398,
      1781356451,
      1781356451,
      1781356458,
      1781356458,
      1781356511,
      1781356518,
      1781356571,
      1781356631,
      1781356631,
      1781356631,
      1781356638,
      1781356638,
      1781356638,
      1781356691,
      1781356751,
      1781356751,
      1781356758,
      1781356758,
      1781356758,
      1781356758,
      1781356931,
      1781356931,
      1781356991,
      1781356991,
      1781356991,
      1781356998,
      1781356998,
      1781356998,
      1781356998,
      1781357211,
      1781357211,
      1781357211,
      1781357211,
      1781357211,
      1781357355,
      1781357355,
      1781357355,
      1781357355,
      1781357355,
      1781357472,
      1781357472,
      1781357472,
      1781357532,
      1781357532,
      1781357532,
      1781357532,
      1781357532,
      1781357652,
      1781357652,
      1781357652,
      1781357652,
      1781357722,
      1781357722,
      1781357772,
      1781357772,
      1781357782,
      1781357782,
      1781357782,
      1781357782,
      1781357962,
      1781357962,
      1781357962,
      1781358072,
      1781358072,
      1781358082,
      1781358082,
      1781358142,
      1781358142,
      1781358252,
      1781358252
    ],
    "wof:geomhash": "d489be61f82e56625de69dec52106c09",
    "wof:id": 2031528597,
    "wof:repo": "sfomuseum-data-flights-2026-06"
  },
  "bbox": [
    -156.11666666666667,
    19.7,
    -122.1,
    37.602222222222224
  ],
  "geometry": {"coordinates":[[-156.08333333333334,19.7],[-156.08333333333334,19.7],[-156.08333333333334,19.7],[-156.08333333333334,19.7],[-156.11666666666667,19.75],[-156.11666666666667,19.75],[-156.11666666666667,19.75],[-156.03333333333333,19.966666666666665],[-156.03333333333333,19.966666666666665],[-156.03333333333333,19.966666666666665],[-156.03333333333333,19.966666666666665],[-155.68333333333334,20.5],[-155.68333333333334,20.5],[-155.68333333333334,20.5],[-155.55,20.683333333333334],[-155.55,20.683333333333334],[-155.41666666666666,20.883333333333333],[-155.41666666666666,20.883333333333333],[-155.41666666666666,20.883333333333333],[-155.41666666666666,20.883333333333333],[-155.33333333333334,20.983333333333334],[-155.33333333333334,20.983333333333334],[-155.33333333333334,20.983333333333334],[-155.05,21.4],[-155.05,21.4],[-155.05,21.4],[-154.96666666666667,21.516666666666666],[-154.9,21.616666666666667],[-154.9,21.616666666666667],[-154.9,21.616666666666667],[-154.9,21.616666666666667],[-154.75,21.833333333333332],[-154.75,21.833333333333332],[-154.75,21.833333333333332],[-154.43333333333334,22.266666666666666],[-154.43333333333334,22.266666666666666],[-154.43333333333334,22.266666666666666],[-154.28333333333333,22.483333333333334],[-154.28333333333333,22.483333333333334],[-154.28333333333333,22.483333333333334],[-154.28333333333333,22.483333333333334],[-154.21666666666667,22.583333333333332],[-154.13333333333333,22.7],[-154.13333333333333,22.7],[-153.98333333333332,22.9],[-153.98333333333332,22.9],[-153.91666666666666,23],[-153.91666666666666,23],[-153.91666666666666,23],[-153.91666666666666,23],[-153.91666666666666,23],[-153.56666666666666,23.483333333333334],[-153.56666666666666,23.483333333333334],[-153.56666666666666,23.483333333333334],[-153.35,23.783333333333335],[-153.35,23.783333333333335],[-153.35,23.783333333333335],[-153.06666666666666,23.933333333333334],[-153.06666666666666,23.933333333333334],[-153.06666666666666,23.933333333333334],[-153.06666666666666,23.933333333333334],[-153.06666666666666,23.933333333333334],[-153.06666666666666,23.933333333333334],[-153.06666666666666,23.933333333333334],[-126.23083333333334,35.657222222222224],[-126.08666666666666,35.71472222222223],[-126.08666666666666,35.71472222222223],[-126.08666666666666,35.71472222222223],[-126.08666666666666,35.71472222222223],[-126.08666666666666,35.71472222222223],[-125.68444444444445,35.93388888888889],[-125.68444444444445,35.93388888888889],[-125.68444444444445,35.93388888888889],[-125.66666666666667,35.95],[-125.66666666666667,35.95],[-125.66666666666667,35.95],[-125.66666666666667,35.95],[-125.26805555555555,36.13638888888889],[-125.26805555555555,36.13638888888889],[-125.12777777777777,36.20388888888889],[-125.12777777777777,36.20388888888889],[-124.96666666666667,36.28333333333333],[-124.96666666666667,36.28333333333333],[-124.8461111111111,36.33888888888889],[-124.8461111111111,36.33888888888889],[-124.81666666666666,36.333333333333336],[-124.81666666666666,36.333333333333336],[-124.70861111111111,36.404444444444444],[-124.66666666666667,36.4],[-124.56527777777778,36.472500000000004],[-124.42416666666666,36.538888888888884],[-124.42416666666666,36.538888888888884],[-124.42416666666666,36.538888888888884],[-124.38333333333334,36.53333333333333],[-124.38333333333334,36.53333333333333],[-124.38333333333334,36.53333333333333],[-124.28416666666666,36.60472222222222],[-124.14277777777778,36.671388888888885],[-124.14277777777778,36.671388888888885],[-124.11666666666666,36.666666666666664],[-124.11666666666666,36.666666666666664],[-124.11666666666666,36.666666666666664],[-124.11666666666666,36.666666666666664],[-123.74,36.85805555555556],[-123.74,36.85805555555556],[-123.61416666666666,36.91611111111111],[-123.61416666666666,36.91611111111111],[-123.61416666666666,36.91611111111111],[-123.58333333333333,36.916666666666664],[-123.58333333333333,36.916666666666664],[-123.58333333333333,36.916666666666664],[-123.58333333333333,36.916666666666664],[-123.16666666666667,37.11666666666667],[-123.16666666666667,37.11666666666667],[-123.16666666666667,37.11666666666667],[-123.16666666666667,37.11666666666667],[-123.16666666666667,37.11666666666667],[-122.9,37.233333333333334],[-122.9,37.233333333333334],[-122.9,37.233333333333334],[-122.9,37.233333333333334],[-122.9,37.233333333333334],[-122.69027777777778,37.29805555555556],[-122.69027777777778,37.29805555555556],[-122.69027777777778,37.29805555555556],[-122.5825,37.323055555555555],[-122.5825,37.323055555555555],[-122.5825,37.323055555555555],[-122.5825,37.323055555555555],[-122.5825,37.323055555555555],[-122.4038888888889,37.364444444444445],[-122.4038888888889,37.364444444444445],[-122.4038888888889,37.364444444444445],[-122.4038888888889,37.364444444444445],[-122.31666666666666,37.35],[-122.31666666666666,37.35],[-122.24444444444444,37.33638888888889],[-122.24444444444444,37.33638888888889],[-122.23333333333333,37.333333333333336],[-122.23333333333333,37.333333333333336],[-122.23333333333333,37.333333333333336],[-122.23333333333333,37.333333333333336],[-122.1,37.46666666666667],[-122.1,37.46666666666667],[-122.1,37.46666666666667],[-122.18416666666667,37.53861111111111],[-122.18416666666667,37.53861111111111],[-122.2,37.55],[-122.2,37.55],[-122.25,37.56666666666667],[-122.25,37.56666666666667],[-122.33583333333333,37.602222222222224],[-122.33583333333333,37.602222222222224]],"type":"LineString"}
}
