{
  "id": 2031474817,
  "type": "Feature",
  "properties": {
    "geom:area": 0,
    "geom:bbox": "-122.361700,37.492350,-121.295320,37.615210",
    "geom:latitude": 37.56728131352931,
    "geom:longitude": -121.87996721855579,
    "src:alt_label": "swim-approach",
    "src:geom": "swim",
    "swim:elevations": [
      1718,
      1527,
      1520,
      1497,
      1124,
      1030,
      792,
      568,
      485,
      437,
      319,
      149,
      89,
      0,
      4603,
      4364,
      4271,
      3783,
      3685,
      3491,
      3337,
      3205,
      3182,
      2984,
      2790,
      2572,
      2378,
      2302,
      2243,
      2016,
      1930,
      1831,
      1794,
      1552,
      1415,
      1298,
      1245,
      1085,
      983,
      853,
      774,
      607,
      462,
      328,
      233,
      106
    ],
    "swim:geom": "approach",
    "swim:timestamps": [
      1780815617,
      1780815655,
      1780815659,
      1780815663,
      1780815715,
      1780815734,
      1780815768,
      1780815807,
      1780815822,
      1780815832,
      1780815854,
      1780815894,
      1780815908,
      1780815932,
      1780901128,
      1780901151,
      1780901160,
      1780901208,
      1780901218,
      1780901244,
      1780901274,
      1780901306,
      1780901310,
      1780901363,
      1780901397,
      1780901421,
      1780901448,
      1780901460,
      1780901472,
      1780901516,
      1780901532,
      1780901561,
      1780901588,
      1780901621,
      1780901646,
      1780901683,
      1780901709,
      1780901753,
      1780901780,
      1780901813,
      1780901831,
      1780901865,
      1780901904,
      1780901937,
      1780901961,
      1780901984
    ],
    "wof:geomhash": "258668c29c4ce4108dc7bc35f376e1e0",
    "wof:id": 2031474817,
    "wof:repo": "sfomuseum-data-flights-2026-06"
  },
  "bbox": [
    -122.3617,
    37.49235,
    -121.29532,
    37.61521
  ],
  "geometry": {"coordinates":[[-122.01777,37.49901],[-122.07309,37.50229],[-122.078,37.50257],[-122.0835,37.5029],[-122.14954,37.52647],[-122.17202,37.53561],[-122.21319,37.55289],[-122.25625,37.57115],[-122.27105,37.57739],[-122.2798,37.58107],[-122.29956,37.58933],[-122.33141,37.60275],[-122.34304,37.60761],[-122.3617,37.61521],[-121.29532,37.5885],[-121.34152,37.5835],[-121.35957,37.58157],[-121.45351,37.57102],[-121.47272,37.56883],[-121.52131,37.5637],[-121.57435,37.5573],[-121.62727,37.54958],[-121.63268,37.54835],[-121.71291,37.52964],[-121.75852,37.51885],[-121.78935,37.5111],[-121.82448,37.50244],[-121.839,37.49877],[-121.85428,37.49506],[-121.91171,37.49235],[-121.93209,37.49352],[-121.9685,37.49586],[-122.00174,37.49814],[-122.03934,37.50039],[-122.06684,37.50227],[-122.10301,37.50643],[-122.12422,37.51517],[-122.1606,37.53076],[-122.18224,37.53996],[-122.20951,37.55141],[-122.22478,37.55785],[-122.25262,37.56965],[-122.2804,37.58196],[-122.30539,37.59188],[-122.32373,37.59954],[-122.34117,37.60687]],"type":"LineString"}
}
