{
  "id": 2031684241,
  "type": "Feature",
  "properties": {
    "geom:area": 0,
    "geom:bbox": "-122.295130,37.854950,-121.253530,37.974930",
    "geom:latitude": 37.91583699142518,
    "geom:longitude": -121.77443375598858,
    "src:alt_label": "swim-takeoff",
    "src:geom": "swim",
    "swim:elevations": [
      3522,
      3772,
      4087,
      4145,
      4612,
      4932,
      5070,
      5346,
      5669,
      5738,
      6040,
      6234,
      6391,
      6711,
      6956,
      6981
    ],
    "swim:geom": "takeoff",
    "swim:timestamps": [
      1782802815,
      1782802854,
      1782802885,
      1782802891,
      1782802943,
      1782802974,
      1782802992,
      1782803026,
      1782803066,
      1782803075,
      1782803108,
      1782803140,
      1782803163,
      1782803208,
      1782803247,
      1782803254
    ],
    "wof:geomhash": "bc72f54df34c31e31f9fd32f0d9e6d3f",
    "wof:id": 2031684241,
    "wof:repo": "sfomuseum-data-flights-2026-06"
  },
  "bbox": [
    -122.29513,
    37.85495,
    -121.25353,
    37.97493
  ],
  "geometry": {"coordinates":[[-122.29513,37.85495],[-122.21239,37.86496],[-122.14381,37.87321],[-122.13105,37.87474],[-122.01399,37.88857],[-121.94131,37.89692],[-121.90118,37.90163],[-121.82136,37.91085],[-121.72411,37.92205],[-121.70223,37.92451],[-121.62174,37.93371],[-121.54187,37.94271],[-121.48408,37.94925],[-121.37086,37.96188],[-121.27064,37.97305],[-121.25353,37.97493]],"type":"LineString"}
}
