{
  "id": 2031439397,
  "type": "Feature",
  "properties": {
    "geom:area": 0,
    "geom:bbox": "-122.662440,37.421560,-122.040740,38.455160",
    "geom:latitude": 37.88768909386721,
    "geom:longitude": -122.36295637952034,
    "src:alt_label": "swim-approach",
    "src:geom": "swim",
    "swim:elevations": [
      7620,
      7620,
      7620,
      7534,
      7402,
      7311,
      7315,
      7315,
      7315,
      7315,
      7106,
      6989,
      6717,
      6298,
      5868,
      5223,
      4864,
      4749,
      4266,
      4175,
      3953,
      3772,
      3595,
      3500,
      3353,
      3353,
      3353,
      3291,
      3118,
      2821,
      2487,
      2408,
      2061,
      1791,
      1629,
      1525,
      1524,
      1524,
      1486,
      1340,
      1249,
      1150,
      1000,
      911,
      761,
      613,
      488,
      396,
      272,
      231,
      0,
      0
    ],
    "swim:geom": "approach",
    "swim:timestamps": [
      1780511082,
      1780511104,
      1780511124,
      1780511153,
      1780511183,
      1780511205,
      1780511231,
      1780511250,
      1780511258,
      1780511297,
      1780511329,
      1780511344,
      1780511380,
      1780511426,
      1780511454,
      1780511483,
      1780511514,
      1780511526,
      1780511597,
      1780511619,
      1780511661,
      1780511691,
      1780511719,
      1780511732,
      1780511776,
      1780511803,
      1780511844,
      1780511869,
      1780511893,
      1780511932,
      1780511968,
      1780511976,
      1780512014,
      1780512057,
      1780512080,
      1780512108,
      1780512131,
      1780512157,
      1780512187,
      1780512215,
      1780512232,
      1780512263,
      1780512290,
      1780512315,
      1780512343,
      1780512373,
      1780512415,
      1780512431,
      1780512473,
      1780512484,
      1780512537,
      1780512542
    ],
    "wof:geomhash": "9c67e5bdefc39a98bc6b4ccd3ff01e54",
    "wof:id": 2031439397,
    "wof:repo": "sfomuseum-data-flights-2026-06"
  },
  "bbox": [
    -122.66244,
    37.42156,
    -122.04074,
    38.45516
  ],
  "geometry": {"coordinates":[[-122.04928,38.45516],[-122.04074,38.41262],[-122.04827,38.37492],[-122.08162,38.32822],[-122.13211,38.29787],[-122.17573,38.28667],[-122.22552,38.28151],[-122.26402,38.27757],[-122.27808,38.2762],[-122.35419,38.2601],[-122.41322,38.24136],[-122.44092,38.23266],[-122.50815,38.21132],[-122.58911,38.17723],[-122.61897,38.13841],[-122.63135,38.08838],[-122.6433,38.03242],[-122.6477,38.01186],[-122.66244,37.90044],[-122.64343,37.8713],[-122.59401,37.82428],[-122.56206,37.79455],[-122.53277,37.76722],[-122.51866,37.75401],[-122.47428,37.71178],[-122.44778,37.687],[-122.4065,37.64799],[-122.3821,37.62505],[-122.35977,37.60144],[-122.33835,37.55832],[-122.31589,37.51976],[-122.31092,37.51154],[-122.28579,37.47156],[-122.24135,37.43914],[-122.2113,37.42796],[-122.1726,37.42156],[-122.13968,37.42316],[-122.11417,37.43815],[-122.10569,37.46455],[-122.1184,37.48758],[-122.12673,37.50111],[-122.14407,37.5229],[-122.16783,37.53389],[-122.1901,37.54303],[-122.2145,37.55344],[-122.24015,37.56434],[-122.27015,37.57693],[-122.28133,37.58161],[-122.31206,37.5946],[-122.31957,37.59763],[-122.35674,37.6134],[-122.36013,37.61506]],"type":"LineString"}
}
