{
  "id": 2031469181,
  "type": "Feature",
  "properties": {
    "geom:area": 0,
    "geom:bbox": "-122.383333,37.405556,-73.366667,40.597222",
    "geom:latitude": 38.42284173516997,
    "geom:longitude": -97.10459170419854,
    "src:alt_label": "swim-path",
    "src:geom": "swim",
    "swim:altitudes": [
      "007",
      "007",
      "007",
      "074",
      "074",
      "074",
      "074",
      "133",
      "133",
      "133",
      "164",
      "164",
      "164",
      "177",
      "177",
      "177",
      "266",
      "266",
      "266",
      "266",
      "285",
      "285",
      "294",
      "294",
      "299",
      "299",
      "303",
      "303",
      "305",
      "305",
      "305",
      "316",
      "316",
      "319",
      "324",
      "324",
      "330C",
      "330C",
      "330C",
      "330C",
      "330C",
      "330C",
      "330C",
      "330C",
      "330C",
      "330C",
      "330C",
      "330C",
      "330C",
      "330C",
      "330C",
      "330C",
      "330C",
      "330C",
      "330C",
      "330C",
      "330C",
      "330C",
      "330C",
      "330C",
      "330C",
      "330C",
      "330C",
      "331C",
      "330C",
      "330C",
      "330C",
      "330C",
      "330C",
      "330C",
      "330C",
      "330C",
      "330C",
      "330C",
      "330C",
      "330C",
      "330C",
      "330C",
      "330C",
      "330C",
      "330C",
      "330C",
      "330C",
      "330C",
      "330C",
      "330C",
      "330C",
      "330C",
      "330C",
      "330C",
      "330C",
      "330C",
      "330C",
      "330C",
      "330C",
      "330C",
      "330C",
      "330C",
      "330C",
      "330C",
      "330C",
      "330C",
      "330C",
      "330C",
      "330C",
      "330C",
      "330C",
      "330C",
      "330C",
      "330C",
      "330C",
      "330C",
      "330C",
      "330C",
      "330C",
      "330C",
      "330C",
      "330C",
      "330C",
      "331C",
      "330C",
      "330C",
      "330C",
      "330C",
      "330C",
      "330C",
      "330C",
      "330C",
      "330C",
      "330C",
      "331C",
      "331C",
      "330C",
      "330C",
      "331C",
      "331C",
      "330C",
      "330C",
      "330C",
      "330C",
      "330C",
      "330C",
      "330C",
      "330C",
      "330C",
      "330C",
      "330C",
      "330C",
      "330C",
      "330C",
      "330C",
      "330C",
      "330C",
      "330C",
      "330C",
      "330C",
      "330C",
      "330C",
      "330C",
      "330C",
      "330C",
      "330C",
      "330C",
      "330C",
      "330C",
      "330C",
      "330C",
      "331",
      "331",
      "345",
      "350C",
      "350C",
      "350C",
      "350C",
      "350C",
      "350C",
      "350C",
      "350C",
      "350C",
      "350C",
      "350C",
      "350C",
      "350C",
      "350C",
      "350C",
      "350C",
      "350C",
      "350C",
      "350C",
      "350C",
      "350C",
      "350C",
      "350C",
      "350C",
      "350C",
      "350C",
      "350C",
      "350C",
      "350C",
      "350C",
      "350C",
      "350C",
      "350C",
      "350C",
      "350C",
      "350C",
      "350C",
      "350C",
      "350C",
      "350C",
      "350C",
      "350C",
      "350C",
      "350C",
      "350C",
      "350C",
      "350C",
      "350C",
      "350C",
      "350C",
      "350C",
      "350C",
      "350C",
      "350C",
      "350C",
      "350C",
      "350C",
      "350C",
      "350C",
      "350C",
      "350C",
      "351C",
      "351C",
      "350C",
      "350C",
      "350C",
      "350C",
      "350C",
      "350C",
      "350C",
      "350C",
      "350C",
      "350C",
      "350C",
      "350C",
      "350C",
      "350C",
      "350C",
      "350C",
      "350C",
      "350C",
      "350C",
      "350C",
      "350C",
      "350C",
      "350C",
      "350C",
      "350C",
      "350C",
      "350C",
      "350C",
      "350C",
      "350C",
      "350C",
      "350C",
      "350C",
      "350C",
      "351C",
      "350C",
      "350C",
      "350C",
      "350C",
      "350C",
      "350C",
      "350C",
      "351C",
      "350C",
      "350C",
      "350C",
      "350C",
      "350C",
      "350C",
      "350C",
      "350C",
      "350C",
      "350C",
      "350C",
      "350C",
      "350C",
      "350C",
      "350C",
      "350C",
      "350C",
      "350C",
      "350C",
      "350C",
      "350C",
      "350C",
      "350C",
      "350C",
      "350C",
      "350C",
      "350C",
      "350C",
      "351C",
      "350C",
      "350C",
      "350C",
      "350C",
      "350C",
      "350C",
      "350C",
      "350C",
      "350C",
      "350C",
      "340",
      "340",
      "340",
      "312",
      "312",
      "297",
      "256",
      "256",
      "225",
      "190",
      "190",
      "172",
      "164",
      "140",
      "140",
      "127",
      "127",
      "111C",
      "110C",
      "110",
      "110C",
      "110C",
      "110C",
      "110",
      "110",
      "105",
      "090",
      "069",
      "061",
      "061",
      "061",
      "050",
      "050",
      "046",
      "034",
      "030",
      "030",
      "030",
      "030",
      "030",
      "018"
    ],
    "swim:geom": "path",
    "swim:speeds": [
      166,
      166,
      166,
      288,
      288,
      288,
      288,
      396,
      396,
      396,
      419,
      419,
      419,
      435,
      435,
      435,
      466,
      466,
      466,
      466,
      472,
      472,
      477,
      477,
      485,
      485,
      492,
      492,
      491,
      491,
      491,
      500,
      500,
      500,
      502,
      502,
      502,
      502,
      509,
      513,
      513,
      512,
      509,
      509,
      509,
      509,
      508,
      506,
      506,
      506,
      505,
      505,
      504,
      504,
      504,
      504,
      507,
      507,
      507,
      507,
      505,
      505,
      505,
      505,
      505,
      505,
      505,
      505,
      503,
      503,
      504,
      504,
      502,
      500,
      500,
      500,
      500,
      501,
      501,
      501,
      501,
      496,
      496,
      496,
      492,
      492,
      492,
      492,
      491,
      491,
      492,
      489,
      489,
      489,
      488,
      489,
      487,
      487,
      484,
      479,
      479,
      479,
      474,
      473,
      473,
      473,
      473,
      473,
      473,
      469,
      469,
      467,
      467,
      467,
      468,
      468,
      472,
      476,
      480,
      481,
      481,
      482,
      479,
      481,
      480,
      484,
      484,
      484,
      466,
      466,
      468,
      468,
      469,
      466,
      467,
      467,
      465,
      457,
      457,
      456,
      459,
      460,
      460,
      464,
      464,
      466,
      466,
      464,
      464,
      464,
      462,
      460,
      450,
      450,
      446,
      446,
      442,
      443,
      443,
      453,
      453,
      457,
      458,
      458,
      459,
      461,
      461,
      462,
      462,
      467,
      466,
      466,
      466,
      465,
      465,
      465,
      464,
      464,
      464,
      464,
      463,
      463,
      458,
      458,
      458,
      461,
      463,
      463,
      465,
      465,
      465,
      465,
      465,
      467,
      467,
      467,
      472,
      472,
      471,
      471,
      471,
      471,
      471,
      471,
      473,
      473,
      473,
      474,
      474,
      475,
      475,
      475,
      477,
      477,
      479,
      479,
      479,
      479,
      485,
      485,
      487,
      487,
      493,
      493,
      493,
      493,
      493,
      494,
      494,
      503,
      503,
      504,
      504,
      500,
      500,
      500,
      496,
      498,
      499,
      502,
      504,
      504,
      504,
      506,
      508,
      509,
      510,
      510,
      506,
      503,
      503,
      499,
      503,
      502,
      501,
      500,
      500,
      498,
      498,
      499,
      499,
      501,
      501,
      503,
      503,
      503,
      503,
      505,
      505,
      502,
      500,
      500,
      499,
      498,
      498,
      501,
      504,
      504,
      504,
      500,
      500,
      497,
      497,
      497,
      496,
      495,
      495,
      496,
      487,
      483,
      483,
      483,
      482,
      482,
      482,
      482,
      481,
      481,
      480,
      480,
      476,
      474,
      469,
      469,
      457,
      454,
      454,
      454,
      454,
      449,
      449,
      438,
      460,
      460,
      466,
      478,
      478,
      478,
      483,
      483,
      485,
      481,
      481,
      480,
      453,
      453,
      454,
      452,
      433,
      433,
      415,
      415,
      375,
      296,
      277,
      277,
      273,
      273,
      268,
      268,
      269,
      262,
      246,
      247,
      247,
      244,
      222,
      222,
      219,
      216,
      163,
      163,
      163,
      159,
      155,
      122
    ],
    "swim:timestamps": [
      1780786326,
      1780786326,
      1780786326,
      1780786552,
      1780786552,
      1780786552,
      1780786552,
      1780786792,
      1780786792,
      1780786792,
      1780786912,
      1780786912,
      1780786912,
      1780786972,
      1780786972,
      1780786972,
      1780787393,
      1780787393,
      1780787393,
      1780787393,
      1780787513,
      1780787513,
      1780787596,
      1780787596,
      1780787656,
      1780787656,
      1780787693,
      1780787693,
      1780787717,
      1780787717,
      1780787717,
      1780787813,
      1780787813,
      1780787837,
      1780787897,
      1780787897,
      1780787957,
      1780787957,
      1780788017,
      1780788114,
      1780788137,
      1780788197,
      1780788317,
      1780788317,
      1780788354,
      1780788354,
      1780788414,
      1780788437,
      1780788437,
      1780788437,
      1780788474,
      1780788498,
      1780788618,
      1780788618,
      1780788618,
      1780788618,
      1780788858,
      1780788858,
      1780788858,
      1780788858,
      1780788978,
      1780788978,
      1780788978,
      1780789158,
      1780789218,
      1780789218,
      1780789218,
      1780789218,
      1780789339,
      1780789339,
      1780789399,
      1780789399,
      1780789519,
      1780789579,
      1780789579,
      1780789759,
      1780789759,
      1780789819,
      1780789819,
      1780789819,
      1780789819,
      1780789939,
      1780789939,
      1780789939,
      1780790236,
      1780790236,
      1780790236,
      1780790236,
      1780790296,
      1780790296,
      1780790357,
      1780790420,
      1780790420,
      1780790420,
      1780790480,
      1780790537,
      1780790897,
      1780790897,
      1780791017,
      1780791258,
      1780791258,
      1780791258,
      1780791438,
      1780791498,
      1780791498,
      1780791498,
      1780791799,
      1780791799,
      1780791799,
      1780792099,
      1780792099,
      1780792219,
      1780792219,
      1780792219,
      1780792520,
      1780792580,
      1780792640,
      1780792700,
      1780792794,
      1780792854,
      1780792974,
      1780793000,
      1780793180,
      1780793214,
      1780793241,
      1780793335,
      1780793335,
      1780793335,
      1780793481,
      1780793481,
      1780793601,
      1780793601,
      1780793661,
      1780793781,
      1780793875,
      1780793875,
      1780793996,
      1780794296,
      1780794296,
      1780794356,
      1780794536,
      1780794562,
      1780794562,
      1780794717,
      1780794743,
      1780794803,
      1780794803,
      1780794957,
      1780794957,
      1780794957,
      1780795017,
      1780795077,
      1780795197,
      1780795197,
      1780795258,
      1780795258,
      1780795318,
      1780795378,
      1780795378,
      1780795498,
      1780795498,
      1780795618,
      1780795678,
      1780795678,
      1780795738,
      1780795919,
      1780795919,
      1780795979,
      1780795979,
      1780796096,
      1780796156,
      1780796156,
      1780796216,
      1780796277,
      1780796277,
      1780796277,
      1780796337,
      1780796397,
      1780796397,
      1780796397,
      1780796637,
      1780796637,
      1780796938,
      1780796938,
      1780796938,
      1780797239,
      1780797299,
      1780797299,
      1780797420,
      1780797420,
      1780797477,
      1780797477,
      1780797477,
      1780797658,
      1780797658,
      1780797658,
      1780797983,
      1780797983,
      1780798043,
      1780798054,
      1780798163,
      1780798163,
      1780798235,
      1780798235,
      1780798283,
      1780798415,
      1780798415,
      1780798463,
      1780798463,
      1780798535,
      1780798595,
      1780798595,
      1780798655,
      1780798655,
      1780798894,
      1780798894,
      1780799016,
      1780799016,
      1780799076,
      1780799076,
      1780799135,
      1780799135,
      1780799497,
      1780799497,
      1780799557,
      1780799557,
      1780799557,
      1780799677,
      1780799677,
      1780799917,
      1780799917,
      1780799977,
      1780799977,
      1780800037,
      1780800037,
      1780800037,
      1780800278,
      1780800338,
      1780800398,
      1780800458,
      1780800519,
      1780800519,
      1780800519,
      1780800579,
      1780800639,
      1780800699,
      1780800759,
      1780800759,
      1780800819,
      1780800876,
      1780800876,
      1780800926,
      1780800936,
      1780801057,
      1780801117,
      1780801227,
      1780801227,
      1780801347,
      1780801347,
      1780801417,
      1780801417,
      1780801467,
      1780801477,
      1780801527,
      1780801527,
      1780801537,
      1780801537,
      1780801597,
      1780801658,
      1780801778,
      1780801828,
      1780801828,
      1780801838,
      1780801948,
      1780801948,
      1780802068,
      1780802246,
      1780802246,
      1780802306,
      1780802366,
      1780802366,
      1780802522,
      1780802522,
      1780802522,
      1780802582,
      1780802607,
      1780802607,
      1780802642,
      1780802787,
      1780802823,
      1780802823,
      1780802823,
      1780802943,
      1780802967,
      1780803027,
      1780803027,
      1780803123,
      1780803123,
      1780803148,
      1780803148,
      1780803183,
      1780803208,
      1780803243,
      1780803243,
      1780803303,
      1780803388,
      1780803388,
      1780803423,
      1780803448,
      1780803543,
      1780803543,
      1780803628,
      1780803664,
      1780803664,
      1780803688,
      1780803904,
      1780803904,
      1780803904,
      1780803990,
      1780803990,
      1780804024,
      1780804111,
      1780804111,
      1780804171,
      1780804264,
      1780804264,
      1780804324,
      1780804351,
      1780804408,
      1780804408,
      1780804444,
      1780804444,
      1780804504,
      1780804564,
      1780804596,
      1780804637,
      1780804649,
      1780804649,
      1780804656,
      1780804656,
      1780804697,
      1780804769,
      1780804842,
      1780804877,
      1780804877,
      1780804890,
      1780804950,
      1780804950,
      1780804956,
      1780805017,
      1780805141,
      1780805141,
      1780805141,
      1780805201,
      1780805321,
      1780805501
    ],
    "wof:geomhash": "4a2b938dfde6991329ac5bf4c1a8fc91",
    "wof:id": 2031469181,
    "wof:repo": "sfomuseum-data-flights-2026-06"
  },
  "bbox": [
    -122.38333333333334,
    37.40555555555555,
    -73.36666666666666,
    40.59722222222222
  ],
  "geometry": {"coordinates":[[-122.38333333333334,37.61666666666667],[-122.38333333333334,37.61666666666667],[-122.38333333333334,37.61666666666667],[-122.16555555555556,37.74277777777778],[-122.16555555555556,37.74277777777778],[-122.16555555555556,37.74277777777778],[-122.16555555555556,37.74277777777778],[-121.71833333333333,37.87972222222222],[-121.71833333333333,37.87972222222222],[-121.71833333333333,37.87972222222222],[-121.44805555555556,37.928888888888885],[-121.44805555555556,37.928888888888885],[-121.44805555555556,37.928888888888885],[-121.30027777777778,37.95583333333334],[-121.30027777777778,37.95583333333334],[-121.30027777777778,37.95583333333334],[-120.20305555555557,38.12777777777778],[-120.20305555555557,38.12777777777778],[-120.20305555555557,38.12777777777778],[-120.20305555555557,38.12777777777778],[-119.8736111111111,38.17583333333333],[-119.8736111111111,38.17583333333333],[-119.61777777777777,38.211666666666666],[-119.61777777777777,38.211666666666666],[-119.44805555555556,38.23527777777778],[-119.44805555555556,38.23527777777778],[-119.3461111111111,38.25111111111111],[-119.3461111111111,38.25111111111111],[-119.27694444444444,38.25972222222222],[-119.27694444444444,38.25972222222222],[-119.27694444444444,38.25972222222222],[-118.99916666666667,38.299166666666665],[-118.99916666666667,38.299166666666665],[-118.92944444444444,38.30833333333333],[-118.75555555555556,38.33166666666667],[-118.75555555555556,38.33166666666667],[-118.58083333333333,38.35527777777778],[-118.58083333333333,38.35527777777778],[-118.40722222222223,38.37861111111111],[-118.11833333333333,38.41638888888889],[-118.03861111111111,38.42666666666666],[-117.86166666666666,38.44916666666666],[-117.50166666666667,38.494166666666665],[-117.50166666666667,38.494166666666665],[-117.39194444444445,38.5075],[-117.39194444444445,38.5075],[-117.21222222222222,38.51916666666666],[-117.14111111111112,38.5175],[-117.14111111111112,38.5175],[-117.14111111111112,38.5175],[-117.06527777777778,38.51583333333333],[-116.9961111111111,38.51416666666667],[-116.63611111111112,38.50611111111111],[-116.63611111111112,38.50611111111111],[-116.63611111111112,38.50611111111111],[-116.63611111111112,38.50611111111111],[-115.91722222222222,38.486111111111114],[-115.91722222222222,38.486111111111114],[-115.91722222222222,38.486111111111114],[-115.91722222222222,38.486111111111114],[-115.55888888888889,38.474722222222226],[-115.55888888888889,38.474722222222226],[-115.55888888888889,38.474722222222226],[-115.00805555555556,38.45444444444445],[-114.83027777777778,38.4475],[-114.83027777777778,38.4475],[-114.83027777777778,38.4475],[-114.83027777777778,38.4475],[-114.47500000000001,38.43277777777777],[-114.47500000000001,38.43277777777777],[-114.29666666666667,38.42472222222222],[-114.29666666666667,38.42472222222222],[-113.94277777777778,38.40833333333333],[-113.76611111111112,38.39972222222222],[-113.76611111111112,38.39972222222222],[-113.23333333333333,38.3725],[-113.23333333333333,38.3725],[-113.05694444444444,38.36277777777778],[-113.05694444444444,38.36277777777778],[-113.05694444444444,38.36277777777778],[-113.05694444444444,38.36277777777778],[-112.70583333333333,38.370555555555555],[-112.70583333333333,38.370555555555555],[-112.70583333333333,38.370555555555555],[-111.86194444444443,38.39388888888889],[-111.86194444444443,38.39388888888889],[-111.86194444444443,38.39388888888889],[-111.86194444444443,38.39388888888889],[-111.68777777777778,38.39805555555556],[-111.68777777777778,38.39805555555556],[-111.51472222222222,38.401944444444446],[-111.315,38.40611111111111],[-111.315,38.40611111111111],[-111.315,38.40611111111111],[-111.14305555555556,38.409444444444446],[-110.99805555555555,38.41222222222222],[-109.95361111111112,38.433055555555555],[-109.95361111111112,38.433055555555555],[-109.6111111111111,38.43888888888888],[-108.93611111111112,38.44777777777777],[-108.93611111111112,38.44777777777777],[-108.93611111111112,38.44777777777777],[-108.43666666666667,38.45194444444445],[-108.27055555555556,38.45305555555556],[-108.27055555555556,38.45305555555556],[-108.27055555555556,38.45305555555556],[-107.43416666666667,38.453611111111115],[-107.43416666666667,38.453611111111115],[-107.43416666666667,38.453611111111115],[-106.58888888888889,38.428888888888885],[-106.58888888888889,38.428888888888885],[-106.26166666666667,38.41138888888889],[-106.26166666666667,38.41138888888889],[-106.26166666666667,38.41138888888889],[-105.44305555555556,38.362500000000004],[-105.28,38.352222222222224],[-105.11277777777777,38.34138888888889],[-104.93388888888889,38.32944444444445],[-104.69,38.311388888888885],[-104.51972222222223,38.300555555555555],[-104.18138888888889,38.27833333333333],[-104.08,38.276666666666664],[-103.57305555555556,38.24944444444444],[-103.5038888888889,38.2475],[-103.40222222222222,38.24],[-103.16638888888889,38.22638888888889],[-103.16638888888889,38.22638888888889],[-103.16638888888889,38.22638888888889],[-102.73472222222222,38.20194444444445],[-102.73472222222222,38.20194444444445],[-102.41027777777778,38.24333333333333],[-102.41027777777778,38.24333333333333],[-102.24583333333334,38.26972222222222],[-101.92555555555556,38.32166666666667],[-101.70027777777779,38.3575],[-101.70027777777779,38.3575],[-101.375,38.408055555555556],[-100.57972222222222,38.52861111111111],[-100.57972222222222,38.52861111111111],[-100.42,38.55222222222222],[-99.93972222222223,38.62083333333334],[-99.83999999999999,38.635],[-99.83999999999999,38.635],[-99.44500000000001,38.689722222222215],[-99.35083333333333,38.70277777777778],[-99.1875,38.724722222222226],[-99.1875,38.724722222222226],[-98.79083333333332,38.77777777777778],[-98.79083333333332,38.77777777777778],[-98.79083333333332,38.77777777777778],[-98.63083333333333,38.79888888888889],[-98.46777777777778,38.819722222222225],[-98.15333333333334,38.859722222222224],[-98.15333333333334,38.859722222222224],[-97.99555555555555,38.87972222222222],[-97.99555555555555,38.87972222222222],[-97.83972222222222,38.89888888888889],[-97.70111111111112,38.91555555555556],[-97.70111111111112,38.91555555555556],[-97.36666666666666,38.96],[-97.36666666666666,38.96],[-97.03027777777778,39.005],[-96.86777777777777,39.02638888888889],[-96.86777777777777,39.02638888888889],[-96.70722222222223,39.04722222222222],[-96.21972222222223,39.10944444444445],[-96.21972222222223,39.10944444444445],[-96.05749999999999,39.12972222222222],[-96.05749999999999,39.12972222222222],[-95.72583333333334,39.17027777777778],[-95.56277777777777,39.19],[-95.56277777777777,39.19],[-95.39611111111111,39.209722222222226],[-95.235,39.228611111111114],[-95.235,39.228611111111114],[-95.235,39.228611111111114],[-95.08555555555554,39.24583333333334],[-94.92083333333333,39.26444444444444],[-94.92083333333333,39.26444444444444],[-94.92083333333333,39.26444444444444],[-94.26277777777777,39.24583333333334],[-94.26277777777777,39.24583333333334],[-93.44666666666667,39.17361111111111],[-93.44666666666667,39.17361111111111],[-93.44666666666667,39.17361111111111],[-92.63222222222221,39.09527777777778],[-92.46722222222222,39.078611111111115],[-92.46722222222222,39.078611111111115],[-92.13472222222222,39.044444444444444],[-92.13472222222222,39.044444444444444],[-91.96861111111112,39.02722222222222],[-91.96861111111112,39.02722222222222],[-91.96861111111112,39.02722222222222],[-91.46805555555555,38.973333333333336],[-91.46805555555555,38.973333333333336],[-91.46805555555555,38.973333333333336],[-90.58944444444444,38.800555555555555],[-90.58944444444444,38.800555555555555],[-90.43111111111112,38.75944444444445],[-90.39250000000001,38.74916666666667],[-90.11611111111111,38.676944444444445],[-90.11611111111111,38.676944444444445],[-89.94,38.63138888888889],[-89.94,38.63138888888889],[-89.79444444444444,38.59166666666667],[-89.46527777777779,38.503055555555555],[-89.46527777777779,38.503055555555555],[-89.3086111111111,38.46083333333333],[-89.3086111111111,38.46083333333333],[-89.11277777777777,38.4175],[-88.97805555555556,38.40694444444444],[-88.97805555555556,38.40694444444444],[-88.7775,38.391666666666666],[-88.7775,38.391666666666666],[-88.13694444444445,38.34111111111111],[-88.13694444444445,38.34111111111111],[-87.76416666666667,38.309999999999995],[-87.76416666666667,38.309999999999995],[-87.59444444444443,38.29555555555555],[-87.59444444444443,38.29555555555555],[-87.4563888888889,38.28361111111111],[-87.4563888888889,38.28361111111111],[-86.39805555555556,38.18583333333333],[-86.39805555555556,38.18583333333333],[-86.22333333333333,38.16888888888889],[-86.22333333333333,38.16888888888889],[-86.22333333333333,38.16888888888889],[-85.87805555555555,38.134166666666665],[-85.87805555555555,38.134166666666665],[-85.17805555555556,38.04138888888889],[-85.17805555555556,38.04138888888889],[-85.0286111111111,38.01777777777777],[-85.0286111111111,38.01777777777777],[-84.85722222222222,37.99055555555556],[-84.85722222222222,37.99055555555556],[-84.85722222222222,37.99055555555556],[-84.17222222222223,37.87833333333333],[-84.00138888888888,37.849722222222226],[-83.82944444444443,37.82083333333334],[-83.6538888888889,37.79083333333333],[-83.48194444444445,37.76138888888889],[-83.48194444444445,37.76138888888889],[-83.48194444444445,37.76138888888889],[-83.30472222222222,37.730555555555554],[-83.13055555555555,37.7],[-82.95416666666667,37.66888888888889],[-82.78027777777778,37.64472222222222],[-82.78027777777778,37.64472222222222],[-82.60194444444444,37.64722222222222],[-82.42555555555556,37.664722222222224],[-82.42555555555556,37.664722222222224],[-82.2863888888889,37.67722222222222],[-82.25277777777778,37.68055555555555],[-81.90305555555557,37.71277777777778],[-81.72611111111111,37.728611111111114],[-81.41527777777779,37.75555555555555],[-81.41527777777779,37.75555555555555],[-81.06777777777778,37.78472222222222],[-81.06777777777778,37.78472222222222],[-80.85805555555555,37.79805555555556],[-80.85805555555555,37.79805555555556],[-80.71888888888888,37.80694444444444],[-80.68222222222222,37.809444444444445],[-80.54055555555556,37.81861111111112],[-80.54055555555556,37.81861111111112],[-80.48333333333333,37.82222222222222],[-80.48333333333333,37.82222222222222],[-80.32722222222222,37.831944444444446],[-80.14805555555556,37.84277777777778],[-79.7975,37.86333333333334],[-79.65833333333335,37.870555555555555],[-79.65833333333335,37.870555555555555],[-79.62166666666666,37.87166666666667],[-79.30472222222222,37.87],[-79.30472222222222,37.87],[-78.95972222222223,37.80083333333333],[-78.4475,37.68861111111111],[-78.4475,37.68861111111111],[-78.27694444444444,37.650555555555556],[-78.10972222222222,37.61333333333334],[-78.10972222222222,37.61333333333334],[-77.69444444444444,37.52055555555555],[-77.69444444444444,37.52055555555555],[-77.69444444444444,37.52055555555555],[-77.5286111111111,37.48444444444444],[-77.44361111111111,37.467222222222226],[-77.44361111111111,37.467222222222226],[-77.36083333333333,37.448611111111106],[-76.92722222222223,37.40555555555555],[-76.86472222222221,37.41277777777778],[-76.86472222222221,37.41277777777778],[-76.86472222222221,37.41277777777778],[-76.51055555555556,37.45611111111111],[-76.42916666666667,37.46611111111111],[-76.26361111111112,37.486111111111114],[-76.26361111111112,37.486111111111114],[-76.01861111111111,37.54194444444444],[-76.01861111111111,37.54194444444444],[-75.95722222222223,37.56722222222223],[-75.95722222222223,37.56722222222223],[-75.87444444444444,37.61],[-75.82388888888889,37.6425],[-75.75472222222223,37.69638888888888],[-75.75472222222223,37.69638888888888],[-75.65805555555556,37.80027777777777],[-75.53527777777778,37.946666666666665],[-75.53527777777778,37.946666666666665],[-75.48194444444445,38.00805555555556],[-75.44444444444444,38.05138888888889],[-75.31833333333333,38.21277777777778],[-75.31833333333333,38.21277777777778],[-75.25472222222223,38.37638888888889],[-75.21388888888889,38.44444444444444],[-75.21388888888889,38.44444444444444],[-75.17750000000001,38.48722222222222],[-74.84972222222221,38.8875],[-74.84972222222221,38.8875],[-74.84972222222221,38.8875],[-74.71888888888888,39.04666666666667],[-74.71888888888888,39.04666666666667],[-74.66388888888889,39.11222222222222],[-74.53305555555555,39.269999999999996],[-74.53305555555555,39.269999999999996],[-74.43972222222223,39.38194444444444],[-74.27944444444444,39.57277777777778],[-74.27944444444444,39.57277777777778],[-74.17833333333334,39.66722222222222],[-74.13972222222223,39.702222222222225],[-74.03111111111112,39.800555555555555],[-74.03111111111112,39.800555555555555],[-73.97722222222222,39.85305555555556],[-73.97722222222222,39.85305555555556],[-73.91333333333334,39.943888888888885],[-73.85472222222222,40.02611111111111],[-73.81666666666666,40.05],[-73.78555555555555,40.07666666666667],[-73.75,40.09777777777778],[-73.75,40.09777777777778],[-73.73333333333333,40.1],[-73.73333333333333,40.1],[-73.69333333333334,40.13138888888889],[-73.61222222222221,40.17777777777778],[-73.51666666666667,40.233333333333334],[-73.47361111111111,40.263333333333335],[-73.47361111111111,40.263333333333335],[-73.47111111111111,40.26611111111111],[-73.42694444444444,40.31861111111112],[-73.42694444444444,40.31861111111112],[-73.41666666666667,40.333333333333336],[-73.36666666666666,40.38333333333333],[-73.37944444444443,40.46888888888889],[-73.37944444444443,40.46888888888889],[-73.37944444444443,40.46888888888889],[-73.42694444444444,40.49194444444444],[-73.52305555555556,40.53638888888889],[-73.65722222222223,40.59722222222222]],"type":"LineString"}
}
