{
  "id": 2031447993,
  "type": "Feature",
  "properties": {
    "date:inception_lower": "2026-06-04",
    "date:inception_upper": "2026-06-04",
    "edtf:cessation": "",
    "edtf:inception": "2026-06-04",
    "flysfo:actual_timestamp": -1,
    "flysfo:airline": "UA",
    "flysfo:date": "2026-06-04",
    "flysfo:estimated_timestamp": 1780590120,
    "flysfo:event": "A",
    "flysfo:flight_number": "UA2778",
    "flysfo:gate": "D10",
    "flysfo:journey": "OMA-SFO",
    "flysfo:scheduled_timestamp": 1780590480,
    "flysfo:timestamp": 1780590480,
    "geom:area": 0,
    "geom:bbox": "-122.370943,37.617990,-95.897601,41.301438",
    "geom:latitude": 39.459714,
    "geom:longitude": -109.134272,
    "iata:airline": "UA",
    "icao:airline": "UAL",
    "lbl:latitude": 37.617908,
    "lbl:longitude": -122.381084,
    "sfomuseum:airline_id": 1159285413,
    "sfomuseum:arrival_id": 102527513,
    "sfomuseum:departure_id": 102524739,
    "sfomuseum:flight_id": "20260604-A-UAL-2778",
    "sfomuseum:flight_number": [
      "UAL2778",
      "UA2778"
    ],
    "sfomuseum:placetype": "flight",
    "src:geom": "flysfo",
    "wof:belongsto": [
      1947304067,
      102527513,
      1947304595,
      102191575,
      85633793,
      102087579,
      85922583,
      554784711,
      85688637,
      1947304603,
      1947304591,
      102085387
    ],
    "wof:country": "US",
    "wof:created": 1780675732,
    "wof:geomhash": "a4023a41644574291fc7580f5443d9f4",
    "wof:hierarchy": [
      {
        "building_id": 1947304067,
        "campus_id": 102527513,
        "concourse_id": 1947304595,
        "continent_id": 102191575,
        "country_id": 85633793,
        "county_id": 102087579,
        "custom_id": 2031447993,
        "flight_id": 2031447993,
        "locality_id": 85922583,
        "postalcode_id": 554784711,
        "region_id": 85688637,
        "venue_id": 1947304603,
        "wing_id": 1947304591
      },
      {
        "building_id": 1947304067,
        "campus_id": 102527513,
        "concourse_id": 1947304595,
        "continent_id": 102191575,
        "country_id": 85633793,
        "county_id": 102085387,
        "custom_id": 2031447993,
        "flight_id": 2031447993,
        "region_id": 85688637,
        "venue_id": 1947304603,
        "wing_id": 1947304591
      }
    ],
    "wof:id": 2031447993,
    "wof:involves": [
      102527513,
      102524739,
      1159285413,
      1947304603
    ],
    "wof:lastmodified": 1780675732,
    "wof:name": "UA2778 (OMA-SFO)",
    "wof:parent_id": 1947304603,
    "wof:placetype": "custom",
    "wof:placetype_alt": [
      "flight"
    ],
    "wof:repo": "sfomuseum-data-flights-2026-06",
    "wof:superseded_by": [],
    "wof:supersedes": []
  },
  "bbox": [
    -122.370943,
    37.61799,
    -95.897601,
    41.301438
  ],
  "geometry": {"coordinates":[[-95.897601,41.301438],[-122.370943,37.61799]],"type":"MultiPoint"}
}
