{
  "id": 2031505665,
  "type": "Feature",
  "properties": {
    "geom:area": 0,
    "geom:bbox": "-122.416667,37.375556,-85.291389,39.937500",
    "geom:latitude": 38.513410576217986,
    "geom:longitude": -101.26496000663855,
    "src:alt_label": "swim-path",
    "src:geom": "swim",
    "swim:altitudes": [
      "013",
      "013",
      "023",
      "023",
      "023",
      "023",
      "023",
      "042",
      "062",
      "062",
      "062",
      "062",
      "106",
      "106",
      "106",
      "106",
      "106",
      "151",
      "151",
      "151",
      "168",
      "168",
      "180",
      "180",
      "180",
      "180",
      "227",
      "227",
      "227",
      "227",
      "249",
      "249",
      "249",
      "249",
      "249",
      "267",
      "267",
      "267",
      "267",
      "283",
      "283",
      "294",
      "294",
      "294",
      "307",
      "310C",
      "310C",
      "310C",
      "310C",
      "310C",
      "310C",
      "310C",
      "310C",
      "310C",
      "310C",
      "310C",
      "310C",
      "310C",
      "310C",
      "310C",
      "310C",
      "310C",
      "310C",
      "310C",
      "310C",
      "310C",
      "310C",
      "310C",
      "310C",
      "310C",
      "310C",
      "310C",
      "310C",
      "310C",
      "310C",
      "310C",
      "310C",
      "310C",
      "310C",
      "310C",
      "310C",
      "310C",
      "310C",
      "310C",
      "310C",
      "310C",
      "310C",
      "310C",
      "310C",
      "310C",
      "310C",
      "310C",
      "310C",
      "310C",
      "310C",
      "310C",
      "310C",
      "310C",
      "310C",
      "310C",
      "310C",
      "310C",
      "310C",
      "310C",
      "310C",
      "310C",
      "310C",
      "310C",
      "310C",
      "310C",
      "310C",
      "310C",
      "310C",
      "310C",
      "310C",
      "310C",
      "310C",
      "310C",
      "310C",
      "310C",
      "310C",
      "310C",
      "310C",
      "310C",
      "310C",
      "310C",
      "310C",
      "310C",
      "310C",
      "310C",
      "310C",
      "310C",
      "310C",
      "310C",
      "310C",
      "310C",
      "310C",
      "310C",
      "310C",
      "310C",
      "310C",
      "310C",
      "310C",
      "310C",
      "310C",
      "310C",
      "310C",
      "310C",
      "310C",
      "310C",
      "310C",
      "310C",
      "310C",
      "310C",
      "310C",
      "310C",
      "310C",
      "310C",
      "310C",
      "310C",
      "310C",
      "310C",
      "310C",
      "310C",
      "310C",
      "310C",
      "310C",
      "310C",
      "310C",
      "310C",
      "310C",
      "310C",
      "310C",
      "310C",
      "310C",
      "310C",
      "310C",
      "310C",
      "310C",
      "310C",
      "310C",
      "310C",
      "310C",
      "310C",
      "310C",
      "310C",
      "310C",
      "310C",
      "310C",
      "310C",
      "310C",
      "310C",
      "310C",
      "310C",
      "310C",
      "310C",
      "310C",
      "310C",
      "310C",
      "310C",
      "310C",
      "310C",
      "310C",
      "310",
      "310",
      "310",
      "310",
      "310",
      "350C",
      "350C",
      "350C",
      "350C",
      "350C",
      "350C",
      "350C",
      "350C",
      "350C",
      "350C",
      "350C",
      "350C",
      "350C",
      "350C",
      "350C",
      "350C",
      "350C",
      "350C",
      "350C",
      "350C",
      "350C",
      "350C",
      "350C",
      "350C",
      "350C",
      "350C",
      "350C",
      "350C",
      "350C",
      "350C",
      "350C",
      "350C",
      "350C",
      "350C",
      "350C",
      "350C",
      "350C",
      "350C",
      "350C",
      "350C",
      "350C",
      "350C",
      "350C",
      "350C",
      "350C",
      "350C",
      "350C",
      "350C",
      "350C",
      "350C",
      "350C",
      "350C",
      "350C",
      "350C",
      "350C",
      "350C",
      "350C",
      "350C",
      "350C",
      "350C",
      "350C",
      "350C",
      "350C",
      "350C",
      "350C",
      "350C",
      "350C",
      "350C",
      "350C",
      "350C",
      "350C",
      "350C",
      "350C",
      "350C",
      "350C",
      "350C",
      "349",
      "349",
      "349",
      "349",
      "330C",
      "330C",
      "330C",
      "330C",
      "330C",
      "330C",
      "330C",
      "330C",
      "330C",
      "330C",
      "330C",
      "330C",
      "330C",
      "330C",
      "330C",
      "330C",
      "330C",
      "330C",
      "330C",
      "330C",
      "330C",
      "330C",
      "330C",
      "330C",
      "330C",
      "330C",
      "330C",
      "330C",
      "330C",
      "330C",
      "330C",
      "330C",
      "330C",
      "330C",
      "330C",
      "330C",
      "330C",
      "330C",
      "330C",
      "330C",
      "330C",
      "330C",
      "330C",
      "330C",
      "330C",
      "330C",
      "330C",
      "330C",
      "330C",
      "330C",
      "330C",
      "330C",
      "330C",
      "330C",
      "330C",
      "330C",
      "330C",
      "330C",
      "330C",
      "330C",
      "330C",
      "330C",
      "330C",
      "330C",
      "330C",
      "330C",
      "330C",
      "330C",
      "330C",
      "330C",
      "330C",
      "330C",
      "330C",
      "330C",
      "330C",
      "330C",
      "330C",
      "330C",
      "330C",
      "330C",
      "330C",
      "330C",
      "330C",
      "330C",
      "330C",
      "330C",
      "330C",
      "330C",
      "330C",
      "330C",
      "330C",
      "330C",
      "330C",
      "330C",
      "330",
      "330",
      "330",
      "323",
      "323",
      "310C",
      "310C",
      "310C",
      "310C",
      "310C",
      "310",
      "310",
      "305",
      "305",
      "295",
      "292C",
      "292C",
      "290C",
      "290C",
      "290C",
      "290C",
      "290C",
      "290C",
      "290C",
      "290C",
      "290C",
      "290C",
      "290C",
      "290C",
      "290C",
      "290C",
      "290C",
      "290C",
      "290C",
      "290C",
      "290C",
      "290C",
      "290C",
      "289",
      "289",
      "280C",
      "280C",
      "280C",
      "280C",
      "280C",
      "280C",
      "280C",
      "280C",
      "280C",
      "280C",
      "280C",
      "280C",
      "280C",
      "280C",
      "280C",
      "280C",
      "280C",
      "281C",
      "281C",
      "280C",
      "280C",
      "280C",
      "280C",
      "280C",
      "280C",
      "280C",
      "280C",
      "280C",
      "280C",
      "280C",
      "280C",
      "280C",
      "280C",
      "252",
      "237",
      "237",
      "222",
      "222",
      "222",
      "193",
      "193",
      "193",
      "171",
      "171",
      "171",
      "140",
      "140",
      "140",
      "140",
      "118",
      "118",
      "118",
      "101",
      "101",
      "101",
      "054",
      "054",
      "054",
      "054",
      "046",
      "046",
      "046",
      "046",
      "037",
      "037",
      "020",
      "020",
      "020",
      "012",
      "012",
      "012"
    ],
    "swim:geom": "path",
    "swim:speeds": [
      183,
      183,
      168,
      168,
      168,
      168,
      168,
      236,
      266,
      266,
      266,
      266,
      291,
      291,
      291,
      291,
      291,
      425,
      425,
      425,
      437,
      437,
      449,
      449,
      449,
      449,
      489,
      489,
      489,
      489,
      506,
      506,
      506,
      506,
      506,
      523,
      523,
      523,
      523,
      526,
      526,
      521,
      521,
      521,
      519,
      516,
      516,
      515,
      515,
      517,
      517,
      517,
      517,
      517,
      518,
      518,
      518,
      520,
      520,
      520,
      520,
      520,
      519,
      519,
      521,
      521,
      521,
      521,
      521,
      521,
      521,
      521,
      522,
      522,
      523,
      523,
      523,
      522,
      522,
      520,
      519,
      519,
      519,
      519,
      517,
      517,
      517,
      516,
      516,
      516,
      516,
      516,
      516,
      516,
      515,
      515,
      515,
      515,
      515,
      515,
      515,
      515,
      515,
      515,
      515,
      515,
      516,
      516,
      516,
      516,
      516,
      516,
      519,
      519,
      519,
      519,
      521,
      521,
      521,
      523,
      524,
      524,
      525,
      525,
      525,
      526,
      526,
      526,
      527,
      527,
      527,
      527,
      527,
      527,
      527,
      527,
      528,
      529,
      529,
      529,
      529,
      529,
      531,
      531,
      531,
      531,
      531,
      531,
      531,
      532,
      532,
      532,
      533,
      533,
      533,
      534,
      534,
      534,
      536,
      536,
      536,
      536,
      536,
      538,
      538,
      538,
      523,
      523,
      523,
      527,
      527,
      530,
      530,
      530,
      530,
      530,
      536,
      536,
      536,
      536,
      536,
      536,
      534,
      534,
      534,
      534,
      534,
      534,
      529,
      529,
      529,
      526,
      526,
      527,
      527,
      527,
      527,
      529,
      529,
      529,
      534,
      534,
      534,
      531,
      531,
      531,
      531,
      531,
      512,
      512,
      512,
      512,
      514,
      513,
      513,
      513,
      513,
      514,
      514,
      514,
      514,
      514,
      514,
      521,
      521,
      521,
      521,
      521,
      521,
      521,
      521,
      523,
      523,
      524,
      524,
      524,
      524,
      524,
      524,
      524,
      526,
      526,
      526,
      527,
      527,
      527,
      527,
      528,
      528,
      528,
      528,
      529,
      529,
      529,
      511,
      511,
      511,
      511,
      508,
      508,
      505,
      505,
      505,
      505,
      505,
      505,
      509,
      509,
      509,
      514,
      514,
      514,
      523,
      523,
      523,
      523,
      527,
      527,
      527,
      525,
      525,
      525,
      525,
      525,
      486,
      486,
      486,
      486,
      500,
      500,
      500,
      500,
      501,
      501,
      502,
      502,
      502,
      502,
      500,
      500,
      500,
      500,
      498,
      498,
      498,
      498,
      498,
      497,
      497,
      497,
      496,
      496,
      496,
      496,
      496,
      496,
      496,
      496,
      496,
      497,
      497,
      497,
      497,
      501,
      501,
      501,
      501,
      501,
      513,
      513,
      510,
      510,
      510,
      513,
      513,
      514,
      514,
      514,
      514,
      515,
      514,
      514,
      514,
      514,
      514,
      514,
      509,
      509,
      506,
      506,
      506,
      502,
      502,
      491,
      491,
      491,
      488,
      485,
      485,
      485,
      485,
      482,
      482,
      478,
      478,
      478,
      478,
      479,
      479,
      479,
      479,
      480,
      480,
      480,
      484,
      484,
      483,
      483,
      483,
      483,
      479,
      479,
      459,
      459,
      459,
      454,
      454,
      453,
      453,
      453,
      453,
      453,
      454,
      454,
      453,
      453,
      454,
      458,
      458,
      457,
      457,
      453,
      453,
      453,
      403,
      403,
      403,
      394,
      436,
      436,
      436,
      436,
      436,
      436,
      431,
      431,
      431,
      431,
      405,
      405,
      399,
      399,
      386,
      386,
      373,
      391,
      391,
      400,
      400,
      400,
      400,
      403,
      386,
      386,
      386,
      380,
      378,
      411,
      411,
      442,
      442,
      446,
      446,
      417,
      424,
      424,
      424,
      424,
      406,
      378,
      385,
      385,
      382,
      382,
      382,
      348,
      338,
      338,
      319,
      319,
      319,
      317,
      317,
      317,
      322,
      322,
      322,
      349,
      349,
      349,
      349,
      340,
      340,
      340,
      330,
      330,
      330,
      308,
      308,
      308,
      308,
      253,
      253,
      253,
      253,
      213,
      213,
      166,
      166,
      166,
      151,
      151,
      151
    ],
    "swim:timestamps": [
      1781112606,
      1781112606,
      1781112620,
      1781112620,
      1781112620,
      1781112620,
      1781112620,
      1781112726,
      1781112786,
      1781112786,
      1781112786,
      1781112786,
      1781112906,
      1781112906,
      1781112906,
      1781112906,
      1781112906,
      1781113147,
      1781113147,
      1781113147,
      1781113207,
      1781113207,
      1781113267,
      1781113267,
      1781113267,
      1781113267,
      1781113507,
      1781113507,
      1781113507,
      1781113507,
      1781113627,
      1781113627,
      1781113627,
      1781113627,
      1781113627,
      1781113748,
      1781113748,
      1781113748,
      1781113748,
      1781113801,
      1781113801,
      1781113861,
      1781113861,
      1781113861,
      1781113921,
      1781113981,
      1781113981,
      1781113988,
      1781113988,
      1781114042,
      1781114042,
      1781114042,
      1781114048,
      1781114048,
      1781114228,
      1781114228,
      1781114228,
      1781114282,
      1781114342,
      1781114342,
      1781114342,
      1781114342,
      1781114348,
      1781114348,
      1781114582,
      1781114582,
      1781114589,
      1781114589,
      1781114589,
      1781114649,
      1781114649,
      1781114649,
      1781114709,
      1781114709,
      1781114823,
      1781114823,
      1781114823,
      1781114889,
      1781114889,
      1781114949,
      1781115009,
      1781115009,
      1781115009,
      1781115009,
      1781115063,
      1781115063,
      1781115063,
      1781115123,
      1781115123,
      1781115183,
      1781115183,
      1781115183,
      1781115183,
      1781115183,
      1781115556,
      1781115556,
      1781115556,
      1781115556,
      1781115616,
      1781115616,
      1781115616,
      1781115616,
      1781115676,
      1781115676,
      1781115736,
      1781115736,
      1781115796,
      1781115856,
      1781115856,
      1781115856,
      1781115856,
      1781115856,
      1781116096,
      1781116096,
      1781116096,
      1781116096,
      1781116337,
      1781116337,
      1781116337,
      1781116397,
      1781116457,
      1781116457,
      1781116487,
      1781116487,
      1781116487,
      1781116547,
      1781116547,
      1781116547,
      1781116577,
      1781116608,
      1781116668,
      1781116668,
      1781116668,
      1781116668,
      1781116697,
      1781116697,
      1781116817,
      1781116877,
      1781116877,
      1781116877,
      1781116908,
      1781116908,
      1781116968,
      1781116998,
      1781117028,
      1781117028,
      1781117028,
      1781117058,
      1781117058,
      1781117118,
      1781117118,
      1781117118,
      1781117178,
      1781117178,
      1781117178,
      1781117208,
      1781117238,
      1781117238,
      1781117329,
      1781117329,
      1781117358,
      1781117358,
      1781117358,
      1781117449,
      1781117449,
      1781117449,
      1781117689,
      1781117689,
      1781117689,
      1781117749,
      1781117749,
      1781117809,
      1781117809,
      1781117809,
      1781117809,
      1781117809,
      1781117990,
      1781117990,
      1781118050,
      1781118050,
      1781118050,
      1781118050,
      1781118110,
      1781118110,
      1781118110,
      1781118170,
      1781118170,
      1781118170,
      1781118290,
      1781118290,
      1781118290,
      1781118530,
      1781118530,
      1781118590,
      1781118590,
      1781118590,
      1781118590,
      1781118650,
      1781118650,
      1781118650,
      1781118891,
      1781118891,
      1781118891,
      1781119011,
      1781119011,
      1781119011,
      1781119011,
      1781119011,
      1781119191,
      1781119191,
      1781119191,
      1781119191,
      1781119246,
      1781119311,
      1781119311,
      1781119311,
      1781119311,
      1781119371,
      1781119371,
      1781119426,
      1781119426,
      1781119426,
      1781119426,
      1781119606,
      1781119606,
      1781119606,
      1781119606,
      1781119672,
      1781119672,
      1781119672,
      1781119672,
      1781119792,
      1781119792,
      1781119847,
      1781119847,
      1781119847,
      1781119847,
      1781119907,
      1781119907,
      1781119907,
      1781120147,
      1781120147,
      1781120147,
      1781120267,
      1781120267,
      1781120267,
      1781120267,
      1781120393,
      1781120393,
      1781120393,
      1781120393,
      1781120448,
      1781120448,
      1781120448,
      1781120688,
      1781120688,
      1781120688,
      1781120688,
      1781120748,
      1781120748,
      1781120808,
      1781120808,
      1781120808,
      1781120808,
      1781120928,
      1781120928,
      1781120988,
      1781120988,
      1781120988,
      1781121048,
      1781121048,
      1781121048,
      1781121169,
      1781121169,
      1781121169,
      1781121169,
      1781121289,
      1781121289,
      1781121289,
      1781121529,
      1781121529,
      1781121529,
      1781121529,
      1781121529,
      1781121827,
      1781121827,
      1781121827,
      1781121827,
      1781122187,
      1781122187,
      1781122187,
      1781122187,
      1781122307,
      1781122307,
      1781122367,
      1781122367,
      1781122367,
      1781122367,
      1781122488,
      1781122488,
      1781122488,
      1781122488,
      1781122608,
      1781122608,
      1781122608,
      1781122608,
      1781122728,
      1781122848,
      1781122848,
      1781122848,
      1781122908,
      1781122908,
      1781122908,
      1781123028,
      1781123028,
      1781123028,
      1781123028,
      1781123209,
      1781123209,
      1781123269,
      1781123269,
      1781123269,
      1781123269,
      1781123389,
      1781123389,
      1781123389,
      1781123389,
      1781123389,
      1781123551,
      1781123551,
      1781123569,
      1781123569,
      1781123569,
      1781123671,
      1781123671,
      1781123731,
      1781123731,
      1781123731,
      1781123750,
      1781123870,
      1781123911,
      1781123911,
      1781123911,
      1781123930,
      1781123930,
      1781123930,
      1781124031,
      1781124031,
      1781124091,
      1781124091,
      1781124091,
      1781124152,
      1781124152,
      1781124230,
      1781124230,
      1781124230,
      1781124290,
      1781124332,
      1781124332,
      1781124350,
      1781124350,
      1781124392,
      1781124392,
      1781124572,
      1781124572,
      1781124572,
      1781124572,
      1781124692,
      1781124692,
      1781124692,
      1781124692,
      1781124752,
      1781124752,
      1781124752,
      1781124993,
      1781124993,
      1781125053,
      1781125053,
      1781125053,
      1781125053,
      1781125173,
      1781125173,
      1781125293,
      1781125293,
      1781125293,
      1781125353,
      1781125353,
      1781125413,
      1781125413,
      1781125413,
      1781125413,
      1781125413,
      1781125534,
      1781125534,
      1781125594,
      1781125594,
      1781125654,
      1781125680,
      1781125680,
      1781125740,
      1781125740,
      1781125774,
      1781125774,
      1781125774,
      1781126014,
      1781126014,
      1781126014,
      1781126041,
      1781126195,
      1781126195,
      1781126195,
      1781126195,
      1781126221,
      1781126221,
      1781126435,
      1781126435,
      1781126435,
      1781126435,
      1781126521,
      1781126521,
      1781126615,
      1781126615,
      1781126675,
      1781126675,
      1781126699,
      1781126759,
      1781126759,
      1781126795,
      1781126795,
      1781126795,
      1781126795,
      1781126819,
      1781126856,
      1781126856,
      1781126856,
      1781126879,
      1781126916,
      1781126976,
      1781126976,
      1781127036,
      1781127036,
      1781127114,
      1781127114,
      1781127216,
      1781127235,
      1781127235,
      1781127235,
      1781127235,
      1781127295,
      1781127336,
      1781127355,
      1781127355,
      1781127415,
      1781127415,
      1781127415,
      1781127577,
      1781127637,
      1781127637,
      1781127697,
      1781127697,
      1781127697,
      1781127790,
      1781127790,
      1781127790,
      1781127877,
      1781127877,
      1781127877,
      1781127994,
      1781127994,
      1781127994,
      1781127994,
      1781128109,
      1781128109,
      1781128109,
      1781128177,
      1781128177,
      1781128177,
      1781128361,
      1781128361,
      1781128361,
      1781128361,
      1781128421,
      1781128421,
      1781128421,
      1781128421,
      1781128481,
      1781128481,
      1781128595,
      1781128595,
      1781128595,
      1781128655,
      1781128655,
      1781128655
    ],
    "wof:geomhash": "084776c18f8171870215008bcd7e888c",
    "wof:id": 2031505665,
    "wof:repo": "sfomuseum-data-flights-2026-06"
  },
  "bbox": [
    -122.41666666666667,
    37.37555555555556,
    -85.29138888888889,
    39.9375
  ],
  "geometry": {"coordinates":[[-122.4088888888889,37.632777777777775],[-122.4088888888889,37.632777777777775],[-122.41666666666667,37.65],[-122.41666666666667,37.65],[-122.41666666666667,37.65],[-122.41666666666667,37.65],[-122.41666666666667,37.65],[-122.32583333333334,37.68805555555555],[-122.2388888888889,37.71138888888889],[-122.2388888888889,37.71138888888889],[-122.2388888888889,37.71138888888889],[-122.2388888888889,37.71138888888889],[-122.05305555555556,37.80083333333333],[-122.05305555555556,37.80083333333333],[-122.05305555555556,37.80083333333333],[-122.05305555555556,37.80083333333333],[-122.05305555555556,37.80083333333333],[-121.55444444444444,37.909166666666664],[-121.55444444444444,37.909166666666664],[-121.55444444444444,37.909166666666664],[-121.40361111111112,37.93722222222222],[-121.40361111111112,37.93722222222222],[-121.25138888888888,37.965],[-121.25138888888888,37.965],[-121.25138888888888,37.965],[-121.25138888888888,37.965],[-120.59972222222221,38.068333333333335],[-120.59972222222221,38.068333333333335],[-120.59972222222221,38.068333333333335],[-120.59972222222221,38.068333333333335],[-120.25138888888888,38.12083333333334],[-120.25138888888888,38.12083333333334],[-120.25138888888888,38.12083333333334],[-120.25138888888888,38.12083333333334],[-120.25138888888888,38.12083333333334],[-119.89277777777778,38.174166666666665],[-119.89277777777778,38.174166666666665],[-119.89277777777778,38.174166666666665],[-119.89277777777778,38.174166666666665],[-119.70361111111112,38.198611111111106],[-119.70361111111112,38.198611111111106],[-119.52583333333334,38.224444444444444],[-119.52583333333334,38.224444444444444],[-119.52583333333334,38.224444444444444],[-119.34666666666666,38.249722222222225],[-119.16833333333334,38.27444444444444],[-119.16833333333334,38.27444444444444],[-119.16722222222222,38.27611111111111],[-119.16722222222222,38.27611111111111],[-118.98861111111111,38.29972222222222],[-118.98861111111111,38.29972222222222],[-118.98861111111111,38.29972222222222],[-118.98777777777778,38.30083333333333],[-118.98777777777778,38.30083333333333],[-118.44777777777779,38.373333333333335],[-118.44777777777779,38.373333333333335],[-118.44777777777779,38.373333333333335],[-118.27583333333334,38.395833333333336],[-118.09444444444443,38.419444444444444],[-118.09444444444443,38.419444444444444],[-118.09444444444443,38.419444444444444],[-118.09444444444443,38.419444444444444],[-118.05638888888889,38.424166666666665],[-118.05638888888889,38.424166666666665],[-117.3586111111111,38.51166666666666],[-117.3586111111111,38.51166666666666],[-117.35722222222222,38.511944444444445],[-117.35722222222222,38.511944444444445],[-117.35722222222222,38.511944444444445],[-117.16916666666667,38.51833333333333],[-117.16916666666667,38.51833333333333],[-117.16916666666667,38.51833333333333],[-116.98277777777778,38.51444444444444],[-116.98277777777778,38.51444444444444],[-116.60888888888888,38.50555555555555],[-116.60888888888888,38.50555555555555],[-116.60888888888888,38.50555555555555],[-116.42194444444445,38.50055555555556],[-116.42194444444445,38.50055555555556],[-116.23833333333333,38.49583333333334],[-116.05555555555556,38.49027777777778],[-116.05555555555556,38.49027777777778],[-116.05555555555556,38.49027777777778],[-116.05555555555556,38.49027777777778],[-115.87666666666667,38.485],[-115.87666666666667,38.485],[-115.87666666666667,38.485],[-115.69194444444445,38.47916666666667],[-115.69194444444445,38.47916666666667],[-115.51027777777777,38.473055555555554],[-115.51027777777777,38.473055555555554],[-115.51027777777777,38.473055555555554],[-115.51027777777777,38.473055555555554],[-115.51027777777777,38.473055555555554],[-114.39055555555557,38.42916666666667],[-114.39055555555557,38.42916666666667],[-114.39055555555557,38.42916666666667],[-114.39055555555557,38.42916666666667],[-114.2075,38.420833333333334],[-114.2075,38.420833333333334],[-114.2075,38.420833333333334],[-114.2075,38.420833333333334],[-114.02666666666667,38.4125],[-114.02666666666667,38.4125],[-113.8411111111111,38.40361111111111],[-113.8411111111111,38.40361111111111],[-113.65972222222223,38.39472222222222],[-113.47833333333334,38.38527777777778],[-113.47833333333334,38.38527777777778],[-113.47833333333334,38.38527777777778],[-113.47833333333334,38.38527777777778],[-113.47833333333334,38.38527777777778],[-112.74138888888889,38.37083333333334],[-112.74138888888889,38.37083333333334],[-112.74138888888889,38.37083333333334],[-112.74138888888889,38.37083333333334],[-112.005,38.39722222222222],[-112.005,38.39722222222222],[-112.005,38.39722222222222],[-111.81777777777778,38.403055555555554],[-111.63166666666666,38.40861111111111],[-111.63166666666666,38.40861111111111],[-111.55777777777777,38.41083333333333],[-111.55777777777777,38.41083333333333],[-111.55777777777777,38.41083333333333],[-111.37083333333332,38.41583333333333],[-111.37083333333332,38.41583333333333],[-111.37083333333332,38.41583333333333],[-111.26027777777777,38.41888888888889],[-111.18361111111112,38.420833333333334],[-110.9975,38.42527777777777],[-110.9975,38.42527777777777],[-110.9975,38.42527777777777],[-110.9975,38.42527777777777],[-110.90138888888889,38.427499999999995],[-110.90138888888889,38.427499999999995],[-110.5286111111111,38.43555555555555],[-110.34222222222222,38.43888888888888],[-110.34222222222222,38.43888888888888],[-110.34222222222222,38.43888888888888],[-110.22777777777777,38.441111111111105],[-110.22777777777777,38.441111111111105],[-110.04055555555556,38.44416666666666],[-109.96416666666667,38.445277777777775],[-109.85277777777777,38.44694444444444],[-109.85277777777777,38.44694444444444],[-109.85277777777777,38.44694444444444],[-109.77916666666667,38.44777777777777],[-109.77916666666667,38.44777777777777],[-109.59138888888889,38.45166666666667],[-109.59138888888889,38.45166666666667],[-109.59138888888889,38.45166666666667],[-109.40333333333334,38.466944444444444],[-109.40333333333334,38.466944444444444],[-109.40333333333334,38.466944444444444],[-109.29138888888889,38.4775],[-109.21444444444445,38.48527777777778],[-109.21444444444445,38.48527777777778],[-108.915,38.515277777777776],[-108.915,38.515277777777776],[-108.83916666666666,38.522777777777776],[-108.83916666666666,38.522777777777776],[-108.83916666666666,38.522777777777776],[-108.53944444444444,38.55222222222222],[-108.53944444444444,38.55222222222222],[-108.53944444444444,38.55222222222222],[-107.79805555555555,38.62138888888889],[-107.79805555555555,38.62138888888889],[-107.79805555555555,38.62138888888889],[-107.61222222222221,38.63805555555555],[-107.61222222222221,38.63805555555555],[-107.42472222222223,38.654444444444444],[-107.42472222222223,38.654444444444444],[-107.42472222222223,38.654444444444444],[-107.42472222222223,38.654444444444444],[-107.42472222222223,38.654444444444444],[-106.86583333333333,38.70111111111111],[-106.86583333333333,38.70111111111111],[-106.67750000000001,38.71611111111111],[-106.67750000000001,38.71611111111111],[-106.67750000000001,38.71611111111111],[-106.67750000000001,38.71611111111111],[-106.49222222222222,38.730555555555554],[-106.49222222222222,38.730555555555554],[-106.49222222222222,38.730555555555554],[-106.30333333333333,38.745],[-106.30333333333333,38.745],[-106.30333333333333,38.745],[-105.9088888888889,38.774166666666666],[-105.9088888888889,38.774166666666666],[-105.9088888888889,38.774166666666666],[-105.16666666666667,38.82527777777778],[-105.16666666666667,38.82527777777778],[-104.98166666666667,38.83722222222222],[-104.98166666666667,38.83722222222222],[-104.98166666666667,38.83722222222222],[-104.98166666666667,38.83722222222222],[-104.7936111111111,38.84916666666667],[-104.7936111111111,38.84916666666667],[-104.7936111111111,38.84916666666667],[-104.04333333333334,38.89361111111111],[-104.04333333333334,38.89361111111111],[-104.04333333333334,38.89361111111111],[-103.665,38.91416666666667],[-103.665,38.91416666666667],[-103.665,38.91416666666667],[-103.665,38.91416666666667],[-103.665,38.91416666666667],[-103.11805555555554,38.94166666666666],[-103.11805555555554,38.94166666666666],[-103.11805555555554,38.94166666666666],[-103.11805555555554,38.94166666666666],[-102.94555555555556,38.94888888888889],[-102.75583333333333,38.958333333333336],[-102.75583333333333,38.958333333333336],[-102.75583333333333,38.958333333333336],[-102.75583333333333,38.958333333333336],[-102.57694444444444,38.96611111111111],[-102.57694444444444,38.96611111111111],[-102.39500000000001,38.973055555555554],[-102.39500000000001,38.973055555555554],[-102.39500000000001,38.973055555555554],[-102.39500000000001,38.973055555555554],[-101.83888888888889,38.99583333333334],[-101.83888888888889,38.99583333333334],[-101.83888888888889,38.99583333333334],[-101.83888888888889,38.99583333333334],[-101.64805555555556,39.0025],[-101.64805555555556,39.0025],[-101.64805555555556,39.0025],[-101.64805555555556,39.0025],[-101.27305555555556,39.015277777777776],[-101.27305555555556,39.015277777777776],[-101.0886111111111,39.02111111111111],[-101.0886111111111,39.02111111111111],[-101.0886111111111,39.02111111111111],[-101.0886111111111,39.02111111111111],[-100.9038888888889,39.02638888888889],[-100.9038888888889,39.02638888888889],[-100.9038888888889,39.02638888888889],[-100.14833333333334,39.045833333333334],[-100.14833333333334,39.045833333333334],[-100.14833333333334,39.045833333333334],[-99.77194444444444,39.05361111111111],[-99.77194444444444,39.05361111111111],[-99.77194444444444,39.05361111111111],[-99.77194444444444,39.05361111111111],[-99.38972222222223,39.06027777777778],[-99.38972222222223,39.06027777777778],[-99.38972222222223,39.06027777777778],[-99.38972222222223,39.06027777777778],[-99.23388888888888,39.062777777777775],[-99.23388888888888,39.062777777777775],[-99.23388888888888,39.062777777777775],[-98.5125,38.95805555555556],[-98.5125,38.95805555555556],[-98.5125,38.95805555555556],[-98.5125,38.95805555555556],[-98.3436111111111,38.910555555555554],[-98.3436111111111,38.910555555555554],[-98.17277777777778,38.86194444444445],[-98.17277777777778,38.86194444444445],[-98.17277777777778,38.86194444444445],[-98.17277777777778,38.86194444444445],[-97.82083333333333,38.76111111111111],[-97.82083333333333,38.76111111111111],[-97.64944444444446,38.711666666666666],[-97.64944444444446,38.711666666666666],[-97.64944444444446,38.711666666666666],[-97.47833333333334,38.661944444444444],[-97.47833333333334,38.661944444444444],[-97.47833333333334,38.661944444444444],[-97.13138888888888,38.55972222222222],[-97.13138888888888,38.55972222222222],[-97.13138888888888,38.55972222222222],[-97.13138888888888,38.55972222222222],[-96.78,38.45527777777778],[-96.78,38.45527777777778],[-96.78,38.45527777777778],[-96.08944444444444,38.245555555555555],[-96.08944444444444,38.245555555555555],[-96.08944444444444,38.245555555555555],[-96.08944444444444,38.245555555555555],[-96.08944444444444,38.245555555555555],[-95.27055555555556,37.99027777777778],[-95.27055555555556,37.99027777777778],[-95.27055555555556,37.99027777777778],[-95.27055555555556,37.99027777777778],[-94.30222222222221,37.67833333333333],[-94.30222222222221,37.67833333333333],[-94.30222222222221,37.67833333333333],[-94.30222222222221,37.67833333333333],[-93.97833333333334,37.57166666666667],[-93.97833333333334,37.57166666666667],[-93.81694444444445,37.518055555555556],[-93.81694444444445,37.518055555555556],[-93.81694444444445,37.518055555555556],[-93.81694444444445,37.518055555555556],[-93.495,37.41027777777778],[-93.495,37.41027777777778],[-93.495,37.41027777777778],[-93.495,37.41027777777778],[-93.16027777777778,37.37555555555556],[-93.16027777777778,37.37555555555556],[-93.16027777777778,37.37555555555556],[-93.16027777777778,37.37555555555556],[-92.7825,37.41861111111111],[-92.44111111111111,37.45611111111111],[-92.44111111111111,37.45611111111111],[-92.44111111111111,37.45611111111111],[-92.27333333333333,37.473888888888894],[-92.27333333333333,37.473888888888894],[-92.27333333333333,37.473888888888894],[-91.93027777777779,37.51],[-91.93027777777779,37.51],[-91.93027777777779,37.51],[-91.93027777777779,37.51],[-91.41611111111112,37.56222222222222],[-91.41611111111112,37.56222222222222],[-91.24416666666667,37.57916666666667],[-91.24416666666667,37.57916666666667],[-91.24416666666667,37.57916666666667],[-91.24416666666667,37.57916666666667],[-90.89583333333334,37.61277777777778],[-90.89583333333334,37.61277777777778],[-90.89583333333334,37.61277777777778],[-90.89583333333334,37.61277777777778],[-90.89583333333334,37.61277777777778],[-90.4325,37.655],[-90.4325,37.655],[-90.36138888888888,37.661944444444444],[-90.36138888888888,37.661944444444444],[-90.36138888888888,37.661944444444444],[-90.07666666666667,37.69],[-90.07666666666667,37.69],[-89.89888888888889,37.71083333333333],[-89.89888888888889,37.71083333333333],[-89.89888888888889,37.71083333333333],[-89.8261111111111,37.71944444444445],[-89.46972222222223,37.75805555555556],[-89.36638888888888,37.76916666666666],[-89.36638888888888,37.76916666666666],[-89.36638888888888,37.76916666666666],[-89.28333333333333,37.77777777777778],[-89.28333333333333,37.77777777777778],[-89.28333333333333,37.77777777777778],[-89.0125,37.80611111111111],[-89.0125,37.80611111111111],[-88.83833333333332,37.823888888888895],[-88.83833333333332,37.823888888888895],[-88.83833333333332,37.823888888888895],[-88.665,37.84138888888889],[-88.665,37.84138888888889],[-88.43861111111111,37.86388888888889],[-88.43861111111111,37.86388888888889],[-88.43861111111111,37.86388888888889],[-88.26888888888888,37.88027777777778],[-88.13472222222222,37.89333333333333],[-88.13472222222222,37.89333333333333],[-88.10249999999999,37.896388888888886],[-88.10249999999999,37.896388888888886],[-87.96888888888888,37.90888888888889],[-87.96888888888888,37.90888888888889],[-87.46944444444445,37.95416666666667],[-87.46944444444445,37.95416666666667],[-87.46944444444445,37.95416666666667],[-87.46944444444445,37.95416666666667],[-87.13527777777779,37.98277777777778],[-87.13527777777779,37.98277777777778],[-87.13527777777779,37.98277777777778],[-87.13527777777779,37.98277777777778],[-86.96916666666667,37.99666666666667],[-86.96916666666667,37.99666666666667],[-86.96916666666667,37.99666666666667],[-86.29138888888889,38.05083333333333],[-86.29138888888889,38.05083333333333],[-86.12249999999999,38.06361111111111],[-86.12249999999999,38.06361111111111],[-86.12249999999999,38.06361111111111],[-86.12249999999999,38.06361111111111],[-85.78444444444445,38.08861111111111],[-85.78444444444445,38.08861111111111],[-85.53611111111111,38.2175],[-85.53611111111111,38.2175],[-85.53611111111111,38.2175],[-85.49361111111111,38.338055555555556],[-85.49361111111111,38.338055555555556],[-85.45083333333334,38.461111111111116],[-85.45083333333334,38.461111111111116],[-85.45083333333334,38.461111111111116],[-85.45083333333334,38.461111111111116],[-85.45083333333334,38.461111111111116],[-85.40361111111112,38.71194444444445],[-85.40361111111112,38.71194444444445],[-85.4563888888889,38.83027777777778],[-85.4563888888889,38.83027777777778],[-85.51166666666667,38.95055555555556],[-85.53166666666667,38.99666666666667],[-85.53166666666667,38.99666666666667],[-85.58638888888889,39.11472222222223],[-85.58638888888889,39.11472222222223],[-85.61777777777777,39.18333333333333],[-85.61777777777777,39.18333333333333],[-85.61777777777777,39.18333333333333],[-85.85388888888889,39.62222222222222],[-85.85388888888889,39.62222222222222],[-85.85388888888889,39.62222222222222],[-85.9113888888889,39.6325],[-85.89555555555556,39.44972222222222],[-85.89555555555556,39.44972222222222],[-85.89555555555556,39.44972222222222],[-85.89555555555556,39.44972222222222],[-85.82666666666667,39.44944444444444],[-85.82666666666667,39.44944444444444],[-85.29138888888889,39.490833333333335],[-85.29138888888889,39.490833333333335],[-85.29138888888889,39.490833333333335],[-85.29138888888889,39.490833333333335],[-85.3586111111111,39.62222222222222],[-85.3586111111111,39.62222222222222],[-85.58416666666666,39.629444444444445],[-85.58416666666666,39.629444444444445],[-85.72611111111111,39.63111111111111],[-85.72611111111111,39.63111111111111],[-85.77777777777777,39.63333333333333],[-85.88,39.69888888888889],[-85.88,39.69888888888889],[-85.93333333333334,39.76222222222222],[-85.93333333333334,39.76222222222222],[-85.93333333333334,39.76222222222222],[-85.93333333333334,39.76222222222222],[-85.95916666666668,39.79138888888889],[-86.04527777777777,39.823055555555555],[-86.04527777777777,39.823055555555555],[-86.04527777777777,39.823055555555555],[-86.08555555555554,39.819722222222225],[-86.1588888888889,39.775277777777774],[-86.15416666666667,39.676944444444445],[-86.15416666666667,39.676944444444445],[-86.01722222222222,39.632222222222225],[-86.01722222222222,39.632222222222225],[-85.82777777777777,39.656666666666666],[-85.82777777777777,39.656666666666666],[-85.72583333333334,39.848333333333336],[-85.73138888888889,39.863055555555555],[-85.73138888888889,39.863055555555555],[-85.73138888888889,39.863055555555555],[-85.73138888888889,39.863055555555555],[-85.83138888888888,39.9375],[-85.94555555555556,39.9225],[-85.96333333333334,39.91638888888889],[-85.96333333333334,39.91638888888889],[-86.07944444444443,39.86222222222222],[-86.07944444444443,39.86222222222222],[-86.07944444444443,39.86222222222222],[-86.34944444444444,39.67194444444444],[-86.43111111111112,39.60333333333333],[-86.43111111111112,39.60333333333333],[-86.52805555555555,39.55722222222222],[-86.52805555555555,39.55722222222222],[-86.52805555555555,39.55722222222222],[-86.71666666666667,39.55],[-86.71666666666667,39.55],[-86.71666666666667,39.55],[-86.86861111111111,39.56472222222222],[-86.86861111111111,39.56472222222222],[-86.86861111111111,39.56472222222222],[-86.88333333333334,39.75],[-86.88333333333334,39.75],[-86.88333333333334,39.75],[-86.88333333333334,39.75],[-86.66666666666667,39.8],[-86.66666666666667,39.8],[-86.66666666666667,39.8],[-86.53722222222223,39.809444444444445],[-86.53722222222223,39.809444444444445],[-86.53722222222223,39.809444444444445],[-86.21666666666667,39.916666666666664],[-86.21666666666667,39.916666666666664],[-86.21666666666667,39.916666666666664],[-86.21666666666667,39.916666666666664],[-86.11666666666666,39.9],[-86.11666666666666,39.9],[-86.11666666666666,39.9],[-86.11666666666666,39.9],[-86.15,39.85],[-86.15,39.85],[-86.23333333333333,39.766666666666666],[-86.23333333333333,39.766666666666666],[-86.23333333333333,39.766666666666666],[-86.26666666666667,39.75],[-86.26666666666667,39.75],[-86.26666666666667,39.75]],"type":"LineString"}
}
