{
  "id": 2031474649,
  "type": "Feature",
  "properties": {
    "geom:area": 0,
    "geom:bbox": "-122.232500,32.774722,-97.077222,38.105833",
    "geom:latitude": 36.35771774366913,
    "geom:longitude": -109.4900971249851,
    "src:alt_label": "swim-path",
    "src:geom": "swim",
    "swim:altitudes": [
      "040",
      "040",
      "040",
      "040",
      "040",
      "094",
      "094",
      "094",
      "094",
      "094",
      "187",
      "187",
      "187",
      "187",
      "204",
      "204",
      "204",
      "204",
      "204",
      "218",
      "218",
      "229",
      "229",
      "239",
      "239",
      "252",
      "252",
      "252",
      "252",
      "252",
      "252",
      "272",
      "272",
      "272",
      "272",
      "272",
      "283",
      "283",
      "283",
      "310",
      "310",
      "310",
      "320C",
      "320C",
      "320C",
      "320C",
      "320C",
      "320C",
      "320C",
      "320C",
      "320C",
      "320C",
      "320C",
      "320C",
      "320C",
      "320C",
      "320C",
      "320C",
      "320C",
      "320C",
      "320C",
      "320C",
      "320C",
      "320C",
      "320C",
      "320C",
      "320C",
      "320C",
      "320C",
      "320C",
      "320C",
      "320C",
      "320C",
      "320C",
      "320C",
      "320C",
      "320C",
      "320C",
      "320C",
      "320C",
      "320",
      "320",
      "328",
      "328",
      "328",
      "328",
      "340C",
      "340C",
      "340C",
      "340C",
      "340C",
      "340C",
      "340C",
      "340C",
      "340C",
      "340C",
      "340C",
      "340C",
      "340C",
      "340C",
      "340C",
      "340C",
      "340C",
      "340C",
      "340C",
      "340C",
      "340C",
      "340C",
      "340C",
      "340C",
      "340C",
      "340C",
      "340C",
      "340C",
      "340C",
      "340C",
      "340C",
      "340C",
      "340C",
      "340C",
      "340C",
      "340C",
      "340C",
      "340C",
      "340C",
      "340C",
      "340C",
      "340C",
      "345",
      "345",
      "345",
      "345",
      "360C",
      "360C",
      "360C",
      "360C",
      "360C",
      "360C",
      "360C",
      "360C",
      "360C",
      "360C",
      "360C",
      "360C",
      "360C",
      "360C",
      "360C",
      "360C",
      "360C",
      "360C",
      "360C",
      "360C",
      "360C",
      "360C",
      "360C",
      "360C",
      "360C",
      "360C",
      "360C",
      "360C",
      "360C",
      "360C",
      "360C",
      "360C",
      "360C",
      "360C",
      "360C",
      "360C",
      "360C",
      "360C",
      "360C",
      "360C",
      "360C",
      "360C",
      "360C",
      "360C",
      "360C",
      "360C",
      "360C",
      "360C",
      "360C",
      "360C",
      "360C",
      "360C",
      "360C",
      "360C",
      "360C",
      "360C",
      "360C",
      "360C",
      "360C",
      "360C",
      "360C",
      "360C",
      "360C",
      "360C",
      "360C",
      "360C",
      "360C",
      "360C",
      "360C",
      "360C",
      "360C",
      "360C",
      "360C",
      "360C",
      "360C",
      "360C",
      "360C",
      "360C",
      "360C",
      "360C",
      "360C",
      "360C",
      "360C",
      "360C",
      "360C",
      "360C",
      "360C",
      "360C",
      "360C",
      "360C",
      "360C",
      "360C",
      "360C",
      "360C",
      "360C",
      "360C",
      "360C",
      "360C",
      "360C",
      "360C",
      "360C",
      "360C",
      "360C",
      "360C",
      "360C",
      "360C",
      "360C",
      "360C",
      "360C",
      "360C",
      "360C",
      "360C",
      "360C",
      "360C",
      "360C",
      "360C",
      "360C",
      "360C",
      "360C",
      "360C",
      "360C",
      "360C",
      "360C",
      "360C",
      "360C",
      "360C",
      "360C",
      "360C",
      "360C",
      "360C",
      "360C",
      "360C",
      "360C",
      "360C",
      "360C",
      "360C",
      "360C",
      "360C",
      "360C",
      "360C",
      "360C",
      "360C",
      "360C",
      "360C",
      "360C",
      "360C",
      "360",
      "360",
      "354",
      "354",
      "354",
      "340C",
      "340C",
      "340C",
      "340C",
      "340C",
      "340C",
      "340C",
      "340C",
      "340C",
      "340C",
      "340C",
      "340C",
      "340C",
      "340C",
      "340C",
      "340C",
      "340",
      "340",
      "340",
      "340",
      "340",
      "340",
      "340",
      "340",
      "340",
      "340",
      "300",
      "300",
      "285",
      "275",
      "275",
      "275",
      "238",
      "238",
      "238",
      "220",
      "202",
      "202",
      "197",
      "184",
      "184",
      "178",
      "178",
      "178",
      "166",
      "162",
      "162",
      "156",
      "156",
      "132",
      "132",
      "122",
      "118",
      "118",
      "118",
      "080",
      "078",
      "078",
      "078",
      "070",
      "070",
      "070",
      "070",
      "070",
      "031",
      "022",
      "022",
      "022"
    ],
    "swim:geom": "path",
    "swim:speeds": [
      237,
      233,
      233,
      233,
      233,
      277,
      277,
      277,
      277,
      277,
      349,
      349,
      349,
      349,
      352,
      352,
      352,
      352,
      352,
      361,
      361,
      375,
      375,
      386,
      386,
      391,
      391,
      391,
      391,
      391,
      391,
      410,
      410,
      410,
      410,
      410,
      419,
      419,
      419,
      427,
      427,
      427,
      435,
      435,
      433,
      444,
      444,
      444,
      444,
      452,
      452,
      452,
      452,
      452,
      454,
      454,
      454,
      454,
      455,
      455,
      455,
      454,
      454,
      454,
      452,
      452,
      452,
      450,
      450,
      450,
      448,
      448,
      447,
      447,
      435,
      436,
      436,
      436,
      436,
      436,
      432,
      432,
      443,
      443,
      443,
      443,
      436,
      435,
      435,
      436,
      436,
      436,
      435,
      435,
      434,
      434,
      434,
      434,
      435,
      435,
      435,
      436,
      436,
      436,
      436,
      436,
      436,
      436,
      435,
      435,
      435,
      435,
      430,
      430,
      422,
      420,
      420,
      420,
      420,
      422,
      422,
      422,
      422,
      428,
      428,
      430,
      430,
      430,
      425,
      425,
      425,
      425,
      423,
      423,
      423,
      423,
      423,
      430,
      430,
      433,
      433,
      433,
      434,
      433,
      433,
      433,
      433,
      433,
      433,
      431,
      431,
      431,
      431,
      431,
      431,
      431,
      430,
      430,
      430,
      429,
      429,
      429,
      430,
      430,
      432,
      427,
      427,
      427,
      423,
      423,
      423,
      423,
      421,
      421,
      421,
      422,
      422,
      422,
      422,
      425,
      425,
      425,
      423,
      423,
      423,
      433,
      433,
      433,
      433,
      442,
      437,
      438,
      438,
      428,
      428,
      422,
      422,
      422,
      422,
      412,
      412,
      412,
      413,
      412,
      409,
      409,
      409,
      409,
      409,
      425,
      425,
      425,
      425,
      425,
      423,
      423,
      423,
      423,
      423,
      423,
      426,
      426,
      426,
      426,
      426,
      425,
      419,
      419,
      417,
      417,
      417,
      413,
      410,
      410,
      417,
      417,
      423,
      423,
      421,
      412,
      412,
      412,
      412,
      412,
      408,
      408,
      408,
      408,
      408,
      423,
      426,
      426,
      426,
      430,
      432,
      432,
      433,
      433,
      434,
      434,
      434,
      434,
      434,
      430,
      429,
      428,
      428,
      427,
      427,
      424,
      423,
      422,
      423,
      423,
      425,
      425,
      425,
      425,
      427,
      427,
      423,
      423,
      423,
      434,
      434,
      434,
      431,
      431,
      431,
      431,
      432,
      432,
      432,
      432,
      432,
      421,
      421,
      421,
      421,
      419,
      419,
      419,
      419,
      428,
      428,
      428,
      429,
      429,
      429,
      432,
      432,
      430,
      425,
      425,
      425,
      397,
      397,
      397,
      380,
      369,
      369,
      365,
      366,
      366,
      361,
      361,
      361,
      359,
      351,
      351,
      307,
      307,
      279,
      279,
      278,
      273,
      273,
      273,
      237,
      240,
      240,
      240,
      236,
      236,
      233,
      233,
      233,
      200,
      184,
      184,
      184
    ],
    "swim:timestamps": [
      1780865645,
      1780865660,
      1780865660,
      1780865660,
      1780865660,
      1780865780,
      1780865780,
      1780865780,
      1780865780,
      1780865780,
      1780866140,
      1780866140,
      1780866140,
      1780866140,
      1780866200,
      1780866200,
      1780866200,
      1780866200,
      1780866200,
      1780866260,
      1780866260,
      1780866321,
      1780866321,
      1780866381,
      1780866381,
      1780866441,
      1780866441,
      1780866441,
      1780866441,
      1780866441,
      1780866441,
      1780866561,
      1780866561,
      1780866561,
      1780866561,
      1780866561,
      1780866621,
      1780866621,
      1780866621,
      1780866801,
      1780866801,
      1780866801,
      1780866861,
      1780866861,
      1780866921,
      1780866981,
      1780866981,
      1780866981,
      1780866981,
      1780867102,
      1780867102,
      1780867102,
      1780867102,
      1780867102,
      1780867268,
      1780867268,
      1780867282,
      1780867282,
      1780867342,
      1780867342,
      1780867414,
      1780867448,
      1780867448,
      1780867448,
      1780867568,
      1780867568,
      1780867568,
      1780867688,
      1780867688,
      1780867688,
      1780867749,
      1780867749,
      1780867775,
      1780867775,
      1780867955,
      1780867989,
      1780867989,
      1780867989,
      1780867989,
      1780868015,
      1780868135,
      1780868135,
      1780868229,
      1780868229,
      1780868229,
      1780868229,
      1780868315,
      1780868375,
      1780868375,
      1780868409,
      1780868409,
      1780868409,
      1780868496,
      1780868496,
      1780868556,
      1780868556,
      1780868556,
      1780868590,
      1780868650,
      1780868650,
      1780868650,
      1780868710,
      1780868710,
      1780868710,
      1780868736,
      1780868830,
      1780868830,
      1780868830,
      1780868856,
      1780868856,
      1780868856,
      1780868856,
      1780869204,
      1780869204,
      1780869251,
      1780869264,
      1780869264,
      1780869264,
      1780869264,
      1780869311,
      1780869371,
      1780869371,
      1780869371,
      1780869491,
      1780869491,
      1780869505,
      1780869505,
      1780869505,
      1780869611,
      1780869611,
      1780869611,
      1780869611,
      1780869745,
      1780869745,
      1780869805,
      1780869805,
      1780869805,
      1780869865,
      1780869865,
      1780869972,
      1780869972,
      1780869972,
      1780870032,
      1780870092,
      1780870092,
      1780870092,
      1780870106,
      1780870152,
      1780870152,
      1780870286,
      1780870286,
      1780870286,
      1780870286,
      1780870346,
      1780870346,
      1780870346,
      1780870513,
      1780870513,
      1780870513,
      1780870573,
      1780870573,
      1780870573,
      1780870633,
      1780870633,
      1780870646,
      1780870709,
      1780870709,
      1780870709,
      1780870767,
      1780870767,
      1780870767,
      1780870767,
      1780870887,
      1780870887,
      1780870887,
      1780870947,
      1780870947,
      1780870947,
      1780870947,
      1780871067,
      1780871067,
      1780871067,
      1780871130,
      1780871130,
      1780871130,
      1780871187,
      1780871187,
      1780871187,
      1780871187,
      1780871310,
      1780871367,
      1780871382,
      1780871382,
      1780871427,
      1780871427,
      1780871488,
      1780871488,
      1780871488,
      1780871488,
      1780871562,
      1780871608,
      1780871608,
      1780871622,
      1780871668,
      1780871788,
      1780871788,
      1780871788,
      1780871848,
      1780871848,
      1780871983,
      1780872028,
      1780872043,
      1780872043,
      1780872088,
      1780872163,
      1780872163,
      1780872163,
      1780872223,
      1780872223,
      1780872223,
      1780872389,
      1780872389,
      1780872389,
      1780872389,
      1780872404,
      1780872464,
      1780872509,
      1780872509,
      1780872584,
      1780872584,
      1780872584,
      1780872644,
      1780872704,
      1780872704,
      1780872764,
      1780872764,
      1780872824,
      1780872824,
      1780872884,
      1780873064,
      1780873064,
      1780873064,
      1780873064,
      1780873064,
      1780873245,
      1780873245,
      1780873245,
      1780873245,
      1780873245,
      1780873706,
      1780873767,
      1780873767,
      1780873767,
      1780873785,
      1780873887,
      1780873887,
      1780873906,
      1780873947,
      1780873966,
      1780874007,
      1780874007,
      1780874007,
      1780874007,
      1780874146,
      1780874247,
      1780874266,
      1780874266,
      1780874326,
      1780874326,
      1780874386,
      1780874427,
      1780874446,
      1780874548,
      1780874548,
      1780874608,
      1780874608,
      1780874608,
      1780874627,
      1780874788,
      1780874788,
      1780874848,
      1780874848,
      1780874848,
      1780874968,
      1780874968,
      1780874968,
      1780875107,
      1780875107,
      1780875107,
      1780875107,
      1780875268,
      1780875268,
      1780875268,
      1780875268,
      1780875268,
      1780875389,
      1780875389,
      1780875389,
      1780875389,
      1780875509,
      1780875509,
      1780875509,
      1780875509,
      1780875569,
      1780875569,
      1780875569,
      1780875629,
      1780875629,
      1780875629,
      1780875809,
      1780875809,
      1780875841,
      1780875872,
      1780875872,
      1780875872,
      1780875989,
      1780875989,
      1780875989,
      1780876049,
      1780876109,
      1780876109,
      1780876117,
      1780876170,
      1780876170,
      1780876177,
      1780876177,
      1780876177,
      1780876230,
      1780876238,
      1780876238,
      1780876290,
      1780876290,
      1780876358,
      1780876358,
      1780876410,
      1780876418,
      1780876418,
      1780876418,
      1780876598,
      1780876658,
      1780876658,
      1780876658,
      1780876710,
      1780876710,
      1780876718,
      1780876718,
      1780876718,
      1780876951,
      1780877011,
      1780877011,
      1780877011
    ],
    "wof:geomhash": "a8a7ca143f7599ab8046b93002350cd7",
    "wof:id": 2031474649,
    "wof:repo": "sfomuseum-data-flights-2026-06"
  },
  "bbox": [
    -122.2325,
    32.77472222222222,
    -97.07722222222222,
    38.10583333333334
  ],
  "geometry": {"coordinates":[[-97.08333333333333,32.78333333333333],[-97.07722222222222,32.78666666666666],[-97.07722222222222,32.78666666666666],[-97.07722222222222,32.78666666666666],[-97.07722222222222,32.78666666666666],[-97.255,32.77472222222222],[-97.255,32.77472222222222],[-97.255,32.77472222222222],[-97.255,32.77472222222222],[-97.255,32.77472222222222],[-97.85777777777777,32.93055555555555],[-97.85777777777777,32.93055555555555],[-97.85777777777777,32.93055555555555],[-97.85777777777777,32.93055555555555],[-97.96833333333333,32.96666666666667],[-97.96833333333333,32.96666666666667],[-97.96833333333333,32.96666666666667],[-97.96833333333333,32.96666666666667],[-97.96833333333333,32.96666666666667],[-98.0786111111111,33.00277777777778],[-98.0786111111111,33.00277777777778],[-98.19444444444444,33.04055555555556],[-98.19444444444444,33.04055555555556],[-98.30222222222221,33.07527777777778],[-98.30222222222221,33.07527777777778],[-98.42166666666667,33.11416666666667],[-98.42166666666667,33.11416666666667],[-98.42166666666667,33.11416666666667],[-98.42166666666667,33.11416666666667],[-98.42166666666667,33.11416666666667],[-98.42166666666667,33.11416666666667],[-98.67805555555556,33.19694444444444],[-98.67805555555556,33.19694444444444],[-98.67805555555556,33.19694444444444],[-98.67805555555556,33.19694444444444],[-98.67805555555556,33.19694444444444],[-98.80888888888889,33.23888888888889],[-98.80888888888889,33.23888888888889],[-98.80888888888889,33.23888888888889],[-99.17861111111111,33.35666666666667],[-99.17861111111111,33.35666666666667],[-99.17861111111111,33.35666666666667],[-99.34194444444444,33.408055555555556],[-99.34194444444444,33.408055555555556],[-99.47555555555556,33.45027777777778],[-99.61416666666666,33.49027777777778],[-99.61416666666666,33.49027777777778],[-99.61416666666666,33.49027777777778],[-99.61416666666666,33.49027777777778],[-99.90305555555557,33.57027777777778],[-99.90305555555557,33.57027777777778],[-99.90305555555557,33.57027777777778],[-99.90305555555557,33.57027777777778],[-99.90305555555557,33.57027777777778],[-100.28194444444445,33.68416666666666],[-100.28194444444445,33.68416666666666],[-100.31916666666666,33.70055555555556],[-100.31916666666666,33.70055555555556],[-100.45472222222223,33.75944444444445],[-100.45472222222223,33.75944444444445],[-100.58777777777777,33.816944444444445],[-100.68555555555555,33.85916666666667],[-100.68555555555555,33.85916666666667],[-100.68555555555555,33.85916666666667],[-100.95416666666667,33.974722222222226],[-100.95416666666667,33.974722222222226],[-100.95416666666667,33.974722222222226],[-101.22194444444445,34.08861111111111],[-101.22194444444445,34.08861111111111],[-101.22194444444445,34.08861111111111],[-101.35583333333332,34.14555555555555],[-101.35583333333332,34.14555555555555],[-101.43472222222222,34.178888888888885],[-101.43472222222222,34.178888888888885],[-101.80499999999999,34.33444444444444],[-101.885,34.367777777777775],[-101.885,34.367777777777775],[-101.885,34.367777777777775],[-101.885,34.367777777777775],[-101.96083333333334,34.399166666666666],[-102.19694444444445,34.496944444444445],[-102.19694444444445,34.496944444444445],[-102.40944444444445,34.58444444444444],[-102.40944444444445,34.58444444444444],[-102.40944444444445,34.58444444444444],[-102.40944444444445,34.58444444444444],[-102.5936111111111,34.65972222222222],[-102.72611111111111,34.71388888888889],[-102.72611111111111,34.71388888888889],[-102.80666666666666,34.74638888888889],[-102.80666666666666,34.74638888888889],[-102.80666666666666,34.74638888888889],[-102.99138888888889,34.821111111111115],[-102.99138888888889,34.821111111111115],[-103.12277777777777,34.87388888888889],[-103.12277777777777,34.87388888888889],[-103.12277777777777,34.87388888888889],[-103.20083333333334,34.905277777777776],[-103.33222222222221,34.95777777777778],[-103.33222222222221,34.95777777777778],[-103.33222222222221,34.95777777777778],[-103.465,35.010555555555555],[-103.465,35.010555555555555],[-103.465,35.010555555555555],[-103.51944444444445,35.032222222222224],[-103.7325,35.11638888888889],[-103.7325,35.11638888888889],[-103.7325,35.11638888888889],[-103.78583333333333,35.1375],[-103.78583333333333,35.1375],[-103.78583333333333,35.1375],[-103.78583333333333,35.1375],[-104.57888888888888,35.44444444444444],[-104.57888888888888,35.44444444444444],[-104.67194444444445,35.481388888888894],[-104.71000000000001,35.49527777777778],[-104.71000000000001,35.49527777777778],[-104.71000000000001,35.49527777777778],[-104.71000000000001,35.49527777777778],[-104.80277777777778,35.53138888888889],[-104.9325,35.58083333333334],[-104.9325,35.58083333333334],[-104.9325,35.58083333333334],[-105.19583333333334,35.68055555555555],[-105.19583333333334,35.68055555555555],[-105.21583333333334,35.687777777777775],[-105.21583333333334,35.687777777777775],[-105.21583333333334,35.687777777777775],[-105.45805555555556,35.78138888888889],[-105.45805555555556,35.78138888888889],[-105.45805555555556,35.78138888888889],[-105.45805555555556,35.78138888888889],[-105.74027777777778,35.888888888888886],[-105.74027777777778,35.888888888888886],[-105.87166666666666,35.93861111111111],[-105.87166666666666,35.93861111111111],[-105.87166666666666,35.93861111111111],[-106.03,35.99805555555556],[-106.03,35.99805555555556],[-106.26194444444444,36.084722222222226],[-106.26194444444444,36.084722222222226],[-106.26194444444444,36.084722222222226],[-106.40111111111112,36.13638888888889],[-106.52722222222222,36.183055555555555],[-106.52722222222222,36.183055555555555],[-106.52722222222222,36.183055555555555],[-106.56833333333333,36.198055555555555],[-106.65083333333334,36.22833333333333],[-106.65083333333334,36.22833333333333],[-106.97444444444444,36.34666666666667],[-106.97444444444444,36.34666666666667],[-106.97444444444444,36.34666666666667],[-106.97444444444444,36.34666666666667],[-107.10888888888888,36.39555555555555],[-107.10888888888888,36.39555555555555],[-107.10888888888888,36.39555555555555],[-107.45805555555556,36.521388888888886],[-107.45805555555556,36.521388888888886],[-107.45805555555556,36.521388888888886],[-107.59194444444444,36.56916666666667],[-107.59194444444444,36.56916666666667],[-107.59194444444444,36.56916666666667],[-107.72916666666667,36.61805555555556],[-107.72916666666667,36.61805555555556],[-107.78361111111111,36.63722222222222],[-107.91888888888889,36.68416666666666],[-107.91888888888889,36.68416666666666],[-107.91888888888889,36.68416666666666],[-108.05166666666666,36.731944444444444],[-108.05166666666666,36.731944444444444],[-108.05166666666666,36.731944444444444],[-108.05166666666666,36.731944444444444],[-108.32166666666666,36.81722222222223],[-108.32166666666666,36.81722222222223],[-108.32166666666666,36.81722222222223],[-108.45694444444445,36.85888888888889],[-108.45694444444445,36.85888888888889],[-108.45694444444445,36.85888888888889],[-108.45694444444445,36.85888888888889],[-108.73194444444445,36.942499999999995],[-108.73194444444445,36.942499999999995],[-108.73194444444445,36.942499999999995],[-108.87249999999999,36.98444444444444],[-108.87249999999999,36.98444444444444],[-108.87249999999999,36.98444444444444],[-109.01083333333334,37.026666666666664],[-109.01083333333334,37.026666666666664],[-109.01083333333334,37.026666666666664],[-109.01083333333334,37.026666666666664],[-109.30305555555556,37.11388888888889],[-109.43972222222223,37.15472222222222],[-109.47277777777778,37.163888888888884],[-109.47277777777778,37.163888888888884],[-109.57777777777777,37.195277777777775],[-109.57777777777777,37.195277777777775],[-109.71555555555555,37.23555555555556],[-109.71555555555555,37.23555555555556],[-109.71555555555555,37.23555555555556],[-109.71555555555555,37.23555555555556],[-109.89750000000001,37.28861111111111],[-109.9863888888889,37.31444444444444],[-109.9863888888889,37.31444444444444],[-110.03611111111111,37.32888888888889],[-110.11944444444444,37.35277777777778],[-110.38833333333334,37.43],[-110.38833333333334,37.43],[-110.38833333333334,37.43],[-110.52194444444444,37.46805555555556],[-110.52194444444444,37.46805555555556],[-110.85083333333333,37.56111111111111],[-110.94222222222223,37.58388888888889],[-110.99361111111111,37.596111111111114],[-110.99361111111111,37.596111111111114],[-111.08416666666666,37.6175],[-111.27722222222222,37.66277777777778],[-111.27722222222222,37.66277777777778],[-111.27722222222222,37.66277777777778],[-111.41833333333334,37.695277777777775],[-111.41833333333334,37.695277777777775],[-111.41833333333334,37.695277777777775],[-111.79805555555555,37.7825],[-111.79805555555555,37.7825],[-111.79805555555555,37.7825],[-111.79805555555555,37.7825],[-111.84888888888888,37.79416666666666],[-111.99222222222222,37.82666666666667],[-112.08388888888888,37.843611111111116],[-112.08388888888888,37.843611111111116],[-112.275,37.87833333333333],[-112.275,37.87833333333333],[-112.275,37.87833333333333],[-112.41611111111112,37.90361111111111],[-112.55416666666666,37.92833333333333],[-112.55416666666666,37.92833333333333],[-112.69444444444444,37.95305555555556],[-112.69444444444444,37.95305555555556],[-112.83944444444444,37.978611111111114],[-112.83944444444444,37.978611111111114],[-112.98361111111112,38.00361111111111],[-113.40805555555556,38.07638888888889],[-113.40805555555556,38.07638888888889],[-113.40805555555556,38.07638888888889],[-113.40805555555556,38.07638888888889],[-113.40805555555556,38.07638888888889],[-113.8386111111111,38.10583333333334],[-113.8386111111111,38.10583333333334],[-113.8386111111111,38.10583333333334],[-113.8386111111111,38.10583333333334],[-113.8386111111111,38.10583333333334],[-114.97583333333334,38.07555555555556],[-115.12694444444443,38.07055555555556],[-115.12694444444443,38.07055555555556],[-115.12694444444443,38.07055555555556],[-115.1863888888889,38.06888888888889],[-115.43361111111112,38.06111111111111],[-115.43361111111112,38.06111111111111],[-115.46277777777777,38.059444444444445],[-115.58611111111111,38.055],[-115.615,38.053888888888885],[-115.73972222222223,38.049166666666665],[-115.73972222222223,38.049166666666665],[-115.73972222222223,38.049166666666665],[-115.73972222222223,38.049166666666665],[-116.07111111111111,38.03611111111111],[-116.34583333333333,38.02472222222222],[-116.37249999999999,38.02361111111111],[-116.37249999999999,38.02361111111111],[-116.52166666666666,38.01722222222222],[-116.52166666666666,38.01722222222222],[-116.67222222222223,38.01027777777778],[-116.79222222222222,38.00472222222222],[-116.81861111111111,38.00333333333333],[-117.0936111111111,37.99],[-117.0936111111111,37.99],[-117.2461111111111,37.9825],[-117.2461111111111,37.9825],[-117.2461111111111,37.9825],[-117.27527777777777,37.98083333333334],[-117.67083333333333,37.96027777777778],[-117.67083333333333,37.96027777777778],[-117.81888888888888,37.952222222222225],[-117.81888888888888,37.952222222222225],[-117.81888888888888,37.952222222222225],[-118.12138888888889,37.93472222222222],[-118.12138888888889,37.93472222222222],[-118.12138888888889,37.93472222222222],[-118.485,37.91305555555555],[-118.485,37.91305555555555],[-118.485,37.91305555555555],[-118.485,37.91305555555555],[-118.87944444444443,37.8825],[-118.87944444444443,37.8825],[-118.87944444444443,37.8825],[-118.87944444444443,37.8825],[-118.87944444444443,37.8825],[-119.16805555555555,37.849444444444444],[-119.16805555555555,37.849444444444444],[-119.16805555555555,37.849444444444444],[-119.16805555555555,37.849444444444444],[-119.45805555555556,37.815555555555555],[-119.45805555555556,37.815555555555555],[-119.45805555555556,37.815555555555555],[-119.45805555555556,37.815555555555555],[-119.60722222222222,37.7975],[-119.60722222222222,37.7975],[-119.60722222222222,37.7975],[-119.75694444444444,37.779444444444444],[-119.75694444444444,37.779444444444444],[-119.75694444444444,37.779444444444444],[-120.20583333333333,37.72416666666667],[-120.20583333333333,37.72416666666667],[-120.3,37.71666666666667],[-120.36666666666666,37.7],[-120.36666666666666,37.7],[-120.36666666666666,37.7],[-120.63388888888889,37.67222222222222],[-120.63388888888889,37.67222222222222],[-120.63388888888889,37.67222222222222],[-120.76777777777778,37.656388888888884],[-120.89555555555556,37.64083333333333],[-120.89555555555556,37.64083333333333],[-120.93333333333334,37.63333333333333],[-121.02194444444444,37.625],[-121.02194444444444,37.625],[-121.05,37.61666666666667],[-121.05,37.61666666666667],[-121.05,37.61666666666667],[-121.14583333333334,37.608333333333334],[-121.18333333333334,37.6],[-121.18333333333334,37.6],[-121.26694444444445,37.591944444444444],[-121.26694444444445,37.591944444444444],[-121.38333333333334,37.583333333333336],[-121.38333333333334,37.583333333333336],[-121.46166666666667,37.569722222222225],[-121.48333333333333,37.56666666666667],[-121.48333333333333,37.56666666666667],[-121.48333333333333,37.56666666666667],[-121.73333333333333,37.53333333333333],[-121.81666666666666,37.5],[-121.81666666666666,37.5],[-121.81666666666666,37.5],[-121.87472222222222,37.49138888888889],[-121.87472222222222,37.49138888888889],[-121.9,37.5],[-121.9,37.5],[-121.9,37.5],[-122.17694444444444,37.5375],[-122.2325,37.56111111111111],[-122.2325,37.56111111111111],[-122.2325,37.56111111111111]],"type":"LineString"}
}
