{
  "id": 2031455425,
  "type": "Feature",
  "properties": {
    "geom:area": 0,
    "geom:bbox": "-122.354450,37.408480,-121.243730,37.671350",
    "geom:latitude": 37.547447369385154,
    "geom:longitude": -121.8214825554657,
    "src:alt_label": "swim-approach",
    "src:geom": "swim",
    "swim:elevations": [
      4668,
      4521,
      4411,
      4144,
      4046,
      4013,
      3984,
      3775,
      3503,
      3357,
      3353,
      3353,
      3338,
      3243,
      3159,
      3048,
      3048,
      3048,
      3048,
      3027,
      3000,
      2924,
      2743,
      2743,
      2743,
      2648,
      2466,
      2462,
      2437,
      2438,
      2392,
      2294,
      2134,
      2134,
      2134,
      2134,
      2071,
      1916,
      1767,
      1512,
      1360,
      1135,
      1084,
      1059,
      919,
      727,
      584,
      478,
      400,
      388,
      334,
      288,
      204,
      97,
      39
    ],
    "swim:geom": "approach",
    "swim:timestamps": [
      1780698867,
      1780698888,
      1780698903,
      1780698951,
      1780698975,
      1780698984,
      1780698993,
      1780699022,
      1780699072,
      1780699100,
      1780699137,
      1780699141,
      1780699171,
      1780699193,
      1780699208,
      1780699249,
      1780699276,
      1780699304,
      1780699313,
      1780699330,
      1780699338,
      1780699355,
      1780699403,
      1780699424,
      1780699463,
      1780699493,
      1780699524,
      1780699527,
      1780699534,
      1780699558,
      1780699576,
      1780699594,
      1780699648,
      1780699660,
      1780699706,
      1780699715,
      1780699733,
      1780699752,
      1780699770,
      1780699810,
      1780699840,
      1780699881,
      1780699887,
      1780699896,
      1780699923,
      1780699971,
      1780700005,
      1780700033,
      1780700055,
      1780700064,
      1780700076,
      1780700091,
      1780700118,
      1780700145,
      1780700162
    ],
    "wof:geomhash": "cb3c6cb0114481cb9a7a5186ba13fc91",
    "wof:id": 2031455425,
    "wof:repo": "sfomuseum-data-flights-2026-06"
  },
  "bbox": [
    -122.35445,
    37.40848,
    -121.24373,
    37.67135
  ],
  "geometry": {"coordinates":[[-121.24373,37.59528],[-121.28011,37.59046],[-121.30695,37.58731],[-121.38858,37.5784],[-121.42982,37.57364],[-121.4453,37.5718],[-121.46067,37.57],[-121.50862,37.56437],[-121.58648,37.55526],[-121.62619,37.5501],[-121.67481,37.56149],[-121.68027,37.56445],[-121.7144,37.58351],[-121.73959,37.59772],[-121.75732,37.60755],[-121.80383,37.63294],[-121.83471,37.64982],[-121.86559,37.66691],[-121.8766,37.67114],[-121.89979,37.67135],[-121.90929,37.66773],[-121.92381,37.65293],[-121.90421,37.60132],[-121.88867,37.57951],[-121.85988,37.53895],[-121.83807,37.50786],[-121.81612,37.47609],[-121.81403,37.47305],[-121.80946,37.46637],[-121.79549,37.441],[-121.79941,37.42153],[-121.8164,37.40848],[-121.88425,37.41218],[-121.89907,37.4177],[-121.95255,37.44234],[-121.96278,37.44694],[-121.98414,37.45626],[-122.00578,37.46539],[-122.02594,37.47383],[-122.07014,37.4925],[-122.10279,37.50624],[-122.14671,37.52488],[-122.15259,37.52746],[-122.16131,37.53111],[-122.18563,37.54131],[-122.22461,37.55776],[-122.25193,37.56928],[-122.27155,37.57752],[-122.28561,37.58346],[-122.2913,37.58576],[-122.29914,37.58908],[-122.30873,37.59319],[-122.32536,37.60015],[-122.34315,37.60762],[-122.35445,37.61241]],"type":"LineString"}
}
