{
  "id": 2031510377,
  "type": "Feature",
  "properties": {
    "geom:area": 0,
    "geom:bbox": "-122.380000,37.490000,-81.830000,41.540000",
    "geom:latitude": 38.74237970838077,
    "geom:longitude": -101.89801295959977,
    "src:alt_label": "swim-route",
    "src:geom": "swim",
    "swim:geom": "route",
    "wof:geomhash": "822fac03b403cb5d04f474d16ecd887d",
    "wof:id": 2031510377,
    "wof:repo": "sfomuseum-data-flights-2026-06"
  },
  "bbox": [
    -122.38,
    37.49,
    -81.83,
    41.54
  ],
  "geometry": {"coordinates":[[-81.85,41.41],[-81.84,41.47],[-81.83,41.49],[-81.83,41.49],[-81.87,41.52],[-81.9,41.53],[-81.9,41.54],[-81.93,41.53],[-81.99,41.51],[-82.01,41.5],[-82.02,41.49],[-82.16,41.4],[-82.32,41.28],[-82.38,41.23],[-82.41,41.21],[-82.44,41.19],[-82.55,41.16],[-82.62,41.14],[-82.68,41.13],[-82.69,41.12],[-82.76,41.11],[-82.86,41.09],[-82.93,41.08],[-83.2,41.03],[-83.2,41.03],[-83.43,40.92],[-83.53,40.88],[-83.55,40.87],[-83.68,40.85],[-83.72,40.84],[-83.91,40.81],[-84.05,40.78],[-84.68,40.67],[-85.01,40.61],[-85.15,40.56],[-85.34,40.56],[-85.68,40.49],[-85.81,40.45],[-85.88,40.42],[-86.08,40.35],[-86.48,40.2],[-86.68,40.13],[-87.02,40],[-87.21,39.93],[-87.28,39.91],[-87.43,39.86],[-88.15,39.8],[-90.01,39.61],[-90.83,39.56],[-91.67,39.18],[-91.68,39.17],[-91.78,39.16],[-92.14,39],[-92.5,38.89],[-92.72,38.82],[-94.46,38.51],[-94.65,38.49],[-95.2,38.46],[-96.78,38.33],[-97.7,38.25],[-98.19,38.2],[-99.68,38.01],[-100.73,37.92],[-101.6,38.02],[-103.52,38.21],[-104.43,38.29],[-105.09,38.34],[-105.38,38.36],[-105.76,38.38],[-105.99,38.4],[-107.04,38.45],[-107.64,38.45],[-108.24,38.45],[-108.44,38.45],[-108.61,38.45],[-108.81,38.45],[-109.98,38.43],[-110.26,38.43],[-110.7,38.42],[-111.11,38.41],[-111.91,38.39],[-113.01,38.36],[-113.12,38.35],[-113.97,38.29],[-114.08,38.27],[-114.42,38.25],[-116.37,38.11],[-117.23,38.04],[-117.34,38.03],[-117.48,38.02],[-118.76,37.9],[-119.1,37.86],[-119.27,37.84],[-119.38,37.82],[-119.94,37.76],[-120.04,37.75],[-120.22,37.72],[-120.4,37.7],[-120.41,37.7],[-120.48,37.69],[-120.69,37.67],[-120.75,37.66],[-120.77,37.66],[-120.83,37.65],[-120.96,37.63],[-121,37.63],[-121.08,37.62],[-121.17,37.6],[-121.26,37.59],[-121.39,37.58],[-121.41,37.58],[-121.6,37.55],[-121.61,37.55],[-121.62,37.55],[-121.7,37.53],[-121.8,37.51],[-121.83,37.5],[-121.88,37.49],[-122.08,37.54],[-122.14,37.56],[-122.18,37.57],[-122.28,37.59],[-122.33,37.61],[-122.36,37.61],[-122.38,37.62]],"type":"LineString"}
}
