{
  "id": 2031465813,
  "type": "Feature",
  "properties": {
    "geom:area": 0,
    "geom:bbox": "-122.162222,33.917778,-118.433333,37.504167",
    "geom:latitude": 35.41158792881775,
    "geom:longitude": -120.54922474175751,
    "src:alt_label": "swim-path",
    "src:geom": "swim",
    "swim:altitudes": [
      "016",
      "106",
      "106",
      "122",
      "152",
      "152",
      "235",
      "257",
      "277",
      "292",
      "319",
      "358C",
      "360C",
      "360C",
      "360C",
      "360C",
      "360C",
      "360C",
      "360C",
      "360C",
      "360C",
      "360C",
      "360C",
      "360",
      "360",
      "360",
      "349",
      "280",
      "280",
      "254",
      "254",
      "235",
      "235",
      "228",
      "206",
      "141",
      "141",
      "130",
      "128",
      "128",
      "122",
      "121",
      "113",
      "113",
      "113",
      "084",
      "084",
      "070",
      "049",
      "039",
      "039"
    ],
    "swim:geom": "path",
    "swim:speeds": [
      160,
      274,
      274,
      349,
      389,
      389,
      429,
      436,
      442,
      442,
      443,
      423,
      421,
      421,
      421,
      421,
      421,
      418,
      418,
      418,
      423,
      423,
      424,
      425,
      424,
      424,
      433,
      440,
      440,
      419,
      419,
      391,
      391,
      385,
      366,
      347,
      347,
      341,
      313,
      313,
      276,
      266,
      251,
      251,
      251,
      239,
      239,
      237,
      191,
      193,
      193
    ],
    "swim:timestamps": [
      1780793062,
      1780793234,
      1780793234,
      1780793294,
      1780793354,
      1780793354,
      1780793534,
      1780793594,
      1780793655,
      1780793711,
      1780793775,
      1780793892,
      1780794015,
      1780794072,
      1780794072,
      1780794252,
      1780794252,
      1780794432,
      1780794432,
      1780794432,
      1780794556,
      1780794556,
      1780794612,
      1780794732,
      1780794792,
      1780794792,
      1780794913,
      1780795033,
      1780795033,
      1780795093,
      1780795093,
      1780795153,
      1780795153,
      1780795165,
      1780795224,
      1780795404,
      1780795404,
      1780795453,
      1780795464,
      1780795464,
      1780795513,
      1780795524,
      1780795573,
      1780795573,
      1780795573,
      1780795693,
      1780795693,
      1780795753,
      1780795879,
      1780795934,
      1780795934
    ],
    "wof:geomhash": "7d54edfecc0b30d0add9f54b07f6231b",
    "wof:id": 2031465813,
    "wof:repo": "sfomuseum-data-flights-2026-06"
  },
  "bbox": [
    -122.16222222222223,
    33.91777777777777,
    -118.43333333333334,
    37.50416666666667
  ],
  "geometry": {"coordinates":[[-118.43333333333334,33.93333333333333],[-118.65027777777779,33.91833333333333],[-118.65027777777779,33.91833333333333],[-118.75722222222223,33.91777777777777],[-118.91055555555556,33.921388888888885],[-118.91055555555556,33.921388888888885],[-119.24583333333334,34.10611111111111],[-119.3461111111111,34.19583333333333],[-119.44722222222222,34.28611111111111],[-119.5225,34.35277777777778],[-119.65111111111112,34.4675],[-119.82583333333334,34.621944444444445],[-120.0375,34.80777777777777],[-120.11777777777777,34.878055555555555],[-120.11777777777777,34.878055555555555],[-120.41333333333334,35.13472222222222],[-120.41333333333334,35.13472222222222],[-120.71027777777778,35.39083333333333],[-120.71027777777778,35.39083333333333],[-120.71027777777778,35.39083333333333],[-120.89805555555556,35.56944444444445],[-120.89805555555556,35.56944444444445],[-120.98527777777778,35.663333333333334],[-121.16250000000001,35.85333333333333],[-121.24972222222222,35.94638888888888],[-121.24972222222222,35.94638888888888],[-121.4213888888889,36.14083333333333],[-121.58416666666666,36.349444444444444],[-121.58416666666666,36.349444444444444],[-121.66166666666668,36.448055555555555],[-121.66166666666668,36.448055555555555],[-121.735,36.54083333333333],[-121.735,36.54083333333333],[-121.75,36.56666666666667],[-121.83333333333333,36.65],[-121.95,36.93333333333333],[-121.95,36.93333333333333],[-121.9675,36.98916666666667],[-121.98333333333333,37.016666666666666],[-121.98333333333333,37.016666666666666],[-122.00527777777778,37.08361111111111],[-122.01666666666667,37.1],[-122.03111111111112,37.15138888888889],[-122.03111111111112,37.15138888888889],[-122.03111111111112,37.15138888888889],[-122.08083333333333,37.27972222222222],[-122.08083333333333,37.27972222222222],[-122.10555555555555,37.34138888888889],[-122.15,37.46666666666667],[-122.16222222222223,37.50416666666667],[-122.16222222222223,37.50416666666667]],"type":"LineString"}
}
