{
  "id": 2031519959,
  "type": "Feature",
  "properties": {
    "geom:area": 0,
    "geom:bbox": "-122.346960,37.491940,-121.242680,37.609190",
    "geom:latitude": 37.54263531803823,
    "geom:longitude": -121.8016439127572,
    "src:alt_label": "swim-approach",
    "src:geom": "swim",
    "swim:elevations": [
      4798,
      4669,
      4512,
      4089,
      3803,
      3503,
      3275,
      3133,
      3110,
      2902,
      2694,
      2529,
      2336,
      2107,
      1959,
      1862,
      1688,
      1604,
      1491,
      1282,
      1129,
      1005,
      792,
      699,
      577,
      378,
      293,
      179,
      80
    ],
    "swim:geom": "approach",
    "swim:timestamps": [
      1781248160,
      1781248172,
      1781248187,
      1781248227,
      1781248256,
      1781248284,
      1781248307,
      1781248342,
      1781248353,
      1781248391,
      1781248419,
      1781248449,
      1781248479,
      1781248518,
      1781248544,
      1781248561,
      1781248590,
      1781248607,
      1781248624,
      1781248664,
      1781248698,
      1781248715,
      1781248751,
      1781248766,
      1781248787,
      1781248826,
      1781248850,
      1781248875,
      1781248899
    ],
    "wof:geomhash": "7ecff722ff2f91df61db24d3480ca939",
    "wof:id": 2031519959,
    "wof:repo": "sfomuseum-data-flights-2026-06"
  },
  "bbox": [
    -122.34696,
    37.49194,
    -121.24268,
    37.60919
  ],
  "geometry": {"coordinates":[[-121.24268,37.59545],[-121.26756,37.59203],[-121.30003,37.588],[-121.38144,37.57926],[-121.43907,37.57279],[-121.49632,37.56592],[-121.54235,37.56048],[-121.60799,37.55274],[-121.6279,37.54974],[-121.68974,37.53524],[-121.73517,37.52453],[-121.78263,37.51313],[-121.82778,37.50231],[-121.8873,37.49194],[-121.92708,37.49387],[-121.95279,37.49529],[-121.99685,37.49782],[-122.02277,37.49929],[-122.04883,37.50078],[-122.10603,37.50756],[-122.14777,37.52508],[-122.16706,37.53347],[-122.20955,37.55148],[-122.22698,37.55874],[-122.24955,37.56833],[-122.28724,37.58417],[-122.30783,37.59281],[-122.32824,37.6014],[-122.34696,37.60919]],"type":"LineString"}
}
