{
  "id": 2031474521,
  "type": "Feature",
  "properties": {
    "geom:area": 0,
    "geom:bbox": "-122.770000,37.620000,-87.910000,44.950000",
    "geom:latitude": 42.92792824015315,
    "geom:longitude": -105.49742688870131,
    "src:alt_label": "swim-route",
    "src:geom": "swim",
    "swim:geom": "route",
    "wof:geomhash": "6a564ea31f33e8520690ebc04dede57e",
    "wof:id": 2031474521,
    "wof:repo": "sfomuseum-data-flights-2026-06"
  },
  "bbox": [
    -122.77,
    37.62,
    -87.91,
    44.95
  ],
  "geometry": {"coordinates":[[-87.91,41.98],[-87.91,42.05],[-87.92,42.07],[-87.92,42.16],[-87.92,42.17],[-87.93,42.26],[-87.93,42.28],[-87.93,42.31],[-87.94,42.37],[-87.95,42.47],[-87.96,42.5],[-87.96,42.54],[-87.97,42.62],[-87.97,42.63],[-87.98,42.72],[-87.98,42.73],[-88.07,42.85],[-88.22,43.03],[-88.28,43.12],[-88.33,43.13],[-88.48,43.18],[-88.67,43.23],[-88.74,43.24],[-88.84,43.28],[-88.85,43.28],[-88.93,43.31],[-89.09,43.38],[-89.21,43.42],[-89.24,43.44],[-89.42,43.51],[-89.48,43.53],[-90.52,43.93],[-90.79,44.03],[-90.8,44.03],[-91.06,44.13],[-92.14,44.52],[-92.48,44.64],[-92.7,44.71],[-93.23,44.89],[-93.24,44.9],[-93.88,44.91],[-94.25,44.92],[-94.68,44.95],[-96.11,44.94],[-96.38,44.94],[-97.75,44.94],[-97.98,44.92],[-99.85,44.88],[-101.78,44.8],[-102.02,44.79],[-102.25,44.77],[-102.65,44.72],[-105.19,44.22],[-105.46,44.17],[-105.72,44.11],[-105.81,44.05],[-107.11,43.96],[-107.19,43.95],[-107.29,43.93],[-107.38,43.91],[-107.83,43.8],[-108.74,43.5],[-109.05,43.42],[-109.82,43.16],[-110.35,42.99],[-111.14,42.74],[-111.15,42.72],[-111.41,42.63],[-112.2,42.36],[-113.36,41.95],[-113.58,41.87],[-114.49,41.6],[-114.77,41.51],[-115.17,41.39],[-115.58,41.26],[-115.85,41.17],[-115.86,41.17],[-116.12,41.09],[-116.38,41],[-118.24,40.38],[-118.53,40.28],[-120.51,39.56],[-121.1,39.34],[-121.2,39.28],[-121.28,39.23],[-121.33,39.2],[-121.67,39],[-121.73,38.96],[-121.99,38.81],[-122.04,38.78],[-122.22,38.67],[-122.26,38.65],[-122.44,38.55],[-122.44,38.54],[-122.68,38.31],[-122.69,38.3],[-122.77,38.22],[-122.75,38.16],[-122.72,38.06],[-122.69,37.95],[-122.67,37.9],[-122.67,37.9],[-122.65,37.87],[-122.62,37.85],[-122.59,37.82],[-122.58,37.81],[-122.51,37.74],[-122.5,37.73],[-122.44,37.68],[-122.37,37.62],[-122.38,37.62]],"type":"LineString"}
}
