{
  "id": 2031513583,
  "type": "Feature",
  "properties": {
    "geom:area": 0,
    "geom:bbox": "-122.502778,35.999167,-114.935278,37.950556",
    "geom:latitude": 37.072185857895846,
    "geom:longitude": -118.59809454872273,
    "src:alt_label": "swim-path",
    "src:geom": "swim",
    "swim:altitudes": [
      "026",
      "026",
      "026",
      "026",
      "026",
      "086",
      "086",
      "086",
      "086",
      "109",
      "109",
      "109",
      "140",
      "140",
      "140",
      "157",
      "157",
      "157",
      "157",
      "217",
      "217",
      "217",
      "217",
      "230",
      "230",
      "230",
      "230",
      "230",
      "230",
      "259",
      "259",
      "259",
      "263",
      "263",
      "276",
      "290C",
      "290C",
      "290C",
      "290C",
      "290C",
      "290C",
      "290C",
      "290C",
      "290C",
      "290C",
      "290C",
      "290C",
      "290C",
      "290C",
      "290C",
      "290C",
      "290C",
      "290C",
      "290C",
      "290C",
      "290C",
      "290C",
      "290C",
      "290C",
      "290C",
      "290C",
      "290C",
      "290C",
      "290C",
      "290C",
      "290C",
      "290C",
      "290C",
      "290C",
      "290C",
      "290C",
      "290C",
      "290C",
      "290C",
      "290C",
      "290C",
      "290C",
      "290",
      "290",
      "290",
      "284",
      "284",
      "282",
      "272C",
      "272C",
      "272C",
      "272C",
      "272C",
      "270C",
      "270C",
      "270C",
      "270C",
      "270C",
      "270C",
      "270C",
      "270C",
      "270C",
      "270C",
      "270C",
      "270C",
      "270C",
      "270C",
      "270C",
      "270C",
      "270C",
      "270C",
      "270C",
      "270C",
      "270C",
      "270C",
      "270C",
      "270C",
      "270C",
      "270C",
      "270C",
      "270C",
      "271",
      "271",
      "271",
      "271",
      "270",
      "270",
      "270",
      "270",
      "270",
      "270",
      "270",
      "270",
      "270",
      "270",
      "270",
      "261",
      "240",
      "240",
      "240",
      "223",
      "223",
      "211",
      "211",
      "211",
      "167",
      "167",
      "155",
      "155",
      "155",
      "155",
      "142",
      "130",
      "130",
      "118",
      "118",
      "104",
      "104",
      "104",
      "104",
      "079",
      "079",
      "079",
      "079",
      "053",
      "053",
      "044",
      "044",
      "044",
      "034",
      "034",
      "034"
    ],
    "swim:geom": "path",
    "swim:speeds": [
      209,
      209,
      209,
      209,
      209,
      277,
      277,
      277,
      277,
      308,
      308,
      308,
      304,
      304,
      304,
      319,
      319,
      319,
      319,
      374,
      374,
      374,
      374,
      472,
      472,
      472,
      441,
      441,
      441,
      524,
      524,
      524,
      511,
      511,
      511,
      505,
      505,
      505,
      491,
      491,
      490,
      490,
      501,
      501,
      501,
      496,
      496,
      496,
      497,
      497,
      497,
      498,
      498,
      500,
      500,
      500,
      500,
      498,
      498,
      498,
      496,
      496,
      479,
      479,
      479,
      471,
      471,
      471,
      470,
      470,
      470,
      470,
      470,
      470,
      470,
      470,
      470,
      473,
      473,
      473,
      473,
      473,
      474,
      474,
      474,
      474,
      474,
      474,
      477,
      477,
      478,
      478,
      479,
      479,
      479,
      487,
      487,
      500,
      500,
      500,
      496,
      496,
      496,
      496,
      496,
      495,
      495,
      495,
      491,
      491,
      491,
      491,
      491,
      491,
      491,
      491,
      493,
      493,
      493,
      494,
      494,
      494,
      494,
      494,
      474,
      473,
      473,
      473,
      470,
      468,
      468,
      470,
      451,
      451,
      451,
      417,
      417,
      389,
      389,
      389,
      339,
      339,
      326,
      326,
      326,
      326,
      328,
      320,
      320,
      324,
      324,
      315,
      315,
      315,
      315,
      228,
      228,
      228,
      228,
      194,
      194,
      190,
      190,
      190,
      187,
      187,
      185
    ],
    "swim:timestamps": [
      1781219729,
      1781219729,
      1781219729,
      1781219729,
      1781219729,
      1781219909,
      1781219909,
      1781219909,
      1781219909,
      1781219969,
      1781219969,
      1781219969,
      1781220039,
      1781220039,
      1781220039,
      1781220089,
      1781220089,
      1781220089,
      1781220089,
      1781220270,
      1781220270,
      1781220270,
      1781220270,
      1781220390,
      1781220390,
      1781220390,
      1781220399,
      1781220399,
      1781220399,
      1781220570,
      1781220570,
      1781220570,
      1781220580,
      1781220580,
      1781220630,
      1781220690,
      1781220690,
      1781220690,
      1781220750,
      1781220750,
      1781220810,
      1781220810,
      1781220820,
      1781220820,
      1781220820,
      1781220880,
      1781220880,
      1781220880,
      1781220930,
      1781220930,
      1781220930,
      1781220991,
      1781220991,
      1781221060,
      1781221060,
      1781221060,
      1781221060,
      1781221121,
      1781221121,
      1781221121,
      1781221181,
      1781221181,
      1781221241,
      1781221241,
      1781221241,
      1781221291,
      1781221291,
      1781221291,
      1781221351,
      1781221361,
      1781221361,
      1781221361,
      1781221421,
      1781221421,
      1781221421,
      1781221421,
      1781221421,
      1781221591,
      1781221591,
      1781221591,
      1781221652,
      1781221652,
      1781221661,
      1781221721,
      1781221721,
      1781221721,
      1781221721,
      1781221721,
      1781221782,
      1781221782,
      1781221832,
      1781221832,
      1781221842,
      1781221842,
      1781221842,
      1781221892,
      1781221892,
      1781221962,
      1781221962,
      1781221962,
      1781222012,
      1781222012,
      1781222012,
      1781222022,
      1781222022,
      1781222082,
      1781222082,
      1781222082,
      1781222192,
      1781222192,
      1781222202,
      1781222202,
      1781222202,
      1781222252,
      1781222252,
      1781222252,
      1781222312,
      1781222312,
      1781222312,
      1781222373,
      1781222382,
      1781222382,
      1781222382,
      1781222382,
      1781222433,
      1781222442,
      1781222442,
      1781222442,
      1781222493,
      1781222623,
      1781222623,
      1781222671,
      1781222743,
      1781222743,
      1781222743,
      1781222803,
      1781222803,
      1781222851,
      1781222851,
      1781222851,
      1781223043,
      1781223043,
      1781223098,
      1781223098,
      1781223098,
      1781223098,
      1781223164,
      1781223212,
      1781223212,
      1781223272,
      1781223272,
      1781223338,
      1781223338,
      1781223338,
      1781223338,
      1781223524,
      1781223524,
      1781223524,
      1781223524,
      1781223639,
      1781223639,
      1781223704,
      1781223704,
      1781223704,
      1781223753,
      1781223753,
      1781223764
    ],
    "wof:geomhash": "059a2ca6bef60ed1d1a408d2f80b358c",
    "wof:id": 2031513583,
    "wof:repo": "sfomuseum-data-flights-2026-06"
  },
  "bbox": [
    -122.50277777777778,
    35.99916666666667,
    -114.93527777777778,
    37.95055555555556
  ],
  "geometry": {"coordinates":[[-122.45222222222222,37.651111111111106],[-122.45222222222222,37.651111111111106],[-122.45222222222222,37.651111111111106],[-122.45222222222222,37.651111111111106],[-122.45222222222222,37.651111111111106],[-122.50277777777778,37.525555555555556],[-122.50277777777778,37.525555555555556],[-122.50277777777778,37.525555555555556],[-122.50277777777778,37.525555555555556],[-122.45916666666668,37.44916666666666],[-122.45916666666668,37.44916666666666],[-122.45916666666668,37.44916666666666],[-122.37388888888889,37.3725],[-122.37388888888889,37.3725],[-122.37388888888889,37.3725],[-122.28805555555556,37.36388888888889],[-122.28805555555556,37.36388888888889],[-122.28805555555556,37.36388888888889],[-122.28805555555556,37.36388888888889],[-121.93305555555555,37.29833333333333],[-121.93305555555555,37.29833333333333],[-121.93305555555555,37.29833333333333],[-121.93305555555555,37.29833333333333],[-121.61888888888888,37.239444444444445],[-121.61888888888888,37.239444444444445],[-121.61888888888888,37.239444444444445],[-121.59583333333333,37.233333333333334],[-121.59583333333333,37.233333333333334],[-121.59583333333333,37.233333333333334],[-121.09861111111111,37.140277777777776],[-121.09861111111111,37.140277777777776],[-121.09861111111111,37.140277777777776],[-121.07138888888889,37.13361111111111],[-121.07138888888889,37.13361111111111],[-120.92500000000001,37.10666666666667],[-120.75472222222223,37.07333333333334],[-120.75472222222223,37.07333333333334],[-120.75472222222223,37.07333333333334],[-120.58888888888889,37.04083333333333],[-120.58888888888889,37.04083333333333],[-120.42416666666666,37.007777777777775],[-120.42416666666666,37.007777777777775],[-120.39111111111112,37.001666666666665],[-120.39111111111112,37.001666666666665],[-120.39111111111112,37.001666666666665],[-120.26,36.97555555555556],[-120.26,36.97555555555556],[-120.26,36.97555555555556],[-120.08388888888888,36.94166666666666],[-120.08388888888888,36.94166666666666],[-120.08388888888888,36.94166666666666],[-119.91333333333334,36.933055555555555],[-119.91333333333334,36.933055555555555],[-119.71194444444444,36.95777777777778],[-119.71194444444444,36.95777777777778],[-119.71194444444444,36.95777777777778],[-119.71194444444444,36.95777777777778],[-119.55027777777778,37.00666666666667],[-119.55027777777778,37.00666666666667],[-119.55027777777778,37.00666666666667],[-119.39472222222223,37.061388888888885],[-119.39472222222223,37.061388888888885],[-119.245,37.125277777777775],[-119.245,37.125277777777775],[-119.245,37.125277777777775],[-119.13833333333334,37.189166666666665],[-119.13833333333334,37.189166666666665],[-119.13833333333334,37.189166666666665],[-119.00527777777778,37.26833333333333],[-118.98583333333333,37.28],[-118.98583333333333,37.28],[-118.98583333333333,37.28],[-118.85277777777777,37.35916666666667],[-118.85277777777777,37.35916666666667],[-118.85277777777777,37.35916666666667],[-118.85277777777777,37.35916666666667],[-118.85277777777777,37.35916666666667],[-118.48194444444445,37.57972222222222],[-118.48194444444445,37.57972222222222],[-118.48194444444445,37.57972222222222],[-118.34833333333333,37.65888888888889],[-118.34833333333333,37.65888888888889],[-118.32055555555556,37.675555555555555],[-118.18722222222223,37.75416666666667],[-118.18722222222223,37.75416666666667],[-118.18722222222223,37.75416666666667],[-118.18722222222223,37.75416666666667],[-118.18722222222223,37.75416666666667],[-118.0525,37.833333333333336],[-118.0525,37.833333333333336],[-117.94166666666668,37.89833333333333],[-117.94166666666668,37.89833333333333],[-117.91638888888889,37.913333333333334],[-117.91638888888889,37.913333333333334],[-117.91638888888889,37.913333333333334],[-117.78694444444444,37.95055555555556],[-117.78694444444444,37.95055555555556],[-117.59638888888888,37.8975],[-117.59638888888888,37.8975],[-117.59638888888888,37.8975],[-117.51305555555555,37.81194444444444],[-117.51305555555555,37.81194444444444],[-117.51305555555555,37.81194444444444],[-117.4925,37.78944444444444],[-117.4925,37.78944444444444],[-117.39277777777778,37.68055555555555],[-117.39277777777778,37.68055555555555],[-117.39277777777778,37.68055555555555],[-117.21333333333334,37.48083333333334],[-117.21333333333334,37.48083333333334],[-117.19388888888889,37.45916666666667],[-117.19388888888889,37.45916666666667],[-117.19388888888889,37.45916666666667],[-117.11388888888888,37.36944444444445],[-117.11388888888888,37.36944444444445],[-117.11388888888888,37.36944444444445],[-117.01388888888889,37.25666666666667],[-117.01388888888889,37.25666666666667],[-117.01388888888889,37.25666666666667],[-116.91388888888889,37.14416666666666],[-116.89444444444445,37.12222222222222],[-116.89444444444445,37.12222222222222],[-116.89444444444445,37.12222222222222],[-116.89444444444445,37.12222222222222],[-116.81833333333333,37.035],[-116.8,37.013333333333335],[-116.8,37.013333333333335],[-116.8,37.013333333333335],[-116.72583333333334,36.92666666666666],[-116.525,36.69166666666666],[-116.525,36.69166666666666],[-116.4325,36.60944444444445],[-116.29694444444445,36.513888888888886],[-116.29694444444445,36.513888888888886],[-116.29694444444445,36.513888888888886],[-116.18277777777779,36.43277777777777],[-116.18277777777779,36.43277777777777],[-116.1,36.37166666666667],[-116.1,36.37166666666667],[-116.1,36.37166666666667],[-115.80499999999999,36.17361111111111],[-115.80499999999999,36.17361111111111],[-115.71611111111112,36.12722222222222],[-115.71611111111112,36.12722222222222],[-115.71611111111112,36.12722222222222],[-115.71611111111112,36.12722222222222],[-115.60555555555555,36.09444444444445],[-115.51833333333333,36.066944444444445],[-115.51833333333333,36.066944444444445],[-115.41611111111112,36.034166666666664],[-115.41611111111112,36.034166666666664],[-115.30055555555555,36.01416666666667],[-115.30055555555555,36.01416666666667],[-115.30055555555555,36.01416666666667],[-115.30055555555555,36.01416666666667],[-114.99944444444445,35.99916666666667],[-114.99944444444445,35.99916666666667],[-114.99944444444445,35.99916666666667],[-114.99944444444445,35.99916666666667],[-114.93527777777778,36.05416666666667],[-114.93527777777778,36.05416666666667],[-114.99,36.07361111111111],[-114.99,36.07361111111111],[-114.99,36.07361111111111],[-115.04555555555555,36.073888888888895],[-115.04555555555555,36.073888888888895],[-115.05444444444444,36.073888888888895]],"type":"LineString"}
}
