{
  "id": 2031470525,
  "type": "Feature",
  "properties": {
    "geom:area": 0,
    "geom:bbox": "-122.527410,37.630330,-121.562800,38.497760",
    "geom:latitude": 38.05374779502735,
    "geom:longitude": -122.10399272231169,
    "src:alt_label": "swim-takeoff",
    "src:geom": "swim",
    "swim:elevations": [
      395,
      524,
      683,
      891,
      945,
      1232,
      1474,
      1586,
      1783,
      1982,
      2263,
      2482,
      2922,
      3146,
      3319,
      3363,
      3539,
      3727,
      3785,
      4269,
      4473,
      4836,
      5010,
      5312,
      5698,
      5993,
      6138,
      6412,
      6707,
      6905,
      6945
    ],
    "swim:geom": "takeoff",
    "swim:timestamps": [
      1780758179,
      1780758188,
      1780758207,
      1780758233,
      1780758256,
      1780758296,
      1780758316,
      1780758326,
      1780758340,
      1780758357,
      1780758383,
      1780758407,
      1780758442,
      1780758460,
      1780758485,
      1780758498,
      1780758525,
      1780758567,
      1780758576,
      1780758620,
      1780758640,
      1780758679,
      1780758697,
      1780758726,
      1780758768,
      1780758806,
      1780758824,
      1780758860,
      1780758898,
      1780758928,
      1780758932
    ],
    "wof:geomhash": "4ec9664002423cc4f6edf0b7b3479796",
    "wof:id": 2031470525,
    "wof:repo": "sfomuseum-data-flights-2026-06"
  },
  "bbox": [
    -122.52741,
    37.63033,
    -121.5628,
    38.49776
  ],
  "geometry": {"coordinates":[[-122.40198,37.63033],[-122.40997,37.63373],[-122.42817,37.64128],[-122.45386,37.65216],[-122.47962,37.66343],[-122.52235,37.69104],[-122.52629,37.71463],[-122.52662,37.72682],[-122.52687,37.74426],[-122.52741,37.76634],[-122.52031,37.79883],[-122.48827,37.82027],[-122.43132,37.84202],[-122.40479,37.8583],[-122.37043,37.88255],[-122.35141,37.89583],[-122.309,37.92511],[-122.23911,37.97379],[-122.22344,37.9846],[-122.14366,38.03955],[-122.1064,38.06506],[-122.0331,38.11551],[-121.99786,38.13963],[-121.94075,38.17871],[-121.85717,38.23595],[-121.78138,38.28752],[-121.74288,38.3138],[-121.67577,38.36768],[-121.61429,38.43645],[-121.56905,38.49032],[-121.5628,38.49776]],"type":"LineString"}
}
