{
  "id": 2031523703,
  "type": "Feature",
  "properties": {
    "geom:area": 0,
    "geom:bbox": "-180.000000,35.760000,170.000000,54.100000",
    "geom:latitude": 51.072682833766684,
    "geom:longitude": -13.10134076046242,
    "src:alt_label": "swim-route",
    "src:geom": "swim",
    "swim:geom": "route",
    "wof:geomhash": "d9d35c63c91c130ed7360bf879e5f707",
    "wof:id": 2031523703,
    "wof:repo": "sfomuseum-data-flights-2026-06"
  },
  "bbox": [
    -180,
    35.76,
    170,
    54.1
  ],
  "geometry": {"coordinates":[[[-122.38,37.62],[-122.5,37.67],[-122.5,37.67],[-122.5,37.68],[-122.59,37.73],[-122.59,37.73],[-122.63,37.75],[-122.69,37.79],[-122.7,37.79],[-122.74,37.81],[-122.76,37.82],[-122.79,37.87],[-122.91,38.01],[-123.15,38.3],[-123.16,38.3],[-123.3,38.48],[-123.42,38.61],[-123.48,38.68],[-123.59,38.82],[-123.64,38.87],[-123.73,38.98],[-123.75,39],[-123.85,39.1],[-123.96,39.21],[-124.29,39.55],[-124.3,39.56],[-124.42,39.67],[-124.97,40.22],[-126.24,41.42],[-126.5,41.66],[-126.79,41.87],[-126.81,41.89],[-126.82,41.89],[-126.83,41.9],[-128.37,43.01],[-129.98,44.09],[-135.49,47.01],[-136.59,47.52],[-140,49],[-143.4,50.53],[-150,53],[-151.25,53.17],[-155.04,53.61],[-156,53.71],[-158.78,53.92],[-158.9,53.93],[-158.92,53.93],[-159.95,53.98],[-160,54],[-161.91,54.06],[-163.83,54.1],[-163.92,54.08],[-166.27,54.08],[-167.67,54.07],[-170,54],[-172.54,53.83],[-180,53]],[[170,51],[166.25,49.66],[161.33,47.55],[155.1,44.18],[154.28,43.66],[149.65,40.42],[145.67,37.2],[143.54,36.65],[143.05,36.52],[142.75,36.44],[142.66,36.42],[142.59,36.4],[142.34,36.33],[141.99,36.23],[141.68,36.14],[141.35,36.05],[141.31,36.04],[141.12,35.98],[140.97,35.94],[140.87,35.91],[140.82,35.89],[140.68,35.85],[140.58,35.82],[140.48,35.79],[140.44,35.78],[140.39,35.76]]],"type":"MultiLineString"}
}
