{
  "id": 2031483759,
  "type": "Feature",
  "properties": {
    "geom:area": 0,
    "geom:bbox": "-122.380000,34.200000,-118.360000,37.620000",
    "geom:latitude": 35.81091610530687,
    "geom:longitude": -120.56463599906284,
    "src:alt_label": "swim-route",
    "src:geom": "swim",
    "swim:geom": "route",
    "wof:geomhash": "329b04e81c458d0bfa7aaa5b6bf37530",
    "wof:id": 2031483759,
    "wof:repo": "sfomuseum-data-flights-2026-06"
  },
  "bbox": [
    -122.38,
    34.2,
    -118.36,
    37.62
  ],
  "geometry": {"coordinates":[[-118.36,34.2],[-118.42,34.24],[-118.44,34.25],[-118.44,34.25],[-118.46,34.26],[-118.49,34.28],[-118.51,34.29],[-118.51,34.29],[-118.53,34.31],[-118.56,34.32],[-118.58,34.33],[-118.6,34.35],[-118.65,34.37],[-118.67,34.43],[-118.7,34.47],[-118.74,34.52],[-118.78,34.57],[-118.8,34.61],[-118.84,34.66],[-118.99,34.88],[-119.01,34.9],[-119.06,34.98],[-119.09,35.01],[-119.12,35.06],[-119.14,35.08],[-119.22,35.2],[-119.29,35.23],[-119.37,35.27],[-119.38,35.27],[-119.5,35.32],[-119.54,35.34],[-119.63,35.38],[-120.34,35.68],[-120.94,35.91],[-121.1,35.68],[-121.14,35.74],[-121.54,35.85],[-121.55,35.91],[-121.57,35.97],[-121.63,36.21],[-121.7,36.5],[-121.7,36.5],[-121.76,36.57],[-121.82,36.65],[-121.84,36.67],[-121.89,36.74],[-121.9,36.76],[-121.94,36.91],[-122,36.91],[-121.95,36.95],[-121.97,36.99],[-122,37.07],[-122.08,37.27],[-122.08,37.28],[-122.1,37.33],[-122.12,37.37],[-122.17,37.43],[-122.22,37.47],[-122.24,37.49],[-122.31,37.56],[-122.36,37.6],[-122.37,37.61],[-122.38,37.62]],"type":"LineString"}
}
