{
  "id": 2031433149,
  "type": "Feature",
  "properties": {
    "geom:area": 0,
    "geom:bbox": "-122.480000,33.940000,-118.300000,37.660000",
    "geom:latitude": 35.775586540198624,
    "geom:longitude": -120.40088092729086,
    "src:alt_label": "swim-route",
    "src:geom": "swim",
    "swim:geom": "route",
    "wof:geomhash": "ee7875a61b6c8d5d4f99246cff3f3207",
    "wof:id": 2031433149,
    "wof:repo": "sfomuseum-data-flights-2026-06"
  },
  "bbox": [
    -122.48,
    33.94,
    -118.3,
    37.66
  ],
  "geometry": {"coordinates":[[-122.38,37.62],[-122.48,37.66],[-122.48,37.66],[-122.48,37.65],[-122.48,37.59],[-122.48,37.58],[-122.48,37.56],[-122.48,37.5],[-122.47,37.49],[-122.47,37.49],[-122.44,37.46],[-122.34,37.39],[-122.19,37.28],[-122.15,37.25],[-122.12,37.23],[-122.02,37.17],[-121.98,37.13],[-121.93,37.09],[-121.87,37.04],[-121.76,36.95],[-121.76,36.95],[-121.74,36.93],[-121.68,36.88],[-121.57,36.79],[-121.52,36.75],[-121.5,36.73],[-121.42,36.66],[-121.37,36.62],[-121.3,36.57],[-121.18,36.46],[-121.03,36.33],[-120.65,36.22],[-120.4,36.05],[-120.22,35.81],[-120.16,35.74],[-119.91,35.4],[-119.82,35.29],[-119.74,35.2],[-119.67,35.13],[-119.51,34.96],[-119.48,34.92],[-119.48,34.91],[-119.33,34.75],[-119.33,34.75],[-119.25,34.66],[-119.24,34.65],[-119.17,34.56],[-119.17,34.56],[-119.06,34.44],[-119.06,34.44],[-118.98,34.35],[-118.97,34.34],[-118.89,34.26],[-118.89,34.25],[-118.87,34.23],[-118.85,34.21],[-118.82,34.18],[-118.82,34.17],[-118.81,34.17],[-118.78,34.14],[-118.71,34.07],[-118.67,34.03],[-118.66,34.03],[-118.64,34.03],[-118.61,34.02],[-118.55,34.02],[-118.55,34.02],[-118.49,34.01],[-118.46,34.01],[-118.44,34.01],[-118.43,34.01],[-118.41,34.02],[-118.38,34.02],[-118.36,34.03],[-118.34,34.03],[-118.32,34.03],[-118.3,34.03],[-118.34,34],[-118.4,33.95],[-118.41,33.94]],"type":"LineString"}
}
