{
  "id": 2031637441,
  "type": "Feature",
  "properties": {
    "geom:area": 0,
    "geom:bbox": "-123.477640,37.099040,-122.154540,37.609650",
    "geom:latitude": 37.28599006080234,
    "geom:longitude": -122.65665639403475,
    "src:alt_label": "swim-approach",
    "src:geom": "swim",
    "swim:elevations": [
      5405,
      5212,
      5144,
      4898,
      4689,
      4554,
      4394,
      4158,
      3937,
      3824,
      3566,
      3471,
      3419,
      3169,
      3048,
      3048,
      3048,
      3048,
      3048,
      3048,
      3048,
      3048,
      3048,
      3048,
      3048,
      3048,
      3048,
      2894,
      2757,
      2663,
      2472,
      2467,
      2314,
      2224,
      2039,
      1859,
      1829,
      1829,
      1829,
      1829,
      1829,
      1829,
      1829,
      1613,
      1578,
      1507,
      1454,
      1334,
      1221,
      1173,
      968,
      822,
      792,
      792,
      792,
      728,
      551,
      475,
      335,
      273,
      149,
      110,
      79
    ],
    "swim:geom": "approach",
    "swim:timestamps": [
      1782421407,
      1782421435,
      1782421444,
      1782421478,
      1782421507,
      1782421526,
      1782421549,
      1782421584,
      1782421615,
      1782421631,
      1782421670,
      1782421682,
      1782421688,
      1782421725,
      1782421757,
      1782421789,
      1782421814,
      1782421838,
      1782421879,
      1782421918,
      1782421933,
      1782421974,
      1782422008,
      1782422029,
      1782422040,
      1782422065,
      1782422079,
      1782422121,
      1782422143,
      1782422158,
      1782422186,
      1782422190,
      1782422216,
      1782422233,
      1782422265,
      1782422293,
      1782422338,
      1782422341,
      1782422382,
      1782422397,
      1782422427,
      1782422458,
      1782422479,
      1782422516,
      1782422525,
      1782422546,
      1782422556,
      1782422577,
      1782422600,
      1782422623,
      1782422661,
      1782422688,
      1782422715,
      1782422724,
      1782422730,
      1782422748,
      1782422787,
      1782422806,
      1782422842,
      1782422859,
      1782422892,
      1782422901,
      1782422911
    ],
    "wof:geomhash": "cd4a00cda771a24de5e56733831e24b6",
    "wof:id": 2031637441,
    "wof:repo": "sfomuseum-data-flights-2026-06"
  },
  "bbox": [
    -123.47764,
    37.09904,
    -122.15454,
    37.60965
  ],
  "geometry": {"coordinates":[[-123.47764,37.09904],[-123.4239,37.11306],[-123.40618,37.11764],[-123.34053,37.13464],[-123.28493,37.1491],[-123.24883,37.15859],[-123.20557,37.1698],[-123.14266,37.18607],[-123.08651,37.20037],[-123.05689,37.20796],[-122.98759,37.22589],[-122.96612,37.23147],[-122.95555,37.23415],[-122.89087,37.25063],[-122.83561,37.26453],[-122.78223,37.27683],[-122.73794,37.28636],[-122.69829,37.2811],[-122.66904,37.23801],[-122.66015,37.19111],[-122.65678,37.173],[-122.62212,37.13323],[-122.57207,37.14155],[-122.55602,37.16399],[-122.55103,37.17675],[-122.54008,37.20658],[-122.53408,37.22283],[-122.51585,37.27228],[-122.5068,37.29721],[-122.5003,37.31449],[-122.48197,37.34467],[-122.47812,37.34733],[-122.44076,37.3564],[-122.41448,37.35806],[-122.36833,37.36065],[-122.32633,37.36299],[-122.27383,37.33559],[-122.27285,37.33212],[-122.26692,37.28414],[-122.25061,37.27193],[-122.20871,37.27165],[-122.18496,37.30007],[-122.1766,37.32258],[-122.1702,37.3629],[-122.16882,37.37259],[-122.16537,37.39444],[-122.16355,37.40545],[-122.16018,37.42636],[-122.15589,37.45067],[-122.15454,37.47383],[-122.16338,37.50987],[-122.17789,37.5315],[-122.19741,37.54616],[-122.20499,37.54944],[-122.21,37.55141],[-122.22466,37.5577],[-122.25741,37.57155],[-122.27376,37.57852],[-122.30067,37.58986],[-122.31206,37.59462],[-122.33516,37.60431],[-122.34146,37.60702],[-122.34784,37.60965]],"type":"LineString"}
}
