{
  "id": 2031687731,
  "type": "Feature",
  "properties": {
    "geom:area": 0,
    "geom:bbox": "-122.538530,36.746570,-121.601790,37.667740",
    "geom:latitude": 37.229467836852336,
    "geom:longitude": -122.14314267724393,
    "src:alt_label": "swim-takeoff",
    "src:geom": "swim",
    "swim:elevations": [
      152,
      495,
      845,
      1099,
      1257,
      1529,
      1694,
      2432,
      2730,
      3379,
      3480,
      3953,
      4135,
      4650,
      5355,
      5728,
      6053,
      6211,
      6326,
      6633,
      6817,
      7191,
      7238,
      7328,
      7690,
      7802,
      8170,
      8611,
      8717
    ],
    "swim:geom": "takeoff",
    "swim:timestamps": [
      1782840657,
      1782840683,
      1782840709,
      1782840739,
      1782840764,
      1782840797,
      1782840812,
      1782840852,
      1782840872,
      1782840926,
      1782840948,
      1782840985,
      1782840999,
      1782841035,
      1782841076,
      1782841100,
      1782841130,
      1782841165,
      1782841183,
      1782841213,
      1782841235,
      1782841281,
      1782841287,
      1782841296,
      1782841342,
      1782841354,
      1782841387,
      1782841435,
      1782841444
    ],
    "wof:geomhash": "d2f0fb9d0090feff087c3a2f8c44951e",
    "wof:id": 2031687731,
    "wof:repo": "sfomuseum-data-flights-2026-06"
  },
  "bbox": [
    -122.53853,
    36.74657,
    -121.60179,
    37.66774
  ],
  "geometry": {"coordinates":[[-122.37833,37.62261],[-122.39694,37.63063],[-122.41729,37.6388],[-122.44028,37.64811],[-122.46409,37.65794],[-122.50526,37.66774],[-122.52643,37.66058],[-122.53853,37.61169],[-122.52435,37.58635],[-122.48556,37.51215],[-122.46195,37.47866],[-122.40343,37.42997],[-122.38125,37.41184],[-122.32232,37.36369],[-122.25624,37.3092],[-122.21908,37.27847],[-122.17255,37.23929],[-122.11766,37.18556],[-122.08952,37.15727],[-122.04159,37.10896],[-122.005,37.0726],[-121.92015,37.00097],[-121.90872,36.99176],[-121.89143,36.97785],[-121.80264,36.90638],[-121.77906,36.88804],[-121.71319,36.83501],[-121.61947,36.76103],[-121.60179,36.74657]],"type":"LineString"}
}
