{
  "id": 2031421579,
  "type": "Feature",
  "properties": {
    "date:cessation_lower": "2026-06-01",
    "date:cessation_upper": "2026-06-01",
    "date:inception_lower": "2026-06-01",
    "date:inception_upper": "2026-06-01",
    "edtf:cessation": "2026-06-01T06:38:11-07:00",
    "edtf:inception": "2026-06-01T19:18:00Z",
    "flysfo:actual_timestamp": -1,
    "flysfo:airline": "UA",
    "flysfo:base_airline": "",
    "flysfo:base_flight_number": "3340",
    "flysfo:date": "2026-06-01",
    "flysfo:estimated_timestamp": 1780346580,
    "flysfo:event": "A",
    "flysfo:flight_number": "UA1430",
    "flysfo:gate": "D9",
    "flysfo:journey": "PDX-SFO",
    "flysfo:scheduled_timestamp": 1780344420,
    "flysfo:timestamp": 1780346580,
    "geom:area": 0,
    "geom:bbox": "-122.597389,37.617990,-122.370943,45.586144",
    "geom:latitude": 41.602067,
    "geom:longitude": -122.484166,
    "iata:airline": "UA",
    "iata:base_airline": "",
    "icao:aircraft": "A320",
    "icao:airline": "UAL",
    "icao:base_airline": "ACA",
    "lbl:latitude": 37.61756,
    "lbl:longitude": -122.381052,
    "sfomuseum:aircraft_id": 1159292085,
    "sfomuseum:airline_id": 1159285413,
    "sfomuseum:arrival_id": 102527513,
    "sfomuseum:base_flight_id": "20260601-A-ACA-3340",
    "sfomuseum:departure_id": 102532251,
    "sfomuseum:flight_id": "20260601-A-UAL-1430",
    "sfomuseum:flight_number": [
      "UAL1430",
      "UA1430"
    ],
    "sfomuseum:placetype": "flight",
    "src:geom": "flysfo",
    "src:geom_alt": [
      "swim-route",
      "swim-path",
      "swim-approach"
    ],
    "swim:tail_number": "N439UA",
    "wof:belongsto": [
      1947304067,
      102527513,
      1947304595,
      102191575,
      85633793,
      102087579,
      85922583,
      554784711,
      85688637,
      1947304609,
      1947304591,
      102085387
    ],
    "wof:concordances": {
      "swim:flight_ref": "148128892",
      "swim:gufi": "KS628552Lp"
    },
    "wof:country": "US",
    "wof:created": 1780416471,
    "wof:geomhash": "3af422147b92e6fa9912d38a57ea404a",
    "wof:hierarchy": [
      {
        "building_id": 1947304067,
        "campus_id": 102527513,
        "concourse_id": 1947304595,
        "continent_id": 102191575,
        "country_id": 85633793,
        "county_id": 102087579,
        "custom_id": 2031421579,
        "flight_id": 2031421579,
        "locality_id": 85922583,
        "postalcode_id": 554784711,
        "region_id": 85688637,
        "venue_id": 1947304609,
        "wing_id": 1947304591
      },
      {
        "building_id": 1947304067,
        "campus_id": 102527513,
        "concourse_id": 1947304595,
        "continent_id": 102191575,
        "country_id": 85633793,
        "county_id": 102085387,
        "custom_id": 2031421579,
        "flight_id": 2031421579,
        "region_id": 85688637,
        "venue_id": 1947304609,
        "wing_id": 1947304591
      }
    ],
    "wof:id": 2031421579,
    "wof:involves": [
      102527513,
      102532251,
      1159285413,
      1947304609,
      1159283597,
      1159292085
    ],
    "wof:lastmodified": 1780417097,
    "wof:name": "UA1430 (PDX-SFO)",
    "wof:parent_id": 1947304609,
    "wof:placetype": "custom",
    "wof:placetype_alt": [
      "flight"
    ],
    "wof:repo": "sfomuseum-data-flights-2026-06",
    "wof:superseded_by": [],
    "wof:supersedes": []
  },
  "bbox": [
    -122.597389,
    37.61799,
    -122.370943,
    45.586144
  ],
  "geometry": {"coordinates":[[-122.597389,45.586144],[-122.370943,37.61799]],"type":"MultiPoint"}
}
