{
  "id": 2031533141,
  "type": "Feature",
  "properties": {
    "geom:area": 0,
    "geom:bbox": "-122.480000,31.700000,-97.040000,37.660000",
    "geom:latitude": 33.41168739306359,
    "geom:longitude": -109.8601457119331,
    "src:alt_label": "swim-route",
    "src:geom": "swim",
    "swim:geom": "route",
    "wof:geomhash": "c813aae2379f8361f66de91452dedd4b",
    "wof:id": 2031533141,
    "wof:repo": "sfomuseum-data-flights-2026-06"
  },
  "bbox": [
    -122.48,
    31.7,
    -97.04,
    37.66
  ],
  "geometry": {"coordinates":[[-122.38,37.62],[-122.48,37.66],[-122.48,37.65],[-122.48,37.64],[-122.48,37.57],[-122.48,37.57],[-122.48,37.54],[-122.47,37.49],[-122.47,37.49],[-122.46,37.48],[-122.43,37.46],[-122.33,37.4],[-122.17,37.29],[-122.14,37.27],[-122.07,37.23],[-121.97,37.17],[-121.79,37.04],[-121.78,37.04],[-121.75,37.02],[-121.59,36.91],[-121.41,36.79],[-121.32,36.74],[-121.31,36.73],[-121.13,36.61],[-121.03,36.54],[-120.95,36.49],[-120.92,36.47],[-120.7,36.32],[-120.47,36.16],[-120,35.85],[-119.97,35.82],[-119.96,35.82],[-119.48,35.62],[-118.58,35.26],[-117.53,34.82],[-116.95,34.57],[-116.64,34.44],[-116.34,34.31],[-115.61,33.98],[-115.35,33.87],[-115.09,33.75],[-114.76,33.6],[-114.48,33.55],[-114,33.46],[-110.54,32.79],[-109.84,32.64],[-108.2,32.28],[-106.28,31.82],[-106.23,31.81],[-105.02,31.7],[-103.57,31.84],[-103.24,31.87],[-101.66,32.08],[-101.44,32.1],[-100.78,32.18],[-100.55,32.21],[-99.89,32.28],[-99.88,32.28],[-98.97,32.33],[-98.67,32.34],[-98.6,32.34],[-98.31,32.36],[-98.26,32.36],[-98.21,32.36],[-98.14,32.36],[-97.91,32.37],[-97.85,32.37],[-97.77,32.38],[-97.62,32.38],[-97.58,32.42],[-97.57,32.43],[-97.53,32.47],[-97.47,32.52],[-97.41,32.57],[-97.3,32.67],[-97.3,32.67],[-97.2,32.76],[-97.17,32.78],[-97.17,32.91],[-97.17,33],[-97.16,33.13],[-97.16,33.2],[-97.13,33.11],[-97.12,33.1],[-97.09,33.03],[-97.06,32.95],[-97.04,32.9]],"type":"LineString"}
}
