{
  "id": 2031479117,
  "type": "Feature",
  "properties": {
    "geom:area": 0,
    "geom:bbox": "-122.380000,37.620000,-74.820000,41.170000",
    "geom:latitude": 40.03297324079478,
    "geom:longitude": -98.39893125383597,
    "src:alt_label": "swim-route",
    "src:geom": "swim",
    "swim:geom": "route",
    "wof:geomhash": "f49fbfb5e81e1e679821120b21030be8",
    "wof:id": 2031479117,
    "wof:repo": "sfomuseum-data-flights-2026-06"
  },
  "bbox": [
    -122.38,
    37.62,
    -74.82,
    41.17
  ],
  "geometry": {"coordinates":[[-122.38,37.62],[-122.28,37.68],[-122.27,37.69],[-122.27,37.69],[-122.21,37.72],[-122.2,37.72],[-122.2,37.73],[-122.18,37.74],[-122.17,37.74],[-122.16,37.75],[-122.11,37.77],[-122.1,37.78],[-122,37.83],[-121.93,37.84],[-121.73,37.88],[-121.7,37.88],[-121.65,37.89],[-121.57,37.91],[-121.41,37.94],[-121.34,37.95],[-121.29,37.96],[-121.17,37.98],[-121.14,37.98],[-121.1,37.99],[-121.07,38],[-121.04,38],[-120.85,38.03],[-120.75,38.04],[-120.66,38.06],[-120.57,38.07],[-120.13,38.14],[-119.66,38.21],[-119.18,38.27],[-118.23,38.4],[-118.01,38.43],[-117.29,38.52],[-117.28,38.52],[-115.04,38.62],[-113.64,38.66],[-113.18,38.67],[-112,39],[-111.73,39.06],[-111.33,39.15],[-110.93,39.23],[-110.1,39.35],[-109.97,39.37],[-108,39.7],[-107.15,39.83],[-106,40],[-105.06,40.11],[-104.28,40.2],[-103.77,40.26],[-102.71,40.34],[-102.65,40.34],[-102.49,40.35],[-101.25,40.43],[-100,40.5],[-99.77,40.52],[-99.2,40.56],[-99.05,40.57],[-96.98,40.69],[-95.83,40.82],[-95.81,41.09],[-95.63,41.13],[-93.6,41.16],[-91.94,41.17],[-90.53,41.14],[-90.48,41.14],[-88.88,41.1],[-88.11,41.08],[-88,41.07],[-88,41.07],[-87.49,41.05],[-86.96,41.02],[-85.76,40.95],[-84.7,40.88],[-84.23,40.85],[-83.34,40.78],[-82.82,40.73],[-81.53,40.61],[-80.64,40.52],[-80.39,40.5],[-80.09,40.44],[-79.95,40.43],[-79.8,40.42],[-79.73,40.41],[-79.64,40.41],[-79.35,40.39],[-79.23,40.38],[-79.11,40.37],[-78.94,40.36],[-78.68,40.34],[-78.29,40.31],[-78.04,40.29],[-77.87,40.28],[-77.65,40.26],[-77.26,40.22],[-76.93,40.2],[-76.76,40.18],[-76.68,40.17],[-76.63,40.17],[-76.49,40.15],[-76.37,40.14],[-76.23,40.13],[-76.05,40.11],[-75.78,40.09],[-75.77,40.08],[-75.75,40.08],[-75.64,40.08],[-75.59,40.08],[-75.42,40.07],[-75.4,40.07],[-75.21,40.06],[-75.2,40.06],[-75.17,39.97],[-75.11,39.99],[-75.08,39.99],[-74.93,40.03],[-74.88,40.04],[-74.82,40.05],[-74.9,40.02],[-74.96,39.99],[-75.06,39.95],[-75.15,39.91],[-75.24,39.87]],"type":"LineString"}
}
