{
  "id": 2031438471,
  "type": "Feature",
  "properties": {
    "geom:area": 0,
    "geom:bbox": "-123.045833,37.290278,-117.910278,49.089167",
    "geom:latitude": 42.93961137057789,
    "geom:longitude": -121.02007714475354,
    "src:alt_label": "swim-path",
    "src:geom": "swim",
    "swim:altitudes": [
      "400C",
      "400C",
      "400C",
      "400C",
      "400C",
      "400C",
      "400C",
      "400C",
      "400C",
      "400C",
      "400C",
      "400C",
      "400C",
      "400C",
      "400C",
      "400C",
      "400C",
      "400C",
      "400C",
      "400C",
      "400C",
      "400C",
      "400C",
      "400C",
      "410C",
      "410C",
      "410C",
      "410C",
      "410C",
      "410C",
      "410C",
      "410C",
      "410C",
      "410C",
      "410C",
      "410C",
      "410C",
      "410C",
      "410C",
      "410C",
      "410C",
      "410C",
      "410C",
      "410C",
      "410C",
      "410C",
      "410C",
      "410C",
      "410C",
      "410C",
      "410C",
      "410C",
      "410C",
      "410C",
      "410C",
      "410C",
      "410C",
      "410C",
      "410C",
      "410C",
      "410C",
      "410C",
      "410C",
      "410C",
      "410C",
      "410C",
      "410C",
      "410C",
      "410C",
      "410C",
      "410C",
      "410C",
      "410C",
      "410C",
      "410C",
      "410C",
      "410C",
      "410C",
      "410C",
      "410C",
      "410C",
      "410C",
      "410C",
      "410C",
      "410C",
      "410C",
      "410C",
      "410C",
      "410C",
      "410C",
      "410C",
      "410",
      "410",
      "410",
      "392",
      "392",
      "392",
      "380",
      "380",
      "360",
      "352",
      "352",
      "341",
      "341",
      "341",
      "275",
      "261",
      "261",
      "261",
      "246",
      "246",
      "230",
      "177",
      "177",
      "177",
      "155",
      "155",
      "141",
      "128",
      "128",
      "110C",
      "110",
      "110",
      "096",
      "096",
      "096",
      "080",
      "080",
      "080",
      "077",
      "061",
      "061",
      "060",
      "053",
      "053",
      "053",
      "037",
      "028",
      "028",
      "020",
      "020",
      "009",
      "009",
      "009",
      "006",
      "110",
      "110"
    ],
    "swim:geom": "path",
    "swim:speeds": [
      468,
      468,
      468,
      468,
      470,
      470,
      470,
      470,
      471,
      471,
      472,
      472,
      472,
      472,
      472,
      472,
      472,
      472,
      471,
      471,
      471,
      472,
      472,
      472,
      481,
      481,
      480,
      480,
      480,
      480,
      482,
      482,
      482,
      482,
      482,
      483,
      484,
      484,
      484,
      490,
      490,
      490,
      490,
      492,
      492,
      492,
      492,
      488,
      489,
      489,
      491,
      491,
      495,
      495,
      495,
      490,
      490,
      491,
      492,
      494,
      494,
      494,
      495,
      495,
      497,
      496,
      496,
      497,
      498,
      497,
      497,
      496,
      494,
      495,
      495,
      495,
      495,
      495,
      497,
      497,
      497,
      497,
      497,
      497,
      497,
      498,
      498,
      498,
      501,
      502,
      502,
      502,
      502,
      502,
      451,
      451,
      451,
      414,
      414,
      421,
      423,
      423,
      423,
      423,
      423,
      423,
      415,
      415,
      415,
      415,
      415,
      412,
      368,
      368,
      368,
      343,
      343,
      331,
      320,
      320,
      267,
      262,
      262,
      252,
      252,
      252,
      250,
      250,
      250,
      250,
      238,
      238,
      212,
      190,
      190,
      190,
      178,
      157,
      157,
      149,
      149,
      124,
      124,
      124,
      127,
      125,
      125
    ],
    "swim:timestamps": [
      1780514454,
      1780514454,
      1780514454,
      1780514454,
      1780514574,
      1780514574,
      1780514574,
      1780514574,
      1780514695,
      1780514695,
      1780514755,
      1780514815,
      1780514872,
      1780514932,
      1780514932,
      1780514932,
      1780515052,
      1780515052,
      1780515112,
      1780515172,
      1780515172,
      1780515232,
      1780515232,
      1780515232,
      1780515773,
      1780515773,
      1780515893,
      1780515893,
      1780515893,
      1780515893,
      1780516073,
      1780516073,
      1780516134,
      1780516134,
      1780516134,
      1780516194,
      1780516254,
      1780516254,
      1780516254,
      1780516434,
      1780516434,
      1780516434,
      1780516434,
      1780516674,
      1780516674,
      1780516674,
      1780516674,
      1780516915,
      1780516975,
      1780516975,
      1780517035,
      1780517035,
      1780517215,
      1780517215,
      1780517215,
      1780517424,
      1780517424,
      1780517455,
      1780517516,
      1780517636,
      1780517664,
      1780517664,
      1780517696,
      1780517696,
      1780517816,
      1780517844,
      1780517844,
      1780517876,
      1780517996,
      1780518024,
      1780518024,
      1780518056,
      1780518116,
      1780518205,
      1780518237,
      1780518237,
      1780518237,
      1780518237,
      1780518325,
      1780518357,
      1780518477,
      1780518477,
      1780518505,
      1780518565,
      1780518565,
      1780518625,
      1780518625,
      1780518625,
      1780518745,
      1780518777,
      1780518806,
      1780518866,
      1780518866,
      1780518866,
      1780518986,
      1780518986,
      1780518986,
      1780519046,
      1780519046,
      1780519166,
      1780519226,
      1780519226,
      1780519286,
      1780519286,
      1780519286,
      1780519527,
      1780519587,
      1780519587,
      1780519587,
      1780519647,
      1780519647,
      1780519707,
      1780519887,
      1780519887,
      1780519887,
      1780519947,
      1780519947,
      1780520007,
      1780520038,
      1780520038,
      1780520187,
      1780520218,
      1780520218,
      1780520428,
      1780520428,
      1780520428,
      1780520518,
      1780520518,
      1780520518,
      1780520548,
      1780520728,
      1780520728,
      1780520818,
      1780520878,
      1780520878,
      1780520878,
      1780520968,
      1780521029,
      1780521029,
      1780521089,
      1780521089,
      1780521179,
      1780521179,
      1780521179,
      1780521209,
      1780521269,
      1780521269
    ],
    "wof:geomhash": "c8bbda94caf5674971e51b8307ab9b70",
    "wof:id": 2031438471,
    "wof:repo": "sfomuseum-data-flights-2026-06"
  },
  "bbox": [
    -123.04583333333333,
    37.290277777777774,
    -117.91027777777778,
    49.08916666666667
  ],
  "geometry": {"coordinates":[[-117.91027777777778,49.08916666666667],[-117.91027777777778,49.08916666666667],[-117.91027777777778,49.08916666666667],[-117.91027777777778,49.08916666666667],[-118.09555555555555,48.85666666666667],[-118.09555555555555,48.85666666666667],[-118.09555555555555,48.85666666666667],[-118.09555555555555,48.85666666666667],[-118.30027777777778,48.63472222222222],[-118.30027777777778,48.63472222222222],[-118.4038888888889,48.52194444444444],[-118.50527777777778,48.41083333333333],[-118.60694444444444,48.29888888888889],[-118.70861111111111,48.18666666666666],[-118.70861111111111,48.18666666666666],[-118.70861111111111,48.18666666666666],[-118.90694444444445,47.96527777777778],[-118.90694444444445,47.96527777777778],[-119.00722222222223,47.85277777777778],[-119.1061111111111,47.74111111111111],[-119.1061111111111,47.74111111111111],[-119.20583333333333,47.62833333333333],[-119.20583333333333,47.62833333333333],[-119.20583333333333,47.62833333333333],[-119.79916666666666,46.51138888888889],[-119.79916666666666,46.51138888888889],[-119.90694444444445,46.25666666666667],[-119.90694444444445,46.25666666666667],[-119.90694444444445,46.25666666666667],[-119.90694444444445,46.25666666666667],[-120.06777777777778,45.87166666666667],[-120.06777777777778,45.87166666666667],[-120.12138888888889,45.7425],[-120.12138888888889,45.7425],[-120.12138888888889,45.7425],[-120.17500000000001,45.61222222222222],[-120.22777777777777,45.48388888888889],[-120.22777777777777,45.48388888888889],[-120.22777777777777,45.48388888888889],[-120.38472222222222,45.09722222222222],[-120.38472222222222,45.09722222222222],[-120.38472222222222,45.09722222222222],[-120.38472222222222,45.09722222222222],[-120.60333333333332,44.54972222222222],[-120.60333333333332,44.54972222222222],[-120.60333333333332,44.54972222222222],[-120.60333333333332,44.54972222222222],[-120.80749999999999,44.02833333333333],[-120.8586111111111,43.89666666666667],[-120.8586111111111,43.89666666666667],[-120.90944444444445,43.764722222222225],[-120.90944444444445,43.764722222222225],[-121.06083333333333,43.36833333333333],[-121.06083333333333,43.36833333333333],[-121.06083333333333,43.36833333333333],[-121.22777777777777,42.91972222222222],[-121.22777777777777,42.91972222222222],[-121.25888888888889,42.841944444444444],[-121.30749999999999,42.71055555555556],[-121.4063888888889,42.44305555555555],[-121.42555555555556,42.38916666666667],[-121.42555555555556,42.38916666666667],[-121.45583333333333,42.30888888888889],[-121.45583333333333,42.30888888888889],[-121.55361111111111,42.04],[-121.57333333333332,41.98555555555556],[-121.57333333333332,41.98555555555556],[-121.60249999999999,41.905277777777776],[-121.69972222222222,41.63472222222222],[-121.71916666666667,41.58027777777778],[-121.71916666666667,41.58027777777778],[-121.73833333333333,41.52722222222222],[-121.785,41.39555555555555],[-121.8611111111111,41.18055555555555],[-121.88694444444445,41.10777777777778],[-121.88694444444445,41.10777777777778],[-121.88694444444445,41.10777777777778],[-121.88694444444445,41.10777777777778],[-121.95333333333333,40.91861111111111],[-121.98138888888889,40.83861111111111],[-122.0736111111111,40.57277777777778],[-122.0736111111111,40.57277777777778],[-122.0925,40.51861111111111],[-122.13944444444445,40.382777777777775],[-122.13944444444445,40.382777777777775],[-122.18583333333333,40.24722222222222],[-122.18583333333333,40.24722222222222],[-122.18583333333333,40.24722222222222],[-122.27527777777777,39.966944444444444],[-122.29083333333332,39.91138888888889],[-122.31416666666667,39.83027777777778],[-122.35305555555556,39.69444444444444],[-122.35305555555556,39.69444444444444],[-122.35305555555556,39.69444444444444],[-122.4325,39.45333333333333],[-122.4325,39.45333333333333],[-122.4325,39.45333333333333],[-122.56222222222222,39.371944444444445],[-122.56222222222222,39.371944444444445],[-122.81527777777778,39.24638888888889],[-122.92222222222223,39.19444444444444],[-122.92222222222223,39.19444444444444],[-123.04583333333333,39.128055555555555],[-123.04583333333333,39.128055555555555],[-123.04583333333333,39.128055555555555],[-122.98166666666667,38.63666666666666],[-123.00111111111111,38.52305555555555],[-123.00111111111111,38.52305555555555],[-123.00111111111111,38.52305555555555],[-122.97583333333334,38.413333333333334],[-122.97583333333334,38.413333333333334],[-122.91527777777779,38.311388888888885],[-122.74222222222222,38.01722222222222],[-122.74222222222222,38.01722222222222],[-122.74222222222222,38.01722222222222],[-122.69166666666668,37.93083333333333],[-122.69166666666668,37.93083333333333],[-122.62944444444443,37.858333333333334],[-122.58333333333333,37.81666666666667],[-122.58333333333333,37.81666666666667],[-122.42361111111111,37.663888888888884],[-122.38333333333334,37.63333333333333],[-122.38333333333334,37.63333333333333],[-122.32583333333334,37.41416666666667],[-122.32583333333334,37.41416666666667],[-122.32583333333334,37.41416666666667],[-122.35,37.3],[-122.35,37.3],[-122.35,37.3],[-122.33194444444445,37.290277777777774],[-122.10666666666665,37.33833333333334],[-122.10666666666665,37.33833333333334],[-122.06666666666666,37.43333333333333],[-122.08333333333333,37.483333333333334],[-122.08333333333333,37.483333333333334],[-122.08333333333333,37.483333333333334],[-122.14500000000001,37.524166666666666],[-122.20222222222222,37.54833333333333],[-122.20222222222222,37.54833333333333],[-122.24305555555556,37.565555555555555],[-122.24305555555556,37.565555555555555],[-122.31666666666666,37.6],[-122.31666666666666,37.6],[-122.31666666666666,37.6],[-122.32694444444444,37.600833333333334],[-122.36472222222221,37.61666666666667],[-122.36472222222221,37.61666666666667]],"type":"LineString"}
}
