{
  "id": 2031606253,
  "type": "Feature",
  "properties": {
    "geom:area": 0,
    "geom:bbox": "-122.401800,37.627220,-121.266910,37.961650",
    "geom:latitude": 37.8311124541092,
    "geom:longitude": -121.85305334881707,
    "src:alt_label": "swim-takeoff",
    "src:geom": "swim",
    "swim:elevations": [
      213,
      414,
      706,
      979,
      1126,
      1399,
      1710,
      2169,
      2574,
      3016,
      3202,
      3416,
      3837,
      4200,
      4393,
      4595,
      4750,
      4963,
      5136,
      5530,
      5676,
      5939,
      6114,
      6275,
      6507,
      6693,
      6906
    ],
    "swim:geom": "takeoff",
    "swim:timestamps": [
      1782070128,
      1782070142,
      1782070177,
      1782070200,
      1782070221,
      1782070248,
      1782070273,
      1782070311,
      1782070343,
      1782070378,
      1782070399,
      1782070427,
      1782070464,
      1782070494,
      1782070516,
      1782070537,
      1782070552,
      1782070573,
      1782070593,
      1782070636,
      1782070651,
      1782070684,
      1782070705,
      1782070732,
      1782070760,
      1782070783,
      1782070808
    ],
    "wof:geomhash": "75884ec2320155695cbf46c20d1c1303",
    "wof:id": 2031606253,
    "wof:repo": "sfomuseum-data-flights-2026-06"
  },
  "bbox": [
    -122.4018,
    37.62722,
    -121.26691,
    37.96165
  ],
  "geometry": {"coordinates":[[-122.39411,37.62722],[-122.4018,37.63579],[-122.38347,37.66085],[-122.35664,37.66945],[-122.33051,37.67812],[-122.29504,37.69016],[-122.25932,37.70262],[-122.20476,37.72274],[-122.16029,37.7457],[-122.11159,37.77073],[-122.08157,37.7863],[-122.03864,37.8085],[-121.97622,37.8315],[-121.91928,37.84212],[-121.87923,37.84959],[-121.83773,37.8573],[-121.80922,37.86262],[-121.76754,37.87024],[-121.72958,37.87723],[-121.64129,37.8935],[-121.61126,37.89897],[-121.54138,37.91183],[-121.4976,37.91982],[-121.43862,37.93047],[-121.37556,37.94195],[-121.32328,37.95145],[-121.26691,37.96165]],"type":"LineString"}
}
