{
  "id": 2031619627,
  "type": "Feature",
  "properties": {
    "geom:area": 0,
    "geom:bbox": "-122.359020,37.491680,-121.249400,37.615170",
    "geom:latitude": 37.54300749960024,
    "geom:longitude": -121.81139384840415,
    "src:alt_label": "swim-approach",
    "src:geom": "swim",
    "swim:elevations": [
      4803,
      4495,
      4147,
      4025,
      3668,
      3241,
      3232,
      3231,
      3044,
      2814,
      2657,
      2530,
      2286,
      2071,
      1967,
      1800,
      1657,
      1433,
      1400,
      1212,
      1064,
      838,
      695,
      517,
      363,
      245,
      150,
      140
    ],
    "swim:geom": "approach",
    "swim:timestamps": [
      1782208220,
      1782208251,
      1782208284,
      1782208297,
      1782208331,
      1782208371,
      1782208377,
      1782208381,
      1782208436,
      1782208468,
      1782208490,
      1782208508,
      1782208552,
      1782208585,
      1782208604,
      1782208636,
      1782208660,
      1782208705,
      1782208713,
      1782208751,
      1782208784,
      1782208825,
      1782208852,
      1782208885,
      1782208919,
      1782208945,
      1782208970,
      1782209005
    ],
    "wof:geomhash": "56b83b65ec4c1deb34a4445cc2490733",
    "wof:id": 2031619627,
    "wof:repo": "sfomuseum-data-flights-2026-06"
  },
  "bbox": [
    -122.35902,
    37.49168,
    -121.2494,
    37.61517
  ],
  "geometry": {"coordinates":[[-121.2494,37.59448],[-121.30936,37.58696],[-121.3767,37.57982],[-121.40076,37.57714],[-121.46891,37.56919],[-121.54814,37.55962],[-121.56007,37.55826],[-121.56727,37.55744],[-121.66254,37.5419],[-121.71354,37.52965],[-121.7498,37.52097],[-121.77858,37.5141],[-121.84453,37.498],[-121.89472,37.49168],[-121.9226,37.49363],[-121.96883,37.4961],[-122.00284,37.498],[-122.06369,37.50157],[-122.07503,37.50216],[-122.12041,37.51349],[-122.15575,37.52883],[-122.19955,37.54725],[-122.22736,37.55894],[-122.26121,37.57303],[-122.2925,37.58637],[-122.31384,37.59535],[-122.33301,37.60354],[-122.35902,37.61517]],"type":"LineString"}
}
