{
  "id": 2031468549,
  "type": "Feature",
  "properties": {
    "geom:area": 0,
    "geom:bbox": "-173.930000,22.320000,180.000000,53.000000",
    "geom:latitude": 48.417192115400624,
    "geom:longitude": 7.36129208053552,
    "src:alt_label": "swim-route",
    "src:geom": "swim",
    "swim:geom": "route",
    "wof:geomhash": "6563c9b189082ca9c55004963246a643",
    "wof:id": 2031468549,
    "wof:repo": "sfomuseum-data-flights-2026-06"
  },
  "bbox": [
    -173.93,
    22.32,
    180,
    53
  ],
  "geometry": {"coordinates":[[[-122.38,37.62],[-122.5,37.67],[-122.5,37.67],[-122.5,37.68],[-122.59,37.73],[-122.59,37.73],[-122.63,37.75],[-122.69,37.79],[-122.7,37.79],[-122.74,37.81],[-122.76,37.82],[-122.79,37.87],[-122.91,38.01],[-123.15,38.3],[-123.16,38.3],[-123.3,38.48],[-123.42,38.61],[-123.48,38.68],[-123.59,38.82],[-123.64,38.87],[-123.69,38.92],[-123.75,39],[-124.1,39.18],[-127,40.62],[-127,40.63],[-130.95,43.33],[-130.92,43.32],[-133.38,44.73],[-135.16,45.69],[-137.86,47.03],[-140,48],[-141.82,48.63],[-150,51],[-160,53],[-161.53,52.9],[-162.73,52.81],[-162.91,52.8],[-164.07,52.7],[-170,52],[-171.3,51.8],[-173.93,51.33]],[[180,50],[176.84,49.18],[170,47],[167.94,46.67],[166.93,46.49],[162.92,45.69],[162.85,45.67],[160,45],[149.65,40.42],[145.67,37.2],[140.71,35.67],[140.52,35.61],[138.82,35.02],[137.79,34.65],[137.12,34.4],[136.66,34.23],[136.52,34.17],[135,33.58],[134.71,33.46],[133.57,33],[133.43,32.94],[133,32.76],[131.38,31.99],[129.96,31.29],[129.41,30.92],[128.07,30.02],[128.06,30.01],[127.21,29.42],[124.72,27.62],[124,27.1],[119.64,23.6],[118.56,22.97],[117.5,22.33],[116.45,22.34],[116.39,22.34],[116.3,22.34],[116.25,22.33],[116.02,22.33],[115.69,22.33],[115.41,22.33],[115.06,22.33],[114.88,22.33],[114.65,22.32],[114.6,22.32],[114.47,22.32],[114.38,22.32],[114.29,22.32],[114.2,22.32]]],"type":"MultiLineString"}
}
