{
  "id": 2031683745,
  "type": "Feature",
  "properties": {
    "geom:area": 0,
    "geom:bbox": "-122.760220,37.407370,-122.091080,38.486050",
    "geom:latitude": 37.80796311979362,
    "geom:longitude": -122.46977602465418,
    "src:alt_label": "swim-approach",
    "src:geom": "swim",
    "swim:elevations": [
      7078,
      6756,
      6597,
      6315,
      6244,
      5992,
      5883,
      5572,
      5398,
      5326,
      5210,
      4741,
      4607,
      4277,
      3952,
      3571,
      3443,
      3359,
      3353,
      3353,
      3353,
      3353,
      3382,
      3355,
      2851,
      2632,
      2162,
      1791,
      1560,
      1524,
      1545,
      1524,
      1340,
      1219,
      1219,
      1219,
      1219,
      1219,
      1220,
      1219,
      1219,
      982,
      778,
      698,
      496,
      332,
      224,
      99,
      106
    ],
    "swim:geom": "approach",
    "swim:timestamps": [
      1782847372,
      1782847400,
      1782847414,
      1782847437,
      1782847445,
      1782847492,
      1782847520,
      1782847556,
      1782847572,
      1782847581,
      1782847594,
      1782847647,
      1782847662,
      1782847698,
      1782847728,
      1782847767,
      1782847792,
      1782847821,
      1782847849,
      1782847873,
      1782847881,
      1782847897,
      1782847917,
      1782847928,
      1782847974,
      1782847991,
      1782848025,
      1782848060,
      1782848094,
      1782848120,
      1782848147,
      1782848165,
      1782848215,
      1782848246,
      1782848267,
      1782848307,
      1782848335,
      1782848360,
      1782848375,
      1782848383,
      1782848407,
      1782848446,
      1782848476,
      1782848495,
      1782848538,
      1782848578,
      1782848607,
      1782848638,
      1782848663
    ],
    "wof:geomhash": "dc0a1200fc894f29e404e996f69d420b",
    "wof:id": 2031683745,
    "wof:repo": "sfomuseum-data-flights-2026-06"
  },
  "bbox": [
    -122.76022,
    37.40737,
    -122.09108,
    38.48605
  ],
  "geometry": {"coordinates":[[-122.66413,38.48605],[-122.68558,38.43201],[-122.69651,38.40443],[-122.7137,38.36106],[-122.71998,38.34505],[-122.75396,38.2583],[-122.76022,38.20881],[-122.74488,38.1456],[-122.73672,38.11741],[-122.73174,38.10057],[-122.72535,38.07915],[-122.69856,37.98797],[-122.69124,37.9625],[-122.66936,37.9028],[-122.63119,37.85932],[-122.57579,37.80728],[-122.54062,37.77448],[-122.50307,37.73923],[-122.46848,37.70652],[-122.43948,37.67916],[-122.4304,37.67071],[-122.41289,37.65417],[-122.39197,37.6344],[-122.38068,37.62378],[-122.34686,37.57524],[-122.33675,37.55554],[-122.31577,37.51914],[-122.29312,37.48317],[-122.27313,37.452],[-122.24805,37.43573],[-122.21852,37.42486],[-122.19735,37.41713],[-122.14178,37.40737],[-122.12206,37.42999],[-122.11124,37.44792],[-122.09108,37.48104],[-122.09711,37.50195],[-122.11779,37.51242],[-122.13053,37.51785],[-122.13666,37.52051],[-122.15733,37.52942],[-122.18884,37.54272],[-122.21342,37.55304],[-122.22956,37.55985],[-122.26748,37.57583],[-122.29924,37.58915],[-122.32012,37.59787],[-122.34344,37.6078],[-122.36153,37.61586]],"type":"LineString"}
}
