{
  "id": 2031558575,
  "type": "Feature",
  "properties": {
    "date:cessation_lower": "2026-06-16",
    "date:cessation_upper": "2026-06-16",
    "date:inception_lower": "2026-06-16",
    "date:inception_upper": "2026-06-16",
    "edtf:cessation": "2026-06-16T11:32:13Z",
    "edtf:inception": "2026-06-16T16:31:25-07:00",
    "flysfo:actual_timestamp": -1,
    "flysfo:airline": "DL",
    "flysfo:date": "2026-06-16",
    "flysfo:estimated_timestamp": 1781676000,
    "flysfo:event": "D",
    "flysfo:flight_number": "DL335",
    "flysfo:gate": "C9",
    "flysfo:journey": "SFO-DTW",
    "flysfo:scheduled_timestamp": 1781675700,
    "flysfo:timestamp": 1781676000,
    "geom:area": 0,
    "geom:bbox": "-122.370943,37.617990,-83.351709,42.218860",
    "geom:latitude": 39.918425,
    "geom:longitude": -102.86132599999999,
    "iata:airline": "DL",
    "icao:aircraft": "B739",
    "icao:airline": "DAL",
    "lbl:latitude": 37.61799,
    "lbl:longitude": -122.370943,
    "sfomuseum:aircraft_id": 1377564285,
    "sfomuseum:airline_id": 1159284261,
    "sfomuseum:arrival_id": 102525635,
    "sfomuseum:departure_id": 102527513,
    "sfomuseum:flight_id": "20260616-D-DAL-335",
    "sfomuseum:flight_number": [
      "DAL335",
      "DL335"
    ],
    "sfomuseum:placetype": "flight",
    "src:geom": "flysfo",
    "src:geom_alt": [
      "swim-route",
      "swim-takeoff"
    ],
    "swim:tail_number": "N824DN",
    "wof:belongsto": [
      1763588121,
      102527513,
      1763588233,
      102191575,
      85633793,
      102087579,
      85922583,
      554784711,
      85688637,
      1763588251,
      1763588123,
      102085387
    ],
    "wof:concordances": {
      "swim:flight_ref": "149383128",
      "swim:gufi": "KO183613uc"
    },
    "wof:country": "US",
    "wof:created": 1781712862,
    "wof:geomhash": "9151bfe07cf224e1ff61a7f7b8c30671",
    "wof:hierarchy": [
      {
        "building_id": 1763588121,
        "campus_id": 102527513,
        "concourse_id": 1763588233,
        "continent_id": 102191575,
        "country_id": 85633793,
        "county_id": 102087579,
        "custom_id": 2031558575,
        "flight_id": 2031558575,
        "locality_id": 85922583,
        "postalcode_id": 554784711,
        "region_id": 85688637,
        "venue_id": 1763588251,
        "wing_id": 1763588123
      },
      {
        "building_id": 1763588121,
        "campus_id": 102527513,
        "concourse_id": 1763588233,
        "continent_id": 102191575,
        "country_id": 85633793,
        "county_id": 102085387,
        "custom_id": 2031558575,
        "flight_id": 2031558575,
        "region_id": 85688637,
        "venue_id": 1763588251,
        "wing_id": 1763588123
      }
    ],
    "wof:id": 2031558575,
    "wof:involves": [
      1377564285,
      102525635,
      102527513,
      1159284261,
      1763588251
    ],
    "wof:lastmodified": 1781713163,
    "wof:name": "DL335 (SFO-DTW)",
    "wof:parent_id": 1763588251,
    "wof:placetype": "custom",
    "wof:placetype_alt": [
      "flight"
    ],
    "wof:repo": "sfomuseum-data-flights-2026-06",
    "wof:superseded_by": [],
    "wof:supersedes": []
  },
  "bbox": [
    -122.370943,
    37.61799,
    -83.351709,
    42.21886
  ],
  "geometry": {"coordinates":[[-122.370943,37.61799],[-83.351709,42.21886]],"type":"MultiPoint"}
}
