{
  "id": 2031646955,
  "type": "Feature",
  "properties": {
    "geom:area": 0,
    "geom:bbox": "-122.361140,37.464900,-121.245730,37.615620",
    "geom:latitude": 37.536274359115446,
    "geom:longitude": -121.81169812564217,
    "src:alt_label": "swim-approach",
    "src:geom": "swim",
    "swim:elevations": [
      5175,
      4787,
      4564,
      4253,
      4053,
      3744,
      3580,
      3450,
      3237,
      3153,
      3011,
      2943,
      2856,
      2564,
      2310,
      2038,
      1855,
      1829,
      1829,
      1829,
      1651,
      1419,
      1402,
      1095,
      1021,
      851,
      728,
      574,
      499,
      300,
      209,
      93,
      0
    ],
    "swim:geom": "approach",
    "swim:timestamps": [
      1782462790,
      1782462823,
      1782462842,
      1782462871,
      1782462890,
      1782462922,
      1782462950,
      1782462972,
      1782463010,
      1782463035,
      1782463059,
      1782463069,
      1782463081,
      1782463117,
      1782463145,
      1782463184,
      1782463208,
      1782463254,
      1782463280,
      1782463318,
      1782463346,
      1782463374,
      1782463389,
      1782463436,
      1782463461,
      1782463492,
      1782463520,
      1782463554,
      1782463566,
      1782463618,
      1782463637,
      1782463672,
      1782463696
    ],
    "wof:geomhash": "9e632ca59464a1a68d5b9206011a7cfd",
    "wof:id": 2031646955,
    "wof:repo": "sfomuseum-data-flights-2026-06"
  },
  "bbox": [
    -122.36114,
    37.4649,
    -121.24573,
    37.61562
  ],
  "geometry": {"coordinates":[[-121.24573,37.595],[-121.31078,37.58676],[-121.34708,37.58305],[-121.40198,37.57699],[-121.43717,37.57296],[-121.49686,37.56592],[-121.5462,37.55992],[-121.58308,37.5556],[-121.64081,37.54693],[-121.67481,37.53885],[-121.70609,37.53141],[-121.71893,37.52836],[-121.73413,37.5242],[-121.76841,37.49716],[-121.80114,37.48286],[-121.85331,37.47749],[-121.88581,37.47438],[-121.94507,37.46848],[-121.97872,37.4649],[-122.02461,37.47313],[-122.05547,37.48627],[-122.08887,37.50039],[-122.10357,37.50663],[-122.14988,37.5263],[-122.17189,37.53555],[-122.19917,37.54708],[-122.22379,37.55744],[-122.25297,37.5697],[-122.26358,37.57419],[-122.30401,37.59127],[-122.31868,37.59731],[-122.34427,37.6081],[-122.36114,37.61562]],"type":"LineString"}
}
