{
  "id": 2031528867,
  "type": "Feature",
  "properties": {
    "geom:area": 0,
    "geom:bbox": "-122.347222,33.919444,-118.528611,37.606944",
    "geom:latitude": 35.55780520797008,
    "geom:longitude": -120.68940669621257,
    "src:alt_label": "swim-path",
    "src:geom": "swim",
    "swim:altitudes": [
      "034",
      "034",
      "034",
      "057",
      "057",
      "057",
      "103",
      "103",
      "103",
      "142",
      "142",
      "142",
      "142",
      "157",
      "157",
      "176",
      "176",
      "187",
      "187",
      "187",
      "187",
      "189",
      "189",
      "189",
      "202",
      "202",
      "202",
      "229",
      "229",
      "229",
      "229",
      "229",
      "229",
      "267",
      "273",
      "273",
      "290",
      "290",
      "290",
      "300C",
      "300C",
      "300C",
      "300C",
      "300C",
      "300C",
      "300C",
      "300C",
      "300C",
      "300C",
      "300C",
      "300C",
      "300C",
      "300C",
      "300C",
      "300C",
      "300C",
      "300C",
      "300C",
      "300C",
      "300C",
      "300C",
      "300C",
      "300C",
      "300C",
      "300C",
      "300C",
      "300C",
      "300C",
      "300C",
      "300C",
      "300C",
      "300C",
      "300C",
      "300C",
      "300",
      "300",
      "300",
      "300",
      "279",
      "261",
      "261",
      "261",
      "261",
      "261",
      "234",
      "234",
      "234",
      "234",
      "234",
      "234",
      "158",
      "158",
      "153",
      "145",
      "145",
      "145",
      "142",
      "137",
      "137",
      "137",
      "135",
      "126",
      "126",
      "126",
      "110",
      "110",
      "110",
      "110",
      "110",
      "110",
      "081",
      "081",
      "081",
      "074",
      "067",
      "067",
      "060",
      "060",
      "054",
      "054",
      "054",
      "049",
      "049",
      "049",
      "031",
      "031",
      "023",
      "023",
      "023",
      "019",
      "019",
      "019",
      "019",
      "003",
      "003",
      "003"
    ],
    "swim:geom": "path",
    "swim:speeds": [
      225,
      225,
      225,
      267,
      267,
      267,
      285,
      285,
      285,
      332,
      332,
      332,
      332,
      356,
      356,
      416,
      416,
      426,
      426,
      426,
      426,
      427,
      427,
      427,
      437,
      437,
      437,
      444,
      444,
      444,
      444,
      444,
      444,
      424,
      415,
      415,
      399,
      399,
      399,
      389,
      389,
      389,
      390,
      390,
      390,
      390,
      390,
      389,
      389,
      389,
      389,
      387,
      387,
      387,
      387,
      387,
      386,
      386,
      387,
      387,
      387,
      387,
      388,
      388,
      389,
      402,
      402,
      402,
      402,
      402,
      402,
      402,
      427,
      427,
      431,
      431,
      431,
      431,
      425,
      411,
      411,
      411,
      411,
      411,
      397,
      397,
      397,
      397,
      397,
      397,
      365,
      365,
      354,
      342,
      342,
      342,
      330,
      311,
      311,
      311,
      291,
      261,
      261,
      261,
      256,
      256,
      256,
      256,
      256,
      256,
      238,
      238,
      238,
      240,
      239,
      239,
      229,
      229,
      231,
      231,
      231,
      233,
      233,
      233,
      225,
      225,
      203,
      203,
      203,
      200,
      200,
      200,
      200,
      155,
      155,
      155
    ],
    "swim:timestamps": [
      1781371344,
      1781371344,
      1781371344,
      1781371409,
      1781371409,
      1781371409,
      1781371524,
      1781371524,
      1781371524,
      1781371644,
      1781371644,
      1781371644,
      1781371644,
      1781371704,
      1781371704,
      1781371825,
      1781371825,
      1781371876,
      1781371876,
      1781371876,
      1781371876,
      1781371885,
      1781371885,
      1781371885,
      1781371945,
      1781371945,
      1781371945,
      1781372065,
      1781372065,
      1781372065,
      1781372065,
      1781372065,
      1781372065,
      1781372177,
      1781372185,
      1781372185,
      1781372237,
      1781372237,
      1781372237,
      1781372297,
      1781372297,
      1781372297,
      1781372365,
      1781372365,
      1781372417,
      1781372417,
      1781372417,
      1781372486,
      1781372486,
      1781372486,
      1781372486,
      1781372598,
      1781372598,
      1781372658,
      1781372658,
      1781372658,
      1781372726,
      1781372726,
      1781372778,
      1781372778,
      1781372778,
      1781372778,
      1781372846,
      1781372846,
      1781372906,
      1781372958,
      1781372958,
      1781372966,
      1781372966,
      1781372966,
      1781372966,
      1781372966,
      1781373018,
      1781373018,
      1781373198,
      1781373198,
      1781373198,
      1781373198,
      1781373319,
      1781373379,
      1781373379,
      1781373379,
      1781373379,
      1781373379,
      1781373465,
      1781373465,
      1781373465,
      1781373465,
      1781373465,
      1781373465,
      1781373704,
      1781373704,
      1781373739,
      1781373765,
      1781373765,
      1781373765,
      1781373799,
      1781373824,
      1781373824,
      1781373824,
      1781373859,
      1781373919,
      1781373919,
      1781373919,
      1781373980,
      1781373980,
      1781373980,
      1781373980,
      1781373980,
      1781373980,
      1781374100,
      1781374100,
      1781374100,
      1781374125,
      1781374160,
      1781374160,
      1781374240,
      1781374240,
      1781374280,
      1781374280,
      1781374280,
      1781374300,
      1781374300,
      1781374300,
      1781374460,
      1781374460,
      1781374485,
      1781374485,
      1781374485,
      1781374520,
      1781374520,
      1781374520,
      1781374520,
      1781374640,
      1781374640,
      1781374640
    ],
    "wof:geomhash": "6015c586591c94deddf1041df576c101",
    "wof:id": 2031528867,
    "wof:repo": "sfomuseum-data-flights-2026-06"
  },
  "bbox": [
    -122.34722222222221,
    33.919444444444444,
    -118.5286111111111,
    37.606944444444444
  ],
  "geometry": {"coordinates":[[-118.5286111111111,33.94027777777777],[-118.5286111111111,33.94027777777777],[-118.5286111111111,33.94027777777777],[-118.61666666666666,33.93333333333333],[-118.61666666666666,33.93333333333333],[-118.61666666666666,33.93333333333333],[-118.79722222222222,33.919444444444444],[-118.79722222222222,33.919444444444444],[-118.79722222222222,33.919444444444444],[-118.98861111111111,33.99138888888889],[-118.98861111111111,33.99138888888889],[-118.98861111111111,33.99138888888889],[-118.98861111111111,33.99138888888889],[-119.0038888888889,34.08777777777778],[-119.0038888888889,34.08777777777778],[-119.18583333333333,34.23277777777778],[-119.18583333333333,34.23277777777778],[-119.28916666666666,34.280277777777776],[-119.28916666666666,34.280277777777776],[-119.28916666666666,34.280277777777776],[-119.28916666666666,34.280277777777776],[-119.30777777777777,34.29555555555555],[-119.30777777777777,34.29555555555555],[-119.30777777777777,34.29555555555555],[-119.4325,34.36055555555556],[-119.4325,34.36055555555556],[-119.4325,34.36055555555556],[-119.66333333333334,34.5175],[-119.66333333333334,34.5175],[-119.66333333333334,34.5175],[-119.66333333333334,34.5175],[-119.66333333333334,34.5175],[-119.66333333333334,34.5175],[-119.8611111111111,34.677499999999995],[-119.87805555555555,34.691111111111105],[-119.87805555555555,34.691111111111105],[-119.95833333333334,34.755833333333335],[-119.95833333333334,34.755833333333335],[-119.95833333333334,34.755833333333335],[-120.05166666666666,34.83083333333334],[-120.05166666666666,34.83083333333334],[-120.05166666666666,34.83083333333334],[-120.18972222222223,34.867777777777775],[-120.18972222222223,34.867777777777775],[-120.29333333333334,34.88361111111111],[-120.29333333333334,34.88361111111111],[-120.29333333333334,34.88361111111111],[-120.44583333333334,34.907222222222224],[-120.44583333333334,34.907222222222224],[-120.44583333333334,34.907222222222224],[-120.44583333333334,34.907222222222224],[-120.53388888888888,35.07666666666667],[-120.53388888888888,35.07666666666667],[-120.5975,35.17166666666667],[-120.5975,35.17166666666667],[-120.5975,35.17166666666667],[-120.66611111111112,35.26916666666666],[-120.66611111111112,35.26916666666666],[-120.73,35.35916666666667],[-120.73,35.35916666666667],[-120.73,35.35916666666667],[-120.73,35.35916666666667],[-120.79888888888888,35.45638888888889],[-120.79888888888888,35.45638888888889],[-120.87583333333333,35.54527777777778],[-120.95361111111112,35.635],[-120.95361111111112,35.635],[-120.95361111111112,35.635],[-120.95361111111112,35.635],[-120.95361111111112,35.635],[-120.95361111111112,35.635],[-120.95361111111112,35.635],[-121.03583333333333,35.73166666666667],[-121.03583333333333,35.73166666666667],[-121.27472222222222,36.00833333333333],[-121.27472222222222,36.00833333333333],[-121.27472222222222,36.00833333333333],[-121.27472222222222,36.00833333333333],[-121.46111111111111,36.223055555555554],[-121.5425,36.31666666666667],[-121.5425,36.31666666666667],[-121.5425,36.31666666666667],[-121.5425,36.31666666666667],[-121.5425,36.31666666666667],[-121.65,36.45],[-121.65,36.45],[-121.65,36.45],[-121.65,36.45],[-121.65,36.45],[-121.65,36.45],[-121.91666666666667,36.81666666666667],[-121.91666666666667,36.81666666666667],[-121.92611111111111,36.85583333333334],[-121.93333333333334,36.916666666666664],[-121.93333333333334,36.916666666666664],[-121.93333333333334,36.916666666666664],[-121.95166666666667,36.948055555555555],[-121.96666666666667,37],[-121.96666666666667,37],[-121.96666666666667,37],[-121.98277777777778,37.02777777777778],[-122.03416666666666,37.08583333333333],[-122.03416666666666,37.08583333333333],[-122.03416666666666,37.08583333333333],[-122.10888888888888,37.12416666666667],[-122.10888888888888,37.12416666666667],[-122.10888888888888,37.12416666666667],[-122.10888888888888,37.12416666666667],[-122.10888888888888,37.12416666666667],[-122.10888888888888,37.12416666666667],[-122.23361111111112,37.211111111111116],[-122.23361111111112,37.211111111111116],[-122.23361111111112,37.211111111111116],[-122.26666666666667,37.233333333333334],[-122.26277777777777,37.26972222222222],[-122.26277777777777,37.26972222222222],[-122.21666666666667,37.35],[-122.21666666666667,37.35],[-122.17444444444445,37.36555555555556],[-122.17444444444445,37.36555555555556],[-122.17444444444445,37.36555555555556],[-122.16666666666667,37.4],[-122.16666666666667,37.4],[-122.16666666666667,37.4],[-122.18111111111112,37.53638888888889],[-122.18111111111112,37.53638888888889],[-122.21666666666667,37.55],[-122.21666666666667,37.55],[-122.21666666666667,37.55],[-122.24305555555556,37.56333333333333],[-122.24305555555556,37.56333333333333],[-122.24305555555556,37.56333333333333],[-122.24305555555556,37.56333333333333],[-122.34722222222221,37.606944444444444],[-122.34722222222221,37.606944444444444],[-122.34722222222221,37.606944444444444]],"type":"LineString"}
}
