{
  "id": 2031670983,
  "type": "Feature",
  "properties": {
    "geom:area": 0,
    "geom:bbox": "-122.357020,37.430040,-121.269370,37.646920",
    "geom:latitude": 37.55156573324782,
    "geom:longitude": -121.83748923776002,
    "src:alt_label": "swim-approach",
    "src:geom": "swim",
    "swim:elevations": [
      4638,
      4503,
      4202,
      4145,
      3805,
      3764,
      3619,
      3579,
      3396,
      3353,
      3265,
      3121,
      3047,
      3046,
      3048,
      3048,
      2776,
      2742,
      2752,
      2744,
      2743,
      2764,
      2512,
      2435,
      2446,
      2438,
      2438,
      2429,
      2189,
      2131,
      2134,
      2057,
      1958,
      1829,
      1614,
      1477,
      1379,
      1279,
      1095,
      951,
      845,
      782,
      593,
      576,
      446,
      394,
      281,
      210,
      47,
      23
    ],
    "swim:geom": "approach",
    "swim:timestamps": [
      1782764637,
      1782764656,
      1782764698,
      1782764706,
      1782764758,
      1782764763,
      1782764787,
      1782764793,
      1782764823,
      1782764867,
      1782764906,
      1782764925,
      1782764938,
      1782764943,
      1782764988,
      1782765006,
      1782765044,
      1782765063,
      1782765088,
      1782765097,
      1782765110,
      1782765142,
      1782765174,
      1782765192,
      1782765216,
      1782765253,
      1782765271,
      1782765296,
      1782765322,
      1782765340,
      1782765384,
      1782765415,
      1782765426,
      1782765470,
      1782765508,
      1782765538,
      1782765558,
      1782765572,
      1782765618,
      1782765648,
      1782765680,
      1782765694,
      1782765746,
      1782765751,
      1782765789,
      1782765801,
      1782765829,
      1782765853,
      1782765895,
      1782765903
    ],
    "wof:geomhash": "239c1c664e0742ea108e7c8c5c8542bf",
    "wof:id": 2031670983,
    "wof:repo": "sfomuseum-data-flights-2026-06"
  },
  "bbox": [
    -122.35702,
    37.43004,
    -121.26937,
    37.64692
  ],
  "geometry": {"coordinates":[[-121.26937,37.59179],[-121.30352,37.58758],[-121.3778,37.57957],[-121.38969,37.5782],[-121.473,37.56868],[-121.48108,37.56771],[-121.51911,37.56321],[-121.5287,37.56208],[-121.5761,37.5566],[-121.64271,37.54872],[-121.69359,37.57132],[-121.71594,37.5863],[-121.72979,37.5958],[-121.73513,37.59943],[-121.78564,37.6346],[-121.80691,37.64692],[-121.86239,37.64686],[-121.88896,37.6442],[-121.92475,37.64054],[-121.93841,37.63862],[-121.95521,37.63137],[-121.96986,37.59855],[-121.94125,37.57077],[-121.9184,37.56213],[-121.88818,37.55047],[-121.84182,37.53264],[-121.81938,37.52388],[-121.79823,37.50229],[-121.80418,37.47355],[-121.81532,37.45407],[-121.87126,37.43536],[-121.91451,37.43004],[-121.92905,37.43248],[-121.98226,37.4527],[-122.02635,37.47244],[-122.06163,37.48641],[-122.08239,37.49528],[-122.0976,37.50189],[-122.14052,37.52004],[-122.16555,37.5306],[-122.18988,37.54087],[-122.20086,37.54551],[-122.24015,37.56211],[-122.24361,37.56357],[-122.27307,37.57593],[-122.2823,37.57978],[-122.30253,37.58829],[-122.31952,37.59543],[-122.35122,37.60866],[-122.35702,37.61113]],"type":"LineString"}
}
