{
  "id": 2031619831,
  "type": "Feature",
  "properties": {
    "geom:area": 0,
    "geom:bbox": "-122.355950,37.428240,-121.280960,37.613070",
    "geom:latitude": 37.519808010518965,
    "geom:longitude": -121.8234830472225,
    "src:alt_label": "swim-approach",
    "src:geom": "swim",
    "swim:elevations": [
      4715,
      4580,
      4086,
      3845,
      3641,
      3352,
      3323,
      3195,
      3055,
      2887,
      2659,
      2595,
      2591,
      2382,
      2173,
      2106,
      2024,
      1893,
      1794,
      1709,
      1531,
      1367,
      1297,
      1274,
      920,
      751,
      613,
      484,
      419,
      328,
      182,
      123,
      36
    ],
    "swim:geom": "approach",
    "swim:timestamps": [
      1782220368,
      1782220382,
      1782220433,
      1782220456,
      1782220480,
      1782220522,
      1782220545,
      1782220585,
      1782220613,
      1782220637,
      1782220667,
      1782220677,
      1782220681,
      1782220713,
      1782220742,
      1782220793,
      1782220821,
      1782220850,
      1782220884,
      1782220905,
      1782220933,
      1782220962,
      1782220972,
      1782220980,
      1782221029,
      1782221057,
      1782221086,
      1782221113,
      1782221131,
      1782221154,
      1782221184,
      1782221205,
      1782221228
    ],
    "wof:geomhash": "43231d3d42c210b7798c01874d47ab28",
    "wof:id": 2031619831,
    "wof:repo": "sfomuseum-data-flights-2026-06"
  },
  "bbox": [
    -122.35595,
    37.42824,
    -121.28096,
    37.61307
  ],
  "geometry": {"coordinates":[[-121.28096,37.59024],[-121.30936,37.58707],[-121.41076,37.57588],[-121.45596,37.57075],[-121.50261,37.56532],[-121.58271,37.55572],[-121.62312,37.55069],[-121.67672,37.52227],[-121.70039,37.4945],[-121.72101,37.47012],[-121.74968,37.44072],[-121.76273,37.43606],[-121.76867,37.43493],[-121.81763,37.43115],[-121.8618,37.42824],[-121.9343,37.43437],[-121.97093,37.45044],[-122.00545,37.46523],[-122.0437,37.48138],[-122.06565,37.49068],[-122.09519,37.50313],[-122.12542,37.51597],[-122.13568,37.52029],[-122.1434,37.52355],[-122.19093,37.54366],[-122.21868,37.55532],[-122.24502,37.56678],[-122.268,37.57625],[-122.28274,37.58236],[-122.30085,37.58982],[-122.32324,37.5993],[-122.33874,37.60567],[-122.35595,37.61307]],"type":"LineString"}
}
