{
  "id": 2031459821,
  "type": "Feature",
  "properties": {
    "geom:area": 0,
    "geom:bbox": "-122.400000,37.639167,-71.016667,43.602778",
    "geom:latitude": 41.891117690475454,
    "geom:longitude": -96.79173481369297,
    "src:alt_label": "swim-path",
    "src:geom": "swim",
    "swim:altitudes": [
      "021",
      "029",
      "045",
      "091",
      "115",
      "140",
      "153",
      "179",
      "193",
      "208",
      "218",
      "229",
      "238",
      "246",
      "253",
      "260",
      "269",
      "287",
      "293",
      "293",
      "315",
      "330C",
      "330C",
      "330C",
      "330C",
      "330C",
      "330C",
      "330C",
      "330C",
      "330C",
      "330C",
      "330C",
      "330C",
      "330C",
      "330C",
      "339",
      "344",
      "350C",
      "350C",
      "350C",
      "350C",
      "350C",
      "350C",
      "350C",
      "350C",
      "350C",
      "350C",
      "350C",
      "350C",
      "350C",
      "350C",
      "350C",
      "350C",
      "350C",
      "350C",
      "350C",
      "350C",
      "350C",
      "350C",
      "350C",
      "350C",
      "350C",
      "350C",
      "350C",
      "350C",
      "350C",
      "350C",
      "350C",
      "350C",
      "350C",
      "350C",
      "350C",
      "350C",
      "350C",
      "350C",
      "350C",
      "350C",
      "351C",
      "350C",
      "350C",
      "350C",
      "350C",
      "350C",
      "350C",
      "350C",
      "350C",
      "350C",
      "350C",
      "350C",
      "350C",
      "350C",
      "331",
      "310C",
      "310C",
      "310C",
      "310C",
      "310C",
      "310C",
      "310C",
      "311C",
      "310C",
      "309",
      "300",
      "290C",
      "290C",
      "290C",
      "290C",
      "290C",
      "290C",
      "290C",
      "290C",
      "290C",
      "290C",
      "290C",
      "290C",
      "290C",
      "290C",
      "290C",
      "290C",
      "291",
      "303",
      "326",
      "327",
      "329",
      "327",
      "315",
      "312C",
      "310C",
      "310C",
      "311C",
      "311C",
      "310C",
      "310C",
      "310C",
      "310C",
      "310C",
      "310C",
      "310C",
      "310C",
      "310",
      "312",
      "335",
      "347",
      "350",
      "350",
      "360C",
      "360C",
      "360C",
      "360C",
      "360C",
      "370C",
      "370C",
      "370C",
      "370C",
      "370C",
      "370C",
      "370C",
      "370C",
      "370C",
      "370C",
      "370C",
      "370C",
      "370C",
      "370C",
      "370C",
      "370C",
      "370C",
      "370C",
      "370C",
      "370C",
      "370",
      "362",
      "338",
      "154",
      "136",
      "114",
      "108",
      "099",
      "084",
      "072",
      "067",
      "060",
      "023",
      "020",
      "020",
      "020",
      "011",
      "007",
      "003"
    ],
    "swim:geom": "path",
    "swim:speeds": [
      165,
      177,
      214,
      281,
      375,
      433,
      451,
      471,
      476,
      482,
      485,
      490,
      503,
      501,
      507,
      513,
      515,
      513,
      514,
      515,
      522,
      522,
      512,
      510,
      508,
      509,
      510,
      512,
      512,
      512,
      510,
      509,
      504,
      497,
      494,
      492,
      492,
      491,
      490,
      490,
      489,
      487,
      485,
      484,
      485,
      485,
      483,
      483,
      482,
      481,
      481,
      482,
      483,
      484,
      485,
      483,
      485,
      486,
      486,
      486,
      485,
      483,
      481,
      481,
      480,
      480,
      479,
      478,
      479,
      480,
      480,
      478,
      478,
      478,
      478,
      479,
      480,
      484,
      487,
      483,
      479,
      480,
      481,
      480,
      480,
      479,
      478,
      478,
      478,
      481,
      483,
      489,
      487,
      486,
      485,
      485,
      485,
      485,
      484,
      487,
      487,
      471,
      471,
      495,
      496,
      498,
      501,
      501,
      502,
      503,
      503,
      503,
      508,
      512,
      514,
      515,
      517,
      520,
      523,
      525,
      526,
      531,
      532,
      540,
      541,
      541,
      540,
      539,
      541,
      543,
      543,
      541,
      539,
      539,
      542,
      546,
      547,
      547,
      546,
      545,
      541,
      534,
      520,
      521,
      527,
      518,
      518,
      522,
      517,
      514,
      509,
      505,
      488,
      484,
      481,
      481,
      486,
      487,
      475,
      494,
      496,
      499,
      500,
      501,
      502,
      503,
      505,
      505,
      502,
      502,
      504,
      505,
      505,
      400,
      389,
      375,
      367,
      346,
      293,
      293,
      288,
      284,
      213,
      210,
      198,
      195,
      155,
      157,
      139
    ],
    "swim:timestamps": [
      1780725575,
      1780725582,
      1780725643,
      1780725815,
      1780725935,
      1780726055,
      1780726115,
      1780726235,
      1780726295,
      1780726355,
      1780726415,
      1780726475,
      1780726529,
      1780726595,
      1780726655,
      1780726715,
      1780726769,
      1780726889,
      1780726949,
      1780726956,
      1780727136,
      1780727249,
      1780727489,
      1780727549,
      1780727790,
      1780727856,
      1780727916,
      1780727976,
      1780728036,
      1780728210,
      1780728270,
      1780728330,
      1780728510,
      1780728810,
      1780728930,
      1780729110,
      1780729170,
      1780729231,
      1780729291,
      1780729351,
      1780729680,
      1780729711,
      1780729861,
      1780729921,
      1780729981,
      1780730101,
      1780730191,
      1780730221,
      1780730281,
      1780730311,
      1780730341,
      1780730371,
      1780730401,
      1780730461,
      1780730491,
      1780730701,
      1780730852,
      1780730881,
      1780730941,
      1780730972,
      1780731032,
      1780731121,
      1780731272,
      1780731301,
      1780731332,
      1780731392,
      1780731481,
      1780731541,
      1780731602,
      1780731782,
      1780731902,
      1780731962,
      1780732022,
      1780732082,
      1780732142,
      1780732262,
      1780732442,
      1780732742,
      1780732860,
      1780732980,
      1780733100,
      1780733160,
      1780733222,
      1780733280,
      1780733340,
      1780733400,
      1780733460,
      1780733580,
      1780733640,
      1780733760,
      1780733820,
      1780734000,
      1780734180,
      1780734300,
      1780734360,
      1780734421,
      1780734601,
      1780734661,
      1780734721,
      1780734901,
      1780735021,
      1780735141,
      1780735201,
      1780735441,
      1780735501,
      1780735561,
      1780735681,
      1780735734,
      1780735794,
      1780735861,
      1780735981,
      1780736033,
      1780736213,
      1780736333,
      1780736401,
      1780736461,
      1780736521,
      1780736573,
      1780736641,
      1780736693,
      1780736762,
      1780736933,
      1780736942,
      1780736993,
      1780737002,
      1780737053,
      1780737062,
      1780737115,
      1780737173,
      1780737302,
      1780737362,
      1780737422,
      1780737473,
      1780737596,
      1780737714,
      1780737833,
      1780737894,
      1780737956,
      1780738015,
      1780738075,
      1780738109,
      1780738229,
      1780738289,
      1780738313,
      1780738374,
      1780738527,
      1780738555,
      1780738615,
      1780738707,
      1780738888,
      1780739249,
      1780739355,
      1780739596,
      1780739895,
      1780740077,
      1780740137,
      1780740258,
      1780740378,
      1780740496,
      1780740676,
      1780740796,
      1780740916,
      1780740976,
      1780741036,
      1780741096,
      1780741276,
      1780741398,
      1780741456,
      1780741697,
      1780741757,
      1780741877,
      1780741997,
      1780742117,
      1780742597,
      1780742657,
      1780742738,
      1780742778,
      1780742838,
      1780742906,
      1780742958,
      1780742972,
      1780743018,
      1780743198,
      1780743212,
      1780743258,
      1780743278,
      1780743338,
      1780743378,
      1780743404
    ],
    "wof:geomhash": "3c564eb2644c1efcfb8a734646d491ac",
    "wof:id": 2031459821,
    "wof:repo": "sfomuseum-data-flights-2026-06"
  },
  "bbox": [
    -122.4,
    37.63916666666667,
    -71.01666666666667,
    43.60277777777778
  ],
  "geometry": {"coordinates":[[-122.39972222222222,37.63916666666667],[-122.4,37.65],[-122.35,37.7],[-122.38444444444445,37.88583333333333],[-122.20805555555556,37.976111111111116],[-121.91777777777779,38.034166666666664],[-121.75166666666667,38.06722222222223],[-121.43222222222222,38.12888888888889],[-121.27055555555556,38.154444444444444],[-121.10416666666666,38.18083333333333],[-120.93694444444445,38.20722222222223],[-120.76694444444445,38.23361111111111],[-120.59305555555555,38.25888888888889],[-120.42166666666667,38.28638888888889],[-120.24361111111111,38.31333333333333],[-120.065,38.34],[-119.8863888888889,38.36472222222223],[-119.53194444444445,38.416666666666664],[-119.35249999999999,38.44194444444444],[-119.35277777777777,38.442499999999995],[-118.80777777777777,38.519444444444446],[-118.4475,38.56805555555556],[-117.73611111111111,38.66111111111111],[-117.55666666666666,38.68388888888889],[-116.86166666666666,38.844166666666666],[-116.6875,38.894999999999996],[-116.51833333333333,38.94416666666666],[-116.34472222222222,38.994166666666665],[-116.1713888888889,39.04388888888889],[-115.66000000000001,39.18805555555555],[-115.4875,39.23638888888889],[-115.31694444444445,39.28361111111111],[-114.8086111111111,39.4225],[-113.95722222222223,39.649166666666666],[-113.62055555555555,39.736666666666665],[-113.1211111111111,39.864444444444445],[-112.95361111111112,39.906388888888884],[-112.78611111111111,39.94833333333333],[-112.61888888888888,39.98972222222222],[-112.45111111111112,40.03111111111111],[-111.53333333333333,40.25361111111111],[-111.44500000000001,40.27361111111111],[-111.02972222222222,40.370555555555555],[-110.86027777777777,40.409444444444446],[-110.6913888888889,40.448055555555555],[-110.35055555555554,40.525277777777774],[-110.08083333333333,40.58527777777778],[-110.01361111111112,40.60027777777778],[-109.84555555555555,40.63722222222222],[-109.74277777777777,40.65972222222222],[-109.67555555555556,40.67444444444444],[-109.57166666666666,40.69694444444444],[-109.49055555555556,40.714444444444446],[-109.32166666666666,40.75083333333333],[-109.23,40.77027777777778],[-108.64833333333334,40.8925],[-108.19805555555556,40.984722222222224],[-108.12916666666666,40.99888888888889],[-107.95583333333333,41.03388888888889],[-107.85222222222221,41.05444444444444],[-107.68416666666667,41.08777777777778],[-107.44361111111111,41.135],[-106.99527777777777,41.22166666666667],[-106.93,41.23416666666667],[-106.8275,41.25361111111111],[-106.6563888888889,41.28583333333333],[-106.40805555555556,41.33222222222223],[-106.23694444444445,41.36388888888889],[-106.06361111111111,41.39555555555555],[-105.55,41.48777777777778],[-105.2038888888889,41.54833333333333],[-105.0325,41.57805555555556],[-104.86166666666666,41.6075],[-104.69,41.63638888888889],[-104.51833333333333,41.665277777777774],[-104.17194444444445,41.72277777777778],[-103.65277777777779,41.80638888888888],[-102.78944444444444,41.98166666666667],[-102.43111111111112,42.06805555555556],[-102.0886111111111,42.14055555555556],[-101.74555555555555,42.21361111111111],[-101.57166666666666,42.25055555555556],[-101.39805555555556,42.286944444444444],[-101.22444444444444,42.32472222222223],[-101.04944444444445,42.361111111111114],[-100.87388888888889,42.39666666666667],[-100.69972222222222,42.4325],[-100.35305555555556,42.50277777777778],[-100.17972222222222,42.53777777777778],[-99.86277777777777,42.60055555555556],[-99.685,42.635555555555555],[-99.15083333333334,42.73833333333334],[-98.61194444444443,42.83916666666667],[-98.25555555555556,42.90416666666667],[-98.07222222222222,42.93722222222222],[-97.8913888888889,42.96944444444445],[-97.35805555555555,43.062777777777775],[-97.17944444444444,43.093333333333334],[-97.00194444444445,43.123333333333335],[-96.46111111111111,43.213055555555556],[-96.10111111111111,43.271388888888886],[-95.74361111111111,43.32805555555556],[-95.57055555555556,43.355000000000004],[-94.85916666666667,43.45416666666667],[-94.66972222222223,43.46388888888889],[-94.48,43.473055555555554],[-94.06444444444445,43.49194444444444],[-93.91027777777778,43.49888888888889],[-93.71916666666667,43.50666666666667],[-93.48666666666666,43.51611111111111],[-93.10249999999999,43.530277777777776],[-92.95194444444445,43.535555555555554],[-92.36611111111111,43.55416666666667],[-91.97361111111111,43.565],[-91.77333333333333,43.57],[-91.5761111111111,43.574444444444445],[-91.37583333333333,43.578611111111115],[-91.17444444444445,43.5825],[-90.97472222222223,43.586111111111116],[-90.77055555555556,43.589444444444446],[-90.56722222222221,43.5925],[-89.97333333333333,43.59861111111111],[-89.92583333333334,43.59916666666667],[-89.76472222222222,43.60027777777778],[-89.71972222222223,43.60055555555556],[-89.55888888888889,43.60138888888889],[-89.515,43.60166666666667],[-89.35333333333332,43.602222222222224],[-89.14361111111111,43.60277777777778],[-88.72333333333333,43.602222222222224],[-88.50444444444445,43.60138888888889],[-88.29861111111111,43.60027777777778],[-88.09722222222221,43.59861111111111],[-87.68138888888889,43.594722222222224],[-87.28861111111111,43.589444444444446],[-86.86861111111111,43.5825],[-86.66055555555556,43.57833333333333],[-86.44861111111112,43.57361111111111],[-86.24138888888889,43.56888888888889],[-86.03194444444445,43.56361111111111],[-85.90722222222223,43.56027777777778],[-85.49861111111112,43.54833333333333],[-85.29833333333333,43.54222222222222],[-85.21638888888889,43.53944444444444],[-85.015,43.532777777777774],[-84.49972222222222,43.51305555555555],[-84.41972222222223,43.51],[-84.2175,43.501666666666665],[-83.92444444444445,43.48916666666667],[-83.33944444444444,43.461666666666666],[-82.16000000000001,43.39694444444444],[-81.81388888888888,43.37555555555556],[-81.06916666666666,43.32611111111112],[-80.16361111111112,43.25944444444445],[-79.61916666666666,43.21555555555556],[-79.43777777777778,43.20055555555556],[-79.07083333333333,43.16916666666666],[-78.7025,43.13611111111111],[-78.3325,43.10194444444445],[-77.77361111111111,43.047777777777775],[-77.39333333333335,43.00944444444445],[-77.01777777777778,42.97027777777778],[-76.82777777777777,42.95],[-76.63861111111112,42.92944444444444],[-76.45333333333333,42.909166666666664],[-75.8913888888889,42.845],[-75.51527777777778,42.80083333333333],[-75.32805555555555,42.78861111111111],[-74.57638888888889,42.77027777777778],[-74.38861111111112,42.765],[-73.99111111111111,42.75277777777778],[-73.60944444444443,42.745555555555555],[-73.22583333333334,42.74194444444444],[-71.86361111111111,42.591944444444444],[-71.71888888888888,42.57027777777778],[-71.53333333333333,42.53333333333333],[-71.44666666666667,42.52027777777778],[-71.32,42.494166666666665],[-71.2,42.45],[-71.13944444444445,42.404444444444444],[-71.11666666666666,42.38333333333333],[-71.06027777777777,42.35027777777778],[-71.0261111111111,42.19361111111111],[-71.05,42.2],[-71.06277777777777,42.23888888888889],[-71.05,42.25],[-71.03333333333333,42.3],[-71.02333333333333,42.327222222222225],[-71.01666666666667,42.35]],"type":"LineString"}
}
