{
  "id": 2031548349,
  "type": "Feature",
  "properties": {
    "geom:area": 0,
    "geom:bbox": "-122.527140,37.623750,-121.981140,38.518990",
    "geom:latitude": 38.054004721627614,
    "geom:longitude": -122.30134116276871,
    "src:alt_label": "swim-takeoff",
    "src:geom": "swim",
    "swim:elevations": [
      183,
      314,
      708,
      853,
      1123,
      1264,
      1559,
      1933,
      2430,
      2826,
      3248,
      3324,
      3646,
      3694,
      3915,
      4032,
      4369,
      4709,
      4738,
      4768,
      5037,
      5263,
      5289,
      5642,
      5717,
      6046,
      6107,
      6224,
      6260
    ],
    "swim:geom": "takeoff",
    "swim:timestamps": [
      1781527335,
      1781527350,
      1781527402,
      1781527420,
      1781527456,
      1781527477,
      1781527502,
      1781527532,
      1781527577,
      1781527615,
      1781527677,
      1781527692,
      1781527737,
      1781527741,
      1781527767,
      1781527781,
      1781527817,
      1781527856,
      1781527860,
      1781527865,
      1781527896,
      1781527916,
      1781527920,
      1781527974,
      1781527985,
      1781528038,
      1781528048,
      1781528069,
      1781528075
    ],
    "wof:geomhash": "37afb9eeeba72d762a672bdb56782307",
    "wof:id": 2031548349,
    "wof:repo": "sfomuseum-data-flights-2026-06"
  },
  "bbox": [
    -122.52714,
    37.62375,
    -121.98114,
    38.51899
  ],
  "geometry": {"coordinates":[[-122.38719,37.62375],[-122.39856,37.62858],[-122.44504,37.64862],[-122.46411,37.65692],[-122.50762,37.67662],[-122.52299,37.69757],[-122.52576,37.72972],[-122.52714,37.76853],[-122.50387,37.82268],[-122.471,37.86604],[-122.41451,37.94076],[-122.39959,37.96039],[-122.35262,38.02232],[-122.34841,38.0279],[-122.32067,38.06434],[-122.30642,38.08305],[-122.26679,38.13498],[-122.22404,38.19089],[-122.21961,38.19669],[-122.21473,38.20307],[-122.17982,38.24886],[-122.15758,38.27833],[-122.15322,38.28411],[-122.09224,38.36392],[-122.07925,38.38077],[-122.0173,38.4596],[-122.00636,38.47361],[-121.98477,38.50707],[-121.98114,38.51899]],"type":"LineString"}
}
