{
  "id": 2031492593,
  "type": "Feature",
  "properties": {
    "geom:area": 0,
    "geom:bbox": "-122.356820,37.492740,-121.283240,37.613170",
    "geom:latitude": 37.54139151671416,
    "geom:longitude": -121.82683913166335,
    "src:alt_label": "swim-approach",
    "src:geom": "swim",
    "swim:elevations": [
      4570,
      4298,
      4052,
      3754,
      3539,
      3208,
      3049,
      3043,
      2872,
      2703,
      2489,
      2346,
      2183,
      1990,
      1828,
      1829,
      1764,
      1602,
      1419,
      1157,
      1116,
      962,
      931,
      741,
      535,
      423,
      298,
      279,
      150,
      0
    ],
    "swim:geom": "approach",
    "swim:timestamps": [
      1781026824,
      1781026851,
      1781026880,
      1781026916,
      1781026941,
      1781026977,
      1781027006,
      1781027014,
      1781027048,
      1781027084,
      1781027112,
      1781027147,
      1781027171,
      1781027205,
      1781027248,
      1781027266,
      1781027281,
      1781027308,
      1781027324,
      1781027360,
      1781027377,
      1781027428,
      1781027433,
      1781027468,
      1781027516,
      1781027538,
      1781027576,
      1781027581,
      1781027618,
      1781027652
    ],
    "wof:geomhash": "f61257ebadd60451be6fcba89a1c5f37",
    "wof:id": 2031492593,
    "wof:repo": "sfomuseum-data-flights-2026-06"
  },
  "bbox": [
    -122.35682,
    37.49274,
    -121.28324,
    37.61317
  ],
  "geometry": {"coordinates":[[-121.28324,37.58999],[-121.33916,37.58373],[-121.39595,37.5775],[-121.46095,37.57008],[-121.50389,37.56501],[-121.56465,37.55788],[-121.61242,37.55217],[-121.62516,37.55008],[-121.67982,37.53786],[-121.73651,37.52411],[-121.77743,37.51423],[-121.82746,37.50228],[-121.86187,37.49413],[-121.91295,37.49274],[-121.9712,37.49632],[-121.99531,37.49776],[-122.01561,37.49895],[-122.05115,37.50109],[-122.07221,37.5023],[-122.11584,37.51176],[-122.13208,37.51854],[-122.1805,37.53917],[-122.18524,37.54123],[-122.2192,37.55542],[-122.26256,37.57375],[-122.27981,37.58104],[-122.30649,37.59226],[-122.30931,37.59339],[-122.3342,37.60389],[-122.35682,37.61317]],"type":"LineString"}
}
