{
  "id": 2031498267,
  "type": "Feature",
  "properties": {
    "geom:area": 0,
    "geom:bbox": "-122.380000,37.480000,-73.740000,45.500000",
    "geom:latitude": 39.747522011333594,
    "geom:longitude": -97.66151465801978,
    "src:alt_label": "swim-route",
    "src:geom": "swim",
    "swim:geom": "route",
    "wof:geomhash": "ed70277b1717284c1a00d5c0f138e158",
    "wof:id": 2031498267,
    "wof:repo": "sfomuseum-data-flights-2026-06"
  },
  "bbox": [
    -122.38,
    37.48,
    -73.74,
    45.5
  ],
  "geometry": {"coordinates":[[-73.74,45.47],[-73.85,45.47],[-73.89,45.47],[-73.98,45.46],[-74.09,45.46],[-74.33,45.45],[-74.45,45.49],[-74.5,45.5],[-74.56,45.49],[-74.64,45.48],[-74.69,45.47],[-74.7,45.47],[-74.85,45.41],[-74.95,45.37],[-75,45.36],[-75.11,45.35],[-75.18,45.35],[-75.27,45.34],[-75.56,45.31],[-75.67,45.3],[-75.83,45.29],[-75.84,45.29],[-75.89,45.28],[-76.23,45.25],[-76.24,45.25],[-76.35,45.21],[-76.47,45.16],[-76.72,45.06],[-77.3,44.8],[-77.51,44.72],[-78.51,44.31],[-79.26,43.99],[-79.37,43.94],[-79.59,43.9],[-79.66,43.81],[-80.11,43.62],[-80.65,43.32],[-81.68,43.17],[-82.35,43.13],[-82.64,43.09],[-82.91,43.06],[-83.05,42.95],[-83.28,42.74],[-83.42,42.61],[-83.99,42.13],[-84.1,42.02],[-84.27,41.86],[-84.7,41.45],[-84.73,41.43],[-85.5,40.69],[-86.07,40.12],[-86.18,40],[-86.37,39.81],[-86.54,39.76],[-86.97,39.61],[-87.8,39.31],[-88.12,39.27],[-88.4,39.24],[-90.02,39.03],[-91.32,38.85],[-94.73,38.22],[-95.21,38.05],[-95.54,37.93],[-95.76,37.85],[-96.51,37.56],[-96.98,37.48],[-97.81,37.59],[-98.89,37.69],[-99.63,37.79],[-100.31,37.85],[-100.61,37.91],[-101.6,38.02],[-103.52,38.21],[-103.67,38.22],[-104.43,38.29],[-105.66,38.53],[-106.16,38.62],[-107.16,38.79],[-107.55,38.85],[-107.57,38.78],[-107.57,38.78],[-108.22,38.82],[-109.31,38.77],[-109.89,38.74],[-109.98,38.73],[-111.82,38.61],[-113.83,38.44],[-116.48,38.16],[-116.72,38.13],[-117.25,38.07],[-117.24,38.06],[-117.45,37.69],[-117.57,37.58],[-118.02,37.61],[-118.1,37.6],[-119.06,37.65],[-119.71,37.68],[-119.94,37.68],[-120.03,37.69],[-120.22,37.69],[-120.4,37.7],[-120.41,37.7],[-120.48,37.69],[-120.69,37.67],[-120.75,37.66],[-120.77,37.66],[-120.83,37.65],[-120.96,37.63],[-121,37.63],[-121.08,37.62],[-121.17,37.6],[-121.26,37.59],[-121.39,37.58],[-121.41,37.58],[-121.6,37.55],[-121.61,37.55],[-121.62,37.55],[-121.7,37.53],[-121.8,37.51],[-121.83,37.5],[-121.88,37.49],[-122.08,37.54],[-122.14,37.56],[-122.18,37.57],[-122.28,37.59],[-122.33,37.61],[-122.36,37.61],[-122.38,37.62]],"type":"LineString"}
}
