{
  "id": 2031687107,
  "type": "Feature",
  "properties": {
    "geom:area": 0,
    "geom:bbox": "-122.400970,37.626490,-121.247790,38.164870",
    "geom:latitude": 37.99011297126023,
    "geom:longitude": -121.93915760959567,
    "src:alt_label": "swim-takeoff",
    "src:geom": "swim",
    "swim:elevations": [
      223,
      356,
      582,
      676,
      1089,
      1320,
      1498,
      2113,
      2453,
      2922,
      3244,
      3434,
      3897,
      4232,
      4471,
      4971,
      5250,
      5704,
      5945,
      6254,
      6365,
      6640,
      6706,
      7139,
      7401,
      7666,
      7937,
      8098,
      8216,
      8474
    ],
    "swim:geom": "takeoff",
    "swim:timestamps": [
      1782885176,
      1782885188,
      1782885224,
      1782885236,
      1782885265,
      1782885290,
      1782885306,
      1782885352,
      1782885379,
      1782885413,
      1782885440,
      1782885467,
      1782885506,
      1782885532,
      1782885553,
      1782885593,
      1782885617,
      1782885658,
      1782885682,
      1782885711,
      1782885720,
      1782885747,
      1782885753,
      1782885804,
      1782885834,
      1782885861,
      1782885892,
      1782885913,
      1782885932,
      1782885965
    ],
    "wof:geomhash": "3127eacf5ba9a3400749b7e20ae13d37",
    "wof:id": 2031687107,
    "wof:repo": "sfomuseum-data-flights-2026-06"
  },
  "bbox": [
    -122.40097,
    37.62649,
    -121.24779,
    38.16487
  ],
  "geometry": {"coordinates":[[-122.39316,37.62649],[-122.40097,37.63345],[-122.38857,37.66267],[-122.37816,37.67258],[-122.3556,37.69863],[-122.33873,37.72531],[-122.33814,37.74514],[-122.36431,37.79897],[-122.38003,37.83209],[-122.38576,37.87644],[-122.38125,37.91239],[-122.35289,37.94414],[-122.28032,37.96246],[-122.22806,37.97221],[-122.18774,37.98019],[-122.10681,37.99636],[-122.05694,38.00652],[-121.9702,38.02392],[-121.91707,38.0345],[-121.8536,38.04708],[-121.83279,38.05119],[-121.77362,38.06282],[-121.76001,38.06552],[-121.64175,38.08879],[-121.56936,38.103],[-121.50299,38.1158],[-121.42763,38.13044],[-121.37577,38.14034],[-121.3302,38.14886],[-121.24779,38.16487]],"type":"LineString"}
}
