{
  "id": 2031447891,
  "type": "Feature",
  "properties": {
    "geom:area": 0,
    "geom:bbox": "-122.666667,37.446389,-87.933333,46.108333",
    "geom:latitude": 44.01160294442504,
    "geom:longitude": -106.11677902435191,
    "src:alt_label": "swim-path",
    "src:geom": "swim",
    "swim:altitudes": [
      "012",
      "012",
      "047",
      "048",
      "048",
      "048",
      "050",
      "050",
      "050",
      "050",
      "050",
      "105",
      "105",
      "105",
      "105",
      "105",
      "147",
      "147",
      "147",
      "147",
      "147",
      "161",
      "161",
      "161",
      "178",
      "178",
      "178",
      "178",
      "204",
      "204",
      "204",
      "217",
      "217",
      "217",
      "217",
      "223",
      "243",
      "243",
      "243",
      "247",
      "247",
      "247",
      "253",
      "253",
      "265",
      "265",
      "274",
      "274",
      "274",
      "287",
      "287",
      "287",
      "300C",
      "300C",
      "300C",
      "300C",
      "300C",
      "300C",
      "300C",
      "300C",
      "300C",
      "300C",
      "300C",
      "300C",
      "300C",
      "300C",
      "300C",
      "300C",
      "300C",
      "300C",
      "300C",
      "300C",
      "300C",
      "300C",
      "300C",
      "300C",
      "300C",
      "300C",
      "300C",
      "300C",
      "300C",
      "300C",
      "300C",
      "300C",
      "300C",
      "300C",
      "300C",
      "300C",
      "300C",
      "300C",
      "300C",
      "300C",
      "300C",
      "300C",
      "300C",
      "300C",
      "300C",
      "300C",
      "300C",
      "300C",
      "300C",
      "300C",
      "300C",
      "300C",
      "300C",
      "300C",
      "300C",
      "300C",
      "300C",
      "300C",
      "300C",
      "300C",
      "300C",
      "300C",
      "300C",
      "300C",
      "300C",
      "300C",
      "300C",
      "300C",
      "300C",
      "300C",
      "300C",
      "300C",
      "300C",
      "300C",
      "300C",
      "300C",
      "300C",
      "300C",
      "300C",
      "300C",
      "300C",
      "300C",
      "300C",
      "300C",
      "300C",
      "300C",
      "300C",
      "300C",
      "300C",
      "300C",
      "300C",
      "300C",
      "300C",
      "300C",
      "300C",
      "300C",
      "300C",
      "300C",
      "300C",
      "300C",
      "300C",
      "300C",
      "300C",
      "320C",
      "320C",
      "320C",
      "320C",
      "320C",
      "320C",
      "320C",
      "320C",
      "320C",
      "320C",
      "320C",
      "320C",
      "320C",
      "320C",
      "320C",
      "320C",
      "320C",
      "320C",
      "320C",
      "320C",
      "320C",
      "320C",
      "320C",
      "320C",
      "320C",
      "320C",
      "320C",
      "320C",
      "320C",
      "320C",
      "320C",
      "320C",
      "320C",
      "320C",
      "320C",
      "320C",
      "320C",
      "320C",
      "320C",
      "320C",
      "320C",
      "320C",
      "320C",
      "320C",
      "320C",
      "320C",
      "320C",
      "320C",
      "320C",
      "320C",
      "320C",
      "320C",
      "320C",
      "320C",
      "320C",
      "320C",
      "320C",
      "320C",
      "320C",
      "320C",
      "320C",
      "320C",
      "320C",
      "320C",
      "320C",
      "320C",
      "320C",
      "320C",
      "320C",
      "320C",
      "320C",
      "320C",
      "320C",
      "320C",
      "320C",
      "320C",
      "320C",
      "320C",
      "320C",
      "320C",
      "320C",
      "320C",
      "320C",
      "320C",
      "320C",
      "320C",
      "320C",
      "320C",
      "320C",
      "320C",
      "320C",
      "320C",
      "320C",
      "320C",
      "320C",
      "320C",
      "320C",
      "320C",
      "320C",
      "320C",
      "338C",
      "340C",
      "340C",
      "340C",
      "340C",
      "340C",
      "340C",
      "340C",
      "340C",
      "340C",
      "340C",
      "340C",
      "340C",
      "340C",
      "340C",
      "340C",
      "340C",
      "340C",
      "340C",
      "340C",
      "340C",
      "340C",
      "340C",
      "340C",
      "340C",
      "340C",
      "340C",
      "340C",
      "340C",
      "340C",
      "340C",
      "340C",
      "340C",
      "340C",
      "340C",
      "340C",
      "340C",
      "340C",
      "340C",
      "340C",
      "340C",
      "340C",
      "340C",
      "340C",
      "340C",
      "340C",
      "340C",
      "340C",
      "340C",
      "340C",
      "340C",
      "340C",
      "340C",
      "340C",
      "340C",
      "340C",
      "340C",
      "340C",
      "340C",
      "340C",
      "340C",
      "340C",
      "340C",
      "340C",
      "340C",
      "340C",
      "340C",
      "340C",
      "340C",
      "340C",
      "340C",
      "340C",
      "340C",
      "340C",
      "340C",
      "340C",
      "340C",
      "340C",
      "340C",
      "340C",
      "340C",
      "340C",
      "340C",
      "340C",
      "340C",
      "340C",
      "340C",
      "340C",
      "340C",
      "340C",
      "340C",
      "340C",
      "340C",
      "340C",
      "340C",
      "340C",
      "340C",
      "340C",
      "340C",
      "340C",
      "340C",
      "340C",
      "340C",
      "340C",
      "340C",
      "340C",
      "340C",
      "340C",
      "340C",
      "340C",
      "340C",
      "340C",
      "340C",
      "340C",
      "340C",
      "340C",
      "340C",
      "340C",
      "340C",
      "340C",
      "340C",
      "340C",
      "340C",
      "340C",
      "340C",
      "340C",
      "340C",
      "340C",
      "340C",
      "340C",
      "340C",
      "340C",
      "340C",
      "340C",
      "340C",
      "340C",
      "340C",
      "340C",
      "340C",
      "340C",
      "340C",
      "340C",
      "340C",
      "340C",
      "340C",
      "340C",
      "340C",
      "340C",
      "340C",
      "340C",
      "340C",
      "340C",
      "340C",
      "340C",
      "340C",
      "340C",
      "340C",
      "340C",
      "340C",
      "340C",
      "340C",
      "340C",
      "340C",
      "340C",
      "340C",
      "340C",
      "340C",
      "340C",
      "340C",
      "340C",
      "340C",
      "340C",
      "340C",
      "340C",
      "340C",
      "340C",
      "340C",
      "340C",
      "340C",
      "340C",
      "340C",
      "340C",
      "340C",
      "340C",
      "340C",
      "340C",
      "340C",
      "340C",
      "340C",
      "340C",
      "340C",
      "340C",
      "340C",
      "340C",
      "340C",
      "340C",
      "340C",
      "340C",
      "340C",
      "340C",
      "340C",
      "340C",
      "340C",
      "340C",
      "340C",
      "340C",
      "340C",
      "340C",
      "340C",
      "340C",
      "340C",
      "340C",
      "340C",
      "340C",
      "340C",
      "340C",
      "340C",
      "340C",
      "340C",
      "340C",
      "340C",
      "340C",
      "340C",
      "340C",
      "340C",
      "340C",
      "340C",
      "340C",
      "340C",
      "340C",
      "340C",
      "340C",
      "340C",
      "340C",
      "340C",
      "340C",
      "340C",
      "340C",
      "340C",
      "340C",
      "340C",
      "340C",
      "340C",
      "340C",
      "340C",
      "340C",
      "340C",
      "340C",
      "340C",
      "340C",
      "340C",
      "340C",
      "340C",
      "340C",
      "340C",
      "340C",
      "340C",
      "340C",
      "340C",
      "334",
      "334",
      "334",
      "334",
      "313",
      "313",
      "313",
      "293",
      "272",
      "272",
      "272",
      "272",
      "252",
      "252",
      "252",
      "220",
      "220",
      "220",
      "220",
      "177",
      "177",
      "160",
      "160",
      "158",
      "158",
      "121",
      "121",
      "121",
      "110",
      "110",
      "110",
      "110",
      "110",
      "110",
      "099",
      "099",
      "084",
      "084",
      "084",
      "084",
      "053",
      "053",
      "053",
      "053",
      "039",
      "030",
      "030",
      "022",
      "022",
      "013",
      "013",
      "013"
    ],
    "swim:geom": "path",
    "swim:speeds": [
      176,
      176,
      282,
      277,
      277,
      277,
      294,
      294,
      294,
      294,
      294,
      309,
      309,
      309,
      309,
      309,
      385,
      385,
      385,
      385,
      385,
      398,
      398,
      398,
      413,
      413,
      413,
      413,
      429,
      429,
      429,
      447,
      447,
      447,
      447,
      429,
      438,
      438,
      438,
      440,
      440,
      440,
      444,
      444,
      450,
      450,
      453,
      453,
      453,
      458,
      458,
      458,
      457,
      457,
      457,
      457,
      456,
      456,
      453,
      453,
      453,
      453,
      453,
      453,
      452,
      452,
      452,
      452,
      453,
      453,
      453,
      453,
      453,
      455,
      455,
      455,
      457,
      457,
      459,
      459,
      459,
      459,
      459,
      459,
      460,
      460,
      460,
      461,
      461,
      461,
      460,
      460,
      460,
      460,
      452,
      451,
      451,
      451,
      451,
      451,
      451,
      451,
      452,
      452,
      452,
      454,
      454,
      454,
      456,
      456,
      456,
      456,
      456,
      456,
      450,
      450,
      450,
      450,
      450,
      458,
      458,
      458,
      449,
      449,
      449,
      437,
      425,
      425,
      425,
      425,
      424,
      424,
      426,
      426,
      426,
      426,
      426,
      444,
      444,
      444,
      444,
      433,
      433,
      433,
      433,
      433,
      430,
      430,
      430,
      430,
      432,
      432,
      432,
      432,
      432,
      426,
      426,
      426,
      426,
      424,
      424,
      424,
      424,
      424,
      423,
      422,
      422,
      422,
      422,
      421,
      421,
      421,
      420,
      420,
      420,
      420,
      420,
      420,
      420,
      420,
      421,
      421,
      418,
      418,
      418,
      418,
      418,
      418,
      418,
      423,
      423,
      421,
      421,
      421,
      421,
      421,
      421,
      421,
      421,
      421,
      421,
      423,
      423,
      423,
      421,
      421,
      421,
      422,
      422,
      421,
      421,
      422,
      422,
      421,
      421,
      421,
      421,
      421,
      421,
      421,
      420,
      420,
      420,
      420,
      420,
      420,
      420,
      421,
      421,
      421,
      421,
      421,
      421,
      421,
      421,
      421,
      423,
      423,
      423,
      423,
      422,
      422,
      422,
      422,
      422,
      419,
      419,
      419,
      419,
      419,
      419,
      417,
      417,
      417,
      417,
      396,
      394,
      394,
      394,
      394,
      394,
      394,
      393,
      395,
      395,
      397,
      397,
      397,
      399,
      399,
      398,
      398,
      398,
      401,
      401,
      402,
      402,
      402,
      405,
      405,
      405,
      404,
      404,
      407,
      407,
      408,
      408,
      408,
      408,
      406,
      406,
      406,
      406,
      406,
      406,
      406,
      409,
      409,
      409,
      409,
      409,
      410,
      410,
      410,
      410,
      410,
      409,
      409,
      409,
      409,
      407,
      407,
      407,
      407,
      405,
      405,
      405,
      407,
      407,
      407,
      407,
      407,
      411,
      411,
      411,
      411,
      411,
      411,
      411,
      415,
      415,
      415,
      415,
      415,
      423,
      423,
      423,
      423,
      423,
      425,
      425,
      429,
      429,
      429,
      429,
      429,
      429,
      434,
      434,
      434,
      434,
      435,
      435,
      435,
      435,
      433,
      433,
      433,
      433,
      433,
      433,
      433,
      432,
      432,
      432,
      431,
      431,
      429,
      429,
      429,
      427,
      427,
      428,
      428,
      428,
      428,
      428,
      428,
      428,
      428,
      426,
      426,
      426,
      426,
      426,
      426,
      426,
      426,
      426,
      426,
      426,
      426,
      426,
      426,
      428,
      428,
      429,
      428,
      428,
      428,
      427,
      427,
      427,
      427,
      426,
      426,
      426,
      426,
      426,
      426,
      426,
      426,
      426,
      427,
      427,
      427,
      429,
      429,
      431,
      431,
      433,
      433,
      433,
      443,
      443,
      443,
      445,
      445,
      445,
      445,
      447,
      447,
      446,
      446,
      446,
      446,
      444,
      444,
      444,
      444,
      445,
      445,
      460,
      460,
      460,
      460,
      460,
      460,
      458,
      460,
      460,
      459,
      459,
      459,
      460,
      462,
      462,
      462,
      463,
      462,
      462,
      462,
      460,
      460,
      460,
      458,
      458,
      458,
      458,
      456,
      456,
      456,
      456,
      456,
      456,
      456,
      456,
      456,
      456,
      456,
      457,
      457,
      460,
      460,
      460,
      460,
      460,
      461,
      461,
      461,
      461,
      461,
      442,
      442,
      442,
      442,
      439,
      439,
      439,
      437,
      437,
      437,
      434,
      434,
      434,
      434,
      434,
      456,
      456,
      456,
      459,
      459,
      459,
      459,
      460,
      460,
      460,
      460,
      458,
      458,
      458,
      442,
      430,
      430,
      430,
      430,
      422,
      422,
      422,
      428,
      428,
      428,
      428,
      382,
      382,
      379,
      379,
      373,
      373,
      359,
      359,
      359,
      330,
      330,
      271,
      271,
      271,
      271,
      257,
      257,
      255,
      255,
      255,
      255,
      234,
      234,
      234,
      234,
      224,
      199,
      199,
      187,
      187,
      164,
      164,
      164
    ],
    "swim:timestamps": [
      1780608833,
      1780608833,
      1780608960,
      1780608967,
      1780608967,
      1780608967,
      1780609020,
      1780609020,
      1780609020,
      1780609020,
      1780609020,
      1780609207,
      1780609207,
      1780609207,
      1780609207,
      1780609207,
      1780609387,
      1780609387,
      1780609387,
      1780609387,
      1780609387,
      1780609448,
      1780609448,
      1780609448,
      1780609508,
      1780609508,
      1780609508,
      1780609508,
      1780609628,
      1780609628,
      1780609628,
      1780609709,
      1780609709,
      1780609709,
      1780609709,
      1780609748,
      1780609868,
      1780609868,
      1780609868,
      1780609890,
      1780609890,
      1780609890,
      1780609928,
      1780609928,
      1780610010,
      1780610010,
      1780610070,
      1780610070,
      1780610070,
      1780610169,
      1780610169,
      1780610169,
      1780610250,
      1780610250,
      1780610250,
      1780610250,
      1780610310,
      1780610310,
      1780610430,
      1780610430,
      1780610430,
      1780610430,
      1780610430,
      1780610430,
      1780610529,
      1780610529,
      1780610529,
      1780610529,
      1780610650,
      1780610650,
      1780610650,
      1780610650,
      1780610650,
      1780610731,
      1780610731,
      1780610731,
      1780610791,
      1780610791,
      1780610851,
      1780610851,
      1780610851,
      1780610890,
      1780610890,
      1780610890,
      1780610950,
      1780610950,
      1780610950,
      1780610971,
      1780610971,
      1780610971,
      1780611031,
      1780611031,
      1780611031,
      1780611031,
      1780611271,
      1780611332,
      1780611332,
      1780611332,
      1780611332,
      1780611332,
      1780611392,
      1780611392,
      1780611452,
      1780611452,
      1780611572,
      1780611692,
      1780611692,
      1780611692,
      1780611752,
      1780611752,
      1780611752,
      1780611752,
      1780611752,
      1780611752,
      1780612053,
      1780612053,
      1780612053,
      1780612053,
      1780612053,
      1780612173,
      1780612173,
      1780612173,
      1780612233,
      1780612233,
      1780612233,
      1780612365,
      1780612425,
      1780612425,
      1780612425,
      1780612425,
      1780612485,
      1780612485,
      1780612545,
      1780612545,
      1780612545,
      1780612545,
      1780612545,
      1780612725,
      1780612725,
      1780612725,
      1780612725,
      1780612786,
      1780612786,
      1780612786,
      1780612786,
      1780612786,
      1780612906,
      1780612906,
      1780612906,
      1780612906,
      1780612966,
      1780612966,
      1780612966,
      1780612966,
      1780612966,
      1780613086,
      1780613086,
      1780613086,
      1780613086,
      1780613146,
      1780613146,
      1780613146,
      1780613146,
      1780613146,
      1780613206,
      1780613266,
      1780613266,
      1780613266,
      1780613266,
      1780613326,
      1780613326,
      1780613326,
      1780613386,
      1780613446,
      1780613446,
      1780613446,
      1780613446,
      1780613446,
      1780613507,
      1780613507,
      1780613627,
      1780613627,
      1780613664,
      1780613664,
      1780613664,
      1780613664,
      1780613724,
      1780613724,
      1780613724,
      1780613747,
      1780613747,
      1780613844,
      1780613844,
      1780613844,
      1780613844,
      1780613844,
      1780613844,
      1780613904,
      1780613904,
      1780613964,
      1780613964,
      1780613987,
      1780613987,
      1780613987,
      1780614024,
      1780614024,
      1780614024,
      1780614047,
      1780614047,
      1780614084,
      1780614084,
      1780614107,
      1780614107,
      1780614144,
      1780614144,
      1780614228,
      1780614228,
      1780614228,
      1780614228,
      1780614228,
      1780614288,
      1780614288,
      1780614288,
      1780614348,
      1780614348,
      1780614348,
      1780614348,
      1780614445,
      1780614445,
      1780614445,
      1780614505,
      1780614505,
      1780614528,
      1780614528,
      1780614528,
      1780614588,
      1780614685,
      1780614685,
      1780614685,
      1780614685,
      1780614768,
      1780614768,
      1780614768,
      1780614768,
      1780614768,
      1780614865,
      1780614865,
      1780614889,
      1780614889,
      1780614889,
      1780614889,
      1780614949,
      1780614949,
      1780614949,
      1780614949,
      1780615069,
      1780615106,
      1780615106,
      1780615106,
      1780615106,
      1780615106,
      1780615106,
      1780615226,
      1780615249,
      1780615249,
      1780615286,
      1780615286,
      1780615286,
      1780615346,
      1780615346,
      1780615369,
      1780615369,
      1780615369,
      1780615429,
      1780615429,
      1780615489,
      1780615489,
      1780615489,
      1780615526,
      1780615526,
      1780615526,
      1780615549,
      1780615549,
      1780615586,
      1780615586,
      1780615647,
      1780615647,
      1780615647,
      1780615647,
      1780615767,
      1780615767,
      1780615767,
      1780615827,
      1780615827,
      1780615827,
      1780615827,
      1780616007,
      1780616007,
      1780616007,
      1780616007,
      1780616007,
      1780616067,
      1780616127,
      1780616127,
      1780616127,
      1780616127,
      1780616307,
      1780616307,
      1780616307,
      1780616307,
      1780616367,
      1780616367,
      1780616367,
      1780616367,
      1780616488,
      1780616488,
      1780616488,
      1780616608,
      1780616608,
      1780616608,
      1780616608,
      1780616608,
      1780616788,
      1780616788,
      1780616788,
      1780616848,
      1780616848,
      1780616848,
      1780616848,
      1780616908,
      1780616908,
      1780616908,
      1780616908,
      1780616908,
      1780617088,
      1780617088,
      1780617088,
      1780617088,
      1780617088,
      1780617149,
      1780617149,
      1780617389,
      1780617389,
      1780617389,
      1780617389,
      1780617389,
      1780617389,
      1780617809,
      1780617809,
      1780617809,
      1780617809,
      1780617930,
      1780617930,
      1780617930,
      1780617930,
      1780618170,
      1780618170,
      1780618170,
      1780618230,
      1780618230,
      1780618230,
      1780618230,
      1780618350,
      1780618350,
      1780618350,
      1780618470,
      1780618470,
      1780618530,
      1780618530,
      1780618530,
      1780618590,
      1780618590,
      1780618651,
      1780618651,
      1780618651,
      1780618711,
      1780618711,
      1780618771,
      1780618771,
      1780618771,
      1780618891,
      1780618891,
      1780618891,
      1780618891,
      1780619011,
      1780619011,
      1780619071,
      1780619071,
      1780619071,
      1780619131,
      1780619131,
      1780619131,
      1780619131,
      1780619131,
      1780619251,
      1780619251,
      1780619311,
      1780619371,
      1780619371,
      1780619371,
      1780619492,
      1780619492,
      1780619492,
      1780619492,
      1780619612,
      1780619612,
      1780619612,
      1780619612,
      1780619612,
      1780619732,
      1780619792,
      1780619792,
      1780619792,
      1780619852,
      1780619852,
      1780619852,
      1780619972,
      1780619972,
      1780620032,
      1780620032,
      1780620092,
      1780620092,
      1780620092,
      1780620273,
      1780620273,
      1780620273,
      1780620333,
      1780620333,
      1780620333,
      1780620333,
      1780620513,
      1780620513,
      1780620573,
      1780620573,
      1780620573,
      1780620573,
      1780620874,
      1780620874,
      1780620874,
      1780620874,
      1780620888,
      1780620888,
      1780621114,
      1780621114,
      1780621114,
      1780621114,
      1780621114,
      1780621249,
      1780621354,
      1780621369,
      1780621369,
      1780621429,
      1780621429,
      1780621474,
      1780621489,
      1780621594,
      1780621594,
      1780621609,
      1780621715,
      1780621789,
      1780621789,
      1780621789,
      1780621849,
      1780621849,
      1780621849,
      1780622030,
      1780622030,
      1780622030,
      1780622030,
      1780622150,
      1780622150,
      1780622150,
      1780622195,
      1780622195,
      1780622210,
      1780622210,
      1780622270,
      1780622270,
      1780622270,
      1780622270,
      1780622330,
      1780622330,
      1780622450,
      1780622450,
      1780622450,
      1780622450,
      1780622450,
      1780622570,
      1780622570,
      1780622570,
      1780622570,
      1780622570,
      1780622751,
      1780622751,
      1780622751,
      1780622751,
      1780622871,
      1780622871,
      1780622871,
      1780622931,
      1780622931,
      1780622931,
      1780623051,
      1780623051,
      1780623051,
      1780623051,
      1780623051,
      1780623111,
      1780623111,
      1780623111,
      1780623231,
      1780623231,
      1780623231,
      1780623231,
      1780623351,
      1780623351,
      1780623351,
      1780623351,
      1780623471,
      1780623471,
      1780623471,
      1780623531,
      1780623592,
      1780623592,
      1780623592,
      1780623592,
      1780623652,
      1780623652,
      1780623652,
      1780623712,
      1780623712,
      1780623712,
      1780623712,
      1780623838,
      1780623838,
      1780623892,
      1780623892,
      1780623898,
      1780623898,
      1780624018,
      1780624018,
      1780624018,
      1780624078,
      1780624078,
      1780624138,
      1780624138,
      1780624138,
      1780624138,
      1780624252,
      1780624252,
      1780624312,
      1780624312,
      1780624312,
      1780624312,
      1780624493,
      1780624493,
      1780624493,
      1780624493,
      1780624553,
      1780624613,
      1780624613,
      1780624673,
      1780624673,
      1780624733,
      1780624733,
      1780624733
    ],
    "wof:geomhash": "1b4f85c82e80d9f1896989d2ba85eafb",
    "wof:id": 2031447891,
    "wof:repo": "sfomuseum-data-flights-2026-06"
  },
  "bbox": [
    -122.66666666666667,
    37.44638888888888,
    -87.93333333333334,
    46.108333333333334
  ],
  "geometry": {"coordinates":[[-87.93333333333334,41.983333333333334],[-87.93333333333334,41.983333333333334],[-88.03333333333333,42.06666666666667],[-88.04166666666667,42.07222222222222],[-88.04166666666667,42.07222222222222],[-88.04166666666667,42.07222222222222],[-88.03333333333333,42.15],[-88.03333333333333,42.15],[-88.03333333333333,42.15],[-88.03333333333333,42.15],[-88.03333333333333,42.15],[-87.94333333333334,42.38361111111111],[-87.94333333333334,42.38361111111111],[-87.94333333333334,42.38361111111111],[-87.94333333333334,42.38361111111111],[-87.94333333333334,42.38361111111111],[-88.19111111111111,42.62],[-88.19111111111111,42.62],[-88.19111111111111,42.62],[-88.19111111111111,42.62],[-88.19111111111111,42.62],[-88.28888888888889,42.70583333333334],[-88.28888888888889,42.70583333333334],[-88.28888888888889,42.70583333333334],[-88.34666666666666,42.81111111111111],[-88.34666666666666,42.81111111111111],[-88.34666666666666,42.81111111111111],[-88.34666666666666,42.81111111111111],[-88.42805555555556,43.04138888888889],[-88.42805555555556,43.04138888888889],[-88.42805555555556,43.04138888888889],[-88.5025,43.20305555555556],[-88.5025,43.20305555555556],[-88.5025,43.20305555555556],[-88.5025,43.20305555555556],[-88.58388888888888,43.243611111111115],[-88.86999999999999,43.37388888888889],[-88.86999999999999,43.37388888888889],[-88.86999999999999,43.37388888888889],[-88.93111111111112,43.40138888888889],[-88.93111111111112,43.40138888888889],[-88.93111111111112,43.40138888888889],[-89.01638888888888,43.44],[-89.01638888888888,43.44],[-89.22666666666667,43.535],[-89.22666666666667,43.535],[-89.37444444444444,43.60277777777778],[-89.37444444444444,43.60277777777778],[-89.37444444444444,43.60277777777778],[-89.61027777777777,43.708333333333336],[-89.61027777777777,43.708333333333336],[-89.61027777777777,43.708333333333336],[-89.82805555555555,43.795833333333334],[-89.82805555555555,43.795833333333334],[-89.82805555555555,43.795833333333334],[-89.82805555555555,43.795833333333334],[-89.98138888888889,43.8575],[-89.98138888888889,43.8575],[-90.28555555555555,43.97972222222222],[-90.28555555555555,43.97972222222222],[-90.28555555555555,43.97972222222222],[-90.28555555555555,43.97972222222222],[-90.28555555555555,43.97972222222222],[-90.28555555555555,43.97972222222222],[-90.52722222222222,44.07611111111112],[-90.52722222222222,44.07611111111112],[-90.52722222222222,44.07611111111112],[-90.52722222222222,44.07611111111112],[-90.83361111111111,44.19638888888888],[-90.83361111111111,44.19638888888888],[-90.83361111111111,44.19638888888888],[-90.83361111111111,44.19638888888888],[-90.83361111111111,44.19638888888888],[-91.05222222222221,44.28138888888889],[-91.05222222222221,44.28138888888889],[-91.05222222222221,44.28138888888889],[-91.2088888888889,44.341944444444444],[-91.2088888888889,44.341944444444444],[-91.36694444444444,44.40277777777778],[-91.36694444444444,44.40277777777778],[-91.36694444444444,44.40277777777778],[-91.46000000000001,44.43861111111111],[-91.46000000000001,44.43861111111111],[-91.46000000000001,44.43861111111111],[-91.61638888888888,44.498333333333335],[-91.61638888888888,44.498333333333335],[-91.61638888888888,44.498333333333335],[-91.68194444444445,44.52333333333333],[-91.68194444444445,44.52333333333333],[-91.68194444444445,44.52333333333333],[-91.83972222222222,44.58277777777778],[-91.83972222222222,44.58277777777778],[-91.83972222222222,44.58277777777778],[-91.83972222222222,44.58277777777778],[-92.46055555555556,44.81444444444444],[-92.61722222222221,44.87222222222222],[-92.61722222222221,44.87222222222222],[-92.61722222222221,44.87222222222222],[-92.61722222222221,44.87222222222222],[-92.61722222222221,44.87222222222222],[-92.77333333333333,44.92916666666667],[-92.77333333333333,44.92916666666667],[-92.92694444444444,44.98527777777778],[-92.92694444444444,44.98527777777778],[-93.24055555555556,45.09861111111111],[-93.55777777777777,45.20916666666667],[-93.55777777777777,45.20916666666667],[-93.55777777777777,45.20916666666667],[-93.71805555555555,45.26583333333333],[-93.71805555555555,45.26583333333333],[-93.71805555555555,45.26583333333333],[-93.71805555555555,45.26583333333333],[-93.71805555555555,45.26583333333333],[-93.71805555555555,45.26583333333333],[-94.39055555555557,45.66444444444444],[-94.39055555555557,45.66444444444444],[-94.39055555555557,45.66444444444444],[-94.39055555555557,45.66444444444444],[-94.39055555555557,45.66444444444444],[-94.64277777777778,45.84916666666667],[-94.64277777777778,45.84916666666667],[-94.64277777777778,45.84916666666667],[-94.77305555555556,45.93222222222222],[-94.77305555555556,45.93222222222222],[-94.77305555555556,45.93222222222222],[-95.07138888888889,46.05833333333333],[-95.26416666666667,46.09916666666667],[-95.26416666666667,46.09916666666667],[-95.26416666666667,46.09916666666667],[-95.26416666666667,46.09916666666667],[-95.43277777777779,46.108333333333334],[-95.43277777777779,46.108333333333334],[-95.60277777777777,46.105000000000004],[-95.60277777777777,46.105000000000004],[-95.60277777777777,46.105000000000004],[-95.60277777777777,46.105000000000004],[-95.60277777777777,46.105000000000004],[-96.13388888888889,46.08555555555556],[-96.13388888888889,46.08555555555556],[-96.13388888888889,46.08555555555556],[-96.13388888888889,46.08555555555556],[-96.30722222222222,46.07888888888889],[-96.30722222222222,46.07888888888889],[-96.30722222222222,46.07888888888889],[-96.30722222222222,46.07888888888889],[-96.30722222222222,46.07888888888889],[-96.68055555555556,46.06361111111111],[-96.68055555555556,46.06361111111111],[-96.68055555555556,46.06361111111111],[-96.68055555555556,46.06361111111111],[-96.85194444444444,46.05611111111111],[-96.85194444444444,46.05611111111111],[-96.85194444444444,46.05611111111111],[-96.85194444444444,46.05611111111111],[-96.85194444444444,46.05611111111111],[-97.16694444444445,46.04194444444444],[-97.16694444444445,46.04194444444444],[-97.16694444444445,46.04194444444444],[-97.16694444444445,46.04194444444444],[-97.33388888888888,46.03388888888889],[-97.33388888888888,46.03388888888889],[-97.33388888888888,46.03388888888889],[-97.33388888888888,46.03388888888889],[-97.33388888888888,46.03388888888889],[-97.50333333333333,46.02583333333333],[-97.67,46.0175],[-97.67,46.0175],[-97.67,46.0175],[-97.67,46.0175],[-97.83833333333332,46.00861111111111],[-97.83833333333332,46.00861111111111],[-97.83833333333332,46.00861111111111],[-98.005,46.000277777777775],[-98.19222222222223,46.005],[-98.19222222222223,46.005],[-98.19222222222223,46.005],[-98.19222222222223,46.005],[-98.19222222222223,46.005],[-98.35888888888888,46.00888888888889],[-98.35888888888888,46.00888888888889],[-98.69638888888889,46.01611111111111],[-98.69638888888889,46.01611111111111],[-98.79388888888889,46.01861111111111],[-98.79388888888889,46.01861111111111],[-98.79388888888889,46.01861111111111],[-98.79388888888889,46.01861111111111],[-98.96194444444444,46.02111111111111],[-98.96194444444444,46.02111111111111],[-98.96194444444444,46.02111111111111],[-99.03194444444445,46.0225],[-99.03194444444445,46.0225],[-99.2975,46.02611111111111],[-99.2975,46.02611111111111],[-99.2975,46.02611111111111],[-99.2975,46.02611111111111],[-99.2975,46.02611111111111],[-99.2975,46.02611111111111],[-99.46361111111112,46.02916666666667],[-99.46361111111112,46.02916666666667],[-99.63222222222221,46.03194444444444],[-99.63222222222221,46.03194444444444],[-99.7063888888889,46.032222222222224],[-99.7063888888889,46.032222222222224],[-99.7063888888889,46.032222222222224],[-99.80055555555555,46.03361111111111],[-99.80055555555555,46.03361111111111],[-99.80055555555555,46.03361111111111],[-99.87194444444444,46.03361111111111],[-99.87194444444444,46.03361111111111],[-99.96777777777778,46.03722222222222],[-99.96777777777778,46.03722222222222],[-100.03916666666666,46.03527777777778],[-100.03916666666666,46.03527777777778],[-100.1363888888889,46.03777777777778],[-100.1363888888889,46.03777777777778],[-100.37305555555555,46.03777777777778],[-100.37305555555555,46.03777777777778],[-100.37305555555555,46.03777777777778],[-100.37305555555555,46.03777777777778],[-100.37305555555555,46.03777777777778],[-100.53999999999999,46.038333333333334],[-100.53999999999999,46.038333333333334],[-100.53999999999999,46.038333333333334],[-100.70555555555556,46.038888888888884],[-100.70555555555556,46.038888888888884],[-100.70555555555556,46.038888888888884],[-100.70555555555556,46.038888888888884],[-100.97583333333334,46.04083333333333],[-100.97583333333334,46.04083333333333],[-100.97583333333334,46.04083333333333],[-101.1438888888889,46.04],[-101.1438888888889,46.04],[-101.20944444444444,46.03916666666667],[-101.20944444444444,46.03916666666667],[-101.20944444444444,46.03916666666667],[-101.37805555555555,46.03861111111111],[-101.6525,46.03666666666666],[-101.6525,46.03666666666666],[-101.6525,46.03666666666666],[-101.6525,46.03666666666666],[-101.88027777777778,46.03611111111111],[-101.88027777777778,46.03611111111111],[-101.88027777777778,46.03611111111111],[-101.88027777777778,46.03611111111111],[-101.88027777777778,46.03611111111111],[-102.1538888888889,46.03333333333333],[-102.1538888888889,46.03333333333333],[-102.21333333333334,46.032777777777774],[-102.21333333333334,46.032777777777774],[-102.21333333333334,46.032777777777774],[-102.21333333333334,46.032777777777774],[-102.37972222222221,46.03111111111111],[-102.37972222222221,46.03111111111111],[-102.37972222222221,46.03111111111111],[-102.37972222222221,46.03111111111111],[-102.69972222222222,46.026666666666664],[-102.79861111111111,46.025277777777774],[-102.79861111111111,46.025277777777774],[-102.79861111111111,46.025277777777774],[-102.79861111111111,46.025277777777774],[-102.79861111111111,46.025277777777774],[-102.79861111111111,46.025277777777774],[-103.11333333333333,46.01972222222222],[-103.17361111111111,46.01861111111111],[-103.17361111111111,46.01861111111111],[-103.27277777777778,46.01694444444444],[-103.27277777777778,46.01694444444444],[-103.27277777777778,46.01694444444444],[-103.4325,46.013333333333335],[-103.4325,46.013333333333335],[-103.49111111111111,46.01222222222222],[-103.49111111111111,46.01222222222222],[-103.49111111111111,46.01222222222222],[-103.65472222222223,46.00861111111111],[-103.65472222222223,46.00861111111111],[-103.81527777777778,46.004444444444445],[-103.81527777777778,46.004444444444445],[-103.81527777777778,46.004444444444445],[-103.91777777777779,46.00222222222222],[-103.91777777777779,46.00222222222222],[-103.91777777777779,46.00222222222222],[-103.98027777777779,46.00055555555556],[-103.98027777777779,46.00055555555556],[-104.08194444444445,45.99805555555556],[-104.08194444444445,45.99805555555556],[-104.24444444444444,45.99472222222222],[-104.24444444444444,45.99472222222222],[-104.24444444444444,45.99472222222222],[-104.24444444444444,45.99472222222222],[-104.565,45.986666666666665],[-104.565,45.986666666666665],[-104.565,45.986666666666665],[-104.72444444444444,45.98222222222223],[-104.72444444444444,45.98222222222223],[-104.72444444444444,45.98222222222223],[-104.72444444444444,45.98222222222223],[-105.215,45.96805555555556],[-105.215,45.96805555555556],[-105.215,45.96805555555556],[-105.215,45.96805555555556],[-105.215,45.96805555555556],[-105.37805555555555,45.962500000000006],[-105.54055555555556,45.956944444444446],[-105.54055555555556,45.956944444444446],[-105.54055555555556,45.956944444444446],[-105.54055555555556,45.956944444444446],[-106.02694444444444,45.939166666666665],[-106.02694444444444,45.939166666666665],[-106.02694444444444,45.939166666666665],[-106.02694444444444,45.939166666666665],[-106.18694444444445,45.933055555555555],[-106.18694444444445,45.933055555555555],[-106.18694444444445,45.933055555555555],[-106.18694444444445,45.933055555555555],[-106.50944444444444,45.919444444444444],[-106.50944444444444,45.919444444444444],[-106.50944444444444,45.919444444444444],[-106.83277777777778,45.905277777777776],[-106.83277777777778,45.905277777777776],[-106.83277777777778,45.905277777777776],[-106.83277777777778,45.905277777777776],[-106.83277777777778,45.905277777777776],[-107.32166666666666,45.88166666666667],[-107.32166666666666,45.88166666666667],[-107.32166666666666,45.88166666666667],[-107.48444444444445,45.873333333333335],[-107.48444444444445,45.873333333333335],[-107.48444444444445,45.873333333333335],[-107.48444444444445,45.873333333333335],[-107.6825,45.86277777777778],[-107.6825,45.86277777777778],[-107.6825,45.86277777777778],[-107.6825,45.86277777777778],[-107.6825,45.86277777777778],[-108.18472222222222,45.834722222222226],[-108.18472222222222,45.834722222222226],[-108.18472222222222,45.834722222222226],[-108.18472222222222,45.834722222222226],[-108.18472222222222,45.834722222222226],[-108.35249999999999,45.825],[-108.35249999999999,45.825],[-109.00638888888889,45.71083333333333],[-109.00638888888889,45.71083333333333],[-109.00638888888889,45.71083333333333],[-109.00638888888889,45.71083333333333],[-109.00638888888889,45.71083333333333],[-109.00638888888889,45.71083333333333],[-110.13027777777778,45.41305555555555],[-110.13027777777778,45.41305555555555],[-110.13027777777778,45.41305555555555],[-110.13027777777778,45.41305555555555],[-110.44777777777779,45.32638888888889],[-110.44777777777779,45.32638888888889],[-110.44777777777779,45.32638888888889],[-110.44777777777779,45.32638888888889],[-111.08527777777778,45.14888888888889],[-111.08527777777778,45.14888888888889],[-111.08527777777778,45.14888888888889],[-111.24583333333334,45.10333333333333],[-111.24583333333334,45.10333333333333],[-111.24583333333334,45.10333333333333],[-111.24583333333334,45.10333333333333],[-111.56611111111111,45.011944444444445],[-111.56611111111111,45.011944444444445],[-111.56611111111111,45.011944444444445],[-111.87194444444444,44.92333333333333],[-111.87194444444444,44.92333333333333],[-112.02888888888889,44.8775],[-112.02888888888889,44.8775],[-112.02888888888889,44.8775],[-112.18583333333333,44.831388888888895],[-112.18583333333333,44.831388888888895],[-112.3325,44.78805555555555],[-112.3325,44.78805555555555],[-112.3325,44.78805555555555],[-112.49027777777778,44.740833333333335],[-112.49027777777778,44.740833333333335],[-112.64583333333334,44.69444444444444],[-112.64583333333334,44.69444444444444],[-112.64583333333334,44.69444444444444],[-112.9263888888889,44.609722222222224],[-112.9263888888889,44.609722222222224],[-112.9263888888889,44.609722222222224],[-112.9263888888889,44.609722222222224],[-113.23305555555555,44.51583333333333],[-113.23305555555555,44.51583333333333],[-113.385,44.46888888888889],[-113.385,44.46888888888889],[-113.385,44.46888888888889],[-113.53694444444444,44.42194444444444],[-113.53694444444444,44.42194444444444],[-113.53694444444444,44.42194444444444],[-113.53694444444444,44.42194444444444],[-113.53694444444444,44.42194444444444],[-113.8461111111111,44.32527777777778],[-113.8461111111111,44.32527777777778],[-113.9961111111111,44.27777777777778],[-114.14444444444445,44.23083333333334],[-114.14444444444445,44.23083333333334],[-114.14444444444445,44.23083333333334],[-114.44583333333334,44.134166666666665],[-114.44583333333334,44.134166666666665],[-114.44583333333334,44.134166666666665],[-114.44583333333334,44.134166666666665],[-114.74444444444444,44.0375],[-114.74444444444444,44.0375],[-114.74444444444444,44.0375],[-114.74444444444444,44.0375],[-114.74444444444444,44.0375],[-115.0461111111111,43.93861111111111],[-115.19694444444445,43.888888888888886],[-115.19694444444445,43.888888888888886],[-115.19694444444445,43.888888888888886],[-115.3461111111111,43.83916666666667],[-115.3461111111111,43.83916666666667],[-115.3461111111111,43.83916666666667],[-115.64361111111111,43.739444444444445],[-115.64361111111111,43.739444444444445],[-115.7975,43.6875],[-115.7975,43.6875],[-115.94722222222222,43.63666666666666],[-115.94722222222222,43.63666666666666],[-115.94722222222222,43.63666666666666],[-116.37833333333333,43.448611111111106],[-116.37833333333333,43.448611111111106],[-116.37833333333333,43.448611111111106],[-116.51666666666667,43.37083333333334],[-116.51666666666667,43.37083333333334],[-116.51666666666667,43.37083333333334],[-116.51666666666667,43.37083333333334],[-116.91666666666667,43.14361111111111],[-116.91666666666667,43.14361111111111],[-117.05083333333333,43.06666666666667],[-117.05083333333333,43.06666666666667],[-117.05083333333333,43.06666666666667],[-117.05083333333333,43.06666666666667],[-117.71416666666667,42.68138888888889],[-117.71416666666667,42.68138888888889],[-117.71416666666667,42.68138888888889],[-117.71416666666667,42.68138888888889],[-117.76166666666667,42.653055555555554],[-117.76166666666667,42.653055555555554],[-118.12777777777777,42.285555555555554],[-118.12777777777777,42.285555555555554],[-118.12777777777777,42.285555555555554],[-118.12777777777777,42.285555555555554],[-118.12777777777777,42.285555555555554],[-118.3436111111111,42.02972222222222],[-118.5038888888889,41.83694444444445],[-118.52333333333333,41.81472222222222],[-118.52333333333333,41.81472222222222],[-118.61305555555555,41.705555555555556],[-118.61305555555555,41.705555555555556],[-118.6825,41.62111111111111],[-118.70166666666667,41.59805555555556],[-118.87083333333332,41.405833333333334],[-118.87083333333332,41.405833333333334],[-118.89444444444445,41.38472222222222],[-119.08999999999999,41.20888888888889],[-119.2225,41.08972222222222],[-119.2225,41.08972222222222],[-119.2225,41.08972222222222],[-119.32888888888888,40.993611111111115],[-119.32888888888888,40.993611111111115],[-119.32888888888888,40.993611111111115],[-119.64694444444446,40.70305555555556],[-119.64694444444446,40.70305555555556],[-119.64694444444446,40.70305555555556],[-119.64694444444446,40.70305555555556],[-119.85805555555555,40.50861111111111],[-119.85805555555555,40.50861111111111],[-119.85805555555555,40.50861111111111],[-119.94472222222223,40.42833333333333],[-119.94472222222223,40.42833333333333],[-119.96305555555556,40.41111111111111],[-119.96305555555556,40.41111111111111],[-120.06888888888888,40.312777777777775],[-120.06888888888888,40.312777777777775],[-120.06888888888888,40.312777777777775],[-120.06888888888888,40.312777777777775],[-120.17805555555556,40.21055555555556],[-120.17805555555556,40.21055555555556],[-120.38833333333334,40.01277777777778],[-120.38833333333334,40.01277777777778],[-120.38833333333334,40.01277777777778],[-120.38833333333334,40.01277777777778],[-120.38833333333334,40.01277777777778],[-120.60111111111111,39.811388888888885],[-120.60111111111111,39.811388888888885],[-120.60111111111111,39.811388888888885],[-120.60111111111111,39.811388888888885],[-120.60111111111111,39.811388888888885],[-121.01027777777777,39.64388888888889],[-121.01027777777777,39.64388888888889],[-121.01027777777777,39.64388888888889],[-121.01027777777777,39.64388888888889],[-121.32027777777778,39.60305555555556],[-121.32027777777778,39.60305555555556],[-121.32027777777778,39.60305555555556],[-121.47527777777778,39.58222222222223],[-121.47527777777778,39.58222222222223],[-121.47527777777778,39.58222222222223],[-121.78055555555555,39.535],[-121.78055555555555,39.535],[-121.78055555555555,39.535],[-121.78055555555555,39.535],[-121.78055555555555,39.535],[-121.8938888888889,39.455000000000005],[-121.8938888888889,39.455000000000005],[-121.8938888888889,39.455000000000005],[-122.05472222222222,39.231388888888894],[-122.05472222222222,39.231388888888894],[-122.05472222222222,39.231388888888894],[-122.05472222222222,39.231388888888894],[-122.21388888888889,39.00861111111111],[-122.21388888888889,39.00861111111111],[-122.21388888888889,39.00861111111111],[-122.21388888888889,39.00861111111111],[-122.37333333333332,38.785],[-122.37333333333332,38.785],[-122.37333333333332,38.785],[-122.44861111111112,38.67861111111111],[-122.5225,38.57361111111111],[-122.5225,38.57361111111111],[-122.5225,38.57361111111111],[-122.5225,38.57361111111111],[-122.5886111111111,38.47027777777778],[-122.5886111111111,38.47027777777778],[-122.5886111111111,38.47027777777778],[-122.61,38.35277777777778],[-122.61,38.35277777777778],[-122.61,38.35277777777778],[-122.61,38.35277777777778],[-122.65,38.1],[-122.65,38.1],[-122.65805555555556,38.011944444444445],[-122.65805555555556,38.011944444444445],[-122.66666666666667,38],[-122.66666666666667,38],[-122.58333333333333,37.81666666666667],[-122.58333333333333,37.81666666666667],[-122.58333333333333,37.81666666666667],[-122.51666666666667,37.75],[-122.51666666666667,37.75],[-122.45,37.68333333333333],[-122.45,37.68333333333333],[-122.45,37.68333333333333],[-122.45,37.68333333333333],[-122.34722222222221,37.58083333333334],[-122.34722222222221,37.58083333333334],[-122.3125,37.516666666666666],[-122.3125,37.516666666666666],[-122.3125,37.516666666666666],[-122.3125,37.516666666666666],[-122.09916666666666,37.44638888888888],[-122.09916666666666,37.44638888888888],[-122.09916666666666,37.44638888888888],[-122.09916666666666,37.44638888888888],[-122.11722222222221,37.503055555555555],[-122.17305555555556,37.53388888888889],[-122.17305555555556,37.53388888888889],[-122.23055555555555,37.55777777777777],[-122.23055555555555,37.55777777777777],[-122.28444444444445,37.580555555555556],[-122.28444444444445,37.580555555555556],[-122.28444444444445,37.580555555555556]],"type":"LineString"}
}
