{
  "id": 2031503577,
  "type": "Feature",
  "properties": {
    "geom:area": 0,
    "geom:bbox": "-122.402290,37.628610,-122.117170,38.516130",
    "geom:latitude": 38.038513438074006,
    "geom:longitude": -122.21686698776605,
    "src:alt_label": "swim-takeoff",
    "src:geom": "swim",
    "swim:elevations": [
      213,
      389,
      545,
      597,
      1261,
      1787,
      1957,
      2652,
      2964,
      3216,
      3274,
      3445,
      3885,
      4293,
      4914,
      5005,
      5356,
      5887,
      6476,
      6545
    ],
    "swim:geom": "takeoff",
    "swim:timestamps": [
      1781117605,
      1781117635,
      1781117661,
      1781117672,
      1781117740,
      1781117788,
      1781117803,
      1781117874,
      1781117904,
      1781117933,
      1781117947,
      1781117981,
      1781118025,
      1781118063,
      1781118114,
      1781118123,
      1781118162,
      1781118208,
      1781118267,
      1781118276
    ],
    "wof:geomhash": "5b1acfebc19027f01cebb87049451534",
    "wof:id": 2031503577,
    "wof:repo": "sfomuseum-data-flights-2026-06"
  },
  "bbox": [
    -122.40229,
    37.62861,
    -122.11717,
    38.51613
  ],
  "geometry": {"coordinates":[[-122.39325,37.62861],[-122.40229,37.64874],[-122.37754,37.66435],[-122.36384,37.66888],[-122.27555,37.70588],[-122.28265,37.76096],[-122.28787,37.77874],[-122.26463,37.8664],[-122.25208,37.90459],[-122.23969,37.94333],[-122.23351,37.96278],[-122.21603,38.01384],[-122.19343,38.08455],[-122.17394,38.14623],[-122.14727,38.23024],[-122.14254,38.24528],[-122.12112,38.31207],[-122.11717,38.39368],[-122.12344,38.49859],[-122.12146,38.51613]],"type":"LineString"}
}
