{
  "id": 2031512735,
  "type": "Feature",
  "properties": {
    "geom:area": 0,
    "geom:bbox": "-122.736944,37.641111,-122.241389,45.564444",
    "geom:latitude": 41.65986125018877,
    "geom:longitude": -122.52321332370752,
    "src:alt_label": "swim-path",
    "src:geom": "swim",
    "swim:altitudes": [
      "014",
      "018",
      "018",
      "167",
      "167",
      "167",
      "167",
      "261",
      "261",
      "278",
      "278",
      "328",
      "328",
      "328",
      "343",
      "355",
      "355",
      "355",
      "375",
      "375",
      "375",
      "375",
      "380C",
      "380C",
      "380C",
      "380C",
      "380C",
      "380C",
      "380C",
      "380C",
      "380C",
      "380C",
      "380C",
      "380C",
      "380C",
      "380C",
      "380C",
      "380C",
      "380C",
      "380C",
      "380C",
      "380C",
      "380C",
      "380C",
      "380C",
      "380C",
      "380C",
      "380C",
      "380C",
      "380C",
      "380C",
      "380C",
      "380C",
      "380C",
      "380C",
      "380C",
      "380C",
      "380C",
      "380C",
      "380C",
      "380C",
      "380C",
      "380C",
      "380C",
      "344",
      "344",
      "344",
      "344",
      "318",
      "318",
      "318",
      "318",
      "234",
      "234",
      "234",
      "234",
      "163",
      "146",
      "146",
      "146",
      "146",
      "121",
      "121",
      "107",
      "100",
      "100",
      "096",
      "096",
      "096",
      "083",
      "083",
      "083",
      "060",
      "060",
      "060",
      "047",
      "047",
      "044",
      "034",
      "030",
      "030",
      "030",
      "025",
      "025",
      "025",
      "019",
      "019",
      "007",
      "007",
      "007",
      "007"
    ],
    "swim:geom": "path",
    "swim:speeds": [
      178,
      221,
      221,
      388,
      388,
      388,
      388,
      441,
      441,
      448,
      448,
      448,
      448,
      448,
      446,
      436,
      436,
      436,
      441,
      441,
      441,
      441,
      439,
      439,
      439,
      439,
      435,
      435,
      435,
      435,
      435,
      435,
      435,
      435,
      434,
      434,
      434,
      434,
      433,
      433,
      433,
      433,
      433,
      433,
      436,
      436,
      437,
      437,
      437,
      437,
      439,
      439,
      439,
      439,
      438,
      438,
      438,
      438,
      439,
      439,
      440,
      440,
      440,
      440,
      427,
      427,
      427,
      427,
      426,
      426,
      426,
      426,
      397,
      397,
      397,
      397,
      339,
      330,
      330,
      330,
      330,
      291,
      291,
      286,
      273,
      273,
      271,
      271,
      271,
      280,
      280,
      280,
      283,
      283,
      283,
      271,
      271,
      274,
      251,
      251,
      251,
      251,
      201,
      201,
      201,
      185,
      185,
      151,
      151,
      151,
      151
    ],
    "swim:timestamps": [
      1781230892,
      1781230915,
      1781230915,
      1781231368,
      1781231368,
      1781231368,
      1781231368,
      1781231669,
      1781231669,
      1781231729,
      1781231729,
      1781231909,
      1781231909,
      1781231909,
      1781231969,
      1781232029,
      1781232029,
      1781232029,
      1781232149,
      1781232149,
      1781232149,
      1781232149,
      1781232209,
      1781232209,
      1781232209,
      1781232209,
      1781232393,
      1781232393,
      1781232393,
      1781232393,
      1781232574,
      1781232574,
      1781232574,
      1781232574,
      1781232810,
      1781232810,
      1781232810,
      1781232810,
      1781232990,
      1781232990,
      1781232990,
      1781233051,
      1781233051,
      1781233051,
      1781233171,
      1781233171,
      1781233231,
      1781233231,
      1781233231,
      1781233231,
      1781233411,
      1781233411,
      1781233411,
      1781233411,
      1781233709,
      1781233709,
      1781233709,
      1781233709,
      1781233769,
      1781233769,
      1781233829,
      1781233829,
      1781233829,
      1781233829,
      1781234131,
      1781234131,
      1781234131,
      1781234131,
      1781234191,
      1781234191,
      1781234191,
      1781234191,
      1781234431,
      1781234431,
      1781234431,
      1781234431,
      1781234672,
      1781234732,
      1781234732,
      1781234732,
      1781234732,
      1781234853,
      1781234853,
      1781234910,
      1781234949,
      1781234949,
      1781234970,
      1781234970,
      1781234970,
      1781235009,
      1781235009,
      1781235009,
      1781235090,
      1781235090,
      1781235090,
      1781235135,
      1781235135,
      1781235150,
      1781235189,
      1781235210,
      1781235210,
      1781235210,
      1781235270,
      1781235270,
      1781235270,
      1781235311,
      1781235311,
      1781235392,
      1781235392,
      1781235392,
      1781235392
    ],
    "wof:geomhash": "85c5f13be77d58ea94c3fd2742745c7b",
    "wof:id": 2031512735,
    "wof:repo": "sfomuseum-data-flights-2026-06"
  },
  "bbox": [
    -122.73694444444445,
    37.64111111111111,
    -122.24138888888889,
    45.56444444444444
  ],
  "geometry": {"coordinates":[[-122.40472222222223,37.64111111111111],[-122.38333333333334,37.666666666666664],[-122.38333333333334,37.666666666666664],[-122.24138888888889,38.23111111111111],[-122.24138888888889,38.23111111111111],[-122.24138888888889,38.23111111111111],[-122.24138888888889,38.23111111111111],[-122.27944444444444,38.822500000000005],[-122.27944444444444,38.822500000000005],[-122.29194444444444,38.948055555555555],[-122.29194444444444,38.948055555555555],[-122.3325,39.322500000000005],[-122.3325,39.322500000000005],[-122.3325,39.322500000000005],[-122.34583333333333,39.44499999999999],[-122.35749999999999,39.56527777777777],[-122.35749999999999,39.56527777777777],[-122.35749999999999,39.56527777777777],[-122.38527777777779,39.80777777777777],[-122.38527777777779,39.80777777777777],[-122.38527777777779,39.80777777777777],[-122.38527777777779,39.80777777777777],[-122.39833333333334,39.92972222222222],[-122.39833333333334,39.92972222222222],[-122.39833333333334,39.92972222222222],[-122.39833333333334,39.92972222222222],[-122.43833333333333,40.29944444444444],[-122.43833333333333,40.29944444444444],[-122.43833333333333,40.29944444444444],[-122.43833333333333,40.29944444444444],[-122.4786111111111,40.66222222222222],[-122.4786111111111,40.66222222222222],[-122.4786111111111,40.66222222222222],[-122.4786111111111,40.66222222222222],[-122.53222222222222,41.14277777777778],[-122.53222222222222,41.14277777777778],[-122.53222222222222,41.14277777777778],[-122.53222222222222,41.14277777777778],[-122.57111111111111,41.48722222222222],[-122.57111111111111,41.48722222222222],[-122.57111111111111,41.48722222222222],[-122.58083333333333,41.60916666666667],[-122.58083333333333,41.60916666666667],[-122.58083333333333,41.60916666666667],[-122.59638888888888,41.85194444444445],[-122.59638888888888,41.85194444444445],[-122.60444444444444,41.974722222222226],[-122.60444444444444,41.974722222222226],[-122.60444444444444,41.974722222222226],[-122.60444444444444,41.974722222222226],[-122.62888888888888,42.343333333333334],[-122.62888888888888,42.343333333333334],[-122.62888888888888,42.343333333333334],[-122.62888888888888,42.343333333333334],[-122.67055555555557,42.9575],[-122.67055555555557,42.9575],[-122.67055555555557,42.9575],[-122.67055555555557,42.9575],[-122.67861111111111,43.07916666666667],[-122.67861111111111,43.07916666666667],[-122.68722222222223,43.200833333333335],[-122.68722222222223,43.200833333333335],[-122.68722222222223,43.200833333333335],[-122.68722222222223,43.200833333333335],[-122.72888888888889,43.802499999999995],[-122.72888888888889,43.802499999999995],[-122.72888888888889,43.802499999999995],[-122.72888888888889,43.802499999999995],[-122.73694444444445,43.92027777777778],[-122.73694444444445,43.92027777777778],[-122.73694444444445,43.92027777777778],[-122.73694444444445,43.92027777777778],[-122.73,44.38055555555555],[-122.73,44.38055555555555],[-122.73,44.38055555555555],[-122.73,44.38055555555555],[-122.69083333333333,44.779444444444444],[-122.68138888888889,44.870555555555555],[-122.68138888888889,44.870555555555555],[-122.68138888888889,44.870555555555555],[-122.68138888888889,44.870555555555555],[-122.66472222222222,45.03805555555555],[-122.66472222222222,45.03805555555555],[-122.65666666666667,45.11638888888889],[-122.65083333333334,45.16916666666666],[-122.65083333333334,45.16916666666666],[-122.64888888888889,45.19222222222222],[-122.64888888888889,45.19222222222222],[-122.64888888888889,45.19222222222222],[-122.62527777777777,45.24],[-122.62527777777777,45.24],[-122.62527777777777,45.24],[-122.54805555555555,45.32944444444445],[-122.54805555555555,45.32944444444445],[-122.54805555555555,45.32944444444445],[-122.50555555555556,45.3825],[-122.50555555555556,45.3825],[-122.49416666666667,45.393055555555556],[-122.45555555555556,45.4375],[-122.44111111111111,45.45527777777778],[-122.44111111111111,45.45527777777778],[-122.44111111111111,45.45527777777778],[-122.43138888888889,45.51611111111111],[-122.43138888888889,45.51611111111111],[-122.43138888888889,45.51611111111111],[-122.47055555555556,45.53583333333333],[-122.47055555555556,45.53583333333333],[-122.5425,45.56444444444444],[-122.5425,45.56444444444444],[-122.5425,45.56444444444444],[-122.5425,45.56444444444444]],"type":"LineString"}
}
