{
  "id": 2031515295,
  "type": "Feature",
  "properties": {
    "geom:area": 0,
    "geom:bbox": "-122.560070,36.743950,-122.295770,37.668010",
    "geom:latitude": 37.22048105646902,
    "geom:longitude": -122.50333994822505,
    "src:alt_label": "swim-takeoff",
    "src:geom": "swim",
    "swim:elevations": [
      449,
      760,
      1006,
      1073,
      1174,
      1244,
      1686,
      1841,
      2291,
      2723,
      2997,
      3170,
      3170,
      3202,
      3245,
      3481,
      3996,
      4099,
      4517,
      4833,
      5016,
      5182,
      5606,
      5909,
      6032,
      6269,
      6566,
      6945,
      6980,
      7011,
      7058
    ],
    "swim:geom": "takeoff",
    "swim:timestamps": [
      1781214958,
      1781214984,
      1781215008,
      1781215017,
      1781215026,
      1781215032,
      1781215071,
      1781215084,
      1781215113,
      1781215145,
      1781215163,
      1781215187,
      1781215196,
      1781215205,
      1781215220,
      1781215249,
      1781215288,
      1781215297,
      1781215333,
      1781215363,
      1781215381,
      1781215394,
      1781215437,
      1781215466,
      1781215481,
      1781215504,
      1781215534,
      1781215584,
      1781215587,
      1781215590,
      1781215596
    ],
    "wof:geomhash": "8c8644851cc5fed1ae77a6702d6af9b0",
    "wof:id": 2031515295,
    "wof:repo": "sfomuseum-data-flights-2026-06"
  },
  "bbox": [
    -122.56007,
    36.74395,
    -122.29577,
    37.66801
  ],
  "geometry": {"coordinates":[[-122.41607,37.63597],[-122.44253,37.6467],[-122.46657,37.65736],[-122.4766,37.66181],[-122.4872,37.66618],[-122.4951,37.66801],[-122.54277,37.64602],[-122.54639,37.62923],[-122.54663,37.59122],[-122.54691,37.54636],[-122.54754,37.52092],[-122.54858,37.48586],[-122.54904,37.47162],[-122.54945,37.45664],[-122.55013,37.43047],[-122.55206,37.37788],[-122.5539,37.30533],[-122.55424,37.28828],[-122.5561,37.2196],[-122.55777,37.16063],[-122.55903,37.125],[-122.56007,37.09853],[-122.5541,37.01104],[-122.51621,36.96053],[-122.49108,36.9365],[-122.45268,36.89904],[-122.40235,36.84902],[-122.31724,36.76493],[-122.31202,36.75984],[-122.30681,36.75475],[-122.29577,36.74395]],"type":"LineString"}
}
