{
  "id": 2031555775,
  "type": "Feature",
  "properties": {
    "geom:area": 0,
    "geom:bbox": "-122.614444,32.733333,-117.200000,37.628889",
    "geom:latitude": 35.3200648053423,
    "geom:longitude": -120.30920509266393,
    "src:alt_label": "swim-path",
    "src:geom": "swim",
    "swim:altitudes": [
      "006",
      "009",
      "033",
      "033",
      "033",
      "195",
      "195",
      "195",
      "263",
      "263",
      "263",
      "316",
      "316",
      "316",
      "340C",
      "340C",
      "340C",
      "340C",
      "340C",
      "340C",
      "340C",
      "340C",
      "340C",
      "340C",
      "340C",
      "340C",
      "340C",
      "340C",
      "340C",
      "292",
      "271",
      "250",
      "250",
      "250",
      "211",
      "206",
      "185",
      "185",
      "129",
      "129",
      "115",
      "109",
      "109",
      "109",
      "073",
      "073",
      "073",
      "047",
      "036",
      "036",
      "036",
      "006",
      "006",
      "006",
      "025",
      "026",
      "026",
      "031",
      "031",
      "060",
      "060",
      "060",
      "060",
      "060",
      "060",
      "060",
      "060",
      "060",
      "051",
      "051",
      "039",
      "037",
      "037",
      "030",
      "023",
      "023",
      "013",
      "013"
    ],
    "swim:geom": "path",
    "swim:speeds": [
      171,
      167,
      211,
      211,
      211,
      422,
      422,
      422,
      470,
      470,
      470,
      479,
      479,
      479,
      475,
      475,
      474,
      474,
      474,
      474,
      474,
      474,
      474,
      474,
      474,
      474,
      474,
      473,
      473,
      452,
      440,
      428,
      428,
      428,
      407,
      401,
      390,
      390,
      355,
      355,
      354,
      347,
      347,
      347,
      279,
      279,
      279,
      248,
      225,
      225,
      225,
      145,
      145,
      145,
      214,
      212,
      212,
      228,
      228,
      263,
      263,
      262,
      262,
      258,
      258,
      260,
      240,
      240,
      236,
      236,
      233,
      203,
      203,
      195,
      188,
      188,
      173,
      173
    ],
    "swim:timestamps": [
      1781644861,
      1781644872,
      1781644932,
      1781644932,
      1781644932,
      1781645412,
      1781645412,
      1781645412,
      1781645713,
      1781645713,
      1781645713,
      1781645953,
      1781645953,
      1781645953,
      1781646314,
      1781646314,
      1781646374,
      1781646434,
      1781646434,
      1781646434,
      1781646554,
      1781646554,
      1781646614,
      1781646795,
      1781646795,
      1781646855,
      1781646855,
      1781646915,
      1781646915,
      1781647277,
      1781647337,
      1781647397,
      1781647397,
      1781647397,
      1781647518,
      1781647529,
      1781647595,
      1781647595,
      1781647775,
      1781647775,
      1781647818,
      1781647835,
      1781647835,
      1781647835,
      1781648010,
      1781648010,
      1781648010,
      1781648130,
      1781648190,
      1781648190,
      1781648190,
      1781648431,
      1781648431,
      1781648431,
      1781648484,
      1781648491,
      1781648491,
      1781648551,
      1781648551,
      1781648671,
      1781648671,
      1781648731,
      1781648731,
      1781648790,
      1781648790,
      1781648852,
      1781648972,
      1781648972,
      1781649030,
      1781649030,
      1781649092,
      1781649152,
      1781649152,
      1781649212,
      1781649272,
      1781649272,
      1781649332,
      1781649332
    ],
    "wof:geomhash": "b215e9290785bf0cc3aad8ca66342411",
    "wof:id": 2031555775,
    "wof:repo": "sfomuseum-data-flights-2026-06"
  },
  "bbox": [
    -122.61444444444444,
    32.733333333333334,
    -117.2,
    37.62888888888889
  ],
  "geometry": {"coordinates":[[-117.2,32.733333333333334],[-117.21000000000001,32.73861111111111],[-117.26555555555555,32.769444444444446],[-117.26555555555555,32.769444444444446],[-117.26555555555555,32.769444444444446],[-117.97583333333334,33.28916666666667],[-117.97583333333334,33.28916666666667],[-117.97583333333334,33.28916666666667],[-118.5225,33.716944444444444],[-118.5225,33.716944444444444],[-118.5225,33.716944444444444],[-119.01138888888889,34.05611111111111],[-119.01138888888889,34.05611111111111],[-119.01138888888889,34.05611111111111],[-119.73444444444445,34.57555555555556],[-119.73444444444445,34.57555555555556],[-119.84944444444444,34.668055555555554],[-119.96472222222222,34.760555555555555],[-119.96472222222222,34.760555555555555],[-119.96472222222222,34.760555555555555],[-120.18861111111111,34.940555555555555],[-120.18861111111111,34.940555555555555],[-120.325,35.04944444444444],[-120.65166666666667,35.336111111111116],[-120.65166666666667,35.336111111111116],[-120.7611111111111,35.433055555555555],[-120.7611111111111,35.433055555555555],[-120.86388888888888,35.532777777777774],[-120.86388888888888,35.532777777777774],[-121.43805555555556,36.1625],[-121.51888888888888,36.26583333333333],[-121.59694444444445,36.36555555555556],[-121.59694444444445,36.36555555555556],[-121.59694444444445,36.36555555555556],[-121.74916666666667,36.55833333333333],[-121.76666666666667,36.583333333333336],[-121.85,36.68333333333333],[-121.85,36.68333333333333],[-121.96666666666667,36.983333333333334],[-121.96666666666667,36.983333333333334],[-121.9875,37.040277777777774],[-122,37.06666666666667],[-122,37.06666666666667],[-122,37.06666666666667],[-122.1,37.3],[-122.1,37.3],[-122.1,37.3],[-122.14277777777778,37.44472222222222],[-122.16666666666667,37.516666666666666],[-122.16666666666667,37.516666666666666],[-122.16666666666667,37.516666666666666],[-122.35666666666665,37.611111111111114],[-122.35666666666665,37.611111111111114],[-122.35666666666665,37.611111111111114],[-122.41666666666667,37.61666666666667],[-122.42083333333333,37.62361111111111],[-122.42083333333333,37.62361111111111],[-122.50111111111111,37.62888888888889],[-122.50111111111111,37.62888888888889],[-122.61444444444444,37.54972222222222],[-122.61444444444444,37.54972222222222],[-122.58055555555555,37.486111111111114],[-122.58055555555555,37.486111111111114],[-122.5,37.45],[-122.5,37.45],[-122.42222222222223,37.41972222222222],[-122.26388888888889,37.38166666666667],[-122.26388888888889,37.38166666666667],[-122.18333333333334,37.4],[-122.18333333333334,37.4],[-122.12944444444443,37.4475],[-122.10833333333333,37.50138888888889],[-122.10833333333333,37.50138888888889],[-122.16361111111112,37.52972222222222],[-122.22083333333333,37.553888888888885],[-122.22083333333333,37.553888888888885],[-122.27722222222222,37.5775],[-122.27722222222222,37.5775]],"type":"LineString"}
}
