{
  "id": 2031510241,
  "type": "Feature",
  "properties": {
    "geom:area": 0,
    "geom:bbox": "-122.321800,37.492760,-121.269730,37.598800",
    "geom:latitude": 37.53984219609989,
    "geom:longitude": -121.80181871119326,
    "src:alt_label": "swim-approach",
    "src:geom": "swim",
    "swim:elevations": [
      4560,
      4371,
      3845,
      3578,
      3366,
      3108,
      3079,
      2937,
      2671,
      2497,
      2321,
      2162,
      2033,
      1951,
      1706,
      1627,
      1485,
      1235,
      1159,
      992,
      785,
      547,
      476,
      277,
      206
    ],
    "swim:geom": "approach",
    "swim:timestamps": [
      1781230307,
      1781230325,
      1781230377,
      1781230404,
      1781230426,
      1781230465,
      1781230483,
      1781230513,
      1781230552,
      1781230580,
      1781230610,
      1781230640,
      1781230670,
      1781230682,
      1781230729,
      1781230741,
      1781230771,
      1781230819,
      1781230831,
      1781230861,
      1781230900,
      1781230945,
      1781230963,
      1781231006,
      1781231027
    ],
    "wof:geomhash": "c3cb94634e5b9b62419ac4b9327ccd00",
    "wof:id": 2031510241,
    "wof:repo": "sfomuseum-data-flights-2026-06"
  },
  "bbox": [
    -122.3218,
    37.49276,
    -121.26973,
    37.5988
  ],
  "geometry": {"coordinates":[[-121.26973,37.59188],[-121.30679,37.58745],[-121.4119,37.5757],[-121.46567,37.5693],[-121.50884,37.56433],[-121.58312,37.55572],[-121.61545,37.55188],[-121.6652,37.54109],[-121.72708,37.52629],[-121.77161,37.51554],[-121.81747,37.50466],[-121.86341,37.4937],[-121.90787,37.49276],[-121.92633,37.49384],[-121.99477,37.49763],[-122.01184,37.49863],[-122.05479,37.50111],[-122.11939,37.51355],[-122.1334,37.5195],[-122.16749,37.53382],[-122.20952,37.5513],[-122.25331,37.57027],[-122.2694,37.57697],[-122.30555,37.5919],[-122.3218,37.5988]],"type":"LineString"}
}
