{
  "id": 2031546245,
  "type": "Feature",
  "properties": {
    "geom:area": 0,
    "geom:bbox": "-122.221111,37.483333,-76.700000,42.991111",
    "geom:latitude": 40.988436378250135,
    "geom:longitude": -99.4601953878661,
    "src:alt_label": "swim-path",
    "src:geom": "swim",
    "swim:altitudes": [
      "008",
      "033",
      "191",
      "263",
      "300C",
      "300C",
      "300C",
      "300C",
      "300C",
      "300C",
      "332",
      "340C",
      "340C",
      "340C",
      "340C",
      "340C",
      "340C",
      "340C",
      "340C",
      "340C",
      "340C",
      "340C",
      "340C",
      "340C",
      "340C",
      "340C",
      "350",
      "360C",
      "360C",
      "360C",
      "360C",
      "360C",
      "360C",
      "360C",
      "360C",
      "360C",
      "360C",
      "360C",
      "360C",
      "360C",
      "360C",
      "360C",
      "360C",
      "360C",
      "360C",
      "360C",
      "360C",
      "360C",
      "360C",
      "360C",
      "360C",
      "360C",
      "360C",
      "360C",
      "360C",
      "360C",
      "360C",
      "360C",
      "360C",
      "360C",
      "360C",
      "360C",
      "360C",
      "360C",
      "360C",
      "360C",
      "360C",
      "360C",
      "360C",
      "360C",
      "360C",
      "360C",
      "360C",
      "360C",
      "360C",
      "360C",
      "360C",
      "360C",
      "360C",
      "360C",
      "360C",
      "360C",
      "360C",
      "360C",
      "360C",
      "290",
      "206",
      "183",
      "109",
      "050",
      "024"
    ],
    "swim:geom": "path",
    "swim:speeds": [
      177,
      235,
      372,
      397,
      401,
      395,
      398,
      404,
      406,
      404,
      403,
      403,
      405,
      402,
      398,
      400,
      393,
      385,
      388,
      389,
      388,
      385,
      383,
      386,
      392,
      397,
      397,
      395,
      393,
      394,
      394,
      393,
      393,
      388,
      388,
      392,
      393,
      397,
      396,
      396,
      395,
      388,
      388,
      385,
      384,
      387,
      389,
      399,
      401,
      400,
      404,
      406,
      406,
      405,
      407,
      411,
      411,
      434,
      436,
      442,
      460,
      463,
      467,
      468,
      469,
      476,
      468,
      470,
      471,
      471,
      474,
      479,
      482,
      482,
      484,
      484,
      485,
      464,
      457,
      450,
      450,
      428,
      420,
      460,
      460,
      464,
      413,
      394,
      255,
      230,
      186
    ],
    "swim:timestamps": [
      1781552965,
      1781553044,
      1781553488,
      1781553759,
      1781554029,
      1781554180,
      1781554300,
      1781554450,
      1781554570,
      1781554781,
      1781555081,
      1781555141,
      1781555261,
      1781555562,
      1781555862,
      1781556145,
      1781556283,
      1781556503,
      1781556763,
      1781556944,
      1781557064,
      1781557304,
      1781557645,
      1781558066,
      1781558306,
      1781558426,
      1781558666,
      1781558907,
      1781559027,
      1781559150,
      1781559508,
      1781559568,
      1781559628,
      1781559868,
      1781559988,
      1781560169,
      1781560481,
      1781560782,
      1781560962,
      1781561262,
      1781561563,
      1781561803,
      1781561923,
      1781562284,
      1781562464,
      1781562645,
      1781562728,
      1781562968,
      1781563088,
      1781563218,
      1781563389,
      1781563519,
      1781563749,
      1781563869,
      1781564179,
      1781564240,
      1781564540,
      1781564840,
      1781564960,
      1781565141,
      1781565681,
      1781565862,
      1781566162,
      1781566342,
      1781566703,
      1781566883,
      1781567244,
      1781567424,
      1781567844,
      1781567904,
      1781568205,
      1781568385,
      1781568625,
      1781568746,
      1781568877,
      1781569046,
      1781569117,
      1781569658,
      1781569827,
      1781569958,
      1781570308,
      1781570379,
      1781570499,
      1781570860,
      1781571040,
      1781571295,
      1781571476,
      1781571536,
      1781571836,
      1781572196,
      1781572362
    ],
    "wof:geomhash": "b639dce647cb1bf16c86f346e7c84ae4",
    "wof:id": 2031546245,
    "wof:repo": "sfomuseum-data-flights-2026-06"
  },
  "bbox": [
    -122.22111111111111,
    37.483333333333334,
    -76.7,
    42.99111111111111
  ],
  "geometry": {"coordinates":[[-76.7,39.18333333333333],[-76.8,39.18333333333333],[-77.55638888888889,39.40833333333333],[-78.13972222222223,39.62361111111111],[-78.7275,39.80083333333333],[-79.07194444444444,39.903055555555554],[-79.32944444444443,39.99916666666667],[-79.62416666666665,40.14666666666667],[-79.8711111111111,40.26888888888889],[-80.32027777777778,40.48888888888889],[-80.92750000000001,40.78111111111111],[-81.07083333333333,40.849444444444444],[-81.3236111111111,40.96888888888889],[-81.9325,41.25277777777778],[-82.54666666666667,41.566111111111105],[-83.1111111111111,41.86638888888889],[-83.38972222222223,42.01277777777778],[-83.84777777777778,42.19361111111111],[-84.42111111111112,42.40361111111111],[-84.81,42.54388888888889],[-85.075,42.638333333333335],[-85.60805555555555,42.801111111111105],[-86.41277777777778,42.90333333333333],[-87.44250000000001,42.99111111111111],[-88.03805555555556,42.990833333333335],[-88.33583333333333,42.98916666666667],[-88.94,42.98388888888889],[-89.53861111111111,42.97638888888889],[-89.84277777777777,42.97166666666667],[-90.13111111111111,42.96611111111111],[-91.0261111111111,42.943888888888885],[-91.17416666666666,42.93944444444444],[-91.32027777777778,42.93472222222222],[-91.89722222222223,42.915277777777774],[-92.19027777777778,42.90416666666667],[-92.63305555555554,42.88583333333333],[-93.43333333333334,42.84861111111111],[-94.18138888888889,42.80888888888889],[-94.6275,42.782777777777774],[-95.34888888888888,42.736666666666665],[-96.10944444444443,42.68333333333333],[-96.69222222222223,42.63861111111111],[-96.98305555555555,42.615],[-97.85138888888888,42.54111111111111],[-98.28055555555555,42.50194444444445],[-98.68472222222222,42.46361111111111],[-98.91527777777779,42.441111111111105],[-99.50722222222223,42.380833333333335],[-99.80527777777777,42.349444444444444],[-100.115,42.31472222222222],[-100.54861111111111,42.26722222222222],[-100.86555555555555,42.22972222222222],[-101.45,42.16111111111111],[-101.74583333333334,42.12444444444444],[-102.51666666666667,42.02583333333333],[-102.66944444444445,42.00527777777778],[-103.42861111111111,41.90138888888889],[-104.21833333333333,41.784166666666664],[-104.53916666666666,41.735],[-105.02527777777777,41.65861111111111],[-106.47472222222223,41.38666666666666],[-106.93722222222223,41.23888888888889],[-107.72611111111111,40.98111111111111],[-108.20277777777778,40.82138888888889],[-109.15916666666668,40.49277777777778],[-109.63055555555555,40.32694444444445],[-110.57,40.02583333333333],[-111.04694444444445,39.89111111111111],[-112.15027777777779,39.569722222222225],[-112.30972222222222,39.52222222222222],[-113.10972222222222,39.278888888888886],[-113.58555555555554,39.130833333333335],[-114.23583333333333,38.96888888888889],[-114.57305555555556,38.92333333333333],[-114.94638888888889,38.87222222222222],[-115.41000000000001,38.80638888888888],[-115.61527777777778,38.77722222222222],[-116.74972222222222,38.095],[-117.2125,38.051944444444445],[-117.56388888888888,38.01833333333333],[-118.34833333333333,37.75805555555556],[-118.50027777777778,37.802499999999995],[-118.55333333333333,38.03194444444444],[-119.3611111111111,37.989444444444445],[-119.81944444444444,37.86333333333334],[-120.48333333333333,37.7],[-120.95,37.63333333333333],[-121.08333333333333,37.61666666666667],[-121.65,37.56666666666667],[-122.05,37.483333333333334],[-122.22111111111111,37.55611111111111]],"type":"LineString"}
}
