{
  "id": 2031497177,
  "type": "Feature",
  "properties": {
    "geom:area": 0,
    "geom:bbox": "-123.491870,37.626810,-122.394420,37.731630",
    "geom:latitude": 37.6979935444118,
    "geom:longitude": -122.93886807016362,
    "src:alt_label": "swim-takeoff",
    "src:geom": "swim",
    "swim:elevations": [
      152,
      519,
      719,
      878,
      1016,
      1127,
      1375,
      1604,
      1948,
      2095,
      2259,
      2472,
      2818,
      3012,
      3148,
      3399,
      3476,
      3628,
      3631,
      3741,
      3843,
      3931,
      4145,
      4190,
      4475,
      4645,
      4697,
      4767
    ],
    "swim:geom": "takeoff",
    "swim:timestamps": [
      1781050669,
      1781050696,
      1781050717,
      1781050735,
      1781050759,
      1781050783,
      1781050826,
      1781050856,
      1781050885,
      1781050900,
      1781050915,
      1781050936,
      1781050971,
      1781050995,
      1781051010,
      1781051054,
      1781051069,
      1781051099,
      1781051102,
      1781051127,
      1781051155,
      1781051180,
      1781051217,
      1781051226,
      1781051270,
      1781051294,
      1781051306,
      1781051315
    ],
    "wof:geomhash": "eb3b34ded500aca4c7287451a0f57b8f",
    "wof:id": 2031497177,
    "wof:repo": "sfomuseum-data-flights-2026-06"
  },
  "bbox": [
    -123.49187,
    37.62681,
    -122.39442,
    37.73163
  ],
  "geometry": {"coordinates":[[-122.39442,37.62681],[-122.42011,37.63772],[-122.43987,37.64644],[-122.45709,37.65396],[-122.4803,37.66419],[-122.50693,37.67442],[-122.56679,37.67898],[-122.6138,37.68121],[-122.65997,37.68381],[-122.68429,37.68544],[-122.70878,37.68687],[-122.74306,37.68888],[-122.80077,37.69273],[-122.8405,37.69498],[-122.86572,37.69661],[-122.94151,37.70077],[-122.96858,37.70229],[-123.0249,37.70556],[-123.0307,37.70585],[-123.08158,37.70871],[-123.13817,37.71199],[-123.192,37.71505],[-123.27312,37.71966],[-123.29301,37.72077],[-123.38988,37.72614],[-123.44407,37.72911],[-123.47133,37.73052],[-123.49187,37.73163]],"type":"LineString"}
}
