{
  "id": 2031454087,
  "type": "Feature",
  "properties": {
    "geom:area": 0,
    "geom:bbox": "-122.352290,36.747650,-121.894090,37.609120",
    "geom:latitude": 37.24286434644064,
    "geom:longitude": -122.08873113915675,
    "src:alt_label": "swim-approach",
    "src:geom": "swim",
    "swim:elevations": [
      5382,
      5223,
      5041,
      4692,
      4441,
      4179,
      3844,
      3770,
      3591,
      3394,
      3220,
      3036,
      2850,
      2741,
      2712,
      2674,
      2384,
      2240,
      2134,
      2134,
      1933,
      1656,
      1365,
      1255,
      1219,
      1219,
      1219,
      1004,
      870,
      795,
      619,
      458,
      276,
      188,
      53
    ],
    "swim:geom": "approach",
    "swim:timestamps": [
      1780664485,
      1780664504,
      1780664526,
      1780664571,
      1780664597,
      1780664632,
      1780664671,
      1780664680,
      1780664702,
      1780664726,
      1780664751,
      1780664789,
      1780664815,
      1780664831,
      1780664872,
      1780664881,
      1780664922,
      1780664947,
      1780664996,
      1780665004,
      1780665032,
      1780665061,
      1780665115,
      1780665139,
      1780665151,
      1780665167,
      1780665187,
      1780665234,
      1780665267,
      1780665282,
      1780665322,
      1780665354,
      1780665401,
      1780665426,
      1780665465
    ],
    "wof:geomhash": "a508f102e870e7b3fae58fbae7ba5a92",
    "wof:id": 2031454087,
    "wof:repo": "sfomuseum-data-flights-2026-06"
  },
  "bbox": [
    -122.35229,
    36.74765,
    -121.89409,
    37.60912
  ],
  "geometry": {"coordinates":[[-121.89409,36.74765],[-121.90388,36.77645],[-121.91311,36.80936],[-121.93168,36.87552],[-121.9423,36.91395],[-121.95791,36.96448],[-121.9793,37.01909],[-121.98426,37.0317],[-121.9961,37.06175],[-122.00806,37.09294],[-122.02049,37.12531],[-122.03902,37.17241],[-122.05552,37.20367],[-122.0743,37.21907],[-122.119,37.2532],[-122.1292,37.26097],[-122.17133,37.29282],[-122.1962,37.3112],[-122.20471,37.3566],[-122.19763,37.3626],[-122.17103,37.38407],[-122.14364,37.40576],[-122.10336,37.44752],[-122.09153,37.46731],[-122.08837,37.47805],[-122.09185,37.49155],[-122.10507,37.50421],[-122.15231,37.52522],[-122.185,37.53883],[-122.20016,37.5452],[-122.23958,37.56176],[-122.26948,37.57441],[-122.30573,37.5896],[-122.3249,37.59763],[-122.35229,37.60912]],"type":"LineString"}
}
