{
  "id": 2031517901,
  "type": "Feature",
  "properties": {
    "geom:area": 0,
    "geom:bbox": "-122.359250,37.492450,-121.252010,37.614550",
    "geom:latitude": 37.54293538266347,
    "geom:longitude": -121.81273415404051,
    "src:alt_label": "swim-approach",
    "src:geom": "swim",
    "swim:elevations": [
      4645,
      4502,
      3930,
      3599,
      3366,
      3198,
      3165,
      3077,
      2918,
      2801,
      2568,
      2484,
      2202,
      2038,
      1923,
      1828,
      1619,
      1407,
      1358,
      1233,
      1025,
      822,
      647,
      484,
      429,
      378,
      343,
      243,
      96
    ],
    "swim:geom": "approach",
    "swim:timestamps": [
      1781309876,
      1781309892,
      1781309950,
      1781309979,
      1781310004,
      1781310026,
      1781310039,
      1781310072,
      1781310104,
      1781310121,
      1781310150,
      1781310165,
      1781310205,
      1781310237,
      1781310255,
      1781310273,
      1781310309,
      1781310351,
      1781310363,
      1781310386,
      1781310432,
      1781310467,
      1781310503,
      1781310536,
      1781310548,
      1781310565,
      1781310570,
      1781310595,
      1781310651
    ],
    "wof:geomhash": "da956152d517a9abb7350d7c3121250b",
    "wof:id": 2031517901,
    "wof:repo": "sfomuseum-data-flights-2026-06"
  },
  "bbox": [
    -122.35925,
    37.49245,
    -121.25201,
    37.61455
  ],
  "geometry": {"coordinates":[[-121.25201,37.59429],[-121.28388,37.59009],[-121.40181,37.57692],[-121.46022,37.57017],[-121.51106,37.5642],[-121.55338,37.55927],[-121.57783,37.55626],[-121.63676,37.54784],[-121.68955,37.53499],[-121.71684,37.5285],[-121.76447,37.51744],[-121.7882,37.51179],[-121.85196,37.49652],[-121.90387,37.49245],[-121.93233,37.49414],[-121.96051,37.49576],[-122.0142,37.4988],[-122.07309,37.50211],[-122.08886,37.50334],[-122.11627,37.51172],[-122.16521,37.53273],[-122.20075,37.54777],[-122.23676,37.563],[-122.26598,37.57519],[-122.27594,37.57944],[-122.2907,37.58554],[-122.29493,37.58731],[-122.31596,37.59622],[-122.35925,37.61455]],"type":"LineString"}
}
