{
  "id": 2031430127,
  "type": "Feature",
  "properties": {
    "geom:area": 0,
    "geom:bbox": "-122.380000,37.490000,-104.670000,39.880000",
    "geom:latitude": 38.78940117557097,
    "geom:longitude": -113.54746434003903,
    "src:alt_label": "swim-route",
    "src:geom": "swim",
    "swim:geom": "route",
    "wof:geomhash": "7dd8c7243b61ec12ed8bca9e41a225dd",
    "wof:id": 2031430127,
    "wof:repo": "sfomuseum-data-flights-2026-06"
  },
  "bbox": [
    -122.38,
    37.49,
    -104.67,
    39.88
  ],
  "geometry": {"coordinates":[[-104.67,39.86],[-104.71,39.86],[-104.8,39.85],[-104.91,39.84],[-105.01,39.85],[-105.04,39.85],[-105.25,39.87],[-105.3,39.87],[-105.31,39.87],[-105.32,39.87],[-105.37,39.88],[-105.37,39.88],[-105.47,39.87],[-105.48,39.87],[-105.55,39.86],[-105.63,39.85],[-105.67,39.85],[-105.7,39.85],[-105.71,39.84],[-105.83,39.83],[-105.89,39.83],[-106.01,39.81],[-106.12,39.8],[-106.2,39.8],[-106.26,39.79],[-106.35,39.78],[-106.66,39.75],[-107.04,39.71],[-107.17,39.69],[-107.22,39.69],[-108.83,39.5],[-109.54,39.43],[-110.1,39.36],[-111.72,39.14],[-111.97,39.1],[-112.09,39.08],[-112.46,39.03],[-113.44,38.88],[-116.01,38.53],[-117.28,38.25],[-118.76,37.9],[-119.1,37.86],[-119.49,37.81],[-119.74,37.78],[-120.13,37.73],[-120.18,37.73],[-120.21,37.72],[-120.4,37.7],[-120.51,37.69],[-120.57,37.68],[-120.69,37.67],[-120.75,37.66],[-120.82,37.65],[-120.88,37.64],[-120.96,37.63],[-121,37.63],[-121.11,37.61],[-121.19,37.6],[-121.26,37.59],[-121.39,37.58],[-121.41,37.58],[-121.6,37.55],[-121.61,37.55],[-121.62,37.55],[-121.7,37.53],[-121.8,37.51],[-121.82,37.5],[-121.88,37.49],[-122.08,37.54],[-122.12,37.55],[-122.18,37.57],[-122.28,37.59],[-122.33,37.61],[-122.36,37.61],[-122.38,37.62]],"type":"LineString"}
}
