{
  "id": 2031533647,
  "type": "Feature",
  "properties": {
    "date:inception_lower": "2026-06-13",
    "date:inception_upper": "2026-06-13",
    "edtf:cessation": "",
    "edtf:inception": "2026-06-13",
    "flysfo:actual_timestamp": -1,
    "flysfo:airline": "VA",
    "flysfo:base_airline": "",
    "flysfo:base_flight_number": "7263",
    "flysfo:date": "2026-06-13",
    "flysfo:estimated_timestamp": 1781384340,
    "flysfo:event": "D",
    "flysfo:flight_number": "VA8053",
    "flysfo:gate": "D8",
    "flysfo:journey": "SFO-LAX",
    "flysfo:scheduled_timestamp": 1781384100,
    "flysfo:timestamp": 1781384340,
    "geom:area": 0,
    "geom:bbox": "-122.370943,33.942593,-118.389510,37.617990",
    "geom:latitude": 35.780291500000004,
    "geom:longitude": -120.38022649999999,
    "iata:airline": "VA",
    "iata:base_airline": "",
    "icao:airline": "VOZ",
    "icao:base_airline": "ANA",
    "lbl:latitude": 37.617421,
    "lbl:longitude": -122.380916,
    "sfomuseum:airline_id": 1159285485,
    "sfomuseum:arrival_id": 102533795,
    "sfomuseum:base_flight_id": "20260613-D-ANA-7263",
    "sfomuseum:departure_id": 102527513,
    "sfomuseum:flight_id": "20260613-D-VOZ-8053",
    "sfomuseum:flight_number": [
      "VOZ8053",
      "VA8053"
    ],
    "sfomuseum:placetype": "flight",
    "src:geom": "flysfo",
    "wof:belongsto": [
      1947304067,
      102527513,
      1947304595,
      102191575,
      85633793,
      102087579,
      85922583,
      554784711,
      85688637,
      1947304617,
      1947304591,
      102085387
    ],
    "wof:country": "US",
    "wof:created": 1781453909,
    "wof:geomhash": "602be2a828e3460cadf44be5b1c2e36b",
    "wof:hierarchy": [
      {
        "building_id": 1947304067,
        "campus_id": 102527513,
        "concourse_id": 1947304595,
        "continent_id": 102191575,
        "country_id": 85633793,
        "county_id": 102087579,
        "custom_id": 2031533647,
        "flight_id": 2031533647,
        "locality_id": 85922583,
        "postalcode_id": 554784711,
        "region_id": 85688637,
        "venue_id": 1947304617,
        "wing_id": 1947304591
      },
      {
        "building_id": 1947304067,
        "campus_id": 102527513,
        "concourse_id": 1947304595,
        "continent_id": 102191575,
        "country_id": 85633793,
        "county_id": 102085387,
        "custom_id": 2031533647,
        "flight_id": 2031533647,
        "region_id": 85688637,
        "venue_id": 1947304617,
        "wing_id": 1947304591
      }
    ],
    "wof:id": 2031533647,
    "wof:involves": [
      102533795,
      102527513,
      1159285485,
      1947304617,
      1159283875
    ],
    "wof:lastmodified": 1781453909,
    "wof:name": "VA8053 (SFO-LAX)",
    "wof:parent_id": 1947304617,
    "wof:placetype": "custom",
    "wof:placetype_alt": [
      "flight"
    ],
    "wof:repo": "sfomuseum-data-flights-2026-06",
    "wof:superseded_by": [],
    "wof:supersedes": []
  },
  "bbox": [
    -122.370943,
    33.942593,
    -118.38951,
    37.61799
  ],
  "geometry": {"coordinates":[[-122.370943,37.61799],[-118.38951,33.942593]],"type":"MultiPoint"}
}
