{
  "id": 2031465639,
  "type": "Feature",
  "properties": {
    "date:cessation_lower": "2026-06-06",
    "date:cessation_upper": "2026-06-06",
    "date:inception_lower": "2026-06-06",
    "date:inception_upper": "2026-06-06",
    "edtf:cessation": "2026-06-06T12:05:16-07:00",
    "edtf:inception": "2026-06-06T20:49:00Z",
    "flysfo:actual_timestamp": -1,
    "flysfo:airline": "UA",
    "flysfo:date": "2026-06-06",
    "flysfo:estimated_timestamp": 1780798620,
    "flysfo:event": "A",
    "flysfo:flight_number": "UA1159",
    "flysfo:gate": "G11",
    "flysfo:journey": "CUN-SFO",
    "flysfo:scheduled_timestamp": 1780798920,
    "flysfo:timestamp": 1780798920,
    "geom:area": 0,
    "geom:bbox": "-122.370943,21.040317,-86.872856,37.617990",
    "geom:latitude": 29.3291535,
    "geom:longitude": -104.6218995,
    "iata:airline": "UA",
    "icao:aircraft": "B739",
    "icao:airline": "UAL",
    "lbl:latitude": 37.61799,
    "lbl:longitude": -122.370943,
    "sfomuseum:aircraft_id": 1377564285,
    "sfomuseum:airline_id": 1159285413,
    "sfomuseum:arrival_id": 102527513,
    "sfomuseum:departure_id": 102536223,
    "sfomuseum:flight_id": "20260606-A-UAL-1159",
    "sfomuseum:flight_number": [
      "UAL1159",
      "UA1159"
    ],
    "sfomuseum:placetype": "flight",
    "src:geom": "flysfo",
    "src:geom_alt": [
      "swim-route",
      "swim-path",
      "swim-approach"
    ],
    "swim:tail_number": "N68842",
    "wof:belongsto": [
      1947304067,
      102527513,
      1947304129,
      102191575,
      85633793,
      102087579,
      85922583,
      554784711,
      85688637,
      1947304139,
      1947304069,
      102085387
    ],
    "wof:concordances": {
      "swim:flight_ref": "148590887",
      "swim:gufi": "KH7981971o"
    },
    "wof:country": "US",
    "wof:created": 1780848459,
    "wof:geomhash": "c1b858affbd20b2c728ba535a4ce178e",
    "wof:hierarchy": [
      {
        "building_id": 1947304067,
        "campus_id": 102527513,
        "concourse_id": 1947304129,
        "continent_id": 102191575,
        "country_id": 85633793,
        "county_id": 102087579,
        "custom_id": 2031465639,
        "flight_id": 2031465639,
        "locality_id": 85922583,
        "postalcode_id": 554784711,
        "region_id": 85688637,
        "venue_id": 1947304139,
        "wing_id": 1947304069
      },
      {
        "building_id": 1947304067,
        "campus_id": 102527513,
        "concourse_id": 1947304129,
        "continent_id": 102191575,
        "country_id": 85633793,
        "county_id": 102085387,
        "custom_id": 2031465639,
        "flight_id": 2031465639,
        "region_id": 85688637,
        "venue_id": 1947304139,
        "wing_id": 1947304069
      }
    ],
    "wof:id": 2031465639,
    "wof:involves": [
      1377564285,
      102527513,
      102536223,
      1159285413,
      1947304139
    ],
    "wof:lastmodified": 1780849078,
    "wof:name": "UA1159 (CUN-SFO)",
    "wof:parent_id": 1947304139,
    "wof:placetype": "custom",
    "wof:placetype_alt": [
      "flight"
    ],
    "wof:repo": "sfomuseum-data-flights-2026-06",
    "wof:superseded_by": [],
    "wof:supersedes": []
  },
  "bbox": [
    -122.370943,
    21.040317,
    -86.872856,
    37.61799
  ],
  "geometry": {"coordinates":[[-86.872856,21.040317],[-122.370943,37.61799]],"type":"MultiPoint"}
}
