{
  "id": 2031596593,
  "type": "Feature",
  "properties": {
    "geom:area": 0,
    "geom:bbox": "-122.392610,37.624830,-122.090860,38.517810",
    "geom:latitude": 38.068370972559336,
    "geom:longitude": -122.26337523458571,
    "src:alt_label": "swim-takeoff",
    "src:geom": "swim",
    "swim:elevations": [
      244,
      335,
      929,
      951,
      1018,
      1133,
      1206,
      1711,
      1766,
      2668,
      3107,
      3412,
      3563,
      3913,
      4243,
      4353,
      4629,
      4903,
      5428,
      5806,
      6068,
      6125,
      6362,
      6634,
      6810,
      6954
    ],
    "swim:geom": "takeoff",
    "swim:timestamps": [
      1781998796,
      1781998801,
      1781998858,
      1781998861,
      1781998870,
      1781998887,
      1781998899,
      1781998944,
      1781998950,
      1781999000,
      1781999028,
      1781999064,
      1781999091,
      1781999127,
      1781999157,
      1781999166,
      1781999191,
      1781999223,
      1781999270,
      1781999307,
      1781999332,
      1781999338,
      1781999364,
      1781999397,
      1781999416,
      1781999432
    ],
    "wof:geomhash": "85eb8c523eff8e751ae9f9b60e45670b",
    "wof:id": 2031596593,
    "wof:repo": "sfomuseum-data-flights-2026-06"
  },
  "bbox": [
    -122.39261,
    37.62483,
    -122.09086,
    38.51781
  ],
  "geometry": {"coordinates":[[-122.38928,37.62483],[-122.39261,37.62686],[-122.38163,37.66613],[-122.37991,37.66821],[-122.37452,37.67463],[-122.36427,37.68725],[-122.35612,37.69749],[-122.33912,37.74724],[-122.34226,37.75462],[-122.37232,37.81581],[-122.38649,37.85012],[-122.38515,37.89976],[-122.3806,37.9408],[-122.34609,37.99547],[-122.31554,38.04024],[-122.30604,38.05435],[-122.27915,38.09394],[-122.24441,38.14467],[-122.19087,38.22254],[-122.14856,38.28404],[-122.12114,38.32659],[-122.11685,38.33755],[-122.10709,38.38726],[-122.09926,38.45176],[-122.09482,38.48672],[-122.09086,38.51781]],"type":"LineString"}
}
