{
  "id": 2031438547,
  "type": "Feature",
  "properties": {
    "geom:area": 0,
    "geom:bbox": "-122.378900,36.829900,-121.918790,37.612590",
    "geom:latitude": 37.26497103255576,
    "geom:longitude": -122.17567193362652,
    "src:alt_label": "swim-approach",
    "src:geom": "swim",
    "swim:elevations": [
      5085,
      4684,
      4529,
      4318,
      4212,
      3993,
      3759,
      3596,
      3480,
      3272,
      3109,
      2970,
      2769,
      2170,
      2134,
      2045,
      2003,
      1866,
      1829,
      1829,
      1829,
      1829,
      1829,
      1823,
      1733,
      1510,
      1357,
      1216,
      1219,
      1219,
      1219,
      1219,
      1219,
      1211,
      1045,
      976,
      822,
      763,
      711,
      563,
      448,
      338,
      246,
      215,
      128,
      121,
      0
    ],
    "swim:geom": "approach",
    "swim:timestamps": [
      1780527132,
      1780527167,
      1780527180,
      1780527201,
      1780527210,
      1780527231,
      1780527263,
      1780527293,
      1780527318,
      1780527341,
      1780527376,
      1780527407,
      1780527440,
      1780527533,
      1780527577,
      1780527597,
      1780527611,
      1780527656,
      1780527684,
      1780527697,
      1780527717,
      1780527728,
      1780527760,
      1780527772,
      1780527787,
      1780527833,
      1780527860,
      1780527891,
      1780527915,
      1780527927,
      1780527935,
      1780527950,
      1780527978,
      1780527996,
      1780528047,
      1780528062,
      1780528102,
      1780528117,
      1780528132,
      1780528166,
      1780528193,
      1780528224,
      1780528251,
      1780528260,
      1780528286,
      1780528292,
      1780528322
    ],
    "wof:geomhash": "7c34986aaa9f98e269c703798658431f",
    "wof:id": 2031438547,
    "wof:repo": "sfomuseum-data-flights-2026-06"
  },
  "bbox": [
    -122.3789,
    36.8299,
    -121.91879,
    37.61259
  ],
  "geometry": {"coordinates":[[-121.91879,36.8299],[-121.9346,36.88649],[-121.9404,36.90718],[-121.94977,36.94043],[-121.95423,36.95468],[-121.97517,36.98374],[-122.03226,37.00135],[-122.08748,37.01101],[-122.12422,37.02959],[-122.15016,37.05788],[-122.18678,37.0975],[-122.21709,37.13043],[-122.24798,37.16452],[-122.33094,37.25819],[-122.36746,37.3001],[-122.3789,37.32174],[-122.37485,37.33808],[-122.33327,37.36955],[-122.29858,37.36205],[-122.28272,37.35874],[-122.25939,37.35384],[-122.24661,37.35122],[-122.20859,37.35219],[-122.19548,37.35678],[-122.17958,37.36228],[-122.12827,37.38035],[-122.10967,37.40053],[-122.09295,37.42569],[-122.07913,37.44523],[-122.07501,37.45461],[-122.0757,37.46169],[-122.07899,37.47433],[-122.08972,37.49641],[-122.10534,37.50464],[-122.14978,37.52402],[-122.16202,37.52914],[-122.19658,37.54371],[-122.20881,37.54886],[-122.22087,37.55398],[-122.24912,37.56579],[-122.27121,37.57511],[-122.29414,37.58478],[-122.31305,37.59269],[-122.31908,37.59523],[-122.33714,37.60281],[-122.34118,37.60449],[-122.36155,37.61259]],"type":"LineString"}
}
