{
  "id": 2031478007,
  "type": "Feature",
  "properties": {
    "geom:area": 0,
    "geom:bbox": "-178.540000,35.550000,178.300000,57.100000",
    "geom:latitude": 53.5129322737517,
    "geom:longitude": -5.535384182245083,
    "src:alt_label": "swim-route",
    "src:geom": "swim",
    "swim:geom": "route",
    "wof:geomhash": "cf44923e7c2981bf79309f58a92db7c2",
    "wof:id": 2031478007,
    "wof:repo": "sfomuseum-data-flights-2026-06"
  },
  "bbox": [
    -178.54,
    35.55,
    178.3,
    57.1
  ],
  "geometry": {"coordinates":[[[-122.38,37.62],[-122.5,37.67],[-122.5,37.67],[-122.5,37.68],[-122.59,37.73],[-122.59,37.73],[-122.63,37.75],[-122.69,37.79],[-122.7,37.79],[-122.74,37.81],[-122.76,37.82],[-122.79,37.87],[-122.91,38.01],[-123.15,38.3],[-123.16,38.3],[-123.3,38.48],[-123.42,38.61],[-123.48,38.68],[-123.59,38.82],[-123.64,38.87],[-123.69,38.92],[-123.75,39],[-123.86,39.19],[-124.51,40.22],[-124.82,40.69],[-126.17,42.7],[-126.18,42.72],[-126.64,43.41],[-126.66,43.44],[-128.2,45.15],[-129.17,46.18],[-129.97,47],[-130.52,47.52],[-131.65,48.57],[-132.8,49.6],[-132.89,49.68],[-134.33,50.88],[-134.4,51],[-134.97,51.18],[-135.38,51.38],[-136.47,51.78],[-140,53],[-142.36,53.83],[-143.58,54.22],[-146.08,54.97],[-147.36,55.33],[-150,56],[-152.46,56.33],[-152.47,56.33],[-156.2,56.72],[-159.07,56.93],[-160,57],[-160.03,57],[-161,57.03],[-161.29,57.05],[-161.72,57.05],[-162.59,57.08],[-165.19,57.1],[-167.25,57.07],[-170,57],[-178.54,55.19]],[[178.3,54.23],[174.06,52.72],[171.55,51.4],[166.25,49.66],[161.33,47.55],[155.1,44.18],[149.65,40.42],[145.67,37.2],[142.35,36.32],[142.13,36.25],[142.04,36.23],[141.97,36.21],[141.72,36.14],[141.37,36.03],[141.35,36.03],[141.07,35.94],[141.05,35.94],[140.7,35.83],[140.51,35.78],[140.47,35.77],[140.26,35.7],[140.21,35.69],[140.07,35.64],[139.97,35.61],[139.88,35.58],[139.78,35.55]]],"type":"MultiLineString"}
}
