{
  "id": 2031478869,
  "type": "Feature",
  "properties": {
    "geom:area": 0,
    "geom:bbox": "-122.380000,37.620000,-119.770000,39.500000",
    "geom:latitude": 38.53135142288301,
    "geom:longitude": -120.90950600859252,
    "src:alt_label": "swim-route",
    "src:geom": "swim",
    "swim:geom": "route",
    "wof:geomhash": "f5600176bd059861976a3adb82ba11a4",
    "wof:id": 2031478869,
    "wof:repo": "sfomuseum-data-flights-2026-06"
  },
  "bbox": [
    -122.38,
    37.62,
    -119.77,
    39.5
  ],
  "geometry": {"coordinates":[[-122.38,37.62],[-122.27,37.69],[-122.24,37.71],[-122.23,37.71],[-122.21,37.72],[-122.18,37.75],[-122.18,37.75],[-122.17,37.77],[-122.14,37.8],[-122.13,37.82],[-122.07,37.88],[-122.03,37.92],[-121.9,38.06],[-121.9,38.06],[-121.85,38.12],[-121.8,38.17],[-121.73,38.25],[-121.7,38.28],[-121.7,38.28],[-121.64,38.35],[-121.58,38.41],[-121.55,38.44],[-121.46,38.46],[-121.43,38.47],[-121.34,38.49],[-120.67,38.63],[-120.6,38.65],[-120.56,38.65],[-120.31,38.71],[-120.25,38.72],[-120.09,38.75],[-119.77,38.82],[-119.77,38.9],[-119.77,38.93],[-119.77,38.93],[-119.77,39.04],[-119.77,39.06],[-119.77,39.11],[-119.77,39.28],[-119.77,39.45],[-119.77,39.47],[-119.77,39.5]],"type":"LineString"}
}
