{
  "id": 2031581397,
  "type": "Feature",
  "properties": {
    "geom:area": 0,
    "geom:bbox": "-122.358070,37.468130,-121.301370,37.613810",
    "geom:latitude": 37.53414695755591,
    "geom:longitude": -121.83769513638163,
    "src:alt_label": "swim-approach",
    "src:geom": "swim",
    "swim:elevations": [
      4748,
      4549,
      4233,
      4163,
      3725,
      3442,
      3251,
      3229,
      2865,
      2711,
      2558,
      2467,
      2438,
      2316,
      2182,
      1896,
      1830,
      1819,
      1658,
      1449,
      1391,
      1098,
      914,
      734,
      672,
      482,
      392,
      244,
      77,
      0
    ],
    "swim:geom": "approach",
    "swim:timestamps": [
      1781897486,
      1781897518,
      1781897547,
      1781897554,
      1781897602,
      1781897638,
      1781897665,
      1781897671,
      1781897727,
      1781897750,
      1781897782,
      1781897808,
      1781897835,
      1781897876,
      1781897896,
      1781897934,
      1781897962,
      1781897970,
      1781897996,
      1781898026,
      1781898037,
      1781898081,
      1781898114,
      1781898145,
      1781898156,
      1781898197,
      1781898217,
      1781898254,
      1781898294,
      1781898310
    ],
    "wof:geomhash": "4a702a88f26c7b8f15b1f5623d4d685d",
    "wof:id": 2031581397,
    "wof:repo": "sfomuseum-data-flights-2026-06"
  },
  "bbox": [
    -122.35807,
    37.46813,
    -121.30137,
    37.61381
  ],
  "geometry": {"coordinates":[[-121.30137,37.58783],[-121.35925,37.58156],[-121.40823,37.57611],[-121.42094,37.57463],[-121.50178,37.56518],[-121.56254,37.55804],[-121.60909,37.55252],[-121.61764,37.55123],[-121.70388,37.53201],[-121.73899,37.52354],[-121.78208,37.51281],[-121.80917,37.4951],[-121.83642,37.476],[-121.89211,37.47121],[-121.91872,37.47003],[-121.97086,37.46813],[-122.00788,37.46973],[-122.01802,37.47255],[-122.05204,37.4833],[-122.08873,37.50019],[-122.1026,37.50641],[-122.15547,37.52852],[-122.19088,37.54353],[-122.22203,37.55666],[-122.23247,37.56108],[-122.27132,37.57741],[-122.28807,37.58451],[-122.31591,37.59618],[-122.3463,37.60909],[-122.35807,37.61381]],"type":"LineString"}
}
