{
  "id": 2031663583,
  "type": "Feature",
  "properties": {
    "geom:area": 0,
    "geom:bbox": "-122.358760,37.425770,-121.277810,37.614770",
    "geom:latitude": 37.52962362713406,
    "geom:longitude": -121.82378148725893,
    "src:alt_label": "swim-approach",
    "src:geom": "swim",
    "swim:elevations": [
      5062,
      4954,
      4820,
      4727,
      4310,
      3975,
      3928,
      3776,
      3719,
      3639,
      3573,
      3401,
      3111,
      3049,
      2988,
      2930,
      2690,
      2512,
      2361,
      2216,
      2135,
      2134,
      2134,
      2093,
      2068,
      1885,
      1802,
      1506,
      1227,
      1199,
      1079,
      1023,
      948,
      803,
      759,
      531,
      431,
      395,
      301,
      253,
      180,
      144,
      0
    ],
    "swim:geom": "approach",
    "swim:timestamps": [
      1782690057,
      1782690070,
      1782690082,
      1782690091,
      1782690133,
      1782690178,
      1782690187,
      1782690235,
      1782690250,
      1782690268,
      1782690277,
      1782690301,
      1782690342,
      1782690360,
      1782690387,
      1782690399,
      1782690429,
      1782690450,
      1782690475,
      1782690495,
      1782690522,
      1782690555,
      1782690596,
      1782690625,
      1782690632,
      1782690653,
      1782690670,
      1782690711,
      1782690746,
      1782690776,
      1782690806,
      1782690813,
      1782690830,
      1782690862,
      1782690871,
      1782690921,
      1782690944,
      1782690956,
      1782690982,
      1782690995,
      1782691018,
      1782691027,
      1782691063
    ],
    "wof:geomhash": "9c52a9e1d075d6c0edaa5a1c83f3e077",
    "wof:id": 2031663583,
    "wof:repo": "sfomuseum-data-flights-2026-06"
  },
  "bbox": [
    -122.35876,
    37.42577,
    -121.27781,
    37.61477
  ],
  "geometry": {"coordinates":[[-121.27781,37.59055],[-121.30063,37.58759],[-121.32102,37.5852],[-121.33643,37.58352],[-121.40944,37.57559],[-121.48664,37.56669],[-121.50177,37.56489],[-121.57674,37.55615],[-121.59893,37.55352],[-121.62474,37.55041],[-121.63738,37.54997],[-121.66955,37.5585],[-121.72004,37.57664],[-121.7441,37.58041],[-121.77449,37.56494],[-121.78015,37.55242],[-121.78192,37.51857],[-121.78252,37.49496],[-121.78348,37.46632],[-121.79036,37.44565],[-121.82112,37.43154],[-121.86597,37.42748],[-121.92094,37.42577],[-121.95394,37.44246],[-121.96255,37.44656],[-121.98766,37.45756],[-122.00745,37.46594],[-122.05586,37.48646],[-122.09592,37.50345],[-122.12748,37.51674],[-122.15694,37.52925],[-122.1639,37.5322],[-122.17975,37.53889],[-122.20833,37.55091],[-122.21637,37.55433],[-122.26178,37.57344],[-122.27955,37.58101],[-122.28777,37.58439],[-122.3053,37.59175],[-122.31409,37.59545],[-122.3297,37.60201],[-122.33559,37.60448],[-122.35876,37.61477]],"type":"LineString"}
}
