{
  "id": 2031603659,
  "type": "Feature",
  "properties": {
    "geom:area": 0,
    "geom:bbox": "-123.473680,37.425370,-122.387860,37.671380",
    "geom:latitude": 37.56103164244354,
    "geom:longitude": -122.92873538488352,
    "src:alt_label": "swim-takeoff",
    "src:geom": "swim",
    "swim:elevations": [
      122,
      520,
      744,
      881,
      1270,
      1408,
      1824,
      2170,
      2549,
      2899,
      3293,
      3388,
      3458,
      3804,
      4424,
      4595,
      5022,
      5165,
      5584,
      5737,
      5883,
      6130,
      6297
    ],
    "swim:geom": "takeoff",
    "swim:timestamps": [
      1782025886,
      1782025916,
      1782025943,
      1782025963,
      1782025997,
      1782026006,
      1782026036,
      1782026062,
      1782026089,
      1782026114,
      1782026157,
      1782026177,
      1782026192,
      1782026224,
      1782026276,
      1782026296,
      1782026336,
      1782026351,
      1782026398,
      1782026419,
      1782026435,
      1782026467,
      1782026491
    ],
    "wof:geomhash": "3ec4a3c284fa462a5c0101c319138ab9",
    "wof:id": 2031603659,
    "wof:repo": "sfomuseum-data-flights-2026-06"
  },
  "bbox": [
    -123.47368,
    37.42537,
    -122.38786,
    37.67138
  ],
  "geometry": {"coordinates":[[-122.38786,37.62425],[-122.41463,37.63599],[-122.4423,37.64777],[-122.46587,37.65806],[-122.51191,37.67138],[-122.5258,37.66939],[-122.5713,37.65657],[-122.61096,37.64683],[-122.65493,37.63564],[-122.69538,37.62506],[-122.76822,37.60676],[-122.80447,37.59776],[-122.83404,37.59028],[-122.9005,37.57305],[-123.00895,37.54525],[-123.05057,37.53458],[-123.13649,37.51263],[-123.16859,37.50439],[-123.26888,37.47851],[-123.31467,37.46667],[-123.35143,37.45714],[-123.42042,37.4392],[-123.47368,37.42537]],"type":"LineString"}
}
