{
  "id": 2031486775,
  "type": "Feature",
  "properties": {
    "geom:area": 0,
    "geom:bbox": "-122.406389,33.649444,-84.187778,38.519444",
    "geom:latitude": 37.044961163724246,
    "geom:longitude": -103.20654660699687,
    "src:alt_label": "swim-path",
    "src:geom": "swim",
    "swim:altitudes": [
      "019",
      "085",
      "085",
      "186",
      "186",
      "213",
      "243",
      "315",
      "327",
      "330C",
      "330C",
      "330C",
      "330C",
      "331C",
      "330C",
      "330C",
      "330C",
      "330C",
      "330C",
      "330C",
      "330C",
      "330C",
      "331C",
      "330C",
      "330C",
      "330",
      "330",
      "330",
      "330",
      "330",
      "334",
      "350C",
      "350C",
      "350C",
      "350C",
      "350C",
      "350C",
      "350C",
      "350C",
      "350C",
      "350C",
      "350C",
      "350C",
      "350C",
      "350C",
      "350C",
      "350C",
      "350C",
      "350C",
      "350C",
      "350C",
      "350C",
      "350C",
      "350C",
      "350C",
      "350C",
      "351C",
      "350C",
      "350C",
      "350C",
      "350C",
      "350C",
      "350C",
      "350C",
      "350C",
      "351C",
      "350C",
      "349C",
      "350C",
      "350C",
      "350C",
      "351C",
      "350C",
      "350C",
      "350C",
      "350C",
      "351C",
      "351C",
      "350C",
      "350C",
      "350C",
      "350C",
      "350C",
      "350C",
      "350C",
      "350C",
      "350C",
      "350C",
      "350C",
      "350",
      "350",
      "350",
      "350",
      "350",
      "350C",
      "350C",
      "351C",
      "351C",
      "350C",
      "350C",
      "350C",
      "350C",
      "350C",
      "350C",
      "350C",
      "350C",
      "350C",
      "350C",
      "350C",
      "350C",
      "351C",
      "351C",
      "351C",
      "350C",
      "350C",
      "350C",
      "350C",
      "350C",
      "350C",
      "350C",
      "350C",
      "350C",
      "350C",
      "350C",
      "350C",
      "350C",
      "350C",
      "350C",
      "350C",
      "351C",
      "350C",
      "350C",
      "350C",
      "350C",
      "350C",
      "350C",
      "350C",
      "350C",
      "350C",
      "350C",
      "350C",
      "350C",
      "350C",
      "350C",
      "350",
      "350",
      "350",
      "350",
      "350",
      "350",
      "350",
      "350",
      "350",
      "350",
      "350",
      "350",
      "350",
      "350",
      "350",
      "350",
      "350",
      "350",
      "350",
      "350",
      "350",
      "350",
      "350",
      "350",
      "340",
      "287",
      "194",
      "194",
      "126",
      "120",
      "120",
      "118",
      "107",
      "090",
      "062",
      "048",
      "034",
      "030"
    ],
    "swim:geom": "path",
    "swim:speeds": [
      185,
      272,
      272,
      425,
      425,
      447,
      476,
      519,
      524,
      523,
      521,
      521,
      521,
      525,
      528,
      528,
      528,
      528,
      528,
      528,
      527,
      528,
      526,
      520,
      520,
      500,
      500,
      500,
      496,
      496,
      496,
      492,
      499,
      490,
      490,
      496,
      488,
      482,
      491,
      491,
      492,
      492,
      491,
      490,
      494,
      494,
      492,
      493,
      490,
      490,
      488,
      485,
      485,
      490,
      489,
      486,
      481,
      474,
      474,
      473,
      473,
      473,
      473,
      473,
      473,
      482,
      483,
      485,
      492,
      499,
      499,
      495,
      485,
      496,
      505,
      509,
      517,
      517,
      518,
      517,
      517,
      516,
      513,
      512,
      512,
      511,
      512,
      513,
      513,
      517,
      520,
      521,
      521,
      525,
      513,
      513,
      511,
      507,
      508,
      516,
      518,
      520,
      516,
      508,
      508,
      503,
      501,
      501,
      501,
      501,
      501,
      501,
      501,
      496,
      496,
      494,
      493,
      493,
      493,
      495,
      495,
      496,
      495,
      494,
      488,
      487,
      488,
      488,
      488,
      490,
      490,
      489,
      491,
      491,
      490,
      484,
      482,
      479,
      479,
      477,
      478,
      476,
      476,
      475,
      472,
      470,
      470,
      468,
      469,
      468,
      468,
      466,
      466,
      467,
      466,
      466,
      466,
      466,
      465,
      464,
      464,
      466,
      466,
      466,
      467,
      468,
      468,
      468,
      469,
      479,
      434,
      434,
      377,
      376,
      376,
      309,
      264,
      255,
      246,
      240,
      225,
      185
    ],
    "swim:timestamps": [
      1780984480,
      1780984660,
      1780984660,
      1780985020,
      1780985020,
      1780985140,
      1780985321,
      1780985836,
      1780985896,
      1780986196,
      1780986281,
      1780986376,
      1780986376,
      1780986557,
      1780986617,
      1780986642,
      1780986677,
      1780986702,
      1780986737,
      1780986737,
      1780986797,
      1780986882,
      1780987037,
      1780987157,
      1780987277,
      1780987409,
      1780987469,
      1780987469,
      1780987529,
      1780987529,
      1780987710,
      1780987890,
      1780987950,
      1780988010,
      1780988010,
      1780988130,
      1780988336,
      1780988370,
      1780988396,
      1780988396,
      1780988456,
      1780988490,
      1780988516,
      1780988550,
      1780988610,
      1780988636,
      1780988730,
      1780988816,
      1780988877,
      1780988877,
      1780988971,
      1780989151,
      1780989151,
      1780989211,
      1780989271,
      1780989297,
      1780989537,
      1780989717,
      1780989717,
      1780989777,
      1780989837,
      1780989957,
      1780990017,
      1780990017,
      1780990077,
      1780990197,
      1780990317,
      1780990377,
      1780990437,
      1780990497,
      1780990497,
      1780990557,
      1780990617,
      1780990677,
      1780990858,
      1780990978,
      1780991098,
      1780991098,
      1780991158,
      1780991398,
      1780991398,
      1780991458,
      1780991578,
      1780991878,
      1780991878,
      1780991944,
      1780992062,
      1780992183,
      1780992183,
      1780992362,
      1780992544,
      1780992602,
      1780992602,
      1780992844,
      1780993023,
      1780993023,
      1780993446,
      1780993466,
      1780993526,
      1780993563,
      1780993586,
      1780993646,
      1780993684,
      1780993766,
      1780993766,
      1780993863,
      1780993925,
      1780993985,
      1780994006,
      1780994066,
      1780994103,
      1780994126,
      1780994126,
      1780994224,
      1780994246,
      1780994306,
      1780994345,
      1780994405,
      1780994426,
      1780994523,
      1780994523,
      1780994607,
      1780994644,
      1780994727,
      1780994907,
      1780994967,
      1780995027,
      1780995027,
      1780995147,
      1780995267,
      1780995327,
      1780995447,
      1780995567,
      1780995567,
      1780995687,
      1780995927,
      1780995972,
      1780996032,
      1780996032,
      1780996048,
      1780996092,
      1780996108,
      1780996152,
      1780996168,
      1780996288,
      1780996348,
      1780996348,
      1780996408,
      1780996452,
      1780996512,
      1780996572,
      1780996588,
      1780996648,
      1780996812,
      1780996872,
      1780996872,
      1780996932,
      1780996992,
      1780997128,
      1780997188,
      1780997248,
      1780997352,
      1780997352,
      1780997369,
      1780997413,
      1780997473,
      1780997489,
      1780997549,
      1780997609,
      1780997713,
      1780997953,
      1780997953,
      1780998191,
      1780998253,
      1780998253,
      1780998371,
      1780998431,
      1780998491,
      1780998613,
      1780998673,
      1780998733,
      1780998794
    ],
    "wof:geomhash": "2e98883fab9787c1af58d733463f9afe",
    "wof:id": 2031486775,
    "wof:repo": "sfomuseum-data-flights-2026-06"
  },
  "bbox": [
    -122.4063888888889,
    33.64944444444444,
    -84.18777777777778,
    38.519444444444446
  ],
  "geometry": {"coordinates":[[-122.4063888888889,37.65138888888889],[-122.38583333333334,37.84527777777778],[-122.38583333333334,37.84527777777778],[-121.71055555555556,37.99055555555556],[-121.71055555555556,37.99055555555556],[-121.39944444444446,37.99138888888889],[-120.90583333333333,38.02194444444444],[-119.40444444444445,38.2425],[-119.22222222222223,38.268055555555556],[-118.32,38.390277777777776],[-118.0625,38.42388888888889],[-117.77111111111111,38.46083333333333],[-117.77111111111111,38.46083333333333],[-117.21388888888889,38.519444444444446],[-117.02527777777777,38.515],[-116.94500000000001,38.513333333333335],[-116.83583333333333,38.51111111111111],[-116.7575,38.50944444444445],[-116.64861111111112,38.50666666666667],[-116.64861111111112,38.50666666666667],[-116.46027777777778,38.501666666666665],[-116.19361111111111,38.49444444444445],[-115.71083333333334,38.47972222222222],[-115.34583333333333,38.4675],[-114.99,38.45416666666667],[-114.59388888888888,38.437777777777775],[-114.41527777777779,38.43],[-114.41527777777779,38.43],[-114.23916666666666,38.4225],[-114.23916666666666,38.4225],[-113.71361111111112,38.39722222222222],[-113.18972222222223,38.37],[-113.01527777777778,38.361111111111114],[-112.83916666666666,38.36666666666667],[-112.83916666666666,38.36666666666667],[-112.48777777777778,38.37722222222222],[-111.89722222222223,38.39361111111111],[-111.79916666666666,38.395833333333336],[-111.72555555555556,38.39722222222222],[-111.72555555555556,38.39722222222222],[-111.55166666666666,38.40138888888889],[-111.45194444444445,38.40333333333333],[-111.37694444444443,38.40472222222222],[-111.27805555555555,38.40694444444444],[-111.10416666666666,38.41],[-111.02777777777777,38.41138888888889],[-110.76805555555555,38.41583333333333],[-110.525,38.42111111111111],[-110.35499999999999,38.425],[-110.35499999999999,38.425],[-110.07972222222222,38.43083333333333],[-109.56194444444444,38.44],[-109.56194444444444,38.44],[-109.39,38.44166666666666],[-109.22027777777778,38.42805555555555],[-109.15138888888889,38.422777777777775],[-108.47916666666667,38.36888888888889],[-107.9475,38.323055555555555],[-107.9475,38.323055555555555],[-107.78166666666667,38.30833333333333],[-107.61694444444444,38.29333333333333],[-107.28583333333333,38.26277777777778],[-107.15472222222223,38.250277777777775],[-107.15472222222223,38.250277777777775],[-106.97583333333334,38.23305555555556],[-106.62055555555555,38.19833333333333],[-106.30138888888888,38.16583333333333],[-106.13083333333333,38.14805555555556],[-105.95611111111111,38.13],[-105.78166666666667,38.111111111111114],[-105.78166666666667,38.111111111111114],[-105.61027777777777,38.09277777777778],[-105.44055555555556,38.07416666666667],[-105.26833333333333,38.055277777777775],[-104.74138888888889,37.99472222222222],[-104.38333333333334,37.9525],[-104.01861111111111,37.90861111111111],[-104.01861111111111,37.90861111111111],[-103.83722222222222,37.88583333333333],[-103.11583333333333,37.79361111111111],[-103.11583333333333,37.79361111111111],[-102.93916666666667,37.77027777777778],[-102.58472222222221,37.723055555555554],[-101.7063888888889,37.60027777777778],[-101.7063888888889,37.60027777777778],[-101.53361111111111,37.575],[-101.18388888888889,37.52388888888889],[-100.80583333333333,37.467222222222226],[-100.80583333333333,37.467222222222226],[-100.27583333333334,37.385555555555555],[-99.74361111111111,37.30083333333333],[-99.56611111111111,37.27166666666667],[-99.56611111111111,37.27166666666667],[-98.85777777777777,37.15416666666667],[-98.37249999999999,36.986666666666665],[-98.37249999999999,36.986666666666665],[-97.28999999999999,36.48833333333334],[-97.25833333333334,36.47416666666667],[-97.10527777777777,36.40222222222222],[-96.9786111111111,36.349722222222226],[-96.94166666666668,36.34527777777778],[-96.76611111111112,36.31722222222223],[-96.62777777777777,36.29388888888889],[-96.39055555555557,36.25527777777778],[-96.39055555555557,36.25527777777778],[-96.11972222222222,36.21083333333333],[-95.95277777777778,36.18277777777777],[-95.78444444444445,36.154444444444444],[-95.71777777777778,36.14333333333333],[-95.55111111111111,36.11472222222223],[-95.44416666666667,36.09638888888889],[-95.38583333333334,36.08638888888889],[-95.38583333333334,36.08638888888889],[-95.1211111111111,36.03972222222222],[-95.05666666666666,36.02861111111111],[-94.89416666666668,36],[-94.79305555555555,35.98166666666667],[-94.62777777777777,35.952222222222225],[-94.56305555555555,35.940555555555555],[-94.29833333333333,35.89222222222222],[-94.29833333333333,35.89222222222222],[-94.08444444444444,35.85277777777778],[-93.98583333333333,35.83444444444444],[-93.75472222222223,35.79111111111111],[-93.26694444444445,35.69833333333333],[-93.10527777777777,35.6675],[-92.93833333333333,35.635],[-92.93833333333333,35.635],[-92.61166666666666,35.57],[-92.28222222222222,35.50416666666667],[-92.1211111111111,35.47138888888889],[-91.79805555555555,35.405277777777776],[-91.47583333333334,35.338055555555556],[-91.47583333333334,35.338055555555556],[-91.16111111111111,35.27194444444444],[-90.52722222222222,35.13527777777778],[-90.4088888888889,35.11],[-90.2538888888889,35.07694444444445],[-90.2538888888889,35.07694444444445],[-90.21277777777777,35.066111111111105],[-90.09916666666666,35.041666666666664],[-90.05722222222222,35.031666666666666],[-89.94416666666667,35.009166666666665],[-89.90194444444445,35.00361111111111],[-89.58055555555555,34.95611111111111],[-89.4213888888889,34.9325],[-89.4213888888889,34.9325],[-89.26555555555555,34.909166666666664],[-89.16361111111112,34.894999999999996],[-89.00944444444444,34.87166666666667],[-88.85388888888889,34.846944444444446],[-88.80138888888888,34.83833333333334],[-88.64666666666668,34.814166666666665],[-88.235,34.74916666666667],[-88.08111111111111,34.72416666666667],[-88.08111111111111,34.72416666666667],[-87.92500000000001,34.69888888888889],[-87.77222222222223,34.67388888888889],[-87.42861111111111,34.61694444444444],[-87.27361111111111,34.59388888888889],[-87.11611111111111,34.57083333333334],[-86.84138888888889,34.5175],[-86.84138888888889,34.5175],[-86.8111111111111,34.51],[-86.69083333333333,34.47972222222222],[-86.54138888888889,34.440555555555555],[-86.50944444444444,34.43222222222222],[-86.35833333333333,34.39222222222222],[-86.20833333333334,34.3525],[-85.93305555555555,34.28055555555555],[-85.36777777777777,34.132222222222225],[-85.36777777777777,34.132222222222225],[-84.9,33.916666666666664],[-84.80694444444444,33.87111111111111],[-84.80694444444444,33.87111111111111],[-84.6,33.75],[-84.51666666666667,33.733333333333334],[-84.41666666666667,33.733333333333334],[-84.2625,33.733333333333334],[-84.18777777777778,33.71944444444445],[-84.18805555555556,33.66083333333333],[-84.25166666666667,33.64944444444444]],"type":"LineString"}
}
