{
  "id": 2031492535,
  "type": "Feature",
  "properties": {
    "geom:area": 0,
    "geom:bbox": "-122.324444,33.917222,-118.868611,37.600000",
    "geom:latitude": 35.551911436054255,
    "geom:longitude": -120.77733684141711,
    "src:alt_label": "swim-path",
    "src:geom": "swim",
    "swim:altitudes": [
      "100",
      "100",
      "100",
      "100",
      "101",
      "119",
      "119",
      "119",
      "144",
      "196",
      "196",
      "215",
      "240C",
      "240C",
      "240C",
      "240C",
      "240C",
      "240C",
      "240C",
      "240C",
      "240C",
      "240C",
      "240C",
      "240C",
      "240C",
      "240C",
      "240C",
      "240C",
      "240C",
      "240C",
      "240C",
      "240C",
      "240C",
      "240C",
      "240",
      "240",
      "240",
      "239",
      "239",
      "237",
      "228",
      "228",
      "208",
      "194",
      "155",
      "151",
      "135",
      "135",
      "117",
      "113",
      "113",
      "091",
      "091",
      "078",
      "065",
      "065",
      "056",
      "056",
      "034",
      "022",
      "015",
      "013",
      "007",
      "006",
      "006"
    ],
    "swim:geom": "path",
    "swim:speeds": [
      296,
      296,
      296,
      296,
      295,
      343,
      343,
      343,
      357,
      374,
      374,
      389,
      428,
      425,
      425,
      426,
      426,
      424,
      424,
      424,
      424,
      420,
      420,
      420,
      419,
      419,
      418,
      418,
      416,
      416,
      416,
      416,
      416,
      416,
      416,
      414,
      411,
      408,
      408,
      394,
      380,
      380,
      365,
      353,
      345,
      347,
      331,
      331,
      318,
      321,
      321,
      278,
      278,
      265,
      261,
      261,
      227,
      227,
      188,
      177,
      161,
      162,
      146,
      150,
      150
    ],
    "swim:timestamps": [
      1781066789,
      1781066789,
      1781066849,
      1781066849,
      1781066909,
      1781066969,
      1781066969,
      1781066969,
      1781067029,
      1781067150,
      1781067150,
      1781067210,
      1781067330,
      1781067390,
      1781067390,
      1781067443,
      1781067443,
      1781067630,
      1781067630,
      1781067690,
      1781067690,
      1781067811,
      1781067864,
      1781067864,
      1781067924,
      1781067931,
      1781067984,
      1781067991,
      1781068104,
      1781068111,
      1781068111,
      1781068224,
      1781068224,
      1781068224,
      1781068351,
      1781068524,
      1781068584,
      1781068644,
      1781068644,
      1781068658,
      1781068704,
      1781068704,
      1781068825,
      1781068868,
      1781068988,
      1781069005,
      1781069048,
      1781069048,
      1781069108,
      1781069125,
      1781069125,
      1781069229,
      1781069229,
      1781069289,
      1781069365,
      1781069365,
      1781069425,
      1781069425,
      1781069545,
      1781069594,
      1781069649,
      1781069665,
      1781069709,
      1781069725,
      1781069725
    ],
    "wof:geomhash": "9924d4c00873b65c5de0e4c890d99bcb",
    "wof:id": 2031492535,
    "wof:repo": "sfomuseum-data-flights-2026-06"
  },
  "bbox": [
    -122.32444444444444,
    33.91722222222222,
    -118.86861111111111,
    37.6
  ],
  "geometry": {"coordinates":[[-118.86861111111111,33.91722222222222],[-118.86861111111111,33.91722222222222],[-118.96666666666667,33.91722222222222],[-118.96666666666667,33.91722222222222],[-119.06527777777778,33.9175],[-119.17416666666666,33.9175],[-119.17416666666666,33.9175],[-119.17416666666666,33.9175],[-119.29055555555556,33.94],[-119.50333333333333,34.03916666666667],[-119.50333333333333,34.03916666666667],[-119.58055555555555,34.126666666666665],[-119.74805555555555,34.31388888888888],[-119.83361111111111,34.40861111111111],[-119.83361111111111,34.40861111111111],[-119.91055555555556,34.493611111111115],[-119.91055555555556,34.493611111111115],[-120.17861111111111,34.78916666666667],[-120.17861111111111,34.78916666666667],[-120.26361111111112,34.882222222222225],[-120.26361111111112,34.882222222222225],[-120.43305555555555,35.06722222222223],[-120.5125,35.15361111111111],[-120.5125,35.15361111111111],[-120.59888888888888,35.24722222222222],[-120.60305555555556,35.251666666666665],[-120.68583333333333,35.34138888888889],[-120.68722222222223,35.34277777777778],[-120.85055555555554,35.5325],[-120.85055555555554,35.5325],[-120.85055555555554,35.5325],[-121.01527777777778,35.721944444444446],[-121.01527777777778,35.721944444444446],[-121.01527777777778,35.721944444444446],[-121.17861111111111,35.90833333333333],[-121.42944444444444,36.19222222222222],[-121.51055555555556,36.28388888888889],[-121.59222222222222,36.37555555555556],[-121.59222222222222,36.37555555555556],[-121.61666666666666,36.4],[-121.67,36.46222222222222],[-121.67,36.46222222222222],[-121.80777777777777,36.6325],[-121.85,36.7],[-121.93333333333334,36.88333333333333],[-121.93611111111112,36.89111111111111],[-121.96666666666667,36.96666666666667],[-121.96666666666667,36.96666666666667],[-122,37.05],[-121.99722222222222,37.065],[-121.99722222222222,37.065],[-122.05,37.21666666666667],[-122.05,37.21666666666667],[-122.08333333333333,37.28333333333333],[-122.11416666666666,37.36361111111111],[-122.11416666666666,37.36361111111111],[-122.13555555555556,37.425],[-122.13555555555556,37.425],[-122.17583333333334,37.528888888888886],[-122.21666666666667,37.55],[-122.26666666666667,37.583333333333336],[-122.27916666666667,37.57833333333333],[-122.31666666666666,37.6],[-122.32444444444444,37.597500000000004],[-122.32444444444444,37.597500000000004]],"type":"LineString"}
}
