{
  "id": 2031505487,
  "type": "Feature",
  "properties": {
    "geom:area": 0,
    "geom:bbox": "-122.380000,37.330000,-82.890000,40.440000",
    "geom:latitude": 38.78748564406974,
    "geom:longitude": -102.4785685093676,
    "src:alt_label": "swim-route",
    "src:geom": "swim",
    "swim:geom": "route",
    "wof:geomhash": "ce6faf2e7a90df02b493599044f18dd5",
    "wof:id": 2031505487,
    "wof:repo": "sfomuseum-data-flights-2026-06"
  },
  "bbox": [
    -122.38,
    37.33,
    -82.89,
    40.44
  ],
  "geometry": {"coordinates":[[-122.38,37.62],[-122.27,37.69],[-122.24,37.71],[-122.23,37.71],[-122.21,37.72],[-122.17,37.74],[-122.17,37.74],[-122.16,37.75],[-122.15,37.75],[-122.14,37.75],[-122.1,37.78],[-122.09,37.78],[-122,37.83],[-121.93,37.84],[-121.73,37.88],[-121.7,37.88],[-121.64,37.89],[-121.56,37.91],[-121.4,37.94],[-121.39,37.94],[-121.34,37.95],[-121.2,37.97],[-121.1,37.99],[-121.06,38],[-121.02,38],[-120.93,38.02],[-120.81,38.04],[-120.62,38.07],[-120.52,38.08],[-120.41,38.1],[-120.31,38.11],[-120.06,38.15],[-119.18,38.27],[-118.95,38.31],[-118.7,38.34],[-118.61,38.35],[-118.5,38.37],[-118.15,38.41],[-117.29,38.52],[-117.28,38.52],[-116.16,38.63],[-114.65,38.75],[-113.48,38.84],[-111.76,38.94],[-111.14,38.97],[-109.98,39.02],[-109.49,39.04],[-108.79,39.06],[-106.8,39.16],[-106.44,39.18],[-105.18,39.22],[-104.87,39.23],[-104.28,39.24],[-104.26,39.23],[-103.97,39.18],[-103.68,39.12],[-102.31,38.87],[-101.95,38.77],[-101.18,38.62],[-100.82,38.5],[-100.8,38.45],[-100.14,38.15],[-99.52,37.87],[-98.33,37.33],[-97.73,37.39],[-97.56,37.4],[-94.56,38.17],[-94.34,38.22],[-92.69,38.6],[-92.15,38.79],[-91.33,38.95],[-91,38.97],[-90.07,39.2],[-89.34,39.33],[-88.13,39.53],[-87.04,39.71],[-86.84,39.74],[-86.37,39.81],[-85.99,39.9],[-85.61,39.98],[-85.35,40.03],[-85.34,40.03],[-85.33,40.03],[-85.27,40.05],[-84.84,40.14],[-84.76,40.16],[-84.64,40.19],[-84.01,40.33],[-83.73,40.39],[-83.48,40.44],[-83.42,40.41],[-83.38,40.39],[-83.25,40.31],[-83.23,40.3],[-83.18,40.25],[-83.15,40.22],[-83.13,40.2],[-83.13,40.16],[-83.13,40.09],[-83.13,40.09],[-83.04,40.05],[-82.94,40.02],[-82.89,40]],"type":"LineString"}
}
