{
  "id": 2031492785,
  "type": "Feature",
  "properties": {
    "geom:area": 0,
    "geom:bbox": "-122.380000,37.490000,-87.910000,42.160000",
    "geom:latitude": 40.083910954568175,
    "geom:longitude": -105.11184322876686,
    "src:alt_label": "swim-route",
    "src:geom": "swim",
    "swim:geom": "route",
    "wof:geomhash": "a7a5881a9b7482f1b2edb5cfa0b37f84",
    "wof:id": 2031492785,
    "wof:repo": "sfomuseum-data-flights-2026-06"
  },
  "bbox": [
    -122.38,
    37.49,
    -87.91,
    42.16
  ],
  "geometry": {"coordinates":[[-87.91,41.98],[-88.03,42],[-88.08,42.01],[-88.19,42.04],[-88.2,42.04],[-88.33,42.06],[-88.33,42.07],[-88.41,42.08],[-88.63,42.13],[-88.71,42.14],[-88.79,42.16],[-88.81,42.16],[-88.82,42.16],[-88.92,42.16],[-88.98,42.16],[-89.24,42.15],[-89.54,42.14],[-89.73,42.14],[-89.92,42.13],[-90.37,42.12],[-90.54,42.11],[-90.88,42.1],[-91.12,42.09],[-91.16,42.08],[-91.28,42.08],[-91.41,42.08],[-91.44,42.08],[-91.8,42.09],[-93.33,42.01],[-96.32,41.81],[-97.13,41.74],[-97.67,41.69],[-99.03,41.56],[-100.05,41.37],[-100.14,41.35],[-100.27,41.32],[-100.43,41.15],[-101.15,40.7],[-101.2,40.63],[-101.2,40.58],[-101.28,40.41],[-101.37,40.13],[-101.79,40.12],[-103.19,40.07],[-105.08,39.98],[-105.44,39.95],[-105.86,39.93],[-106.63,39.84],[-106.87,39.76],[-107.22,39.72],[-108.09,39.61],[-108.48,39.57],[-108.74,39.53],[-109.2,39.47],[-110.1,39.35],[-110.85,39.23],[-111.72,39.11],[-112.74,38.95],[-113.49,38.82],[-116.2,38.32],[-116.47,38.27],[-117.27,38.11],[-117.77,38],[-118.76,37.9],[-119.1,37.86],[-119.38,37.82],[-119.72,37.78],[-119.82,37.77],[-119.92,37.76],[-120.02,37.75],[-120.31,37.71],[-120.4,37.7],[-120.4,37.7],[-120.57,37.68],[-120.69,37.67],[-120.75,37.66],[-120.79,37.65],[-120.8,37.65],[-120.96,37.63],[-121,37.63],[-121.01,37.63],[-121.07,37.62],[-121.17,37.61],[-121.26,37.59],[-121.39,37.58],[-121.41,37.58],[-121.6,37.55],[-121.61,37.55],[-121.62,37.55],[-121.72,37.53],[-121.8,37.51],[-121.88,37.49],[-121.89,37.49],[-122.01,37.53],[-122.08,37.54],[-122.18,37.57],[-122.18,37.57],[-122.28,37.59],[-122.33,37.61],[-122.36,37.61],[-122.38,37.62]],"type":"LineString"}
}
