{
  "id": 2031443795,
  "type": "Feature",
  "properties": {
    "geom:area": 0,
    "geom:bbox": "-122.530500,37.626690,-121.425460,38.517970",
    "geom:latitude": 38.08101415297505,
    "geom:longitude": -122.0563210807003,
    "src:alt_label": "swim-takeoff",
    "src:geom": "swim",
    "swim:elevations": [
      183,
      639,
      956,
      1131,
      1128,
      1157,
      1521,
      1843,
      2310,
      2562,
      2960,
      3309,
      3540,
      3746,
      3890,
      3942,
      4322,
      4696,
      4969,
      5112,
      5262,
      5441,
      5566,
      5747,
      5798,
      6249,
      6393,
      6755,
      7032,
      7132,
      7347,
      7475
    ],
    "swim:geom": "takeoff",
    "swim:timestamps": [
      1780517539,
      1780517574,
      1780517604,
      1780517631,
      1780517637,
      1780517651,
      1780517687,
      1780517713,
      1780517751,
      1780517774,
      1780517804,
      1780517838,
      1780517875,
      1780517897,
      1780517931,
      1780517942,
      1780517980,
      1780518023,
      1780518050,
      1780518071,
      1780518090,
      1780518110,
      1780518123,
      1780518145,
      1780518150,
      1780518201,
      1780518217,
      1780518264,
      1780518298,
      1780518312,
      1780518344,
      1780518362
    ],
    "wof:geomhash": "abaa8cfdf7daae926588ecc60e3d37bd",
    "wof:id": 2031443795,
    "wof:repo": "sfomuseum-data-flights-2026-06"
  },
  "bbox": [
    -122.5305,
    37.62669,
    -121.42546,
    38.51797
  ],
  "geometry": {"coordinates":[[-122.39353,37.62669],[-122.42292,37.63922],[-122.44916,37.65054],[-122.47542,37.66217],[-122.48192,37.66501],[-122.49844,37.672],[-122.5305,37.70277],[-122.52888,37.73502],[-122.52627,37.78389],[-122.5062,37.81066],[-122.45742,37.83013],[-122.40601,37.8555],[-122.35302,37.89402],[-122.31884,37.91811],[-122.26486,37.95617],[-122.24601,37.96936],[-122.17827,38.01517],[-122.1013,38.0679],[-122.05109,38.1022],[-122.01179,38.12898],[-121.97566,38.15408],[-121.93855,38.17975],[-121.91409,38.19669],[-121.87194,38.22565],[-121.86097,38.23319],[-121.76243,38.30062],[-121.73013,38.32251],[-121.63686,38.38582],[-121.56648,38.43308],[-121.53582,38.45253],[-121.46664,38.49375],[-121.42546,38.51797]],"type":"LineString"}
}
