{
  "id": 2031459841,
  "type": "Feature",
  "properties": {
    "geom:area": 0,
    "geom:bbox": "-118.493889,39.886389,-83.286389,43.651944",
    "geom:latitude": 42.865362074408694,
    "geom:longitude": -100.89365713895285,
    "src:alt_label": "swim-path",
    "src:geom": "swim",
    "swim:altitudes": [
      "370C",
      "370C",
      "370C",
      "370C",
      "370C",
      "370C",
      "370C",
      "370C",
      "370C",
      "370C",
      "370C",
      "370C",
      "370C",
      "370C",
      "370C",
      "370C",
      "370C",
      "370C",
      "370C",
      "370C",
      "370C",
      "370C",
      "370C",
      "370C",
      "370C",
      "370C",
      "370C",
      "370C",
      "370C",
      "370C",
      "370C",
      "370C",
      "370C",
      "370C",
      "370C",
      "370C",
      "370C",
      "370C",
      "370C",
      "370C",
      "370C",
      "370",
      "360",
      "342",
      "331C",
      "330C",
      "330C",
      "330C",
      "330C",
      "330C",
      "330C",
      "330C",
      "330C",
      "330C",
      "330C",
      "330C",
      "330C",
      "330C",
      "330C",
      "330C",
      "330C",
      "330C",
      "330C",
      "330C",
      "330C",
      "330C",
      "330C",
      "330C",
      "330C",
      "330C",
      "330C",
      "330C",
      "330C",
      "330C",
      "330C",
      "330C",
      "330C",
      "330C",
      "330C",
      "323",
      "311C",
      "310C",
      "310C",
      "310C",
      "310C",
      "310C",
      "310C",
      "310C",
      "310C",
      "310C",
      "310C",
      "310C",
      "310C",
      "310C",
      "310C",
      "310C",
      "310C",
      "310C",
      "310C",
      "310C",
      "310C",
      "310C",
      "310C",
      "310C",
      "310C",
      "310C",
      "310C",
      "310C",
      "310C",
      "310C",
      "310C",
      "310C",
      "310C",
      "310C",
      "310C",
      "310C",
      "310C",
      "310C",
      "310C",
      "310C",
      "310C",
      "310",
      "310",
      "283",
      "264",
      "260",
      "222",
      "203",
      "189",
      "172",
      "168",
      "153",
      "137",
      "136",
      "133",
      "116",
      "110",
      "109C",
      "083",
      "069",
      "060",
      "048",
      "036",
      "030",
      "023",
      "022",
      "015"
    ],
    "swim:geom": "path",
    "swim:speeds": [
      516,
      517,
      515,
      512,
      510,
      509,
      507,
      506,
      506,
      507,
      507,
      505,
      501,
      499,
      497,
      497,
      497,
      497,
      497,
      497,
      496,
      495,
      494,
      494,
      493,
      492,
      493,
      493,
      496,
      497,
      497,
      496,
      495,
      496,
      495,
      493,
      494,
      494,
      495,
      495,
      493,
      478,
      474,
      478,
      484,
      491,
      491,
      488,
      486,
      484,
      483,
      483,
      487,
      490,
      494,
      496,
      498,
      502,
      499,
      500,
      499,
      498,
      498,
      496,
      495,
      494,
      493,
      493,
      490,
      490,
      490,
      489,
      489,
      489,
      490,
      490,
      490,
      490,
      491,
      492,
      493,
      496,
      498,
      497,
      495,
      494,
      498,
      498,
      500,
      502,
      508,
      508,
      508,
      509,
      509,
      509,
      508,
      508,
      505,
      505,
      506,
      506,
      507,
      508,
      509,
      509,
      510,
      510,
      512,
      514,
      519,
      521,
      523,
      525,
      531,
      535,
      545,
      547,
      548,
      548,
      546,
      543,
      544,
      508,
      477,
      475,
      446,
      435,
      423,
      408,
      405,
      398,
      391,
      395,
      393,
      381,
      351,
      354,
      327,
      318,
      312,
      267,
      221,
      181,
      144,
      147,
      132
    ],
    "swim:timestamps": [
      1780735720,
      1780735738,
      1780735780,
      1780735900,
      1780735960,
      1780736038,
      1780736200,
      1780736260,
      1780736278,
      1780736518,
      1780736578,
      1780736758,
      1780736999,
      1780737059,
      1780737179,
      1780737239,
      1780737299,
      1780737359,
      1780737419,
      1780737479,
      1780737659,
      1780737719,
      1780737899,
      1780737959,
      1780738019,
      1780738139,
      1780738319,
      1780738379,
      1780738559,
      1780738619,
      1780738679,
      1780738739,
      1780738859,
      1780738979,
      1780739039,
      1780739237,
      1780739297,
      1780739399,
      1780739477,
      1780739519,
      1780739579,
      1780739717,
      1780739759,
      1780739837,
      1780739879,
      1780739939,
      1780739999,
      1780740197,
      1780740257,
      1780740317,
      1780740377,
      1780740437,
      1780740617,
      1780740677,
      1780740737,
      1780740797,
      1780740858,
      1780740978,
      1780741107,
      1780741158,
      1780741168,
      1780741218,
      1780741228,
      1780741288,
      1780741338,
      1780741348,
      1780741398,
      1780741408,
      1780741578,
      1780741648,
      1780741698,
      1780741768,
      1780741818,
      1780741888,
      1780741938,
      1780741948,
      1780741998,
      1780742008,
      1780742548,
      1780742728,
      1780742788,
      1780742908,
      1780742968,
      1780743089,
      1780743149,
      1780743269,
      1780743449,
      1780743509,
      1780743629,
      1780743689,
      1780743981,
      1780744041,
      1780744049,
      1780744101,
      1780744109,
      1780744229,
      1780744281,
      1780744289,
      1780744461,
      1780744469,
      1780744521,
      1780744529,
      1780744581,
      1780744641,
      1780744649,
      1780744702,
      1780744769,
      1780744822,
      1780744890,
      1780744950,
      1780745130,
      1780745190,
      1780745250,
      1780745310,
      1780745430,
      1780745544,
      1780745725,
      1780745785,
      1780745845,
      1780745965,
      1780746022,
      1780746310,
      1780746370,
      1780746490,
      1780746550,
      1780746565,
      1780746685,
      1780746745,
      1780746791,
      1780746851,
      1780746865,
      1780746911,
      1780746965,
      1780746971,
      1780746986,
      1780747046,
      1780747085,
      1780747091,
      1780747211,
      1780747256,
      1780747323,
      1780747443,
      1780747512,
      1780747563,
      1780747617,
      1780747632,
      1780747692
    ],
    "wof:geomhash": "d95b416ab9fb3c9a15ee7492b27944e6",
    "wof:id": 2031459841,
    "wof:repo": "sfomuseum-data-flights-2026-06"
  },
  "bbox": [
    -118.49388888888889,
    39.88638888888889,
    -83.2863888888889,
    43.651944444444446
  ],
  "geometry": {"coordinates":[[-118.49388888888889,39.88638888888889],[-118.42833333333334,39.910555555555554],[-118.32666666666667,39.94833333333333],[-117.99027777777778,40.07194444444445],[-117.82583333333334,40.13194444444444],[-117.59972222222221,40.21388888888889],[-117.16277777777778,40.37027777777778],[-116.99416666666667,40.43],[-116.92694444444444,40.45388888888889],[-116.27916666666667,40.67944444444444],[-116.1111111111111,40.73722222222222],[-115.60555555555555,40.90861111111111],[-114.93055555555556,41.13305555555556],[-114.75722222222223,41.189722222222215],[-114.41888888888889,41.299166666666665],[-114.24805555555555,41.35416666666667],[-114.08055555555555,41.4075],[-113.90972222222223,41.461666666666666],[-113.74111111111111,41.515],[-113.57027777777778,41.568333333333335],[-113.05972222222222,41.726111111111116],[-112.89083333333333,41.77777777777778],[-112.37638888888888,41.9325],[-112.20527777777778,41.983333333333334],[-112.03416666666666,42.03388888888889],[-111.69111111111111,42.134166666666665],[-111.17333333333333,42.283055555555556],[-111.00111111111111,42.331944444444446],[-110.4925,42.47416666666667],[-110.31805555555555,42.52222222222222],[-110.14111111111112,42.57027777777778],[-109.96222222222222,42.60611111111111],[-109.59694444444445,42.67027777777778],[-109.23138888888889,42.73361111111111],[-109.05083333333333,42.76444444444444],[-108.43916666666667,42.86638888888889],[-108.24888888888889,42.89722222222222],[-107.95583333333333,42.94444444444444],[-107.70027777777779,42.984722222222224],[-107.57666666666667,43.00416666666667],[-107.39166666666668,43.032777777777774],[-106.99444444444444,43.09305555555556],[-106.85194444444444,43.11416666666667],[-106.64,43.14555555555555],[-106.49388888888889,43.166666666666664],[-106.30888888888889,43.19361111111111],[-106.12666666666667,43.219722222222224],[-105.54277777777777,43.30083333333333],[-105.36027777777777,43.32555555555556],[-105.17750000000001,43.35],[-104.99805555555555,43.37361111111111],[-104.81472222222222,43.3975],[-104.2625,43.4675],[-104.0775,43.49055555555556],[-103.88611111111112,43.50111111111111],[-103.69694444444445,43.5025],[-103.50416666666666,43.50333333333333],[-103.11999999999999,43.50416666666667],[-102.71000000000001,43.50388888888889],[-102.54666666666667,43.50361111111111],[-102.515,43.50333333333333],[-102.35555555555555,43.5025],[-102.32555555555555,43.50222222222222],[-102.13722222222223,43.50111111111111],[-101.98777777777778,43.5],[-101.95138888888889,43.499722222222225],[-101.80083333333333,43.503055555555555],[-101.76222222222222,43.50388888888889],[-101.24,43.51083333333333],[-101.01555555555555,43.51305555555555],[-100.86833333333333,43.51416666666667],[-100.6438888888889,43.51555555555556],[-100.49361111111111,43.51638888888889],[-100.27277777777778,43.51722222222222],[-100.12333333333332,43.51888888888889],[-100.08583333333333,43.520833333333336],[-99.93444444444445,43.529444444444444],[-99.89916666666667,43.53138888888889],[-98.23111111111112,43.593611111111116],[-97.66833333333334,43.61],[-97.47833333333334,43.61472222222223],[-97.06361111111111,43.624722222222225],[-96.87194444444444,43.62888888888889],[-96.49555555555555,43.63583333333333],[-96.30638888888889,43.638888888888886],[-95.93027777777779,43.64388888888889],[-95.36194444444443,43.64944444444444],[-95.16944444444445,43.650555555555556],[-94.78777777777778,43.651944444444446],[-94.59527777777777,43.651944444444446],[-93.66888888888889,43.64861111111111],[-93.47527777777778,43.64694444444444],[-93.45861111111111,43.64666666666667],[-93.2775,43.64472222222222],[-93.22416666666666,43.64416666666666],[-92.84777777777778,43.638888888888886],[-92.69472222222223,43.63666666666666],[-92.65611111111112,43.63611111111111],[-92.11527777777778,43.62555555555556],[-92.07333333333332,43.624722222222225],[-91.91861111111112,43.62138888888889],[-91.88055555555555,43.62027777777778],[-91.7225,43.61666666666667],[-91.5286111111111,43.611666666666665],[-91.48694444444445,43.61027777777778],[-91.33083333333333,43.60611111111111],[-91.095,43.59916666666667],[-90.93861111111111,43.593333333333334],[-90.70222222222222,43.58361111111111],[-90.50611111111111,43.57555555555556],[-89.91833333333334,43.549166666666665],[-89.72,43.53944444444444],[-89.52027777777778,43.529444444444444],[-89.3175,43.51861111111111],[-88.91416666666667,43.49666666666667],[-88.54861111111111,43.47527777777778],[-87.91111111111111,43.43527777777778],[-87.70222222222222,43.42166666666667],[-87.4925,43.407222222222224],[-87.06194444444444,43.376666666666665],[-86.85666666666665,43.36138888888889],[-85.90555555555557,43.29888888888889],[-85.69805555555556,43.30027777777777],[-85.2961111111111,43.301944444444445],[-85.12388888888889,43.26111111111111],[-85.08944444444444,43.245555555555555],[-84.80083333333333,43.10805555555556],[-84.66527777777779,43.03861111111111],[-84.56277777777777,42.98694444444445],[-84.43388888888889,42.9225],[-84.40666666666667,42.90888888888889],[-84.29944444444445,42.85611111111111],[-84.18611111111112,42.8],[-84.17666666666668,42.79527777777778],[-84.16055555555556,42.78722222222222],[-84.04027777777777,42.727222222222224],[-83.94944444444445,42.68555555555555],[-83.93916666666667,42.68388888888889],[-83.7025,42.62166666666667],[-83.61444444444444,42.58888888888889],[-83.50055555555555,42.547777777777775],[-83.32194444444444,42.44638888888888],[-83.2863888888889,42.382222222222225],[-83.28916666666666,42.33361111111111],[-83.3125,42.29833333333333],[-83.31361111111111,42.2975],[-83.33694444444444,42.26555555555556]],"type":"LineString"}
}
