{
  "id": 2031538621,
  "type": "Feature",
  "properties": {
    "geom:area": 0,
    "geom:bbox": "-122.406380,37.633160,-121.265130,38.112590",
    "geom:latitude": 37.87499544458507,
    "geom:longitude": -121.84154189776339,
    "src:alt_label": "swim-takeoff",
    "src:geom": "swim",
    "swim:elevations": [
      367,
      496,
      655,
      728,
      1334,
      1511,
      1946,
      2122,
      2362,
      2487,
      2804,
      3013,
      3305,
      3385,
      3505,
      3580,
      3776,
      3888,
      4157,
      4418,
      4605,
      4967,
      5123,
      5471,
      5536,
      5708
    ],
    "swim:geom": "takeoff",
    "swim:timestamps": [
      1781425641,
      1781425658,
      1781425707,
      1781425727,
      1781425791,
      1781425810,
      1781425847,
      1781425862,
      1781425887,
      1781425900,
      1781425931,
      1781425953,
      1781426006,
      1781426024,
      1781426049,
      1781426063,
      1781426086,
      1781426102,
      1781426138,
      1781426170,
      1781426193,
      1781426247,
      1781426265,
      1781426308,
      1781426314,
      1781426341
    ],
    "wof:geomhash": "376106e3613a6afac089b273b6ea6aba",
    "wof:id": 2031538621,
    "wof:repo": "sfomuseum-data-flights-2026-06"
  },
  "bbox": [
    -122.40638,
    37.63316,
    -121.26513,
    38.11259
  ],
  "geometry": {"coordinates":[[-122.40289,37.63316],[-122.40638,37.64675],[-122.36171,37.66843],[-122.33572,37.67697],[-122.2446,37.70732],[-122.2164,37.71709],[-122.16521,37.73883],[-122.14374,37.74794],[-122.10775,37.76312],[-122.08834,37.77131],[-122.04259,37.79058],[-122.00932,37.8045],[-121.92473,37.83982],[-121.89401,37.85266],[-121.84968,37.87113],[-121.82304,37.88226],[-121.77915,37.90049],[-121.7491,37.913],[-121.67855,37.94227],[-121.61547,37.96846],[-121.57042,37.98705],[-121.45967,38.03282],[-121.42251,38.04806],[-121.33372,38.08449],[-121.32132,38.0896],[-121.26513,38.11259]],"type":"LineString"}
}
