{
  "id": 2031549643,
  "type": "Feature",
  "properties": {
    "geom:area": 0,
    "geom:bbox": "-122.380000,37.620000,-70.930000,42.890000",
    "geom:latitude": 40.60579516686898,
    "geom:longitude": -96.43176039190462,
    "src:alt_label": "swim-route",
    "src:geom": "swim",
    "swim:geom": "route",
    "wof:geomhash": "7a6e73f9d64a7b9e9bed52874e886324",
    "wof:id": 2031549643,
    "wof:repo": "sfomuseum-data-flights-2026-06"
  },
  "bbox": [
    -122.38,
    37.62,
    -70.93,
    42.89
  ],
  "geometry": {"coordinates":[[-122.38,37.62],[-122.27,37.69],[-122.22,37.72],[-122.21,37.72],[-122.16,37.75],[-122.12,37.76],[-122.09,37.78],[-122.02,37.82],[-122.01,37.82],[-122,37.83],[-121.94,37.84],[-121.73,37.88],[-121.7,37.88],[-121.59,37.9],[-121.46,37.93],[-121.41,37.94],[-121.34,37.95],[-121.17,37.98],[-121.16,37.98],[-121.1,37.99],[-120.89,38.02],[-120.7,38.05],[-120.66,38.06],[-120.54,38.08],[-120.12,38.14],[-119.96,38.16],[-119.8,38.19],[-119.65,38.21],[-119.32,38.26],[-119.18,38.27],[-118.96,38.3],[-118.68,38.34],[-118.22,38.4],[-117.29,38.52],[-117.28,38.52],[-116,38.5],[-114.43,38.71],[-113.49,38.83],[-112.5,38.95],[-112,39],[-111.74,39.05],[-111.62,39.07],[-111.03,39.18],[-110.09,39.34],[-109.97,39.37],[-108.27,39.59],[-107.22,39.71],[-106.53,39.79],[-106.25,39.81],[-105.22,39.89],[-105.1,39.92],[-104.57,39.95],[-103.18,40.17],[-99.05,40.71],[-98.68,40.75],[-95.87,41.02],[-94.42,41.14],[-94.05,41.16],[-93.79,41.18],[-93.59,41.19],[-91.03,41.33],[-89.76,41.37],[-89.26,41.39],[-87,41.43],[-86.17,41.43],[-84.73,41.42],[-82.74,41.38],[-82.16,41.36],[-81.86,41.45],[-80.95,41.7],[-80.58,41.8],[-79.86,42],[-79.61,42.06],[-79.12,42.19],[-78.95,42.27],[-78.74,42.37],[-78.53,42.47],[-78.11,42.66],[-77.73,42.83],[-77.15,42.89],[-76.68,42.79],[-75.73,42.57],[-75.14,42.63],[-74.56,42.68],[-74.12,42.72],[-73.81,42.75],[-73.51,42.74],[-73.11,42.74],[-72.94,42.72],[-72.63,42.68],[-72.38,42.65],[-72.32,42.65],[-72.16,42.63],[-72.04,42.61],[-71.84,42.59],[-71.82,42.59],[-71.72,42.57],[-71.71,42.57],[-71.61,42.55],[-71.59,42.55],[-71.37,42.5],[-71.35,42.5],[-71.25,42.48],[-71.16,42.46],[-71.16,42.46],[-71.06,42.45],[-71.03,42.45],[-70.99,42.39],[-70.96,42.35],[-70.95,42.34],[-70.93,42.31],[-70.95,42.27],[-70.97,42.24],[-70.98,42.21],[-70.99,42.18],[-70.99,42.2],[-71,42.28],[-71.01,42.35],[-71.01,42.36]],"type":"LineString"}
}
