{
  "id": 2031558659,
  "type": "Feature",
  "properties": {
    "geom:area": 0,
    "geom:bbox": "-122.402380,37.630990,-121.246800,38.424430",
    "geom:latitude": 38.024400328188825,
    "geom:longitude": -121.82617912187837,
    "src:alt_label": "swim-takeoff",
    "src:geom": "swim",
    "swim:elevations": [
      371,
      520,
      973,
      1064,
      1160,
      1892,
      2800,
      3074,
      3248,
      3443,
      3510,
      4073,
      4456,
      4692,
      4963,
      5313,
      5763,
      5978,
      6272,
      6522,
      6620,
      7076,
      7185,
      7334,
      7714,
      7717
    ],
    "swim:geom": "takeoff",
    "swim:timestamps": [
      1781605467,
      1781605481,
      1781605526,
      1781605543,
      1781605560,
      1781605640,
      1781605706,
      1781605732,
      1781605755,
      1781605791,
      1781605803,
      1781605853,
      1781605888,
      1781605909,
      1781605933,
      1781605952,
      1781606007,
      1781606031,
      1781606068,
      1781606097,
      1781606107,
      1781606156,
      1781606174,
      1781606195,
      1781606248,
      1781606252
    ],
    "wof:geomhash": "c57419721e4a2bb15ab73d564ff70390",
    "wof:id": 2031558659,
    "wof:repo": "sfomuseum-data-flights-2026-06"
  },
  "bbox": [
    -122.40238,
    37.63099,
    -121.2468,
    38.42443
  ],
  "geometry": {"coordinates":[[-122.3993,37.63099],[-122.40238,37.6409],[-122.36768,37.66144],[-122.35146,37.66657],[-122.33245,37.67309],[-122.23625,37.72636],[-122.15673,37.78428],[-122.1248,37.80737],[-122.09515,37.82902],[-122.04286,37.86657],[-122.02411,37.88018],[-121.94523,37.93739],[-121.88814,37.97859],[-121.85373,38.00378],[-121.81343,38.03319],[-121.7827,38.05561],[-121.69178,38.12103],[-121.6515,38.14996],[-121.58769,38.19562],[-121.53655,38.23215],[-121.51741,38.24583],[-121.4301,38.30804],[-121.39762,38.33106],[-121.35919,38.35564],[-121.25506,38.41986],[-121.2468,38.42443]],"type":"LineString"}
}
