{
  "id": 2031438167,
  "type": "Feature",
  "properties": {
    "geom:area": 0,
    "geom:bbox": "-122.380000,37.490000,-70.800000,43.090000",
    "geom:latitude": 41.3786727660596,
    "geom:longitude": -96.76066777320224,
    "src:alt_label": "swim-route",
    "src:geom": "swim",
    "swim:geom": "route",
    "wof:geomhash": "de8c5f84b82553ceb8d11aa217891f01",
    "wof:id": 2031438167,
    "wof:repo": "sfomuseum-data-flights-2026-06"
  },
  "bbox": [
    -122.38,
    37.49,
    -70.8,
    43.09
  ],
  "geometry": {"coordinates":[[-71.01,42.36],[-70.98,42.41],[-70.98,42.42],[-70.97,42.44],[-70.96,42.44],[-70.95,42.44],[-70.93,42.45],[-70.92,42.45],[-70.86,42.46],[-70.85,42.46],[-70.85,42.46],[-70.8,42.51],[-70.81,42.55],[-70.83,42.58],[-71.41,42.68],[-71.41,42.68],[-71.43,42.69],[-71.62,42.72],[-71.63,42.72],[-71.63,42.72],[-71.84,42.76],[-71.86,42.76],[-71.89,42.77],[-71.98,42.78],[-72.15,42.8],[-72.24,42.81],[-72.54,42.84],[-72.79,42.87],[-72.92,42.88],[-72.98,42.89],[-73.26,42.91],[-73.44,42.92],[-73.61,42.94],[-73.95,42.96],[-74.13,42.97],[-74.49,42.99],[-74.52,42.99],[-76.69,43.09],[-76.76,43.09],[-77.87,43.04],[-79.05,42.98],[-79.32,42.96],[-79.95,42.94],[-80.86,42.89],[-82.06,42.84],[-82.18,42.83],[-82.7,42.83],[-84.73,42.82],[-85,42.82],[-86.78,42.77],[-87,42.77],[-87.57,42.74],[-88.99,42.68],[-89.8,42.64],[-90.21,42.61],[-90.62,42.58],[-93.15,42.38],[-93.17,42.38],[-93.46,42.36],[-93.7,42.34],[-94.47,42.29],[-95.35,42.21],[-96.33,42.13],[-96.34,42.13],[-96.74,42.16],[-96.83,42.19],[-97.24,42.48],[-97.74,42.27],[-98.48,42.1],[-99.04,42.02],[-99.23,42],[-99.33,41.95],[-99.5,41.88],[-100.06,41.83],[-100.71,41.74],[-101,41.7],[-101.92,41.69],[-101.97,41.68],[-102.96,41.66],[-103.23,41.73],[-103.43,41.77],[-103.89,41.82],[-104.3,41.76],[-104.55,41.79],[-104.6,41.77],[-104.77,41.64],[-105.27,41.51],[-106.41,41.2],[-108.05,40.73],[-109.14,40.4],[-109.56,40.27],[-109.66,40.07],[-110.07,39.96],[-111.73,39.52],[-112.51,39.3],[-113.32,39.12],[-113.85,39],[-114.08,38.95],[-117.28,38.25],[-117.39,38.03],[-118.76,37.9],[-119.1,37.86],[-119.61,37.8],[-119.72,37.78],[-119.82,37.77],[-119.92,37.76],[-120.02,37.75],[-120.31,37.71],[-120.4,37.7],[-120.4,37.7],[-120.57,37.68],[-120.69,37.67],[-120.75,37.66],[-120.79,37.65],[-120.8,37.65],[-120.96,37.63],[-121,37.63],[-121.01,37.63],[-121.07,37.62],[-121.17,37.61],[-121.26,37.59],[-121.39,37.58],[-121.41,37.58],[-121.6,37.55],[-121.61,37.55],[-121.62,37.55],[-121.72,37.53],[-121.8,37.51],[-121.83,37.59],[-121.85,37.65],[-121.86,37.66],[-121.86,37.65],[-121.87,37.61],[-121.88,37.49],[-121.89,37.49],[-122.01,37.53],[-122.08,37.54],[-122.18,37.57],[-122.18,37.57],[-122.28,37.59],[-122.33,37.61],[-122.36,37.61],[-122.38,37.62]],"type":"LineString"}
}
