{
  "id": 2031452095,
  "type": "Feature",
  "properties": {
    "geom:area": 0,
    "geom:bbox": "-172.040000,1.360000,180.000000,38.020000",
    "geom:latitude": 30.458030217888492,
    "geom:longitude": 11.774612288459736,
    "src:alt_label": "swim-route",
    "src:geom": "swim",
    "swim:geom": "route",
    "wof:geomhash": "b25407e0a882524a29623c4bd1f83e85",
    "wof:id": 2031452095,
    "wof:repo": "sfomuseum-data-flights-2026-06"
  },
  "bbox": [
    -172.04,
    1.36,
    180,
    38.02
  ],
  "geometry": {"coordinates":[[[-122.38,37.62],[-122.5,37.67],[-122.5,37.67],[-122.5,37.67],[-122.61,37.68],[-122.61,37.68],[-122.66,37.68],[-122.74,37.69],[-122.75,37.69],[-122.86,37.7],[-122.88,37.7],[-123,37.7],[-123.09,37.71],[-123.53,37.73],[-123.54,37.73],[-123.8,37.75],[-124.01,37.76],[-124.12,37.76],[-124.32,37.77],[-124.4,37.78],[-124.57,37.78],[-124.76,37.79],[-124.94,37.8],[-125.47,37.82],[-125.83,37.83],[-125.88,37.84],[-126.09,37.85],[-127,37.89],[-127.95,37.93],[-131.98,38.02],[-135,38],[-140,38],[-147.53,37.33],[-150,37],[-156.03,36.5],[-160,36],[-163.36,35.43],[-170,34],[-172.04,33.66]],[[180,32],[176.27,30.63],[172.65,29.16],[170,28],[165.74,26.42],[160,24],[150,20],[149.22,19.71],[144.59,17.92],[143.92,17.65],[142.53,17.08],[142.49,17.06],[141.24,16.53],[140,16],[130,11],[125.49,8.96],[122.06,6.92],[121.65,6.82],[121,6.66],[120.39,6.5],[118.54,6.03],[118.07,5.91],[114.88,4.88],[106.55,2.2],[106.16,2.07],[105.92,1.99],[105.84,1.96],[105.79,1.95],[105.59,1.88],[105.3,1.79],[105.05,1.71],[104.75,1.61],[104.59,1.56],[104.39,1.49],[104.35,1.47],[104.23,1.44],[104.15,1.41],[104.07,1.38],[103.99,1.36]]],"type":"MultiLineString"}
}
