{
  "id": 2031510445,
  "type": "Feature",
  "properties": {
    "geom:area": 0,
    "geom:bbox": "-122.359730,36.727550,-121.882180,37.612280",
    "geom:latitude": 37.21491576120304,
    "geom:longitude": -122.07131669448677,
    "src:alt_label": "swim-approach",
    "src:geom": "swim",
    "swim:elevations": [
      5827,
      5191,
      5001,
      4666,
      4601,
      4410,
      4085,
      3627,
      3394,
      3189,
      3083,
      2950,
      2729,
      2594,
      2358,
      2204,
      2084,
      1887,
      1614,
      1458,
      1279,
      1097,
      996,
      770,
      675,
      449,
      364,
      240,
      149,
      0
    ],
    "swim:geom": "approach",
    "swim:timestamps": [
      1781183434,
      1781183488,
      1781183506,
      1781183540,
      1781183547,
      1781183566,
      1781183597,
      1781183636,
      1781183658,
      1781183679,
      1781183713,
      1781183743,
      1781183775,
      1781183790,
      1781183824,
      1781183846,
      1781183863,
      1781183890,
      1781183933,
      1781183957,
      1781183986,
      1781184022,
      1781184042,
      1781184074,
      1781184092,
      1781184138,
      1781184163,
      1781184197,
      1781184216,
      1781184259
    ],
    "wof:geomhash": "5f394f7fec34ccfaaaeda2a4387c6838",
    "wof:id": 2031510445,
    "wof:repo": "sfomuseum-data-flights-2026-06"
  },
  "bbox": [
    -122.35973,
    36.72755,
    -121.88218,
    37.61228
  ],
  "geometry": {"coordinates":[[-121.88218,36.72755],[-121.9141,36.81273],[-121.92207,36.84138],[-121.93707,36.89581],[-121.9402,36.90671],[-121.94841,36.93589],[-121.96497,36.9824],[-121.98728,37.04035],[-122.00026,37.07368],[-122.01245,37.10445],[-122.03112,37.15159],[-122.04635,37.19043],[-122.06157,37.23012],[-122.06921,37.24921],[-122.0852,37.28983],[-122.09512,37.31524],[-122.10289,37.33497],[-122.1151,37.36596],[-122.13283,37.4151],[-122.14144,37.44074],[-122.15173,37.471],[-122.16376,37.50697],[-122.17033,37.52544],[-122.20018,37.54521],[-122.2196,37.55333],[-122.26517,37.57256],[-122.28608,37.5814],[-122.31246,37.59248],[-122.32648,37.59838],[-122.35973,37.61228]],"type":"LineString"}
}
