{
  "id": 2031505953,
  "type": "Feature",
  "properties": {
    "geom:area": 0,
    "geom:bbox": "-122.388611,37.616667,-111.985000,40.768333",
    "geom:latitude": 39.89093162885436,
    "geom:longitude": -117.2616330027352,
    "src:alt_label": "swim-path",
    "src:geom": "swim",
    "swim:altitudes": [
      "007",
      "008",
      "033",
      "033",
      "050",
      "075",
      "075",
      "075",
      "075",
      "122",
      "122",
      "145",
      "145",
      "145",
      "170",
      "170",
      "227",
      "243",
      "243",
      "259",
      "259",
      "291",
      "291",
      "307",
      "307",
      "326",
      "326",
      "336",
      "336",
      "336",
      "342",
      "342",
      "350C",
      "350C",
      "350C",
      "350C",
      "350C",
      "350C",
      "350C",
      "350C",
      "350C",
      "350C",
      "350C",
      "350C",
      "350C",
      "350C",
      "350C",
      "350C",
      "350C",
      "350C",
      "350C",
      "350C",
      "350C",
      "349C",
      "349C",
      "350C",
      "350C",
      "350C",
      "350C",
      "350C",
      "349C",
      "350C",
      "350C",
      "350C",
      "350C",
      "350C",
      "350C",
      "350C",
      "350C",
      "350C",
      "350C",
      "350C",
      "350C",
      "350C",
      "350C",
      "350C",
      "350C",
      "350C",
      "350C",
      "350C",
      "350C",
      "350C",
      "350C",
      "350C",
      "350C",
      "350C",
      "350C",
      "350C",
      "350C",
      "350C",
      "350C",
      "350C",
      "350C",
      "351C",
      "349C",
      "350C",
      "350C",
      "350C",
      "349C",
      "349C",
      "349C",
      "321",
      "321",
      "321",
      "254",
      "254",
      "254",
      "254",
      "199",
      "199",
      "199",
      "199",
      "192",
      "192",
      "170C",
      "170C",
      "155",
      "155",
      "152",
      "152",
      "138",
      "138",
      "134",
      "122",
      "122",
      "120",
      "120",
      "120",
      "120",
      "113",
      "113",
      "113",
      "113",
      "110",
      "099",
      "099",
      "079",
      "079",
      "079",
      "079",
      "079",
      "063",
      "063",
      "063",
      "060",
      "060",
      "050",
      "050"
    ],
    "swim:geom": "path",
    "swim:speeds": [
      136,
      134,
      162,
      162,
      219,
      271,
      271,
      271,
      271,
      335,
      335,
      355,
      355,
      355,
      364,
      364,
      416,
      431,
      431,
      447,
      447,
      460,
      460,
      469,
      469,
      468,
      468,
      463,
      463,
      463,
      463,
      463,
      464,
      477,
      477,
      481,
      481,
      481,
      479,
      479,
      479,
      479,
      481,
      481,
      480,
      480,
      481,
      481,
      479,
      479,
      479,
      479,
      479,
      478,
      478,
      483,
      483,
      483,
      485,
      485,
      485,
      485,
      485,
      485,
      491,
      491,
      491,
      494,
      494,
      496,
      496,
      496,
      496,
      496,
      496,
      497,
      497,
      497,
      497,
      498,
      498,
      498,
      503,
      503,
      503,
      503,
      505,
      506,
      506,
      514,
      514,
      514,
      514,
      514,
      515,
      514,
      514,
      514,
      517,
      517,
      517,
      519,
      519,
      519,
      480,
      480,
      480,
      480,
      454,
      454,
      454,
      454,
      446,
      446,
      385,
      385,
      362,
      362,
      359,
      359,
      343,
      343,
      344,
      339,
      339,
      335,
      332,
      332,
      286,
      277,
      277,
      277,
      277,
      263,
      234,
      234,
      219,
      219,
      219,
      199,
      199,
      172,
      172,
      172,
      175,
      175,
      134,
      134
    ],
    "swim:timestamps": [
      1781138786,
      1781138802,
      1781138874,
      1781138874,
      1781138934,
      1781138994,
      1781138994,
      1781138994,
      1781138994,
      1781139114,
      1781139114,
      1781139174,
      1781139174,
      1781139174,
      1781139234,
      1781139234,
      1781139414,
      1781139475,
      1781139475,
      1781139535,
      1781139535,
      1781139655,
      1781139655,
      1781139715,
      1781139715,
      1781139775,
      1781139775,
      1781139876,
      1781139876,
      1781139876,
      1781139895,
      1781139895,
      1781139955,
      1781140015,
      1781140057,
      1781140117,
      1781140117,
      1781140117,
      1781140255,
      1781140255,
      1781140255,
      1781140255,
      1781140357,
      1781140357,
      1781140477,
      1781140477,
      1781140537,
      1781140537,
      1781140556,
      1781140556,
      1781140597,
      1781140597,
      1781140597,
      1781140676,
      1781140676,
      1781140736,
      1781140736,
      1781140736,
      1781140838,
      1781140838,
      1781140856,
      1781140898,
      1781140898,
      1781140916,
      1781141018,
      1781141018,
      1781141018,
      1781141096,
      1781141096,
      1781141198,
      1781141198,
      1781141217,
      1781141217,
      1781141337,
      1781141337,
      1781141378,
      1781141378,
      1781141378,
      1781141397,
      1781141439,
      1781141439,
      1781141517,
      1781141559,
      1781141559,
      1781141559,
      1781141559,
      1781141619,
      1781141679,
      1781141679,
      1781141859,
      1781141859,
      1781141859,
      1781141859,
      1781141919,
      1781141979,
      1781142039,
      1781142039,
      1781142039,
      1781142099,
      1781142099,
      1781142099,
      1781142220,
      1781142220,
      1781142220,
      1781142400,
      1781142400,
      1781142400,
      1781142400,
      1781142580,
      1781142580,
      1781142580,
      1781142580,
      1781142597,
      1781142597,
      1781142700,
      1781142700,
      1781142802,
      1781142802,
      1781142820,
      1781142820,
      1781142862,
      1781142862,
      1781142880,
      1781142916,
      1781142916,
      1781142970,
      1781143001,
      1781143001,
      1781143030,
      1781143090,
      1781143090,
      1781143090,
      1781143090,
      1781143145,
      1781143205,
      1781143205,
      1781143325,
      1781143325,
      1781143325,
      1781143337,
      1781143337,
      1781143457,
      1781143457,
      1781143457,
      1781143505,
      1781143505,
      1781143577,
      1781143577
    ],
    "wof:geomhash": "6cc9ca631d8f7954a77794f74c499018",
    "wof:id": 2031505953,
    "wof:repo": "sfomuseum-data-flights-2026-06"
  },
  "bbox": [
    -122.38861111111112,
    37.61666666666667,
    -111.985,
    40.76833333333333
  ],
  "geometry": {"coordinates":[[-122.38333333333334,37.61666666666667],[-122.38861111111112,37.62444444444444],[-122.36333333333333,37.65888888888889],[-122.36333333333333,37.65888888888889],[-122.30138888888888,37.683055555555555],[-122.22027777777778,37.71638888888889],[-122.22027777777778,37.71638888888889],[-122.22027777777778,37.71638888888889],[-122.22027777777778,37.71638888888889],[-122.07333333333332,37.83222222222223],[-122.07333333333332,37.83222222222223],[-121.98194444444445,37.89972222222222],[-121.98194444444445,37.89972222222222],[-121.98194444444445,37.89972222222222],[-121.88694444444445,37.97027777777778],[-121.88694444444445,37.97027777777778],[-121.56555555555555,38.20722222222223],[-121.4538888888889,38.28916666666667],[-121.4538888888889,38.28916666666667],[-121.33555555555554,38.36972222222222],[-121.33555555555554,38.36972222222222],[-121.08833333333332,38.522777777777776],[-121.08833333333332,38.522777777777776],[-120.95722222222223,38.60333333333333],[-120.95722222222223,38.60333333333333],[-120.8275,38.68277777777777],[-120.8275,38.68277777777777],[-120.62027777777777,38.8075],[-120.62027777777777,38.8075],[-120.62027777777777,38.8075],[-120.57055555555556,38.83916666666667],[-120.57055555555556,38.83916666666667],[-120.44027777777778,38.918055555555554],[-120.30444444444444,39],[-120.22111111111111,39.04861111111111],[-120.08472222222221,39.12972222222222],[-120.08472222222221,39.12972222222222],[-120.08472222222221,39.12972222222222],[-119.7575,39.325833333333335],[-119.7575,39.325833333333335],[-119.7575,39.325833333333335],[-119.7575,39.325833333333335],[-119.5375,39.45472222222222],[-119.5375,39.45472222222222],[-119.26083333333334,39.61638888888889],[-119.26083333333334,39.61638888888889],[-119.12166666666666,39.698055555555555],[-119.12166666666666,39.698055555555555],[-119.06555555555555,39.730555555555554],[-119.06555555555555,39.730555555555554],[-118.98277777777778,39.77833333333333],[-118.98277777777778,39.77833333333333],[-118.98277777777778,39.77833333333333],[-118.78444444444445,39.888888888888886],[-118.78444444444445,39.888888888888886],[-118.62805555555555,39.953611111111115],[-118.62805555555555,39.953611111111115],[-118.62805555555555,39.953611111111115],[-118.37972222222221,40.05444444444444],[-118.37972222222221,40.05444444444444],[-118.31694444444445,40.07972222222222],[-118.22722222222222,40.115833333333335],[-118.22722222222222,40.115833333333335],[-118.16055555555556,40.1425],[-117.90527777777778,40.226111111111116],[-117.90527777777778,40.226111111111116],[-117.90527777777778,40.226111111111116],[-117.66277777777778,40.282777777777774],[-117.66277777777778,40.282777777777774],[-117.3875,40.34583333333334],[-117.3875,40.34583333333334],[-117.31638888888888,40.36222222222222],[-117.31638888888888,40.36222222222222],[-116.96666666666667,40.441111111111105],[-116.96666666666667,40.441111111111105],[-116.85722222222222,40.46555555555556],[-116.85722222222222,40.46555555555556],[-116.85722222222222,40.46555555555556],[-116.78999999999999,40.480555555555554],[-116.67694444444444,40.505833333333335],[-116.67694444444444,40.505833333333335],[-116.46527777777779,40.552499999999995],[-116.32277777777777,40.57416666666667],[-116.32277777777777,40.57416666666667],[-116.32277777777777,40.57416666666667],[-116.32277777777777,40.57416666666667],[-116.1413888888889,40.59138888888889],[-115.9575,40.608333333333334],[-115.9575,40.608333333333334],[-115.39750000000001,40.65888888888889],[-115.39750000000001,40.65888888888889],[-115.39750000000001,40.65888888888889],[-115.39750000000001,40.65888888888889],[-115.21222222222222,40.67472222222222],[-115.02444444444444,40.69083333333333],[-114.83944444444444,40.703611111111115],[-114.83944444444444,40.703611111111115],[-114.83944444444444,40.703611111111115],[-114.64,40.708333333333336],[-114.64,40.708333333333336],[-114.64,40.708333333333336],[-114.26,40.71666666666667],[-114.26,40.71666666666667],[-114.26,40.71666666666667],[-113.71666666666667,40.72666666666667],[-113.71666666666667,40.72666666666667],[-113.71666666666667,40.72666666666667],[-113.71666666666667,40.72666666666667],[-113.20972222222223,40.725],[-113.20972222222223,40.725],[-113.20972222222223,40.725],[-113.20972222222223,40.725],[-113.15194444444445,40.731944444444444],[-113.15194444444445,40.731944444444444],[-112.9075,40.723055555555554],[-112.9075,40.723055555555554],[-112.6713888888889,40.72527777777778],[-112.6713888888889,40.72527777777778],[-112.64111111111112,40.720555555555556],[-112.64111111111112,40.720555555555556],[-112.545,40.72277777777778],[-112.545,40.72277777777778],[-112.51638888888888,40.721944444444446],[-112.43527777777778,40.738055555555555],[-112.43527777777778,40.738055555555555],[-112.325,40.75555555555555],[-112.2761111111111,40.76083333333333],[-112.2761111111111,40.76083333333333],[-112.21305555555556,40.76833333333333],[-112.11749999999999,40.749722222222225],[-112.11749999999999,40.749722222222225],[-112.11749999999999,40.749722222222225],[-112.11749999999999,40.749722222222225],[-112.08805555555556,40.713055555555556],[-112.07833333333333,40.63333333333333],[-112.07833333333333,40.63333333333333],[-111.99944444444445,40.54722222222222],[-111.99944444444445,40.54722222222222],[-111.99944444444445,40.54722222222222],[-111.99444444444444,40.55333333333333],[-111.99444444444444,40.55333333333333],[-111.98555555555555,40.655],[-111.98555555555555,40.655],[-111.98555555555555,40.655],[-111.985,40.687777777777775],[-111.985,40.687777777777775],[-111.99388888888889,40.73833333333334],[-111.99388888888889,40.73833333333334]],"type":"LineString"}
}
