{
  "id": 2031490389,
  "type": "Feature",
  "properties": {
    "geom:area": 0,
    "geom:bbox": "-156.090000,19.740000,-122.280000,37.620000",
    "geom:latitude": 29.971509283321865,
    "geom:longitude": -140.0368412870163,
    "src:alt_label": "swim-route",
    "src:geom": "swim",
    "swim:geom": "route",
    "wof:geomhash": "2ec94a7efb963445145db9b8480f6b5b",
    "wof:id": 2031490389,
    "wof:repo": "sfomuseum-data-flights-2026-06"
  },
  "bbox": [
    -156.09,
    19.74,
    -122.28,
    37.62
  ],
  "geometry": {"coordinates":[[-156.05,19.74],[-156.09,19.81],[-156.08,19.83],[-156.04,19.89],[-156.02,19.92],[-155.99,19.96],[-155.98,19.97],[-155.94,20.04],[-155.91,20.1],[-155.84,20.2],[-155.82,20.25],[-155.76,20.4],[-155.69,20.58],[-155.62,20.74],[-155.61,20.76],[-155.56,20.89],[-155.55,20.91],[-155.52,20.98],[-155.46,21.11],[-155.39,21.28],[-154.95,21.75],[-154.86,21.87],[-154.77,21.99],[-154.2,22.72],[-153.88,23.12],[-153.43,23.68],[-153.36,23.73],[-153.33,23.75],[-153.3,23.76],[-152.57,24.27],[-142.02,29.82],[-140.7,30.41],[-138.97,31.16],[-138.1,31.53],[-135.13,32.71],[-133.62,33.28],[-132.71,33.61],[-131.78,33.94],[-128.97,34.87],[-127.54,35.31],[-126.09,35.73],[-126.07,35.74],[-124.76,36.18],[-124.33,36.46],[-124.12,36.59],[-124.07,36.62],[-123.9,36.72],[-123.89,36.73],[-123.81,36.78],[-123.57,36.93],[-123.49,36.98],[-123.45,37],[-123.13,37.19],[-122.96,37.24],[-122.86,37.26],[-122.84,37.26],[-122.84,37.26],[-122.76,37.28],[-122.67,37.3],[-122.66,37.3],[-122.54,37.33],[-122.5,37.34],[-122.3,37.39],[-122.28,37.39],[-122.3,37.43],[-122.31,37.46],[-122.34,37.54],[-122.37,37.6],[-122.37,37.61],[-122.38,37.62]],"type":"LineString"}
}
