{
  "id": 2031519597,
  "type": "Feature",
  "properties": {
    "date:cessation_lower": "2026-06-12",
    "date:cessation_upper": "2026-06-12",
    "date:inception_lower": "2026-06-12",
    "date:inception_upper": "2026-06-12",
    "edtf:cessation": "2026-06-12T12:47:52-07:00",
    "edtf:inception": "2026-06-12T21:52:00Z",
    "flysfo:actual_timestamp": -1,
    "flysfo:airline": "UA",
    "flysfo:base_airline": "",
    "flysfo:base_flight_number": "9046",
    "flysfo:date": "2026-06-12",
    "flysfo:estimated_timestamp": 1781319240,
    "flysfo:event": "A",
    "flysfo:flight_number": "UA234",
    "flysfo:gate": "D6",
    "flysfo:journey": "CLE-SFO",
    "flysfo:scheduled_timestamp": 1781319300,
    "flysfo:timestamp": 1781319300,
    "geom:area": 0,
    "geom:bbox": "-122.370943,37.617990,-81.835629,41.406844",
    "geom:latitude": 39.512417,
    "geom:longitude": -102.103286,
    "iata:airline": "UA",
    "iata:base_airline": "",
    "icao:aircraft": "B738",
    "icao:airline": "UAL",
    "icao:base_airline": "ANZ",
    "lbl:latitude": 37.616838,
    "lbl:longitude": -122.380969,
    "sfomuseum:aircraft_id": 1159289871,
    "sfomuseum:airline_id": 1159285413,
    "sfomuseum:arrival_id": 102527513,
    "sfomuseum:base_flight_id": "20260612-A-ANZ-9046",
    "sfomuseum:departure_id": 102534019,
    "sfomuseum:flight_id": "20260612-A-UAL-234",
    "sfomuseum:flight_number": [
      "UAL234",
      "UA234"
    ],
    "sfomuseum:placetype": "flight",
    "src:geom": "flysfo",
    "src:geom_alt": [
      "swim-route",
      "swim-path",
      "swim-approach"
    ],
    "swim:tail_number": "N12218",
    "wof:belongsto": [
      1947304067,
      102527513,
      1947304595,
      102191575,
      85633793,
      102087579,
      85922583,
      554784711,
      85688637,
      1947304621,
      1947304591,
      102085387
    ],
    "wof:concordances": {
      "swim:flight_ref": "149105393",
      "swim:gufi": "KC750486Cc"
    },
    "wof:country": "US",
    "wof:created": 1781366918,
    "wof:geomhash": "b9e617aa80dabb56896871b70acf102e",
    "wof:hierarchy": [
      {
        "building_id": 1947304067,
        "campus_id": 102527513,
        "concourse_id": 1947304595,
        "continent_id": 102191575,
        "country_id": 85633793,
        "county_id": 102087579,
        "custom_id": 2031519597,
        "flight_id": 2031519597,
        "locality_id": 85922583,
        "postalcode_id": 554784711,
        "region_id": 85688637,
        "venue_id": 1947304621,
        "wing_id": 1947304591
      },
      {
        "building_id": 1947304067,
        "campus_id": 102527513,
        "concourse_id": 1947304595,
        "continent_id": 102191575,
        "country_id": 85633793,
        "county_id": 102085387,
        "custom_id": 2031519597,
        "flight_id": 2031519597,
        "region_id": 85688637,
        "venue_id": 1947304621,
        "wing_id": 1947304591
      }
    ],
    "wof:id": 2031519597,
    "wof:involves": [
      1159289871,
      102527513,
      102534019,
      1159285413,
      1947304621,
      1159283697
    ],
    "wof:lastmodified": 1781367575,
    "wof:name": "UA234 (CLE-SFO)",
    "wof:parent_id": 1947304621,
    "wof:placetype": "custom",
    "wof:placetype_alt": [
      "flight"
    ],
    "wof:repo": "sfomuseum-data-flights-2026-06",
    "wof:superseded_by": [],
    "wof:supersedes": []
  },
  "bbox": [
    -122.370943,
    37.61799,
    -81.835629,
    41.406844
  ],
  "geometry": {"coordinates":[[-81.835629,41.406844],[-122.370943,37.61799]],"type":"MultiPoint"}
}
