{
  "id": 2031510839,
  "type": "Feature",
  "properties": {
    "geom:area": 0,
    "geom:bbox": "-127.361667,38.033333,-122.850000,40.925278",
    "geom:latitude": 39.524284485575244,
    "geom:longitude": -125.07657537916937,
    "src:alt_label": "swim-path",
    "src:geom": "swim",
    "swim:altitudes": [
      "360C",
      "360C",
      "360C",
      "360C",
      "360C",
      "360C",
      "360C",
      "360C",
      "360",
      "360",
      "360",
      "360",
      "348",
      "329",
      "308",
      "269",
      "231",
      "212",
      "193",
      "166"
    ],
    "swim:geom": "path",
    "swim:speeds": [
      521,
      527,
      527,
      527,
      527,
      525,
      521,
      519,
      518,
      515,
      512,
      511,
      513,
      519,
      508,
      477,
      452,
      440,
      429,
      409
    ],
    "swim:timestamps": [
      1781273507,
      1781273928,
      1781274048,
      1781274108,
      1781274168,
      1781274288,
      1781274408,
      1781274468,
      1781274528,
      1781274648,
      1781274769,
      1781274829,
      1781274889,
      1781274949,
      1781275009,
      1781275129,
      1781275249,
      1781275309,
      1781275369,
      1781275446
    ],
    "wof:geomhash": "50fbda7a5c1de0ff2bb9b138e09e9dda",
    "wof:id": 2031510839,
    "wof:repo": "sfomuseum-data-flights-2026-06"
  },
  "bbox": [
    -127.36166666666666,
    38.03333333333333,
    -122.85,
    40.92527777777777
  ],
  "geometry": {"coordinates":[[-127.36166666666666,40.92527777777777],[-126.32722222222222,40.288333333333334],[-126.01888888888888,40.117777777777775],[-125.86416666666666,40.031666666666666],[-125.70972222222223,39.94555555555555],[-125.40527777777778,39.77472222222222],[-125.10527777777777,39.605000000000004],[-124.95805555555556,39.519444444444446],[-124.81611111111111,39.426944444444445],[-124.5436111111111,39.23833333333334],[-124.27305555555556,39.04861111111111],[-124.13805555555557,38.95388888888889],[-124.0025,38.858333333333334],[-123.86388888888888,38.76027777777778],[-123.73277777777778,38.66722222222222],[-123.47777777777777,38.484722222222224],[-123.24,38.31333333333333],[-123.12583333333333,38.230555555555554],[-123.01472222222222,38.14972222222222],[-122.85,38.03333333333333]],"type":"LineString"}
}
