{
  "id": 2031509077,
  "type": "Feature",
  "properties": {
    "geom:area": 0,
    "geom:bbox": "-122.367778,32.741944,-84.483333,37.695278",
    "geom:latitude": 34.57906491843221,
    "geom:longitude": -103.60457742932796,
    "src:alt_label": "swim-path",
    "src:geom": "swim",
    "swim:altitudes": [
      "027",
      "027",
      "027",
      "034",
      "034",
      "034",
      "069",
      "081",
      "081",
      "081",
      "081",
      "081",
      "091",
      "091",
      "091",
      "114",
      "114",
      "114",
      "114",
      "114",
      "153",
      "153",
      "153",
      "153",
      "153",
      "165",
      "165",
      "165",
      "165",
      "165",
      "166",
      "166",
      "185",
      "185",
      "185",
      "198",
      "198",
      "198",
      "211",
      "211",
      "211",
      "211",
      "211",
      "233",
      "234",
      "234",
      "234",
      "238",
      "238",
      "238",
      "238",
      "247",
      "247",
      "247",
      "247",
      "254",
      "256",
      "262",
      "262",
      "262",
      "262",
      "274",
      "274",
      "274",
      "274",
      "283",
      "283",
      "290",
      "290",
      "290",
      "301",
      "301",
      "301",
      "301",
      "301",
      "307",
      "307",
      "307",
      "307",
      "320C",
      "320C",
      "320C",
      "320C",
      "320C",
      "320C",
      "320C",
      "320C",
      "320C",
      "320C",
      "320C",
      "320C",
      "320C",
      "320C",
      "320C",
      "320C",
      "320C",
      "320C",
      "320C",
      "320C",
      "320C",
      "320C",
      "320C",
      "320C",
      "320C",
      "320C",
      "320C",
      "320C",
      "320C",
      "320C",
      "320C",
      "320C",
      "320C",
      "320C",
      "320C",
      "320C",
      "320C",
      "320C",
      "320C",
      "320C",
      "320C",
      "320C",
      "320C",
      "320C",
      "320C",
      "320C",
      "320C",
      "320C",
      "320C",
      "320C",
      "320C",
      "320C",
      "320C",
      "320C",
      "320C",
      "320C",
      "320C",
      "320C",
      "320C",
      "320C",
      "320C",
      "320C",
      "320C",
      "320C",
      "320C",
      "320C",
      "320C",
      "320C",
      "320C",
      "320C",
      "320C",
      "320C",
      "320C",
      "320C",
      "320C",
      "320C",
      "320C",
      "320C",
      "320C",
      "320C",
      "320C",
      "320C",
      "320C",
      "320C",
      "320C",
      "320C",
      "320C",
      "320C",
      "320C",
      "320C",
      "320C",
      "320C",
      "320C",
      "320C",
      "320C",
      "320C",
      "320C",
      "320C",
      "320C",
      "320C",
      "320C",
      "320C",
      "320C",
      "320C",
      "320C",
      "320C",
      "320C",
      "320C",
      "320C",
      "320C",
      "320C",
      "320C",
      "320C",
      "320C",
      "320C",
      "320C",
      "320C",
      "320C",
      "320C",
      "320C",
      "320C",
      "320C",
      "320C",
      "320C",
      "320C",
      "320C",
      "320C",
      "320C",
      "320C",
      "320C",
      "320C",
      "320C",
      "320C",
      "320C",
      "320C",
      "320C",
      "320C",
      "320C",
      "320C",
      "320C",
      "320C",
      "320C",
      "320C",
      "320C",
      "320C",
      "320C",
      "320C",
      "320C",
      "320C",
      "320C",
      "320C",
      "320C",
      "320C",
      "320C",
      "320C",
      "320C",
      "320C",
      "320C",
      "320C",
      "320C",
      "320C",
      "320C",
      "320C",
      "320C",
      "320C",
      "320C",
      "320C",
      "320C",
      "320C",
      "320C",
      "320C",
      "320C",
      "320C",
      "320C",
      "320C",
      "320C",
      "320C",
      "320C",
      "320C",
      "320C",
      "320C",
      "320C",
      "320C",
      "320C",
      "320C",
      "320C",
      "320C",
      "320C",
      "320C",
      "320C",
      "320C",
      "320C",
      "320C",
      "320C",
      "320C",
      "320C",
      "320C",
      "320C",
      "320C",
      "320C",
      "320C",
      "320C",
      "320C",
      "320C",
      "320C",
      "320C",
      "320C",
      "320C",
      "320C",
      "320C",
      "320C",
      "320C",
      "320C",
      "320C",
      "320C",
      "320C",
      "320C",
      "320C",
      "320C",
      "320C",
      "320C",
      "320C",
      "320C",
      "320C",
      "320C",
      "320C",
      "320C",
      "320C",
      "320C",
      "320C",
      "320C",
      "320C",
      "320C",
      "320C",
      "320C",
      "320C",
      "320C",
      "320C",
      "320C",
      "320C",
      "320C",
      "320C",
      "320C",
      "320C",
      "320C",
      "320C",
      "320C",
      "320C",
      "320C",
      "320C",
      "320C",
      "320C",
      "320C",
      "320C",
      "320C",
      "320C",
      "320C",
      "320C",
      "320C",
      "320C",
      "320C",
      "320C",
      "320C",
      "320C",
      "320C",
      "320C",
      "320C",
      "320C",
      "320C",
      "320C",
      "320C",
      "320C",
      "320C",
      "320C",
      "320C",
      "320C",
      "320C",
      "320C",
      "320C",
      "320C",
      "320C",
      "320C",
      "320C",
      "320C",
      "320C",
      "320C",
      "320C",
      "320C",
      "320C",
      "320C",
      "320C",
      "320C",
      "320C",
      "320C",
      "320C",
      "320C",
      "320C",
      "320C",
      "320C",
      "320C",
      "320C",
      "320C",
      "320C",
      "320C",
      "320C",
      "320C",
      "320C",
      "320C",
      "320C",
      "320C",
      "320C",
      "320C",
      "320C",
      "320C",
      "320C",
      "320C",
      "320C",
      "320C",
      "320C",
      "320C",
      "320C",
      "320C",
      "320C",
      "320C",
      "320C",
      "320C",
      "320C",
      "320C",
      "320C",
      "320C",
      "320C",
      "320C",
      "320C",
      "320C",
      "320C",
      "320C",
      "320C",
      "320C",
      "320C",
      "320C",
      "320C",
      "320C",
      "320C",
      "320C",
      "320C",
      "320C",
      "320C",
      "320C",
      "320C",
      "320C",
      "320C",
      "320C",
      "320C",
      "320C",
      "320C",
      "320C",
      "320C",
      "320C",
      "320C",
      "320C",
      "320C",
      "320C",
      "320C",
      "320C",
      "320C",
      "320C",
      "320C",
      "320C",
      "320C",
      "320C",
      "320C",
      "320C",
      "320C",
      "320C",
      "320C",
      "320C",
      "320C",
      "320C",
      "320C",
      "320C",
      "320C",
      "320C",
      "320C",
      "320C",
      "320C",
      "320C",
      "320C",
      "320C",
      "320C",
      "320C",
      "320C",
      "314",
      "314",
      "314",
      "304",
      "304",
      "304",
      "291",
      "291",
      "291",
      "281",
      "281",
      "270",
      "270",
      "264",
      "264",
      "264",
      "249",
      "249",
      "239",
      "239",
      "239",
      "218",
      "218",
      "199",
      "199",
      "199",
      "191",
      "191",
      "176",
      "176",
      "176",
      "111",
      "096",
      "096",
      "096",
      "096",
      "090",
      "090",
      "091",
      "091",
      "091",
      "062",
      "062",
      "055",
      "055",
      "049",
      "049",
      "043",
      "036",
      "017",
      "017",
      "017",
      "017",
      "002",
      "002",
      "001"
    ],
    "swim:geom": "path",
    "swim:speeds": [
      191,
      191,
      191,
      266,
      266,
      266,
      272,
      283,
      283,
      283,
      283,
      283,
      284,
      284,
      284,
      359,
      359,
      359,
      359,
      359,
      413,
      413,
      413,
      413,
      413,
      423,
      423,
      423,
      423,
      423,
      429,
      429,
      437,
      437,
      437,
      450,
      450,
      450,
      450,
      450,
      450,
      450,
      450,
      457,
      457,
      457,
      457,
      463,
      463,
      463,
      463,
      465,
      465,
      465,
      465,
      464,
      464,
      463,
      463,
      463,
      463,
      459,
      459,
      459,
      459,
      456,
      456,
      455,
      455,
      455,
      453,
      453,
      453,
      453,
      453,
      453,
      453,
      453,
      453,
      454,
      454,
      454,
      454,
      454,
      454,
      454,
      458,
      458,
      458,
      458,
      458,
      461,
      461,
      461,
      461,
      459,
      459,
      459,
      459,
      458,
      458,
      458,
      456,
      456,
      452,
      452,
      452,
      452,
      452,
      452,
      452,
      452,
      452,
      452,
      454,
      454,
      454,
      453,
      453,
      453,
      453,
      453,
      453,
      453,
      453,
      452,
      452,
      452,
      452,
      452,
      451,
      451,
      451,
      451,
      452,
      452,
      451,
      451,
      451,
      450,
      450,
      447,
      447,
      441,
      441,
      441,
      442,
      442,
      442,
      442,
      442,
      442,
      442,
      442,
      441,
      441,
      441,
      441,
      441,
      441,
      450,
      450,
      450,
      450,
      450,
      451,
      451,
      451,
      444,
      444,
      444,
      440,
      440,
      440,
      440,
      440,
      440,
      440,
      440,
      440,
      435,
      435,
      435,
      435,
      435,
      435,
      435,
      435,
      437,
      437,
      439,
      439,
      439,
      439,
      439,
      444,
      444,
      444,
      444,
      444,
      447,
      447,
      447,
      447,
      447,
      447,
      447,
      447,
      447,
      447,
      446,
      446,
      446,
      443,
      443,
      443,
      443,
      443,
      443,
      443,
      443,
      443,
      443,
      445,
      445,
      445,
      445,
      449,
      449,
      449,
      449,
      449,
      454,
      454,
      454,
      454,
      453,
      453,
      453,
      456,
      456,
      456,
      456,
      456,
      455,
      452,
      452,
      451,
      448,
      448,
      448,
      448,
      452,
      447,
      447,
      447,
      447,
      448,
      452,
      453,
      453,
      453,
      453,
      450,
      449,
      449,
      449,
      449,
      449,
      450,
      450,
      450,
      450,
      448,
      448,
      448,
      448,
      448,
      449,
      450,
      450,
      451,
      451,
      452,
      452,
      452,
      452,
      451,
      451,
      448,
      448,
      449,
      449,
      449,
      449,
      446,
      446,
      446,
      446,
      446,
      443,
      443,
      443,
      444,
      444,
      444,
      444,
      442,
      442,
      442,
      442,
      445,
      445,
      446,
      446,
      445,
      445,
      444,
      444,
      444,
      444,
      447,
      448,
      448,
      448,
      448,
      447,
      447,
      447,
      445,
      445,
      445,
      444,
      444,
      444,
      444,
      443,
      443,
      443,
      444,
      444,
      444,
      444,
      444,
      444,
      443,
      443,
      445,
      445,
      445,
      445,
      445,
      445,
      445,
      445,
      445,
      445,
      447,
      447,
      447,
      447,
      448,
      448,
      448,
      448,
      448,
      448,
      449,
      449,
      449,
      448,
      448,
      448,
      448,
      449,
      449,
      449,
      449,
      448,
      448,
      448,
      448,
      450,
      450,
      450,
      455,
      455,
      455,
      455,
      455,
      455,
      455,
      455,
      455,
      455,
      455,
      457,
      457,
      457,
      457,
      458,
      458,
      458,
      458,
      458,
      458,
      457,
      457,
      457,
      453,
      453,
      453,
      456,
      455,
      455,
      457,
      457,
      457,
      457,
      458,
      458,
      458,
      458,
      460,
      460,
      459,
      459,
      459,
      450,
      450,
      450,
      450,
      450,
      450,
      448,
      448,
      448,
      448,
      447,
      447,
      446,
      446,
      446,
      446,
      446,
      446,
      446,
      446,
      446,
      446,
      445,
      445,
      445,
      445,
      445,
      445,
      445,
      445,
      445,
      445,
      445,
      445,
      445,
      445,
      445,
      445,
      444,
      444,
      444,
      444,
      443,
      443,
      443,
      446,
      446,
      446,
      434,
      434,
      434,
      428,
      428,
      425,
      425,
      425,
      425,
      425,
      421,
      421,
      415,
      415,
      415,
      400,
      400,
      388,
      388,
      388,
      387,
      387,
      373,
      373,
      373,
      307,
      266,
      266,
      266,
      266,
      257,
      257,
      260,
      260,
      260,
      233,
      233,
      235,
      235,
      229,
      229,
      210,
      202,
      177,
      177,
      177,
      177,
      139,
      139,
      131
    ],
    "swim:timestamps": [
      1781215663,
      1781215663,
      1781215663,
      1781215722,
      1781215722,
      1781215722,
      1781215821,
      1781215843,
      1781215843,
      1781215843,
      1781215843,
      1781215843,
      1781215881,
      1781215881,
      1781215881,
      1781216002,
      1781216002,
      1781216002,
      1781216002,
      1781216002,
      1781216176,
      1781216176,
      1781216176,
      1781216176,
      1781216176,
      1781216236,
      1781216236,
      1781216236,
      1781216236,
      1781216236,
      1781216242,
      1781216242,
      1781216356,
      1781216356,
      1781216356,
      1781216422,
      1781216422,
      1781216422,
      1781216482,
      1781216482,
      1781216482,
      1781216482,
      1781216482,
      1781216657,
      1781216663,
      1781216663,
      1781216663,
      1781216723,
      1781216723,
      1781216723,
      1781216723,
      1781216783,
      1781216783,
      1781216783,
      1781216783,
      1781216837,
      1781216843,
      1781216897,
      1781216897,
      1781216897,
      1781216897,
      1781216957,
      1781216957,
      1781216957,
      1781216957,
      1781217017,
      1781217017,
      1781217077,
      1781217077,
      1781217077,
      1781217143,
      1781217143,
      1781217143,
      1781217143,
      1781217143,
      1781217203,
      1781217203,
      1781217203,
      1781217203,
      1781217378,
      1781217378,
      1781217378,
      1781217378,
      1781217378,
      1781217438,
      1781217438,
      1781217498,
      1781217498,
      1781217498,
      1781217498,
      1781217498,
      1781217738,
      1781217738,
      1781217738,
      1781217738,
      1781217858,
      1781217858,
      1781217858,
      1781217858,
      1781217918,
      1781217918,
      1781217918,
      1781217978,
      1781217978,
      1781218099,
      1781218099,
      1781218099,
      1781218099,
      1781218099,
      1781218279,
      1781218279,
      1781218279,
      1781218279,
      1781218279,
      1781218459,
      1781218459,
      1781218459,
      1781218519,
      1781218519,
      1781218519,
      1781218519,
      1781218519,
      1781218639,
      1781218639,
      1781218716,
      1781218760,
      1781218760,
      1781218760,
      1781218760,
      1781218760,
      1781218940,
      1781218940,
      1781218940,
      1781218940,
      1781218956,
      1781218956,
      1781219016,
      1781219016,
      1781219016,
      1781219076,
      1781219076,
      1781219120,
      1781219120,
      1781219197,
      1781219197,
      1781219197,
      1781219240,
      1781219257,
      1781219257,
      1781219257,
      1781219257,
      1781219257,
      1781219737,
      1781219737,
      1781219857,
      1781219857,
      1781219918,
      1781219918,
      1781219918,
      1781219918,
      1781220398,
      1781220398,
      1781220398,
      1781220398,
      1781220398,
      1781220458,
      1781220458,
      1781220458,
      1781220639,
      1781220639,
      1781220639,
      1781220699,
      1781220699,
      1781220699,
      1781220699,
      1781220699,
      1781220879,
      1781220879,
      1781220879,
      1781220879,
      1781220999,
      1781220999,
      1781220999,
      1781220999,
      1781220999,
      1781221059,
      1781221059,
      1781221059,
      1781221119,
      1781221119,
      1781221179,
      1781221179,
      1781221179,
      1781221179,
      1781221179,
      1781221359,
      1781221359,
      1781221359,
      1781221359,
      1781221359,
      1781221480,
      1781221480,
      1781221480,
      1781221480,
      1781221480,
      1781221540,
      1781221540,
      1781221540,
      1781221540,
      1781221540,
      1781221600,
      1781221600,
      1781221600,
      1781221720,
      1781221720,
      1781221720,
      1781221720,
      1781221720,
      1781221840,
      1781221840,
      1781221840,
      1781221840,
      1781221840,
      1781221972,
      1781221972,
      1781221972,
      1781221972,
      1781222093,
      1781222093,
      1781222093,
      1781222093,
      1781222093,
      1781222513,
      1781222513,
      1781222513,
      1781222513,
      1781222591,
      1781222591,
      1781222591,
      1781222651,
      1781222651,
      1781222712,
      1781222712,
      1781222712,
      1781222772,
      1781222814,
      1781222814,
      1781222874,
      1781222952,
      1781222952,
      1781222952,
      1781222952,
      1781223012,
      1781223114,
      1781223114,
      1781223114,
      1781223114,
      1781223252,
      1781223294,
      1781223354,
      1781223354,
      1781223354,
      1781223354,
      1781223493,
      1781223534,
      1781223534,
      1781223553,
      1781223553,
      1781223553,
      1781223733,
      1781223733,
      1781223733,
      1781223733,
      1781223793,
      1781223793,
      1781223793,
      1781223853,
      1781223895,
      1781223913,
      1781223973,
      1781223973,
      1781224094,
      1781224094,
      1781224154,
      1781224154,
      1781224154,
      1781224154,
      1781224394,
      1781224394,
      1781224454,
      1781224454,
      1781224496,
      1781224496,
      1781224496,
      1781224556,
      1781224634,
      1781224634,
      1781224694,
      1781224694,
      1781224694,
      1781224815,
      1781224815,
      1781224815,
      1781224935,
      1781224935,
      1781224935,
      1781224935,
      1781225055,
      1781225055,
      1781225115,
      1781225115,
      1781225235,
      1781225235,
      1781225295,
      1781225295,
      1781225355,
      1781225355,
      1781225476,
      1781225476,
      1781225476,
      1781225476,
      1781225836,
      1781225896,
      1781225896,
      1781225896,
      1781225896,
      1781226016,
      1781226016,
      1781226016,
      1781226137,
      1781226137,
      1781226137,
      1781226257,
      1781226257,
      1781226257,
      1781226257,
      1781226396,
      1781226456,
      1781226456,
      1781226516,
      1781226516,
      1781226516,
      1781226516,
      1781226617,
      1781226617,
      1781226637,
      1781226637,
      1781226738,
      1781226798,
      1781226798,
      1781226798,
      1781226858,
      1781226877,
      1781226877,
      1781226877,
      1781226937,
      1781226937,
      1781227057,
      1781227057,
      1781227098,
      1781227098,
      1781227117,
      1781227117,
      1781227237,
      1781227237,
      1781227237,
      1781227298,
      1781227358,
      1781227358,
      1781227358,
      1781227399,
      1781227399,
      1781227399,
      1781227399,
      1781227519,
      1781227538,
      1781227538,
      1781227658,
      1781227759,
      1781227759,
      1781227759,
      1781227778,
      1781227898,
      1781227898,
      1781227898,
      1781228079,
      1781228079,
      1781228079,
      1781228079,
      1781228259,
      1781228259,
      1781228259,
      1781228259,
      1781228391,
      1781228391,
      1781228391,
      1781228511,
      1781228511,
      1781228571,
      1781228571,
      1781228632,
      1781228632,
      1781228632,
      1781228872,
      1781228872,
      1781228872,
      1781228932,
      1781228932,
      1781228992,
      1781229005,
      1781229005,
      1781229005,
      1781229052,
      1781229125,
      1781229125,
      1781229172,
      1781229172,
      1781229185,
      1781229185,
      1781229232,
      1781229232,
      1781229246,
      1781229246,
      1781229306,
      1781229306,
      1781229366,
      1781229366,
      1781229366,
      1781229593,
      1781229593,
      1781229593,
      1781229593,
      1781229606,
      1781229606,
      1781229653,
      1781229666,
      1781229666,
      1781229666,
      1781229726,
      1781229726,
      1781229773,
      1781229786,
      1781229786,
      1781229786,
      1781229833,
      1781229833,
      1781229833,
      1781229906,
      1781229906,
      1781229906,
      1781229953,
      1781229953,
      1781230014,
      1781230014,
      1781230027,
      1781230074,
      1781230074,
      1781230087,
      1781230087,
      1781230134,
      1781230134,
      1781230134,
      1781230147,
      1781230267,
      1781230267,
      1781230267,
      1781230327,
      1781230327,
      1781230327,
      1781230327,
      1781230447,
      1781230447,
      1781230447,
      1781230507,
      1781230507,
      1781230507,
      1781230627,
      1781230627,
      1781230627,
      1781230687,
      1781230687,
      1781230747,
      1781230747,
      1781230771,
      1781230771,
      1781230771,
      1781230807,
      1781230807,
      1781230831,
      1781230831,
      1781230831,
      1781230897,
      1781230897,
      1781230951,
      1781230951,
      1781230951,
      1781230988,
      1781230988,
      1781231017,
      1781231017,
      1781231017,
      1781231257,
      1781231348,
      1781231348,
      1781231348,
      1781231348,
      1781231408,
      1781231408,
      1781231468,
      1781231468,
      1781231468,
      1781231618,
      1781231618,
      1781231648,
      1781231648,
      1781231678,
      1781231678,
      1781231709,
      1781231738,
      1781231858,
      1781231858,
      1781231858,
      1781231858,
      1781231978,
      1781231978,
      1781232009
    ],
    "wof:geomhash": "1c9d3a556e9bd1c24bc9278de3628a21",
    "wof:id": 2031509077,
    "wof:repo": "sfomuseum-data-flights-2026-06"
  },
  "bbox": [
    -122.36777777777777,
    32.74194444444444,
    -84.48333333333333,
    37.695277777777775
  ],
  "geometry": {"coordinates":[[-84.48333333333333,33.65],[-84.48333333333333,33.65],[-84.48333333333333,33.65],[-84.55,33.68333333333333],[-84.55,33.68333333333333],[-84.55,33.68333333333333],[-84.67583333333334,33.69916666666666],[-84.71666666666667,33.7],[-84.71666666666667,33.7],[-84.71666666666667,33.7],[-84.71666666666667,33.7],[-84.71666666666667,33.7],[-84.77027777777778,33.7],[-84.77027777777778,33.7],[-84.77027777777778,33.7],[-84.98583333333333,33.70027777777778],[-84.98583333333333,33.70027777777778],[-84.98583333333333,33.70027777777778],[-84.98583333333333,33.70027777777778],[-84.98583333333333,33.70027777777778],[-85.38527777777779,33.71277777777778],[-85.38527777777779,33.71277777777778],[-85.38527777777779,33.71277777777778],[-85.38527777777779,33.71277777777778],[-85.38527777777779,33.71277777777778],[-85.5275,33.72527777777778],[-85.5275,33.72527777777778],[-85.5275,33.72527777777778],[-85.5275,33.72527777777778],[-85.5275,33.72527777777778],[-85.53888888888889,33.724444444444444],[-85.53888888888889,33.724444444444444],[-85.82111111111111,33.74111111111111],[-85.82111111111111,33.74111111111111],[-85.82111111111111,33.74111111111111],[-85.99944444444445,33.753055555555555],[-85.99944444444445,33.753055555555555],[-85.99944444444445,33.753055555555555],[-86.15111111111112,33.763888888888886],[-86.15111111111112,33.763888888888886],[-86.15111111111112,33.763888888888886],[-86.15111111111112,33.763888888888886],[-86.15111111111112,33.763888888888886],[-86.5775,33.79527777777778],[-86.60555555555555,33.79361111111111],[-86.60555555555555,33.79361111111111],[-86.60555555555555,33.79361111111111],[-86.76027777777777,33.78138888888889],[-86.76027777777777,33.78138888888889],[-86.76027777777777,33.78138888888889],[-86.76027777777777,33.78138888888889],[-86.91527777777779,33.76972222222222],[-86.91527777777779,33.76972222222222],[-86.91527777777779,33.76972222222222],[-86.91527777777779,33.76972222222222],[-87.04166666666667,33.75972222222222],[-87.07027777777778,33.7575],[-87.19583333333334,33.74777777777778],[-87.19583333333334,33.74777777777778],[-87.19583333333334,33.74777777777778],[-87.19583333333334,33.74777777777778],[-87.34833333333333,33.73555555555556],[-87.34833333333333,33.73555555555556],[-87.34833333333333,33.73555555555556],[-87.34833333333333,33.73555555555556],[-87.49805555555555,33.72361111111111],[-87.49805555555555,33.72361111111111],[-87.65138888888889,33.711111111111116],[-87.65138888888889,33.711111111111116],[-87.65138888888889,33.711111111111116],[-87.83,33.69611111111111],[-87.83,33.69611111111111],[-87.83,33.69611111111111],[-87.83,33.69611111111111],[-87.83,33.69611111111111],[-87.98055555555555,33.68333333333333],[-87.98055555555555,33.68333333333333],[-87.98055555555555,33.68333333333333],[-87.98055555555555,33.68333333333333],[-88.40277777777779,33.64555555555555],[-88.40277777777779,33.64555555555555],[-88.40277777777779,33.64555555555555],[-88.40277777777779,33.64555555555555],[-88.40277777777779,33.64555555555555],[-88.55611111111111,33.63166666666667],[-88.55611111111111,33.63166666666667],[-88.70722222222223,33.61833333333333],[-88.70722222222223,33.61833333333333],[-88.70722222222223,33.61833333333333],[-88.70722222222223,33.61833333333333],[-88.70722222222223,33.61833333333333],[-89.33138888888888,33.559444444444445],[-89.33138888888888,33.559444444444445],[-89.33138888888888,33.559444444444445],[-89.33138888888888,33.559444444444445],[-89.63111111111111,33.53],[-89.63111111111111,33.53],[-89.63111111111111,33.53],[-89.63111111111111,33.53],[-89.78138888888888,33.515],[-89.78138888888888,33.515],[-89.78138888888888,33.515],[-89.92972222222222,33.5],[-89.92972222222222,33.5],[-90.22527777777778,33.469722222222224],[-90.22527777777778,33.469722222222224],[-90.22527777777778,33.469722222222224],[-90.22527777777778,33.469722222222224],[-90.22527777777778,33.469722222222224],[-90.67027777777778,33.439166666666665],[-90.67027777777778,33.439166666666665],[-90.67027777777778,33.439166666666665],[-90.67027777777778,33.439166666666665],[-90.67027777777778,33.439166666666665],[-91.1211111111111,33.409166666666664],[-91.1211111111111,33.409166666666664],[-91.1211111111111,33.409166666666664],[-91.2713888888889,33.39888888888889],[-91.2713888888889,33.39888888888889],[-91.2713888888889,33.39888888888889],[-91.2713888888889,33.39888888888889],[-91.2713888888889,33.39888888888889],[-91.56916666666666,33.37777777777778],[-91.56916666666666,33.37777777777778],[-91.76888888888888,33.36333333333334],[-91.85833333333333,33.356944444444444],[-91.85833333333333,33.356944444444444],[-91.85833333333333,33.356944444444444],[-91.85833333333333,33.356944444444444],[-91.85833333333333,33.356944444444444],[-92.30499999999999,33.32277777777778],[-92.30499999999999,33.32277777777778],[-92.30499999999999,33.32277777777778],[-92.30499999999999,33.32277777777778],[-92.36333333333333,33.318333333333335],[-92.36333333333333,33.318333333333335],[-92.51388888888889,33.30638888888888],[-92.51388888888889,33.30638888888888],[-92.51388888888889,33.30638888888888],[-92.66111111111111,33.294444444444444],[-92.66111111111111,33.294444444444444],[-92.74833333333333,33.2875],[-92.74833333333333,33.2875],[-92.95222222222222,33.27055555555555],[-92.95222222222222,33.27055555555555],[-92.95222222222222,33.27055555555555],[-93.03722222222223,33.263333333333335],[-93.1,33.25805555555556],[-93.1,33.25805555555556],[-93.1,33.25805555555556],[-93.1,33.25805555555556],[-93.1,33.25805555555556],[-94.24583333333334,33.15611111111111],[-94.24583333333334,33.15611111111111],[-94.53722222222223,33.12833333333333],[-94.53722222222223,33.12833333333333],[-94.68055555555556,33.11472222222223],[-94.68055555555556,33.11472222222223],[-94.68055555555556,33.11472222222223],[-94.68055555555556,33.11472222222223],[-95.85805555555555,32.99388888888889],[-95.85805555555555,32.99388888888889],[-95.85805555555555,32.99388888888889],[-95.85805555555555,32.99388888888889],[-95.85805555555555,32.99388888888889],[-96.00666666666666,32.97805555555556],[-96.00666666666666,32.97805555555556],[-96.00666666666666,32.97805555555556],[-96.44527777777778,32.92944444444444],[-96.44527777777778,32.92944444444444],[-96.44527777777778,32.92944444444444],[-96.58805555555556,32.91361111111111],[-96.58805555555556,32.91361111111111],[-96.58805555555556,32.91361111111111],[-96.58805555555556,32.91361111111111],[-96.58805555555556,32.91361111111111],[-97.02194444444444,32.86361111111111],[-97.02194444444444,32.86361111111111],[-97.02194444444444,32.86361111111111],[-97.02194444444444,32.86361111111111],[-97.31361111111111,32.82916666666667],[-97.31361111111111,32.82916666666667],[-97.31361111111111,32.82916666666667],[-97.31361111111111,32.82916666666667],[-97.31361111111111,32.82916666666667],[-97.45777777777778,32.81194444444444],[-97.45777777777778,32.81194444444444],[-97.45777777777778,32.81194444444444],[-97.60055555555554,32.79472222222222],[-97.60055555555554,32.79472222222222],[-97.7461111111111,32.77916666666667],[-97.7461111111111,32.77916666666667],[-97.7461111111111,32.77916666666667],[-97.7461111111111,32.77916666666667],[-97.7461111111111,32.77916666666667],[-98.18527777777778,32.78388888888889],[-98.18527777777778,32.78388888888889],[-98.18527777777778,32.78388888888889],[-98.18527777777778,32.78388888888889],[-98.18527777777778,32.78388888888889],[-98.47944444444444,32.78666666666666],[-98.47944444444444,32.78666666666666],[-98.47944444444444,32.78666666666666],[-98.47944444444444,32.78666666666666],[-98.47944444444444,32.78666666666666],[-98.62694444444443,32.7875],[-98.62694444444443,32.7875],[-98.62694444444443,32.7875],[-98.62694444444443,32.7875],[-98.62694444444443,32.7875],[-98.77555555555556,32.78861111111111],[-98.77555555555556,32.78861111111111],[-98.77555555555556,32.78861111111111],[-99.06583333333333,32.78972222222222],[-99.06583333333333,32.78972222222222],[-99.06583333333333,32.78972222222222],[-99.06583333333333,32.78972222222222],[-99.06583333333333,32.78972222222222],[-99.35916666666667,32.793055555555554],[-99.35916666666667,32.793055555555554],[-99.35916666666667,32.793055555555554],[-99.35916666666667,32.793055555555554],[-99.35916666666667,32.793055555555554],[-99.68138888888889,32.783055555555556],[-99.68138888888889,32.783055555555556],[-99.68138888888889,32.783055555555556],[-99.68138888888889,32.783055555555556],[-99.96666666666667,32.775277777777774],[-99.96666666666667,32.775277777777774],[-99.96666666666667,32.775277777777774],[-99.96666666666667,32.775277777777774],[-99.96666666666667,32.775277777777774],[-101.00805555555556,32.74194444444444],[-101.00805555555556,32.74194444444444],[-101.00805555555556,32.74194444444444],[-101.00805555555556,32.74194444444444],[-101.20611111111111,32.775555555555556],[-101.20611111111111,32.775555555555556],[-101.20611111111111,32.775555555555556],[-101.35305555555556,32.80222222222222],[-101.35305555555556,32.80222222222222],[-101.50055555555555,32.82055555555556],[-101.50055555555555,32.82055555555556],[-101.50055555555555,32.82055555555556],[-101.64777777777779,32.8325],[-101.76583333333333,32.845555555555556],[-101.76583333333333,32.845555555555556],[-101.91555555555556,32.850833333333334],[-102.08944444444444,32.843611111111116],[-102.08944444444444,32.843611111111116],[-102.08944444444444,32.843611111111116],[-102.08944444444444,32.843611111111116],[-102.25694444444444,32.83777777777778],[-102.49694444444445,32.830555555555556],[-102.49694444444445,32.830555555555556],[-102.49694444444445,32.830555555555556],[-102.49694444444445,32.830555555555556],[-102.85083333333333,32.82361111111111],[-102.93527777777778,32.84],[-103.08,32.8725],[-103.08,32.8725],[-103.08,32.8725],[-103.08,32.8725],[-103.39555555555556,33.00472222222222],[-103.46666666666667,33.047777777777775],[-103.46666666666667,33.047777777777775],[-103.515,33.0775],[-103.515,33.0775],[-103.515,33.0775],[-103.87083333333332,33.29527777777778],[-103.87083333333332,33.29527777777778],[-103.87083333333332,33.29527777777778],[-103.87083333333332,33.29527777777778],[-103.99055555555556,33.367777777777775],[-103.99055555555556,33.367777777777775],[-103.99055555555556,33.367777777777775],[-104.11944444444444,33.44583333333333],[-104.18722222222223,33.486666666666665],[-104.24,33.51861111111111],[-104.3625,33.592222222222226],[-104.3625,33.592222222222226],[-104.6061111111111,33.738055555555555],[-104.6061111111111,33.738055555555555],[-104.72944444444444,33.811388888888885],[-104.72944444444444,33.811388888888885],[-104.72944444444444,33.811388888888885],[-104.72944444444444,33.811388888888885],[-105.22333333333333,34.1025],[-105.22333333333333,34.1025],[-105.34638888888888,34.17472222222222],[-105.34638888888888,34.17472222222222],[-105.41444444444446,34.214444444444446],[-105.41444444444446,34.214444444444446],[-105.41444444444446,34.214444444444446],[-105.53916666666666,34.286944444444444],[-105.73166666666667,34.36527777777778],[-105.73166666666667,34.36527777777778],[-105.84305555555555,34.40694444444444],[-105.84305555555555,34.40694444444444],[-105.84305555555555,34.40694444444444],[-106.14027777777778,34.51638888888889],[-106.14027777777778,34.51638888888889],[-106.14027777777778,34.51638888888889],[-106.40861111111111,34.61416666666667],[-106.40861111111111,34.61416666666667],[-106.40861111111111,34.61416666666667],[-106.40861111111111,34.61416666666667],[-106.68861111111111,34.715833333333336],[-106.68861111111111,34.715833333333336],[-106.81583333333333,34.76166666666666],[-106.81583333333333,34.76166666666666],[-107.09777777777778,34.86222222222222],[-107.09777777777778,34.86222222222222],[-107.23694444444445,34.911944444444444],[-107.23694444444445,34.911944444444444],[-107.37527777777777,34.96083333333333],[-107.37527777777777,34.96083333333333],[-107.63666666666667,35.052499999999995],[-107.63666666666667,35.052499999999995],[-107.63666666666667,35.052499999999995],[-107.63666666666667,35.052499999999995],[-108.48472222222222,35.34527777777778],[-108.62555555555555,35.393055555555556],[-108.62555555555555,35.393055555555556],[-108.62555555555555,35.393055555555556],[-108.62555555555555,35.393055555555556],[-108.91416666666667,35.47555555555556],[-108.91416666666667,35.47555555555556],[-108.91416666666667,35.47555555555556],[-109.21666666666667,35.49333333333333],[-109.21666666666667,35.49333333333333],[-109.21666666666667,35.49333333333333],[-109.52083333333333,35.507777777777775],[-109.52083333333333,35.507777777777775],[-109.52083333333333,35.507777777777775],[-109.52083333333333,35.507777777777775],[-109.86305555555555,35.52333333333333],[-110.01444444444445,35.530833333333334],[-110.01444444444445,35.530833333333334],[-110.16583333333334,35.53722222222222],[-110.16583333333334,35.53722222222222],[-110.16583333333334,35.53722222222222],[-110.16583333333334,35.53722222222222],[-110.42916666666667,35.54611111111111],[-110.42916666666667,35.54611111111111],[-110.46722222222222,35.5475],[-110.46722222222222,35.5475],[-110.73166666666667,35.55722222222222],[-110.885,35.5625],[-110.885,35.5625],[-110.885,35.5625],[-111.035,35.56777777777778],[-111.07527777777777,35.56916666666667],[-111.07527777777777,35.56916666666667],[-111.07527777777777,35.56916666666667],[-111.22666666666667,35.573888888888895],[-111.22666666666667,35.573888888888895],[-111.52972222222222,35.58305555555556],[-111.52972222222222,35.58305555555556],[-111.61916666666666,35.584722222222226],[-111.61916666666666,35.584722222222226],[-111.68361111111112,35.586111111111116],[-111.68361111111112,35.586111111111116],[-111.98777777777778,35.5925],[-111.98777777777778,35.5925],[-111.98777777777778,35.5925],[-112.14055555555557,35.59777777777778],[-112.29166666666667,35.602222222222224],[-112.29166666666667,35.602222222222224],[-112.29166666666667,35.602222222222224],[-112.37944444444443,35.60472222222222],[-112.37944444444443,35.60472222222222],[-112.37944444444443,35.60472222222222],[-112.37944444444443,35.60472222222222],[-112.71388888888889,35.611666666666665],[-112.75166666666667,35.612500000000004],[-112.75166666666667,35.612500000000004],[-113.0525,35.617777777777775],[-113.31916666666666,35.621944444444445],[-113.31916666666666,35.621944444444445],[-113.31916666666666,35.621944444444445],[-113.38166666666666,35.62277777777778],[-113.6825,35.665],[-113.6825,35.665],[-113.6825,35.665],[-114.1,35.78333333333333],[-114.1,35.78333333333333],[-114.1,35.78333333333333],[-114.1,35.78333333333333],[-114.54194444444444,35.907222222222224],[-114.54194444444444,35.907222222222224],[-114.54194444444444,35.907222222222224],[-114.54194444444444,35.907222222222224],[-114.86583333333333,35.99861111111111],[-114.86583333333333,35.99861111111111],[-114.86583333333333,35.99861111111111],[-115.1413888888889,36.117777777777775],[-115.1413888888889,36.117777777777775],[-115.28166666666667,36.178888888888885],[-115.28166666666667,36.178888888888885],[-115.41944444444445,36.23833333333334],[-115.41944444444445,36.23833333333334],[-115.41944444444445,36.23833333333334],[-115.97694444444444,36.477222222222224],[-115.97694444444444,36.477222222222224],[-115.97694444444444,36.477222222222224],[-116.11555555555555,36.53611111111111],[-116.11555555555555,36.53611111111111],[-116.25527777777778,36.59527777777778],[-116.31194444444444,36.619166666666665],[-116.31194444444444,36.619166666666665],[-116.31194444444444,36.619166666666665],[-116.39527777777778,36.653888888888886],[-116.56472222222222,36.725],[-116.56472222222222,36.725],[-116.65722222222223,36.79388888888889],[-116.65722222222223,36.79388888888889],[-116.67944444444444,36.8125],[-116.67944444444444,36.8125],[-116.76972222222223,36.88583333333333],[-116.76972222222223,36.88583333333333],[-116.79166666666667,36.903888888888886],[-116.79166666666667,36.903888888888886],[-116.90444444444445,36.99638888888889],[-116.90444444444445,36.99638888888889],[-117.01611111111112,37.08722222222222],[-117.01611111111112,37.08722222222222],[-117.01611111111112,37.08722222222222],[-117.46805555555555,37.39361111111111],[-117.46805555555555,37.39361111111111],[-117.46805555555555,37.39361111111111],[-117.46805555555555,37.39361111111111],[-117.50111111111111,37.39694444444444],[-117.50111111111111,37.39694444444444],[-117.6236111111111,37.41166666666666],[-117.65416666666667,37.415277777777774],[-117.65416666666667,37.415277777777774],[-117.65416666666667,37.415277777777774],[-117.81,37.43333333333333],[-117.81,37.43333333333333],[-117.93222222222222,37.447222222222216],[-117.96527777777779,37.450833333333335],[-117.96527777777779,37.450833333333335],[-117.96527777777779,37.450833333333335],[-118.08722222222222,37.46472222222223],[-118.08722222222222,37.46472222222223],[-118.08722222222222,37.46472222222223],[-118.27333333333333,37.485],[-118.27333333333333,37.485],[-118.27333333333333,37.485],[-118.41111111111111,37.5],[-118.41111111111111,37.5],[-118.56416666666667,37.516666666666666],[-118.56416666666667,37.516666666666666],[-118.58277777777778,37.51861111111111],[-118.70527777777778,37.531666666666666],[-118.70527777777778,37.531666666666666],[-118.7388888888889,37.53527777777778],[-118.7388888888889,37.53527777777778],[-118.86222222222221,37.54833333333333],[-118.86222222222221,37.54833333333333],[-118.86222222222221,37.54833333333333],[-118.91305555555556,37.55361111111111],[-119.21972222222223,37.58555555555556],[-119.21972222222223,37.58555555555556],[-119.21972222222223,37.58555555555556],[-119.37305555555555,37.600833333333334],[-119.37305555555555,37.600833333333334],[-119.37305555555555,37.600833333333334],[-119.37305555555555,37.600833333333334],[-119.67888888888889,37.63111111111111],[-119.67888888888889,37.63111111111111],[-119.67888888888889,37.63111111111111],[-119.83444444444444,37.64611111111111],[-119.83444444444444,37.64611111111111],[-119.83444444444444,37.64611111111111],[-120.14527777777778,37.675555555555555],[-120.14527777777778,37.675555555555555],[-120.14527777777778,37.675555555555555],[-120.2936111111111,37.689166666666665],[-120.2936111111111,37.689166666666665],[-120.44222222222223,37.695277777777775],[-120.44222222222223,37.695277777777775],[-120.5,37.68333333333333],[-120.5,37.68333333333333],[-120.5,37.68333333333333],[-120.58749999999999,37.677499999999995],[-120.58749999999999,37.677499999999995],[-120.65,37.666666666666664],[-120.65,37.666666666666664],[-120.65,37.666666666666664],[-120.8,37.65],[-120.8,37.65],[-120.91666666666667,37.63333333333333],[-120.91666666666667,37.63333333333333],[-120.91666666666667,37.63333333333333],[-120.9775,37.63111111111111],[-120.9775,37.63111111111111],[-121.06666666666666,37.61666666666667],[-121.06666666666666,37.61666666666667],[-121.06666666666666,37.61666666666667],[-121.55,37.56666666666667],[-121.67583333333334,37.538333333333334],[-121.67583333333334,37.538333333333334],[-121.67583333333334,37.538333333333334],[-121.67583333333334,37.538333333333334],[-121.76333333333334,37.529444444444444],[-121.76333333333334,37.529444444444444],[-121.85666666666665,37.519444444444446],[-121.85666666666665,37.519444444444446],[-121.85666666666665,37.519444444444446],[-122,37.46666666666667],[-122,37.46666666666667],[-122.04277777777777,37.48083333333334],[-122.04277777777777,37.48083333333334],[-122.08333333333333,37.5],[-122.08333333333333,37.5],[-122.11083333333333,37.50972222222222],[-122.15,37.516666666666666],[-122.25,37.56666666666667],[-122.25,37.56666666666667],[-122.25,37.56666666666667],[-122.25,37.56666666666667],[-122.35,37.61666666666667],[-122.35,37.61666666666667],[-122.36777777777777,37.617777777777775]],"type":"LineString"}
}
