{
  "id": 2031488391,
  "type": "Feature",
  "properties": {
    "geom:area": 0,
    "geom:bbox": "-122.513889,34.217222,-118.361944,37.668889",
    "geom:latitude": 35.846785958130965,
    "geom:longitude": -120.57062028320696,
    "src:alt_label": "swim-path",
    "src:geom": "swim",
    "swim:altitudes": [
      "013",
      "013",
      "058",
      "058",
      "058",
      "058",
      "141",
      "141",
      "141",
      "165",
      "190",
      "190",
      "190",
      "204",
      "204",
      "251",
      "262",
      "268C",
      "268C",
      "268C",
      "270C",
      "270C",
      "270C",
      "270C",
      "270C",
      "269C",
      "269C",
      "269C",
      "269C",
      "270C",
      "270C",
      "270C",
      "270C",
      "270C",
      "270C",
      "270C",
      "270C",
      "270C",
      "270C",
      "270C",
      "270C",
      "270C",
      "270C",
      "270C",
      "270C",
      "270C",
      "270C",
      "270C",
      "270C",
      "270C",
      "270C",
      "270C",
      "270C",
      "270",
      "270",
      "270",
      "268",
      "268",
      "268",
      "250",
      "250",
      "248",
      "248",
      "248",
      "233",
      "233",
      "233",
      "195",
      "195",
      "195",
      "178",
      "178",
      "173",
      "161",
      "161",
      "139",
      "139",
      "131",
      "127",
      "127",
      "127",
      "110",
      "110",
      "098",
      "092",
      "092",
      "077",
      "077",
      "077",
      "052",
      "052",
      "052",
      "052",
      "052",
      "049",
      "049",
      "032",
      "032",
      "032",
      "023",
      "023",
      "023",
      "010",
      "010"
    ],
    "swim:geom": "path",
    "swim:speeds": [
      141,
      141,
      245,
      245,
      245,
      245,
      389,
      389,
      389,
      408,
      416,
      416,
      416,
      417,
      417,
      456,
      452,
      455,
      455,
      455,
      452,
      440,
      444,
      440,
      440,
      439,
      439,
      438,
      438,
      431,
      431,
      431,
      454,
      431,
      431,
      438,
      435,
      438,
      438,
      439,
      439,
      439,
      439,
      439,
      439,
      439,
      439,
      439,
      438,
      438,
      439,
      439,
      439,
      440,
      458,
      458,
      476,
      476,
      476,
      469,
      469,
      468,
      468,
      468,
      456,
      456,
      456,
      424,
      424,
      424,
      419,
      419,
      414,
      408,
      408,
      393,
      393,
      386,
      383,
      383,
      383,
      328,
      328,
      302,
      301,
      301,
      302,
      302,
      302,
      192,
      192,
      199,
      199,
      199,
      198,
      198,
      136,
      136,
      136,
      130,
      130,
      130,
      131,
      131
    ],
    "swim:timestamps": [
      1780953989,
      1780953989,
      1780954109,
      1780954109,
      1780954109,
      1780954109,
      1780954290,
      1780954290,
      1780954290,
      1780954350,
      1780954422,
      1780954422,
      1780954422,
      1780954470,
      1780954470,
      1780954602,
      1780954650,
      1780954662,
      1780954662,
      1780954662,
      1780954710,
      1780954722,
      1780954770,
      1780954782,
      1780954782,
      1780954830,
      1780954830,
      1780954890,
      1780954890,
      1780954902,
      1780954902,
      1780954902,
      1780954950,
      1780954963,
      1780954963,
      1780955010,
      1780955023,
      1780955070,
      1780955070,
      1780955131,
      1780955191,
      1780955191,
      1780955191,
      1780955251,
      1780955251,
      1780955263,
      1780955311,
      1780955323,
      1780955383,
      1780955383,
      1780955431,
      1780955431,
      1780955431,
      1780955491,
      1780955551,
      1780955551,
      1780955563,
      1780955563,
      1780955563,
      1780955671,
      1780955671,
      1780955684,
      1780955684,
      1780955684,
      1780955864,
      1780955864,
      1780955864,
      1780955972,
      1780955972,
      1780955972,
      1780956032,
      1780956032,
      1780956044,
      1780956092,
      1780956092,
      1780956164,
      1780956164,
      1780956190,
      1780956212,
      1780956212,
      1780956212,
      1780956281,
      1780956281,
      1780956332,
      1780956341,
      1780956341,
      1780956392,
      1780956392,
      1780956392,
      1780956582,
      1780956582,
      1780956633,
      1780956633,
      1780956633,
      1780956693,
      1780956693,
      1780956813,
      1780956813,
      1780956813,
      1780956882,
      1780956882,
      1780956882,
      1780956993,
      1780956993
    ],
    "wof:geomhash": "e4d669d2da1a2bf9fd8483246e4c6ef2",
    "wof:id": 2031488391,
    "wof:repo": "sfomuseum-data-flights-2026-06"
  },
  "bbox": [
    -122.51388888888889,
    34.217222222222226,
    -118.36194444444443,
    37.66888888888889
  ],
  "geometry": {"coordinates":[[-122.39444444444445,37.62722222222222],[-122.39444444444445,37.62722222222222],[-122.51388888888889,37.66888888888889],[-122.51388888888889,37.66888888888889],[-122.51388888888889,37.66888888888889],[-122.51388888888889,37.66888888888889],[-122.41416666666667,37.43944444444444],[-122.41416666666667,37.43944444444444],[-122.41416666666667,37.43944444444444],[-122.315,37.35777777777778],[-122.21444444444445,37.27388888888889],[-122.21444444444445,37.27388888888889],[-122.21444444444445,37.27388888888889],[-122.12888888888888,37.198611111111106],[-122.12888888888888,37.198611111111106],[-121.87138888888889,36.986666666666665],[-121.80222222222221,36.92527777777777],[-121.76194444444444,36.89416666666666],[-121.76194444444444,36.89416666666666],[-121.76194444444444,36.89416666666666],[-121.69361111111111,36.834722222222226],[-121.65805555555556,36.80638888888888],[-121.58888888888889,36.7475],[-121.56333333333333,36.726111111111116],[-121.56333333333333,36.726111111111116],[-121.48722222222223,36.659166666666664],[-121.48722222222223,36.659166666666664],[-121.38472222222222,36.57194444444445],[-121.38472222222222,36.57194444444445],[-121.35777777777777,36.55083333333333],[-121.35777777777777,36.55083333333333],[-121.35777777777777,36.55083333333333],[-121.26583333333333,36.471944444444446],[-121.25722222222223,36.46472222222223],[-121.25722222222223,36.46472222222223],[-121.17722222222223,36.395833333333336],[-121.15555555555557,36.376111111111115],[-121.08027777777778,36.30277777777778],[-121.08027777777778,36.30277777777778],[-120.98388888888888,36.20888888888889],[-120.88777777777779,36.11472222222223],[-120.88777777777779,36.11472222222223],[-120.88777777777779,36.11472222222223],[-120.79138888888889,36.019999999999996],[-120.79138888888889,36.019999999999996],[-120.76972222222223,35.99861111111111],[-120.69611111111111,35.92611111111111],[-120.67472222222223,35.905],[-120.57916666666667,35.81027777777778],[-120.57916666666667,35.81027777777778],[-120.50472222222223,35.73638888888889],[-120.50472222222223,35.73638888888889],[-120.50472222222223,35.73638888888889],[-120.40805555555556,35.640277777777776],[-120.31166666666667,35.544999999999995],[-120.31166666666667,35.544999999999995],[-120.28583333333333,35.520833333333336],[-120.28583333333333,35.520833333333336],[-120.28583333333333,35.520833333333336],[-120.09583333333333,35.33833333333334],[-120.09583333333333,35.33833333333334],[-120.07,35.31361111111111],[-120.07,35.31361111111111],[-120.07,35.31361111111111],[-119.76833333333333,35.02111111111111],[-119.76833333333333,35.02111111111111],[-119.76833333333333,35.02111111111111],[-119.59527777777777,34.85916666666667],[-119.59527777777777,34.85916666666667],[-119.59527777777777,34.85916666666667],[-119.4863888888889,34.78611111111111],[-119.4863888888889,34.78611111111111],[-119.46138888888889,34.76916666666666],[-119.38055555555555,34.71638888888889],[-119.38055555555555,34.71638888888889],[-119.24972222222222,34.63388888888889],[-119.24972222222222,34.63388888888889],[-119.2,34.6],[-119.16361111111112,34.59111111111111],[-119.16361111111112,34.59111111111111],[-119.16361111111112,34.59111111111111],[-119.03333333333333,34.53333333333333],[-119.03333333333333,34.53333333333333],[-118.98972222222223,34.47944444444445],[-118.96666666666667,34.46666666666667],[-118.96666666666667,34.46666666666667],[-118.89361111111111,34.4475],[-118.89361111111111,34.4475],[-118.89361111111111,34.4475],[-118.63333333333334,34.36666666666667],[-118.63333333333334,34.36666666666667],[-118.58194444444445,34.35916666666667],[-118.58194444444445,34.35916666666667],[-118.58194444444445,34.35916666666667],[-118.52,34.34138888888889],[-118.52,34.34138888888889],[-118.41305555555556,34.3125],[-118.41305555555556,34.3125],[-118.41305555555556,34.3125],[-118.38333333333334,34.28333333333333],[-118.38333333333334,34.28333333333333],[-118.38333333333334,34.28333333333333],[-118.36194444444443,34.217222222222226],[-118.36194444444443,34.217222222222226]],"type":"LineString"}
}
