{
  "id": 2031504173,
  "type": "Feature",
  "properties": {
    "geom:area": 0,
    "geom:bbox": "-122.395090,37.625190,-121.295000,38.394980",
    "geom:latitude": 38.012727108952845,
    "geom:longitude": -121.85513272397209,
    "src:alt_label": "swim-takeoff",
    "src:geom": "swim",
    "swim:elevations": [
      183,
      234,
      791,
      977,
      1281,
      1323,
      1775,
      2157,
      2513,
      2722,
      3136,
      3233,
      3424,
      3620,
      3749,
      3990,
      4377,
      4752,
      4938,
      5133,
      5654,
      5789,
      5981,
      6182,
      6492,
      6891
    ],
    "swim:geom": "takeoff",
    "swim:timestamps": [
      1781099214,
      1781099220,
      1781099270,
      1781099289,
      1781099335,
      1781099341,
      1781099386,
      1781099423,
      1781099456,
      1781099477,
      1781099516,
      1781099536,
      1781099575,
      1781099603,
      1781099617,
      1781099642,
      1781099682,
      1781099725,
      1781099740,
      1781099761,
      1781099816,
      1781099834,
      1781099857,
      1781099882,
      1781099926,
      1781099980
    ],
    "wof:geomhash": "7cc0d5111d930c4b5e4173ee3c39d71a",
    "wof:id": 2031504173,
    "wof:repo": "sfomuseum-data-flights-2026-06"
  },
  "bbox": [
    -122.39509,
    37.62519,
    -121.295,
    38.39498
  ],
  "geometry": {"coordinates":[[-122.39044,37.62519],[-122.39509,37.6279],[-122.37765,37.65867],[-122.36008,37.66518],[-122.30909,37.68361],[-122.30268,37.68595],[-122.24108,37.70781],[-122.19767,37.73575],[-122.16553,37.77046],[-122.1461,37.79209],[-122.10793,37.83528],[-122.08741,37.85835],[-122.03665,37.90106],[-121.9917,37.9314],[-121.96986,37.94608],[-121.92873,37.97472],[-121.86094,38.02157],[-121.78507,38.07179],[-121.75801,38.08998],[-121.72082,38.11484],[-121.6208,38.18182],[-121.58642,38.20485],[-121.54272,38.23404],[-121.495,38.26588],[-121.40829,38.32388],[-121.295,38.39498]],"type":"LineString"}
}
