{
  "id": 2031502177,
  "type": "Feature",
  "properties": {
    "geom:area": 0,
    "geom:bbox": "-122.683333,37.400000,-114.295556,50.543333",
    "geom:latitude": 44.054859919863155,
    "geom:longitude": -119.18198815262501,
    "src:alt_label": "swim-path",
    "src:geom": "swim",
    "swim:altitudes": [
      "264",
      "264",
      "281",
      "281",
      "281",
      "340C",
      "340C",
      "340C",
      "340C",
      "340C",
      "340C",
      "340C",
      "340C",
      "340C",
      "340C",
      "340C",
      "340C",
      "340C",
      "340C",
      "350C",
      "350C",
      "350C",
      "350C",
      "350C",
      "350C",
      "350C",
      "350C",
      "350C",
      "350C",
      "350C",
      "350C",
      "350C",
      "350C",
      "350C",
      "350C",
      "350C",
      "350C",
      "350C",
      "350C",
      "350C",
      "350C",
      "350",
      "350",
      "385",
      "385",
      "385",
      "390C",
      "390C",
      "390C",
      "390C",
      "390C",
      "390C",
      "390C",
      "390C",
      "390C",
      "390C",
      "390C",
      "390C",
      "390C",
      "390C",
      "390C",
      "390C",
      "390C",
      "390C",
      "390C",
      "390C",
      "390C",
      "390C",
      "390C",
      "390C",
      "390C",
      "390C",
      "390C",
      "390C",
      "390C",
      "390C",
      "390C",
      "390C",
      "390C",
      "390C",
      "390C",
      "390C",
      "390C",
      "390C",
      "390C",
      "390C",
      "390C",
      "390C",
      "390C",
      "390C",
      "390C",
      "390C",
      "390C",
      "390C",
      "390C",
      "390C",
      "390",
      "390",
      "380",
      "380",
      "277",
      "277",
      "184",
      "170",
      "170",
      "160",
      "148",
      "142",
      "112",
      "112",
      "110",
      "110",
      "110",
      "110",
      "103",
      "103",
      "099",
      "086",
      "086",
      "069",
      "055",
      "048",
      "048",
      "019",
      "019",
      "019",
      "015",
      "010",
      "010"
    ],
    "swim:geom": "path",
    "swim:speeds": [
      420,
      420,
      436,
      436,
      436,
      434,
      434,
      434,
      434,
      440,
      440,
      440,
      436,
      436,
      437,
      440,
      440,
      440,
      440,
      450,
      453,
      453,
      453,
      453,
      459,
      459,
      459,
      462,
      462,
      458,
      458,
      453,
      453,
      447,
      441,
      439,
      439,
      439,
      439,
      439,
      439,
      439,
      439,
      440,
      440,
      440,
      457,
      457,
      441,
      441,
      441,
      439,
      439,
      439,
      437,
      437,
      433,
      431,
      429,
      433,
      433,
      436,
      436,
      436,
      434,
      434,
      434,
      436,
      436,
      436,
      435,
      433,
      433,
      433,
      432,
      431,
      431,
      430,
      430,
      430,
      429,
      429,
      429,
      429,
      430,
      430,
      430,
      430,
      428,
      429,
      429,
      429,
      429,
      430,
      430,
      430,
      432,
      432,
      430,
      430,
      432,
      432,
      387,
      378,
      378,
      377,
      367,
      370,
      352,
      352,
      334,
      334,
      286,
      271,
      268,
      268,
      269,
      266,
      266,
      244,
      217,
      205,
      205,
      189,
      189,
      189,
      170,
      146,
      146
    ],
    "swim:timestamps": [
      1781150642,
      1781150642,
      1781150702,
      1781150702,
      1781150702,
      1781150942,
      1781150942,
      1781151002,
      1781151002,
      1781151303,
      1781151303,
      1781151363,
      1781151543,
      1781151543,
      1781151603,
      1781151783,
      1781151783,
      1781151844,
      1781151844,
      1781151964,
      1781152084,
      1781152144,
      1781152201,
      1781152201,
      1781152382,
      1781152382,
      1781152382,
      1781152562,
      1781152562,
      1781152682,
      1781152682,
      1781152802,
      1781152802,
      1781152983,
      1781153103,
      1781153223,
      1781153223,
      1781153283,
      1781153403,
      1781153403,
      1781153403,
      1781153463,
      1781153463,
      1781153643,
      1781153643,
      1781153643,
      1781153824,
      1781153824,
      1781154124,
      1781154124,
      1781154124,
      1781154244,
      1781154304,
      1781154304,
      1781154424,
      1781154424,
      1781154545,
      1781154665,
      1781154767,
      1781154785,
      1781154785,
      1781154947,
      1781154947,
      1781154947,
      1781155127,
      1781155127,
      1781155127,
      1781155187,
      1781155266,
      1781155266,
      1781155307,
      1781155427,
      1781155427,
      1781155446,
      1781155487,
      1781155504,
      1781155504,
      1781155744,
      1781155744,
      1781155847,
      1781155864,
      1781155908,
      1781155908,
      1781155924,
      1781156028,
      1781156044,
      1781156044,
      1781156088,
      1781156208,
      1781156328,
      1781156328,
      1781156345,
      1781156345,
      1781156508,
      1781156508,
      1781156508,
      1781156808,
      1781156808,
      1781156988,
      1781156988,
      1781157229,
      1781157229,
      1781157469,
      1781157494,
      1781157494,
      1781157529,
      1781157566,
      1781157589,
      1781157680,
      1781157680,
      1781157709,
      1781157709,
      1781157740,
      1781157829,
      1781157860,
      1781157860,
      1781157889,
      1781157949,
      1781157949,
      1781158040,
      1781158129,
      1781158160,
      1781158160,
      1781158335,
      1781158335,
      1781158335,
      1781158369,
      1781158400,
      1781158400
    ],
    "wof:geomhash": "a0c67eaa2e90dcdd15605db593288396",
    "wof:id": 2031502177,
    "wof:repo": "sfomuseum-data-flights-2026-06"
  },
  "bbox": [
    -122.68333333333334,
    37.4,
    -114.29555555555555,
    50.54333333333333
  ],
  "geometry": {"coordinates":[[-114.29555555555555,50.54333333333333],[-114.29555555555555,50.54333333333333],[-114.35944444444443,50.42444444444444],[-114.35944444444443,50.42444444444444],[-114.35944444444443,50.42444444444444],[-114.64444444444445,49.97555555555556],[-114.64444444444445,49.97555555555556],[-114.74416666666667,49.86944444444445],[-114.74416666666667,49.86944444444445],[-115.22916666666667,49.347500000000004],[-115.22916666666667,49.347500000000004],[-115.32472222222222,49.24333333333333],[-115.60444444444444,48.933055555555555],[-115.60444444444444,48.933055555555555],[-115.69888888888889,48.82805555555556],[-115.99722222222222,48.49166666666667],[-115.99722222222222,48.49166666666667],[-116.08722222222222,48.38944444444444],[-116.08722222222222,48.38944444444444],[-116.27388888888889,48.17527777777777],[-116.46166666666667,47.95777777777778],[-116.55611111111111,47.847500000000004],[-116.64833333333334,47.73888888888889],[-116.64833333333334,47.73888888888889],[-116.91416666666667,47.42444444444444],[-116.91416666666667,47.42444444444444],[-116.91416666666667,47.42444444444444],[-117.19527777777778,47.08722222222222],[-117.19527777777778,47.08722222222222],[-117.3775,46.86527777777778],[-117.3775,46.86527777777778],[-117.55638888888889,46.645833333333336],[-117.55638888888889,46.645833333333336],[-117.8175,46.321111111111115],[-117.98861111111111,46.10638888888889],[-118.15611111111112,45.89416666666666],[-118.15611111111112,45.89416666666666],[-118.23944444444444,45.78777777777778],[-118.40833333333335,45.571111111111115],[-118.40833333333335,45.571111111111115],[-118.40833333333335,45.571111111111115],[-118.49111111111111,45.46416666666667],[-118.49111111111111,45.46416666666667],[-118.74,45.13944444444444],[-118.74,45.13944444444444],[-118.74,45.13944444444444],[-118.99527777777777,44.80166666666666],[-118.99527777777777,44.80166666666666],[-119.40277777777779,44.25388888888889],[-119.40277777777779,44.25388888888889],[-119.40277777777779,44.25388888888889],[-119.56166666666667,44.03722222222222],[-119.64,43.92944444444444],[-119.64,43.92944444444444],[-119.79555555555555,43.71472222222223],[-119.79555555555555,43.71472222222223],[-119.94861111111112,43.50111111111111],[-120.10138888888888,43.28611111111111],[-120.22583333333334,43.115833333333335],[-120.25333333333333,43.07138888888889],[-120.25333333333333,43.07138888888889],[-120.45055555555555,42.788333333333334],[-120.45055555555555,42.788333333333334],[-120.45055555555555,42.788333333333334],[-120.6738888888889,42.46611111111111],[-120.6738888888889,42.46611111111111],[-120.6738888888889,42.46611111111111],[-120.74944444444445,42.35638888888889],[-120.85194444444444,42.20638888888889],[-120.85194444444444,42.20638888888889],[-120.89555555555556,42.14055555555556],[-121.04166666666667,41.92611111111111],[-121.04166666666667,41.92611111111111],[-121.07138888888889,41.882222222222225],[-121.11472222222221,41.81805555555556],[-121.14277777777778,41.77583333333333],[-121.14277777777778,41.77583333333333],[-121.42916666666667,41.34638888888889],[-121.42916666666667,41.34638888888889],[-121.54222222222222,41.17444444444444],[-121.57,41.13194444444444],[-121.6125,41.06722222222223],[-121.6125,41.06722222222223],[-121.64083333333333,41.02388888888889],[-121.74138888888889,40.85194444444445],[-121.76,40.80638888888888],[-121.76,40.80638888888888],[-121.78722222222223,40.73861111111111],[-121.87888888888888,40.51111111111111],[-121.9713888888889,40.280277777777776],[-121.9713888888889,40.280277777777776],[-121.98916666666666,40.23555555555556],[-121.98916666666666,40.23555555555556],[-122.10972222222222,39.9325],[-122.10972222222222,39.9325],[-122.10972222222222,39.9325],[-122.33666666666666,39.35305555555556],[-122.33666666666666,39.35305555555556],[-122.47,39.007777777777775],[-122.47,39.007777777777775],[-122.64194444444445,38.5575],[-122.64194444444445,38.5575],[-122.67611111111111,38.115833333333335],[-122.68333333333334,38.05],[-122.68333333333334,38.05],[-122.67472222222223,37.99055555555556],[-122.66666666666667,37.93333333333333],[-122.66361111111112,37.89527777777778],[-122.53333333333333,37.766666666666666],[-122.53333333333333,37.766666666666666],[-122.50333333333333,37.73888888888889],[-122.50333333333333,37.73888888888889],[-122.46666666666667,37.7],[-122.38333333333334,37.62638888888889],[-122.35,37.583333333333336],[-122.35,37.583333333333336],[-122.33972222222222,37.56166666666666],[-122.30083333333333,37.49527777777778],[-122.30083333333333,37.49527777777778],[-122.23333333333333,37.4],[-122.135,37.41555555555556],[-122.13333333333334,37.45],[-122.13333333333334,37.45],[-122.25,37.56666666666667],[-122.25,37.56666666666667],[-122.25,37.56666666666667],[-122.27,37.57666666666667],[-122.3,37.583333333333336],[-122.3,37.583333333333336]],"type":"LineString"}
}
