{
  "id": 2031514847,
  "type": "Feature",
  "properties": {
    "geom:area": 0,
    "geom:bbox": "-122.530000,37.620000,-87.510000,45.150000",
    "geom:latitude": 41.18714639879178,
    "geom:longitude": -103.73059154571555,
    "src:alt_label": "swim-route",
    "src:geom": "swim",
    "swim:geom": "route",
    "wof:geomhash": "0b28a4b5d9124ea786f73f491f5154d0",
    "wof:id": 2031514847,
    "wof:repo": "sfomuseum-data-flights-2026-06"
  },
  "bbox": [
    -122.53,
    37.62,
    -87.51,
    45.15
  ],
  "geometry": {"coordinates":[[-122.38,37.62],[-122.52,37.68],[-122.52,37.71],[-122.52,37.71],[-122.53,37.8],[-122.53,37.8],[-122.53,37.8],[-122.49,37.82],[-122.43,37.84],[-122.42,37.84],[-122.41,37.84],[-122.34,37.85],[-122.13,37.87],[-121.99,37.89],[-121.86,37.91],[-121.86,37.91],[-121.8,37.91],[-121.77,37.92],[-121.56,37.94],[-121.55,37.94],[-121.34,37.96],[-121.27,37.97],[-121.1,37.99],[-121.09,37.99],[-121.04,38],[-120.92,38.02],[-120.5,38.08],[-120.35,38.11],[-120.19,38.13],[-120.03,38.15],[-119.7,38.2],[-119.18,38.27],[-118.23,38.4],[-118.02,38.43],[-117.29,38.52],[-117.28,38.52],[-116.11,38.48],[-114.33,38.4],[-113.88,38.39],[-113.54,38.38],[-113.2,38.33],[-113.18,38.33],[-111.84,38.46],[-110.74,38.58],[-110.57,38.59],[-110.03,38.68],[-109.98,38.7],[-109.82,38.77],[-108.74,39.19],[-108.65,39.23],[-107.18,39.78],[-106.11,40.17],[-105.11,40.52],[-104.6,40.69],[-103.39,41.09],[-102.01,41.52],[-101.92,41.55],[-100.6,41.94],[-99.27,42.31],[-98.69,42.47],[-98.28,42.73],[-98.09,42.85],[-98.07,42.86],[-97.24,43.37],[-96.78,43.65],[-96.39,43.83],[-96.14,43.95],[-93.88,44.94],[-93.82,44.96],[-93.37,45.15],[-93.27,45.14],[-93.09,45.14],[-92.72,45.14],[-92.5,45.13],[-92.19,45.12],[-92.08,45.12],[-91.77,45.11],[-91.47,45.11],[-90.86,45.07],[-90.72,45.07],[-90.59,45.04],[-90.36,45.04],[-89.72,45.01],[-89.32,44.97],[-89.01,44.83],[-88.65,44.61],[-88.23,44.35],[-88.12,44.29],[-87.8,44.1],[-87.82,44.01],[-87.82,44.01],[-87.72,43.52],[-87.67,43.3],[-87.64,43.14],[-87.63,43.1],[-87.63,43.08],[-87.58,42.83],[-87.52,42.72],[-87.52,42.69],[-87.51,42.53],[-87.51,42.5],[-87.53,42.34],[-87.59,42.28],[-87.61,42.27],[-87.7,42.18],[-87.79,42.09],[-88.03,42.09],[-88.22,42.09],[-88.24,42.09],[-88.28,42.09],[-88.1,42.04],[-88,42],[-87.91,41.98]],"type":"LineString"}
}
