{
  "id": 2031528507,
  "type": "Feature",
  "properties": {
    "geom:area": 0,
    "geom:bbox": "-122.800810,37.383060,-122.119250,38.482190",
    "geom:latitude": 37.796458074725244,
    "geom:longitude": -122.4826423359474,
    "src:alt_label": "swim-approach",
    "src:geom": "swim",
    "swim:elevations": [
      7529,
      7420,
      7136,
      6650,
      6426,
      6150,
      5724,
      5538,
      5224,
      4958,
      4555,
      4403,
      4051,
      3763,
      3669,
      3443,
      3354,
      3353,
      3353,
      3353,
      3244,
      2967,
      2903,
      2851,
      2678,
      2489,
      2320,
      2157,
      1881,
      1774,
      1610,
      1268,
      1147,
      915,
      747,
      729,
      699,
      577,
      397,
      346,
      241,
      68,
      29
    ],
    "swim:geom": "approach",
    "swim:timestamps": [
      1781344945,
      1781344955,
      1781344982,
      1781345030,
      1781345053,
      1781345080,
      1781345127,
      1781345145,
      1781345177,
      1781345204,
      1781345246,
      1781345261,
      1781345300,
      1781345334,
      1781345346,
      1781345378,
      1781345410,
      1781345440,
      1781345468,
      1781345501,
      1781345576,
      1781345605,
      1781345631,
      1781345651,
      1781345682,
      1781345714,
      1781345741,
      1781345773,
      1781345817,
      1781345837,
      1781345861,
      1781345906,
      1781345922,
      1781345965,
      1781345997,
      1781346001,
      1781346007,
      1781346042,
      1781346085,
      1781346101,
      1781346127,
      1781346169,
      1781346180
    ],
    "wof:geomhash": "316897b03b45576af58c4067a93298c9",
    "wof:id": 2031528507,
    "wof:repo": "sfomuseum-data-flights-2026-06"
  },
  "bbox": [
    -122.80081,
    37.38306,
    -122.11925,
    38.48219
  ],
  "geometry": {"coordinates":[[-122.80081,38.48219],[-122.79818,38.46117],[-122.7916,38.41068],[-122.77999,38.32168],[-122.7746,38.27982],[-122.76816,38.22996],[-122.74524,38.14818],[-122.73632,38.11727],[-122.72103,38.06419],[-122.70803,38.01899],[-122.68798,37.9502],[-122.6806,37.92484],[-122.642,37.87008],[-122.59809,37.82858],[-122.58181,37.81305],[-122.54124,37.77459],[-122.50186,37.73749],[-122.46582,37.70365],[-122.43421,37.67413],[-122.39913,37.64107],[-122.33589,37.56359],[-122.32041,37.5295],[-122.30286,37.50126],[-122.28979,37.47965],[-122.27494,37.44534],[-122.27142,37.40927],[-122.24115,37.39137],[-122.19886,37.38306],[-122.14223,37.39341],[-122.12803,37.41144],[-122.11925,37.43649],[-122.14238,37.48198],[-122.15133,37.49763],[-122.17333,37.53491],[-122.20357,37.54725],[-122.20791,37.54845],[-122.21397,37.55078],[-122.24632,37.56464],[-122.28191,37.57966],[-122.29347,37.58458],[-122.31396,37.59303],[-122.34573,37.6064],[-122.35445,37.61002]],"type":"LineString"}
}
