{
  "id": 2031529611,
  "type": "Feature",
  "properties": {
    "geom:area": 0,
    "geom:bbox": "-122.480000,25.800000,-80.290000,37.660000",
    "geom:latitude": 31.212469735991583,
    "geom:longitude": -101.76499139243413,
    "src:alt_label": "swim-route",
    "src:geom": "swim",
    "swim:geom": "route",
    "wof:geomhash": "6a80e9021596a75a8b03008ba25c9390",
    "wof:id": 2031529611,
    "wof:repo": "sfomuseum-data-flights-2026-06"
  },
  "bbox": [
    -122.48,
    25.8,
    -80.29,
    37.66
  ],
  "geometry": {"coordinates":[[-122.38,37.62],[-122.48,37.66],[-122.48,37.66],[-122.48,37.65],[-122.48,37.59],[-122.48,37.59],[-122.48,37.56],[-122.48,37.51],[-122.47,37.5],[-122.47,37.49],[-122.43,37.46],[-122.33,37.4],[-122.17,37.29],[-122.14,37.27],[-122.11,37.25],[-122.05,37.21],[-121.93,37.14],[-121.92,37.13],[-121.85,37.08],[-121.72,37],[-121.66,36.96],[-121.64,36.96],[-121.61,36.95],[-121.59,36.94],[-121.48,36.87],[-121.42,36.83],[-121.29,36.74],[-121.23,36.7],[-121.15,36.65],[-121.04,36.57],[-121.01,36.54],[-120.85,36.44],[-120.84,36.43],[-119.96,35.82],[-119.77,35.69],[-119.4,35.42],[-119.24,35.31],[-119.14,35.24],[-118.75,34.96],[-118.04,34.43],[-118.03,34.42],[-117.35,34.26],[-116.89,34.15],[-116.34,34.01],[-115.59,33.82],[-115.1,33.74],[-114.97,33.66],[-114,33.51],[-114,33.51],[-110.5,32.87],[-109.35,32.63],[-108.77,32.51],[-108.73,32.5],[-108.2,32.39],[-106.27,31.95],[-106.23,31.94],[-104.46,31.61],[-104.2,31.56],[-103.45,31.4],[-103.26,31.37],[-103.21,31.35],[-103.04,31.32],[-102.58,31.22],[-102.46,31.2],[-102.18,31.16],[-100.52,30.92],[-99.58,30.78],[-98.02,30.52],[-97.12,30.36],[-96.91,30.32],[-96,30.15],[-94.86,29.93],[-93.31,29.61],[-92.38,29.42],[-92,29.33],[-90.5,28.99],[-88.12,28.4],[-88.03,28.38],[-88,28.37],[-86.76,28.01],[-86.36,27.89],[-85.52,27.65],[-85.23,27.54],[-85.01,27.47],[-84.79,27.39],[-83.07,26.74],[-82.6,26.56],[-82.41,26.48],[-81.95,26.31],[-81.87,26.27],[-81.79,26.24],[-81.78,26.24],[-81.5,26.12],[-81.4,26.07],[-81.12,25.95],[-81.07,25.93],[-81.04,25.91],[-80.94,25.85],[-80.93,25.85],[-80.92,25.84],[-80.75,25.82],[-80.58,25.81],[-80.57,25.81],[-80.47,25.81],[-80.46,25.81],[-80.42,25.8],[-80.38,25.8],[-80.29,25.8]],"type":"LineString"}
}
