{
  "id": 2031459863,
  "type": "Feature",
  "properties": {
    "geom:area": 0,
    "geom:bbox": "-122.406180,37.624750,-121.254700,37.963720",
    "geom:latitude": 37.83024772032072,
    "geom:longitude": -121.85313120806634,
    "src:alt_label": "swim-takeoff",
    "src:geom": "swim",
    "swim:elevations": [
      183,
      446,
      500,
      757,
      1073,
      1190,
      1582,
      1948,
      2202,
      2677,
      2865,
      3248,
      3395,
      3575,
      3899,
      4290,
      4454,
      4691,
      5071,
      5344,
      5744,
      6052,
      6313,
      6492,
      6596,
      6766,
      7016
    ],
    "swim:geom": "takeoff",
    "swim:timestamps": [
      1780643615,
      1780643638,
      1780643644,
      1780643665,
      1780643695,
      1780643707,
      1780643749,
      1780643779,
      1780643799,
      1780643827,
      1780643845,
      1780643869,
      1780643885,
      1780643919,
      1780643960,
      1780643992,
      1780644003,
      1780644024,
      1780644058,
      1780644084,
      1780644118,
      1780644144,
      1780644172,
      1780644184,
      1780644205,
      1780644228,
      1780644246
    ],
    "wof:geomhash": "d16c477e970cc4de3b406ed969690bd2",
    "wof:id": 2031459863,
    "wof:repo": "sfomuseum-data-flights-2026-06"
  },
  "bbox": [
    -122.40618,
    37.62475,
    -121.2547,
    37.96372
  ],
  "geometry": {"coordinates":[[-122.38969,37.62475],[-122.4054,37.63768],[-122.40618,37.64241],[-122.39645,37.6566],[-122.36735,37.66583],[-122.35387,37.67014],[-122.30295,37.6872],[-122.26033,37.70191],[-122.2307,37.71203],[-122.18951,37.73038],[-122.16436,37.74414],[-122.13024,37.76171],[-122.10694,37.77339],[-122.04913,37.80345],[-121.96836,37.83377],[-121.89611,37.84606],[-121.87028,37.85108],[-121.82086,37.86024],[-121.73872,37.87566],[-121.67501,37.88697],[-121.59145,37.90223],[-121.52525,37.9142],[-121.4518,37.92766],[-121.42177,37.93315],[-121.36784,37.94314],[-121.30366,37.95504],[-121.2547,37.96372]],"type":"LineString"}
}
