{
  "id": 2031440497,
  "type": "Feature",
  "properties": {
    "geom:area": 0,
    "geom:bbox": "-123.530000,37.620000,-122.120000,49.190000",
    "geom:latitude": 43.74892052986357,
    "geom:longitude": -122.32105546369304,
    "src:alt_label": "swim-route",
    "src:geom": "swim",
    "swim:geom": "route",
    "wof:geomhash": "4a2667ed2cee7b96d040d071bfa8a986",
    "wof:id": 2031440497,
    "wof:repo": "sfomuseum-data-flights-2026-06"
  },
  "bbox": [
    -123.53,
    37.62,
    -122.12,
    49.19
  ],
  "geometry": {"coordinates":[[-122.38,37.62],[-122.51,37.68],[-122.51,37.68],[-122.52,37.68],[-122.53,37.74],[-122.53,37.74],[-122.53,37.77],[-122.53,37.8],[-122.52,37.81],[-122.5,37.82],[-122.43,37.84],[-122.39,37.91],[-122.29,38.06],[-122.27,38.09],[-122.24,38.14],[-122.19,38.21],[-122.12,38.31],[-122.12,38.5],[-122.12,38.51],[-122.12,38.67],[-122.13,38.81],[-122.13,38.88],[-122.13,39.12],[-122.13,39.21],[-122.13,39.29],[-122.13,39.34],[-122.13,39.38],[-122.14,39.7],[-122.14,39.91],[-122.14,39.91],[-122.16,41.26],[-122.2,43.67],[-122.24,46],[-122.25,46.62],[-122.27,47.45],[-122.27,47.54],[-122.27,47.62],[-122.28,47.82],[-122.28,47.92],[-122.29,47.97],[-122.31,48.04],[-122.39,48.3],[-122.46,48.54],[-122.46,48.54],[-122.51,48.71],[-122.55,48.73],[-122.63,48.79],[-122.69,48.82],[-122.79,48.89],[-122.91,48.97],[-122.97,49],[-123.06,49.06],[-123.19,49.1],[-123.26,49.1],[-123.27,49.1],[-123.51,49.13],[-123.53,49.13],[-123.53,49.13],[-123.43,49.15],[-123.35,49.16],[-123.31,49.17],[-123.18,49.19]],"type":"LineString"}
}
