{
  "id": 2031517883,
  "type": "Feature",
  "properties": {
    "geom:area": 0,
    "geom:bbox": "-122.380000,37.490000,-83.350000,42.470000",
    "geom:latitude": 40.81471915237491,
    "geom:longitude": -102.94046408889761,
    "src:alt_label": "swim-route",
    "src:geom": "swim",
    "swim:geom": "route",
    "wof:geomhash": "b9cedff7c6247fd07400271584a725a3",
    "wof:id": 2031517883,
    "wof:repo": "sfomuseum-data-flights-2026-06"
  },
  "bbox": [
    -122.38,
    37.49,
    -83.35,
    42.47
  ],
  "geometry": {"coordinates":[[-83.35,42.21],[-83.37,42.27],[-83.37,42.3],[-83.37,42.3],[-83.38,42.32],[-84,42.33],[-84.16,42.38],[-84.33,42.43],[-84.33,42.43],[-84.36,42.43],[-84.52,42.44],[-84.6,42.44],[-84.62,42.44],[-84.63,42.44],[-84.84,42.44],[-84.95,42.45],[-84.96,42.45],[-85,42.45],[-85.14,42.45],[-85.32,42.45],[-85.5,42.46],[-86.13,42.47],[-87,42.47],[-87.45,42.47],[-88.69,42.45],[-89.53,42.44],[-90.71,42.4],[-91.27,42.4],[-91.55,42.4],[-93.13,42.37],[-93.18,42.37],[-96.31,42.25],[-99.08,42.07],[-100,42],[-101.98,41.71],[-103.92,41.39],[-104.56,41.27],[-104.78,41.23],[-105.73,41.05],[-106,41],[-106.44,40.9],[-107.81,40.59],[-108.03,40.54],[-108.59,40.4],[-109.15,40.26],[-109.22,40.24],[-112,39.5],[-112.44,39.39],[-112.88,39.28],[-113.32,39.17],[-113.54,39.11],[-115.94,38.45],[-116.33,38.33],[-117.18,38.14],[-117.27,38.12],[-117.27,38.12],[-117.61,38.04],[-117.77,38],[-118.32,38.08],[-119.02,38.03],[-119.13,38.01],[-119.15,38.01],[-119.52,37.92],[-119.59,37.9],[-119.83,37.84],[-120,37.8],[-120.06,37.79],[-120.26,37.73],[-120.28,37.73],[-120.38,37.71],[-120.4,37.7],[-120.75,37.66],[-120.78,37.66],[-120.83,37.65],[-120.96,37.63],[-121,37.63],[-121.08,37.62],[-121.18,37.6],[-121.26,37.59],[-121.39,37.58],[-121.41,37.58],[-121.6,37.55],[-121.61,37.55],[-121.62,37.55],[-121.7,37.53],[-121.8,37.51],[-121.83,37.5],[-121.88,37.49],[-122.08,37.54],[-122.14,37.56],[-122.18,37.57],[-122.28,37.59],[-122.33,37.61],[-122.36,37.61],[-122.38,37.62]],"type":"LineString"}
}
