{
  "id": 2031446377,
  "type": "Feature",
  "properties": {
    "geom:area": 0,
    "geom:bbox": "-122.353930,37.491770,-121.699050,37.612100",
    "geom:latitude": 37.52608223798629,
    "geom:longitude": -122.03116059538348,
    "src:alt_label": "swim-approach",
    "src:geom": "swim",
    "swim:elevations": [
      2853,
      2622,
      2408,
      2305,
      2284,
      2212,
      1912,
      1879,
      1737,
      1522,
      1317,
      1271,
      1176,
      991,
      828,
      641,
      608,
      548,
      459,
      336,
      243,
      182,
      40
    ],
    "swim:geom": "approach",
    "swim:timestamps": [
      1780598945,
      1780598976,
      1780599024,
      1780599053,
      1780599056,
      1780599067,
      1780599114,
      1780599123,
      1780599155,
      1780599184,
      1780599213,
      1780599221,
      1780599243,
      1780599282,
      1780599305,
      1780599344,
      1780599352,
      1780599362,
      1780599380,
      1780599409,
      1780599436,
      1780599450,
      1780599487
    ],
    "wof:geomhash": "8d70ac0d011e76cce6ce078b068956d4",
    "wof:id": 2031446377,
    "wof:repo": "sfomuseum-data-flights-2026-06"
  },
  "bbox": [
    -122.35393,
    37.49177,
    -121.69905,
    37.6121
  ],
  "geometry": {"coordinates":[[-121.69905,37.53293],[-121.74828,37.5212],[-121.82119,37.50383],[-121.86338,37.49386],[-121.86775,37.49305],[-121.88312,37.49177],[-121.95386,37.49555],[-121.96711,37.49619],[-122.01374,37.49888],[-122.05293,37.50109],[-122.09358,37.50398],[-122.10412,37.50674],[-122.13034,37.5173],[-122.17474,37.53631],[-122.19908,37.54729],[-122.23819,37.56343],[-122.24536,37.56653],[-122.2551,37.57072],[-122.27086,37.57736],[-122.29416,37.58712],[-122.31474,37.59573],[-122.32639,37.6006],[-122.35393,37.6121]],"type":"LineString"}
}
