{
  "id": 2031528721,
  "type": "Feature",
  "properties": {
    "geom:area": 0,
    "geom:bbox": "-122.841440,37.355750,-122.119600,38.475470",
    "geom:latitude": 37.75241773235737,
    "geom:longitude": -122.47380145531207,
    "src:alt_label": "swim-approach",
    "src:geom": "swim",
    "swim:elevations": [
      8108,
      7925,
      7396,
      7088,
      6651,
      6353,
      5998,
      5735,
      5591,
      5292,
      4897,
      4514,
      4392,
      4177,
      3999,
      3969,
      3809,
      3663,
      3557,
      3469,
      3436,
      3353,
      3359,
      3313,
      3097,
      3032,
      2865,
      2711,
      2478,
      2320,
      2273,
      2134,
      2134,
      1936,
      1829,
      1829,
      1829,
      1829,
      1829,
      1782,
      1660,
      1384,
      1333,
      1216,
      985,
      792,
      792,
      792,
      690,
      600,
      473,
      385,
      162,
      132,
      211
    ],
    "swim:geom": "approach",
    "swim:timestamps": [
      1781339992,
      1781340009,
      1781340053,
      1781340078,
      1781340118,
      1781340145,
      1781340178,
      1781340201,
      1781340216,
      1781340242,
      1781340277,
      1781340312,
      1781340326,
      1781340357,
      1781340385,
      1781340393,
      1781340426,
      1781340456,
      1781340478,
      1781340492,
      1781340496,
      1781340534,
      1781340549,
      1781340591,
      1781340627,
      1781340641,
      1781340683,
      1781340711,
      1781340746,
      1781340770,
      1781340782,
      1781340807,
      1781340813,
      1781340851,
      1781340891,
      1781340913,
      1781340939,
      1781340976,
      1781340989,
      1781341010,
      1781341026,
      1781341071,
      1781341082,
      1781341115,
      1781341157,
      1781341198,
      1781341219,
      1781341240,
      1781341270,
      1781341295,
      1781341324,
      1781341350,
      1781341407,
      1781341416,
      1781341456
    ],
    "wof:geomhash": "d19f4fd8701ffec60b2cf5127ce61423",
    "wof:id": 2031528721,
    "wof:repo": "sfomuseum-data-flights-2026-06"
  },
  "bbox": [
    -122.84144,
    37.35575,
    -122.1196,
    38.47547
  ],
  "geometry": {"coordinates":[[-122.84144,38.47547],[-122.83144,38.44228],[-122.80613,38.35668],[-122.79214,38.30879],[-122.77085,38.23643],[-122.75674,38.18791],[-122.74035,38.13062],[-122.72819,38.08946],[-122.7208,38.06406],[-122.70827,38.02072],[-122.69154,37.96233],[-122.67167,37.90569],[-122.65794,37.88613],[-122.61933,37.84861],[-122.58558,37.81666],[-122.57647,37.80802],[-122.54167,37.77504],[-122.51092,37.74607],[-122.48977,37.72629],[-122.47654,37.71393],[-122.47182,37.7095],[-122.43402,37.67419],[-122.41974,37.66069],[-122.37694,37.62004],[-122.34603,37.58325],[-122.33758,37.56775],[-122.31508,37.52041],[-122.29846,37.49197],[-122.31455,37.45442],[-122.34695,37.44453],[-122.36384,37.44077],[-122.39378,37.42681],[-122.39827,37.42089],[-122.38939,37.38183],[-122.3396,37.36667],[-122.31053,37.36],[-122.27533,37.35575],[-122.23069,37.36464],[-122.2157,37.36768],[-122.19024,37.37294],[-122.17139,37.37693],[-122.13571,37.40547],[-122.12989,37.41613],[-122.1196,37.44595],[-122.14112,37.48338],[-122.1618,37.51735],[-122.17293,37.53197],[-122.19066,37.54156],[-122.21801,37.55271],[-122.24005,37.56209],[-122.26499,37.57237],[-122.28549,37.58119],[-122.32712,37.59845],[-122.33331,37.601],[-122.36162,37.61261]],"type":"LineString"}
}
