{
  "id": 2031452209,
  "type": "Feature",
  "properties": {
    "geom:area": 0,
    "geom:bbox": "-123.178820,37.627440,-122.396170,38.506770",
    "geom:latitude": 38.0057143680333,
    "geom:longitude": -122.86490258212278,
    "src:alt_label": "swim-takeoff",
    "src:geom": "swim",
    "swim:elevations": [
      152,
      518,
      652,
      900,
      1152,
      1275,
      1566,
      1825,
      2215,
      2521,
      2801,
      3033,
      3161,
      3233,
      3376,
      3654,
      3897,
      4071,
      4446,
      4586,
      4909,
      5258,
      5369,
      5716,
      6134,
      6295,
      6462,
      6722
    ],
    "swim:geom": "takeoff",
    "swim:timestamps": [
      1780600961,
      1780600997,
      1780601016,
      1780601042,
      1780601087,
      1780601109,
      1780601146,
      1780601170,
      1780601213,
      1780601244,
      1780601269,
      1780601292,
      1780601307,
      1780601318,
      1780601346,
      1780601394,
      1780601421,
      1780601439,
      1780601481,
      1780601500,
      1780601535,
      1780601573,
      1780601585,
      1780601620,
      1780601667,
      1780601689,
      1780601706,
      1780601739
    ],
    "wof:geomhash": "897049c85a4832c620333b100ffd2416",
    "wof:id": 2031452209,
    "wof:repo": "sfomuseum-data-flights-2026-06"
  },
  "bbox": [
    -123.17882,
    37.62744,
    -122.39617,
    38.50677
  ],
  "geometry": {"coordinates":[[-122.39617,37.62744],[-122.42908,37.64115],[-122.44744,37.64919],[-122.47313,37.66086],[-122.52,37.68396],[-122.54436,37.69876],[-122.59027,37.72535],[-122.62097,37.74367],[-122.67496,37.77535],[-122.71576,37.79941],[-122.74931,37.81953],[-122.77302,37.84269],[-122.78588,37.85944],[-122.79688,37.87247],[-122.82458,37.90511],[-122.87713,37.96792],[-122.9077,38.00479],[-122.92795,38.02953],[-122.97662,38.08778],[-122.99928,38.11444],[-123.04094,38.16446],[-123.08854,38.22122],[-123.10201,38.23813],[-123.13676,38.29487],[-123.16944,38.37391],[-123.17264,38.41283],[-123.17486,38.44603],[-123.17882,38.50677]],"type":"LineString"}
}
