{
  "id": 2031431443,
  "type": "Feature",
  "properties": {
    "geom:area": 0,
    "geom:bbox": "-122.533333,33.276944,-111.793889,37.650000",
    "geom:latitude": 34.7806355116277,
    "geom:longitude": -117.33380435379657,
    "src:alt_label": "swim-path",
    "src:geom": "swim",
    "swim:altitudes": [
      "027",
      "067",
      "067",
      "111",
      "132",
      "153",
      "171",
      "170",
      "170",
      "170",
      "196",
      "196",
      "196",
      "224",
      "224",
      "224",
      "238",
      "238",
      "238",
      "250",
      "250",
      "250",
      "250",
      "250",
      "270",
      "270",
      "283",
      "283",
      "290",
      "290",
      "290",
      "310",
      "310",
      "310",
      "326",
      "337",
      "337",
      "349",
      "349",
      "349",
      "368C",
      "368C",
      "370C",
      "370C",
      "370C",
      "370C",
      "370C",
      "370C",
      "370C",
      "370C",
      "370C",
      "370C",
      "370C",
      "370C",
      "370C",
      "370C",
      "370C",
      "370C",
      "370C",
      "370C",
      "370C",
      "370C",
      "370C",
      "370C",
      "370C",
      "370C",
      "370C",
      "370C",
      "370C",
      "370C",
      "370C",
      "370C",
      "370C",
      "370C",
      "370C",
      "370C",
      "370C",
      "370C",
      "371C",
      "368",
      "368",
      "368",
      "349",
      "349",
      "339",
      "339",
      "326",
      "326",
      "314",
      "314",
      "314",
      "250",
      "231",
      "231",
      "231",
      "231",
      "200",
      "190",
      "190",
      "169",
      "169",
      "169",
      "156",
      "156",
      "156",
      "139",
      "128",
      "128",
      "128",
      "123",
      "123",
      "112",
      "106",
      "097",
      "090",
      "090",
      "091",
      "077",
      "070",
      "070",
      "058",
      "058",
      "058",
      "051",
      "046",
      "046",
      "042",
      "042",
      "042",
      "042",
      "040",
      "031",
      "017",
      "014",
      "012",
      "012",
      "012"
    ],
    "swim:geom": "path",
    "swim:speeds": [
      182,
      281,
      281,
      325,
      345,
      358,
      375,
      361,
      361,
      361,
      420,
      420,
      420,
      443,
      443,
      443,
      450,
      450,
      444,
      459,
      459,
      459,
      459,
      453,
      468,
      468,
      501,
      501,
      494,
      494,
      494,
      498,
      498,
      498,
      491,
      489,
      489,
      487,
      487,
      487,
      483,
      483,
      482,
      482,
      482,
      481,
      481,
      479,
      479,
      479,
      476,
      475,
      475,
      472,
      472,
      472,
      471,
      471,
      471,
      470,
      470,
      470,
      463,
      463,
      462,
      462,
      462,
      463,
      463,
      465,
      465,
      465,
      465,
      472,
      472,
      465,
      465,
      464,
      464,
      461,
      461,
      461,
      449,
      449,
      451,
      451,
      456,
      456,
      448,
      448,
      448,
      422,
      417,
      417,
      417,
      417,
      388,
      382,
      382,
      367,
      367,
      367,
      331,
      331,
      331,
      296,
      299,
      299,
      299,
      301,
      301,
      301,
      303,
      301,
      278,
      278,
      263,
      255,
      248,
      248,
      247,
      247,
      247,
      238,
      208,
      208,
      186,
      186,
      186,
      186,
      178,
      169,
      143,
      142,
      142,
      142,
      142
    ],
    "swim:timestamps": [
      1780448561,
      1780448681,
      1780448681,
      1780448823,
      1780448883,
      1780448943,
      1780449003,
      1780449010,
      1780449010,
      1780449010,
      1780449123,
      1780449123,
      1780449123,
      1780449243,
      1780449243,
      1780449243,
      1780449303,
      1780449303,
      1780449310,
      1780449363,
      1780449363,
      1780449363,
      1780449363,
      1780449370,
      1780449490,
      1780449490,
      1780449551,
      1780449551,
      1780449604,
      1780449604,
      1780449604,
      1780449731,
      1780449731,
      1780449731,
      1780449791,
      1780449851,
      1780449851,
      1780449911,
      1780449911,
      1780449911,
      1780450024,
      1780450024,
      1780450091,
      1780450091,
      1780450091,
      1780450151,
      1780450151,
      1780450211,
      1780450211,
      1780450211,
      1780450332,
      1780450385,
      1780450385,
      1780450512,
      1780450512,
      1780450512,
      1780450565,
      1780450572,
      1780450572,
      1780450632,
      1780450632,
      1780450632,
      1780450812,
      1780450812,
      1780450872,
      1780450872,
      1780450872,
      1780451053,
      1780451053,
      1780451173,
      1780451173,
      1780451173,
      1780451173,
      1780451413,
      1780451413,
      1780451533,
      1780451533,
      1780451654,
      1780451714,
      1780451774,
      1780451774,
      1780451774,
      1780451894,
      1780451894,
      1780451954,
      1780451954,
      1780452375,
      1780452375,
      1780452435,
      1780452435,
      1780452435,
      1780452675,
      1780452735,
      1780452735,
      1780452735,
      1780452735,
      1780452915,
      1780452976,
      1780452976,
      1780453096,
      1780453096,
      1780453096,
      1780453180,
      1780453180,
      1780453180,
      1780453306,
      1780453398,
      1780453398,
      1780453398,
      1780453420,
      1780453420,
      1780453518,
      1780453540,
      1780453578,
      1780453660,
      1780453660,
      1780453698,
      1780453759,
      1780453819,
      1780453819,
      1780453879,
      1780453879,
      1780453879,
      1780453894,
      1780453939,
      1780453939,
      1780453954,
      1780453954,
      1780453954,
      1780453954,
      1780453999,
      1780454060,
      1780454180,
      1780454194,
      1780454240,
      1780454240,
      1780454240
    ],
    "wof:geomhash": "20cdce0cbd2e31faee69462f834e077b",
    "wof:id": 2031431443,
    "wof:repo": "sfomuseum-data-flights-2026-06"
  },
  "bbox": [
    -122.53333333333333,
    33.276944444444446,
    -111.79388888888889,
    37.65
  ],
  "geometry": {"coordinates":[[-122.45,37.65],[-122.53333333333333,37.6],[-122.53333333333333,37.6],[-122.415,37.45166666666667],[-122.32111111111111,37.391666666666666],[-122.22416666666666,37.32916666666667],[-122.12249999999999,37.263333333333335],[-122.11472222222221,37.264722222222225],[-122.11472222222221,37.264722222222225],[-122.11472222222221,37.264722222222225],[-121.9025,37.12027777777778],[-121.9025,37.12027777777778],[-121.9025,37.12027777777778],[-121.66833333333334,36.96638888888889],[-121.66833333333334,36.96638888888889],[-121.66833333333334,36.96638888888889],[-121.54722222222222,36.88666666666666],[-121.54722222222222,36.88666666666666],[-121.53888888888889,36.88527777777778],[-121.41472222222222,36.799166666666665],[-121.41472222222222,36.799166666666665],[-121.41472222222222,36.799166666666665],[-121.41472222222222,36.799166666666665],[-121.41555555555556,36.80333333333333],[-121.16444444444446,36.63527777777778],[-121.16444444444446,36.63527777777778],[-121.00638888888889,36.526666666666664],[-121.00638888888889,36.526666666666664],[-120.89750000000001,36.453611111111115],[-120.89750000000001,36.453611111111115],[-120.89750000000001,36.453611111111115],[-120.6363888888889,36.278888888888886],[-120.6363888888889,36.278888888888886],[-120.6363888888889,36.278888888888886],[-120.50583333333333,36.19083333333333],[-120.37805555555555,36.10472222222222],[-120.37805555555555,36.10472222222222],[-120.24972222222222,36.0175],[-120.24972222222222,36.0175],[-120.24972222222222,36.0175],[-119.99194444444444,35.84166666666667],[-119.99194444444444,35.84166666666667],[-119.87027777777777,35.75611111111111],[-119.87027777777777,35.75611111111111],[-119.87027777777777,35.75611111111111],[-119.74527777777777,35.66777777777777],[-119.74527777777777,35.66777777777777],[-119.62055555555555,35.57972222222222],[-119.62055555555555,35.57972222222222],[-119.62055555555555,35.57972222222222],[-119.37638888888888,35.40611111111111],[-119.25166666666667,35.316944444444445],[-119.25166666666667,35.316944444444445],[-119.015,35.146388888888886],[-119.015,35.146388888888886],[-119.015,35.146388888888886],[-118.8913888888889,35.0575],[-118.89555555555556,35.06027777777778],[-118.89555555555556,35.06027777777778],[-118.77666666666667,34.97416666666667],[-118.77666666666667,34.97416666666667],[-118.77666666666667,34.97416666666667],[-118.42027777777778,34.71388888888889],[-118.42027777777778,34.71388888888889],[-118.30527777777777,34.629444444444445],[-118.30527777777777,34.629444444444445],[-118.30527777777777,34.629444444444445],[-117.93555555555555,34.402499999999996],[-117.93555555555555,34.402499999999996],[-117.62444444444444,34.32638888888889],[-117.62444444444444,34.32638888888889],[-117.62444444444444,34.32638888888889],[-117.62444444444444,34.32638888888889],[-117.03138888888888,34.181666666666665],[-117.03138888888888,34.181666666666665],[-116.72333333333333,34.105000000000004],[-116.72333333333333,34.105000000000004],[-116.42666666666668,34.03055555555555],[-116.27694444444444,33.99277777777778],[-116.12805555555555,33.95472222222222],[-116.12805555555555,33.95472222222222],[-116.12805555555555,33.95472222222222],[-115.84166666666667,33.88111111111111],[-115.84166666666667,33.88111111111111],[-115.69555555555556,33.843333333333334],[-115.69555555555556,33.843333333333334],[-114.68111111111112,33.580555555555556],[-114.68111111111112,33.580555555555556],[-114.53722222222223,33.55277777777778],[-114.53722222222223,33.55277777777778],[-114.53722222222223,33.55277777777778],[-113.97222222222223,33.44083333333333],[-113.83638888888889,33.413888888888884],[-113.83638888888889,33.413888888888884],[-113.83638888888889,33.413888888888884],[-113.83638888888889,33.413888888888884],[-113.45277777777778,33.336111111111116],[-113.32805555555555,33.31444444444444],[-113.32805555555555,33.31444444444444],[-113.08638888888889,33.276944444444446],[-113.08638888888889,33.276944444444446],[-113.08638888888889,33.276944444444446],[-112.91666666666667,33.28333333333333],[-112.91666666666667,33.28333333333333],[-112.91666666666667,33.28333333333333],[-112.71666666666667,33.28333333333333],[-112.57083333333333,33.30444444444444],[-112.57083333333333,33.30444444444444],[-112.57083333333333,33.30444444444444],[-112.51666666666667,33.31666666666667],[-112.51666666666667,33.31666666666667],[-112.37222222222222,33.322500000000005],[-112.31666666666666,33.333333333333336],[-112.27305555555556,33.331944444444446],[-112.13333333333334,33.35],[-112.13333333333334,33.35],[-112.08444444444444,33.34805555555556],[-112.00055555555555,33.34666666666667],[-111.91916666666667,33.345555555555556],[-111.91916666666667,33.345555555555556],[-111.83694444444444,33.344166666666666],[-111.83694444444444,33.344166666666666],[-111.83694444444444,33.344166666666666],[-111.8,33.35],[-111.79388888888889,33.38361111111111],[-111.79388888888889,33.38361111111111],[-111.8,33.4],[-111.8,33.4],[-111.8,33.4],[-111.8,33.4],[-111.81194444444444,33.42638888888889],[-111.86444444444444,33.44027777777777],[-111.96277777777777,33.440555555555555],[-111.98333333333333,33.43333333333333],[-112.00583333333333,33.44083333333333],[-112.00583333333333,33.44083333333333],[-112.00583333333333,33.44083333333333]],"type":"LineString"}
}
