{
  "id": 2031480127,
  "type": "Feature",
  "properties": {
    "geom:area": 0,
    "geom:bbox": "-122.357778,32.783333,-97.050000,38.333889",
    "geom:latitude": 36.433503713980194,
    "geom:longitude": -109.58493620047928,
    "src:alt_label": "swim-path",
    "src:geom": "swim",
    "swim:altitudes": [
      "028",
      "028",
      "028",
      "031",
      "034",
      "034",
      "087",
      "087",
      "092",
      "092",
      "104",
      "104",
      "157",
      "174",
      "174",
      "174",
      "189",
      "189",
      "189",
      "234",
      "234",
      "234",
      "234",
      "273",
      "273",
      "281",
      "281",
      "281",
      "294",
      "294",
      "294",
      "309",
      "309",
      "315",
      "315",
      "315",
      "315",
      "321",
      "321",
      "330",
      "330",
      "330",
      "340C",
      "340C",
      "340C",
      "340C",
      "340C",
      "340C",
      "340C",
      "340C",
      "340C",
      "340C",
      "340C",
      "340C",
      "340C",
      "340C",
      "340C",
      "340C",
      "340C",
      "340C",
      "340C",
      "340C",
      "340C",
      "340C",
      "340C",
      "340C",
      "340C",
      "340C",
      "340C",
      "340C",
      "340C",
      "340C",
      "340C",
      "340C",
      "340C",
      "340C",
      "340C",
      "340C",
      "340C",
      "340C",
      "340C",
      "340C",
      "340C",
      "340C",
      "340C",
      "340C",
      "340C",
      "340C",
      "340C",
      "340C",
      "340C",
      "340C",
      "340C",
      "340C",
      "340C",
      "340C",
      "340C",
      "340C",
      "339C",
      "340C",
      "340C",
      "340C",
      "340C",
      "340C",
      "340C",
      "340C",
      "340C",
      "340C",
      "340C",
      "341C",
      "341C",
      "341C",
      "341C",
      "341C",
      "340C",
      "340C",
      "340C",
      "340C",
      "340C",
      "340C",
      "340C",
      "340C",
      "340C",
      "340C",
      "340C",
      "340C",
      "340C",
      "340C",
      "340C",
      "340C",
      "340C",
      "340C",
      "340C",
      "340C",
      "340C",
      "340C",
      "340C",
      "340C",
      "340C",
      "340C",
      "340C",
      "340C",
      "340C",
      "340C",
      "340C",
      "340C",
      "340C",
      "340C",
      "340C",
      "340C",
      "340C",
      "340C",
      "340C",
      "341C",
      "341C",
      "341C",
      "341C",
      "340C",
      "340C",
      "340C",
      "340C",
      "340C",
      "340C",
      "340C",
      "340C",
      "340C",
      "340C",
      "340C",
      "340C",
      "340C",
      "340C",
      "340C",
      "340C",
      "340C",
      "341C",
      "341C",
      "341C",
      "341C",
      "340C",
      "340C",
      "340C",
      "340C",
      "340C",
      "340C",
      "340C",
      "340C",
      "340C",
      "340C",
      "340C",
      "340C",
      "340C",
      "341C",
      "341C",
      "341C",
      "341C",
      "340C",
      "340C",
      "340C",
      "340C",
      "340C",
      "340C",
      "340C",
      "340C",
      "340C",
      "340C",
      "340C",
      "340C",
      "340C",
      "340C",
      "340C",
      "340C",
      "341C",
      "341C",
      "341C",
      "340C",
      "340C",
      "341C",
      "340C",
      "340C",
      "340C",
      "340C",
      "340C",
      "340C",
      "340C",
      "340C",
      "340C",
      "340C",
      "340C",
      "340C",
      "340C",
      "340C",
      "340C",
      "340C",
      "340C",
      "340C",
      "340C",
      "340C",
      "340C",
      "340C",
      "340C",
      "340C",
      "341C",
      "340C",
      "340C",
      "340C",
      "340C",
      "340C",
      "340C",
      "340C",
      "340C",
      "337",
      "337",
      "325",
      "325",
      "320C",
      "320C",
      "320C",
      "320C",
      "320C",
      "320C",
      "320C",
      "320C",
      "320C",
      "320C",
      "320C",
      "320C",
      "320C",
      "320C",
      "320C",
      "320C",
      "320C",
      "320C",
      "318",
      "318",
      "318",
      "307",
      "307",
      "300C",
      "300C",
      "300C",
      "300C",
      "300C",
      "300C",
      "299",
      "299",
      "284",
      "276",
      "276",
      "263",
      "256",
      "256",
      "243",
      "243",
      "236",
      "236",
      "227",
      "227",
      "220",
      "220",
      "151",
      "151",
      "140",
      "140",
      "132",
      "122",
      "122",
      "105",
      "095",
      "095",
      "095",
      "092",
      "092",
      "088",
      "072",
      "072",
      "070",
      "070",
      "070",
      "070",
      "070",
      "069",
      "059",
      "046",
      "046",
      "046",
      "038",
      "034",
      "034",
      "034",
      "025",
      "025",
      "017",
      "017",
      "017",
      "017",
      "007",
      "007",
      "80"
    ],
    "swim:geom": "path",
    "swim:speeds": [
      174,
      174,
      174,
      215,
      244,
      244,
      291,
      291,
      301,
      301,
      302,
      302,
      389,
      394,
      394,
      394,
      396,
      396,
      396,
      420,
      420,
      420,
      420,
      444,
      444,
      447,
      447,
      447,
      451,
      451,
      451,
      447,
      447,
      436,
      436,
      436,
      436,
      438,
      438,
      441,
      441,
      441,
      438,
      438,
      438,
      433,
      433,
      434,
      434,
      434,
      436,
      438,
      438,
      438,
      433,
      433,
      427,
      426,
      426,
      426,
      425,
      425,
      425,
      425,
      425,
      425,
      425,
      425,
      425,
      425,
      426,
      426,
      426,
      426,
      426,
      426,
      426,
      427,
      427,
      427,
      427,
      429,
      429,
      429,
      429,
      429,
      429,
      429,
      429,
      428,
      428,
      428,
      429,
      429,
      430,
      430,
      426,
      426,
      425,
      423,
      423,
      423,
      424,
      424,
      424,
      421,
      421,
      425,
      422,
      423,
      423,
      424,
      424,
      423,
      422,
      419,
      419,
      419,
      419,
      418,
      418,
      419,
      419,
      419,
      420,
      420,
      420,
      419,
      418,
      418,
      420,
      420,
      420,
      423,
      423,
      423,
      428,
      428,
      431,
      430,
      430,
      429,
      429,
      424,
      424,
      424,
      424,
      424,
      425,
      425,
      425,
      425,
      425,
      431,
      431,
      438,
      438,
      436,
      436,
      436,
      431,
      433,
      433,
      433,
      433,
      428,
      428,
      428,
      425,
      425,
      425,
      427,
      427,
      427,
      430,
      433,
      433,
      433,
      435,
      435,
      434,
      434,
      434,
      433,
      433,
      433,
      432,
      432,
      432,
      432,
      431,
      429,
      429,
      429,
      429,
      426,
      425,
      425,
      424,
      424,
      424,
      425,
      425,
      425,
      423,
      423,
      422,
      422,
      423,
      423,
      423,
      429,
      429,
      429,
      429,
      429,
      434,
      435,
      435,
      437,
      437,
      437,
      418,
      418,
      418,
      416,
      416,
      412,
      416,
      416,
      416,
      412,
      412,
      412,
      412,
      411,
      411,
      411,
      412,
      412,
      412,
      415,
      415,
      415,
      415,
      414,
      414,
      412,
      412,
      412,
      408,
      408,
      409,
      409,
      402,
      402,
      400,
      400,
      400,
      391,
      390,
      390,
      390,
      392,
      391,
      391,
      389,
      389,
      388,
      388,
      393,
      393,
      396,
      396,
      396,
      394,
      394,
      384,
      384,
      384,
      385,
      385,
      381,
      383,
      383,
      422,
      419,
      419,
      413,
      408,
      408,
      390,
      390,
      389,
      389,
      366,
      366,
      367,
      367,
      342,
      342,
      341,
      341,
      334,
      332,
      332,
      323,
      253,
      253,
      253,
      246,
      246,
      237,
      218,
      218,
      181,
      181,
      163,
      163,
      163,
      166,
      159,
      159,
      159,
      159,
      157,
      153,
      153,
      153,
      149,
      149,
      133,
      133,
      133,
      133,
      133,
      133,
      130
    ],
    "swim:timestamps": [
      1780949973,
      1780949973,
      1780949973,
      1780950016,
      1780950033,
      1780950033,
      1780950196,
      1780950196,
      1780950213,
      1780950213,
      1780950256,
      1780950256,
      1780950496,
      1780950556,
      1780950556,
      1780950556,
      1780950617,
      1780950617,
      1780950617,
      1780950857,
      1780950857,
      1780950857,
      1780950857,
      1780951157,
      1780951157,
      1780951217,
      1780951217,
      1780951217,
      1780951338,
      1780951338,
      1780951338,
      1780951398,
      1780951398,
      1780951458,
      1780951458,
      1780951458,
      1780951458,
      1780951540,
      1780951540,
      1780951638,
      1780951638,
      1780951638,
      1780951758,
      1780951758,
      1780951758,
      1780951897,
      1780951897,
      1780951938,
      1780951938,
      1780951938,
      1780951957,
      1780951998,
      1780951998,
      1780951998,
      1780952198,
      1780952198,
      1780952258,
      1780952299,
      1780952299,
      1780952318,
      1780952359,
      1780952359,
      1780952378,
      1780952438,
      1780952438,
      1780952491,
      1780952551,
      1780952558,
      1780952558,
      1780952558,
      1780952611,
      1780952618,
      1780952671,
      1780952671,
      1780952678,
      1780952738,
      1780952738,
      1780952792,
      1780952792,
      1780952799,
      1780952799,
      1780952972,
      1780952979,
      1780952979,
      1780953092,
      1780953092,
      1780953099,
      1780953099,
      1780953099,
      1780953152,
      1780953159,
      1780953159,
      1780953219,
      1780953219,
      1780953279,
      1780953279,
      1780953419,
      1780953419,
      1780953479,
      1780953539,
      1780953539,
      1780953539,
      1780953660,
      1780953660,
      1780953660,
      1780953760,
      1780953760,
      1780953780,
      1780953820,
      1780953880,
      1780953880,
      1780953900,
      1780953900,
      1780953940,
      1780954020,
      1780954060,
      1780954060,
      1780954060,
      1780954080,
      1780954140,
      1780954140,
      1780954260,
      1780954260,
      1780954260,
      1780954381,
      1780954381,
      1780954381,
      1780954441,
      1780954501,
      1780954501,
      1780954561,
      1780954561,
      1780954561,
      1780954681,
      1780954681,
      1780954681,
      1780954741,
      1780954741,
      1780954861,
      1780954902,
      1780954902,
      1780954962,
      1780954962,
      1780954980,
      1780954980,
      1780954980,
      1780955100,
      1780955100,
      1780955160,
      1780955160,
      1780955220,
      1780955220,
      1780955220,
      1780955401,
      1780955401,
      1780955462,
      1780955462,
      1780955521,
      1780955521,
      1780955521,
      1780955642,
      1780955761,
      1780955761,
      1780955761,
      1780955761,
      1780955883,
      1780955883,
      1780955883,
      1780956063,
      1780956063,
      1780956063,
      1780956122,
      1780956122,
      1780956122,
      1780956183,
      1780956243,
      1780956243,
      1780956243,
      1780956363,
      1780956363,
      1780956423,
      1780956423,
      1780956423,
      1780956482,
      1780956482,
      1780956482,
      1780956544,
      1780956544,
      1780956544,
      1780956544,
      1780956604,
      1780956724,
      1780956724,
      1780956724,
      1780956724,
      1780956843,
      1780956915,
      1780956915,
      1780956975,
      1780956975,
      1780956975,
      1780957155,
      1780957155,
      1780957155,
      1780957275,
      1780957275,
      1780957335,
      1780957335,
      1780957455,
      1780957455,
      1780957455,
      1780957575,
      1780957575,
      1780957575,
      1780957756,
      1780957756,
      1780957936,
      1780957996,
      1780957996,
      1780958039,
      1780958039,
      1780958039,
      1780958176,
      1780958176,
      1780958176,
      1780958236,
      1780958236,
      1780958279,
      1780958357,
      1780958357,
      1780958357,
      1780958459,
      1780958459,
      1780958477,
      1780958477,
      1780958519,
      1780958519,
      1780958519,
      1780958579,
      1780958597,
      1780958597,
      1780958657,
      1780958699,
      1780958699,
      1780958717,
      1780958777,
      1780958777,
      1780958820,
      1780958820,
      1780958820,
      1780958957,
      1780958957,
      1780959017,
      1780959017,
      1780959060,
      1780959060,
      1780959078,
      1780959078,
      1780959138,
      1780959198,
      1780959240,
      1780959240,
      1780959300,
      1780959378,
      1780959438,
      1780959438,
      1780959481,
      1780959481,
      1780959498,
      1780959498,
      1780959601,
      1780959601,
      1780959721,
      1780959721,
      1780959721,
      1780959781,
      1780959781,
      1780959961,
      1780959961,
      1780959961,
      1780960021,
      1780960021,
      1780960262,
      1780960322,
      1780960322,
      1780960413,
      1780960442,
      1780960442,
      1780960473,
      1780960502,
      1780960502,
      1780960533,
      1780960533,
      1780960562,
      1780960562,
      1780960594,
      1780960594,
      1780960622,
      1780960622,
      1780960828,
      1780960828,
      1780960862,
      1780960862,
      1780960888,
      1780960922,
      1780960922,
      1780960982,
      1780961074,
      1780961074,
      1780961074,
      1780961103,
      1780961103,
      1780961128,
      1780961223,
      1780961223,
      1780961283,
      1780961283,
      1780961374,
      1780961374,
      1780961374,
      1780961403,
      1780961463,
      1780961554,
      1780961554,
      1780961554,
      1780961595,
      1780961615,
      1780961615,
      1780961615,
      1780961735,
      1780961735,
      1780961795,
      1780961795,
      1780961795,
      1780961795,
      1780961896,
      1780961896,
      1780961956
    ],
    "wof:geomhash": "66ef7aadb63048d93ea8ff8a3d24a835",
    "wof:id": 2031480127,
    "wof:repo": "sfomuseum-data-flights-2026-06"
  },
  "bbox": [
    -122.35777777777777,
    32.78333333333333,
    -97.05,
    38.33388888888889
  ],
  "geometry": {"coordinates":[[-97.05,32.85],[-97.05,32.85],[-97.05,32.85],[-97.0675,32.81305555555555],[-97.08333333333333,32.78333333333333],[-97.08333333333333,32.78333333333333],[-97.30111111111111,32.78638888888889],[-97.30111111111111,32.78638888888889],[-97.33333333333333,32.8],[-97.33333333333333,32.8],[-97.39833333333334,32.80972222222222],[-97.39833333333334,32.80972222222222],[-97.8611111111111,32.931666666666665],[-97.98305555555555,32.97166666666667],[-97.98305555555555,32.97166666666667],[-97.98305555555555,32.97166666666667],[-98.1061111111111,33.01166666666666],[-98.1061111111111,33.01166666666666],[-98.1061111111111,33.01166666666666],[-98.60249999999999,33.19611111111111],[-98.60249999999999,33.19611111111111],[-98.60249999999999,33.19611111111111],[-98.60249999999999,33.19611111111111],[-99.25416666666666,33.46416666666667],[-99.25416666666666,33.46416666666667],[-99.39027777777778,33.519444444444446],[-99.39027777777778,33.519444444444446],[-99.39027777777778,33.519444444444446],[-99.66194444444444,33.62916666666667],[-99.66194444444444,33.62916666666667],[-99.66194444444444,33.62916666666667],[-99.7961111111111,33.683055555555555],[-99.7961111111111,33.683055555555555],[-99.92666666666668,33.73527777777778],[-99.92666666666668,33.73527777777778],[-99.92666666666668,33.73527777777778],[-99.92666666666668,33.73527777777778],[-100.09055555555555,33.800555555555555],[-100.09055555555555,33.800555555555555],[-100.31916666666666,33.89083333333333],[-100.31916666666666,33.89083333333333],[-100.31916666666666,33.89083333333333],[-100.58527777777778,33.995555555555555],[-100.58527777777778,33.995555555555555],[-100.58527777777778,33.995555555555555],[-100.89888888888889,34.1175],[-100.89888888888889,34.1175],[-100.9775,34.14805555555556],[-100.9775,34.14805555555556],[-100.9775,34.14805555555556],[-101.03111111111112,34.17305555555555],[-101.10166666666666,34.21611111111111],[-101.10166666666666,34.21611111111111],[-101.10166666666666,34.21611111111111],[-101.50888888888889,34.45444444444445],[-101.50888888888889,34.45444444444445],[-101.63666666666667,34.50611111111111],[-101.71388888888889,34.53583333333333],[-101.71388888888889,34.53583333333333],[-101.76722222222222,34.55638888888888],[-101.84277777777777,34.58527777777778],[-101.84277777777777,34.58527777777778],[-101.89805555555556,34.60638888888889],[-102.0275,34.65555555555555],[-102.0275,34.65555555555555],[-102.13138888888888,34.69472222222222],[-102.26333333333334,34.74472222222222],[-102.28888888888889,34.75416666666667],[-102.28888888888889,34.75416666666667],[-102.28888888888889,34.75416666666667],[-102.39361111111111,34.79361111111111],[-102.42111111111112,34.803888888888885],[-102.52472222222222,34.84277777777778],[-102.52472222222222,34.84277777777778],[-102.55194444444444,34.85305555555556],[-102.68083333333334,34.90083333333333],[-102.68083333333334,34.90083333333333],[-102.78777777777778,34.940555555555555],[-102.78777777777778,34.940555555555555],[-102.81333333333333,34.95],[-102.81333333333333,34.95],[-103.18722222222223,35.08777777777778],[-103.20972222222223,35.09583333333334],[-103.20972222222223,35.09583333333334],[-103.45361111111112,35.18472222222222],[-103.45361111111112,35.18472222222222],[-103.47555555555556,35.19277777777778],[-103.47555555555556,35.19277777777778],[-103.47555555555556,35.19277777777778],[-103.58555555555554,35.2325],[-103.60777777777777,35.24055555555556],[-103.60777777777777,35.24055555555556],[-103.74111111111111,35.28861111111111],[-103.74111111111111,35.28861111111111],[-103.87666666666667,35.33722222222222],[-103.87666666666667,35.33722222222222],[-104.19416666666667,35.44888888888889],[-104.19416666666667,35.44888888888889],[-104.32055555555556,35.493611111111115],[-104.455,35.54083333333333],[-104.455,35.54083333333333],[-104.455,35.54083333333333],[-104.72527777777778,35.635555555555555],[-104.72527777777778,35.635555555555555],[-104.72527777777778,35.635555555555555],[-104.9238888888889,35.70583333333334],[-104.9238888888889,35.70583333333334],[-104.96916666666667,35.72138888888889],[-105.05555555555556,35.75138888888889],[-105.18833333333333,35.79694444444444],[-105.18833333333333,35.79694444444444],[-105.23527777777778,35.81305555555555],[-105.23527777777778,35.81305555555555],[-105.32083333333333,35.842222222222226],[-105.50083333333333,35.90361111111111],[-105.60555555555555,35.939166666666665],[-105.60555555555555,35.939166666666665],[-105.60555555555555,35.939166666666665],[-105.64694444444446,35.95333333333333],[-105.78027777777778,35.99805555555556],[-105.78027777777778,35.99805555555556],[-106.05166666666666,36.08888888888889],[-106.05166666666666,36.08888888888889],[-106.05166666666666,36.08888888888889],[-106.31888888888888,36.17777777777778],[-106.31888888888888,36.17777777777778],[-106.31888888888888,36.17777777777778],[-106.45083333333334,36.22138888888889],[-106.58305555555555,36.264722222222225],[-106.58305555555555,36.264722222222225],[-106.71666666666667,36.30833333333333],[-106.71666666666667,36.30833333333333],[-106.71666666666667,36.30833333333333],[-106.9888888888889,36.39666666666667],[-106.9888888888889,36.39666666666667],[-106.9888888888889,36.39666666666667],[-107.12527777777777,36.440555555555555],[-107.12527777777777,36.440555555555555],[-107.40138888888889,36.52916666666667],[-107.48555555555555,36.55583333333333],[-107.48555555555555,36.55583333333333],[-107.62222222222222,36.59916666666667],[-107.62222222222222,36.59916666666667],[-107.67666666666668,36.61388888888889],[-107.67666666666668,36.61388888888889],[-107.67666666666668,36.61388888888889],[-107.95277777777778,36.70138888888889],[-107.95277777777778,36.70138888888889],[-108.09138888888889,36.74305555555556],[-108.09138888888889,36.74305555555556],[-108.22944444444444,36.78666666666666],[-108.22944444444444,36.78666666666666],[-108.22944444444444,36.78666666666666],[-108.64944444444446,36.91722222222222],[-108.64944444444446,36.91722222222222],[-108.78861111111111,36.959722222222226],[-108.78861111111111,36.959722222222226],[-108.93722222222223,37.00333333333333],[-108.93722222222223,37.00333333333333],[-108.93722222222223,37.00333333333333],[-109.20944444444444,37.08638888888889],[-109.49666666666667,37.170833333333334],[-109.49666666666667,37.170833333333334],[-109.49666666666667,37.170833333333334],[-109.49666666666667,37.170833333333334],[-109.76611111111112,37.250277777777775],[-109.76611111111112,37.250277777777775],[-109.76611111111112,37.250277777777775],[-110.18416666666667,37.37166666666667],[-110.18416666666667,37.37166666666667],[-110.18416666666667,37.37166666666667],[-110.33305555555555,37.41444444444444],[-110.33305555555555,37.41444444444444],[-110.33305555555555,37.41444444444444],[-110.47472222222223,37.45472222222222],[-110.61722222222221,37.49527777777778],[-110.61722222222221,37.49527777777778],[-110.61722222222221,37.49527777777778],[-110.90472222222223,37.57527777777778],[-110.90472222222223,37.57527777777778],[-111.05083333333333,37.609722222222224],[-111.05083333333333,37.609722222222224],[-111.05083333333333,37.609722222222224],[-111.1975,37.64416666666666],[-111.1975,37.64416666666666],[-111.1975,37.64416666666666],[-111.34138888888889,37.677499999999995],[-111.34138888888889,37.677499999999995],[-111.34138888888889,37.677499999999995],[-111.34138888888889,37.677499999999995],[-111.48555555555555,37.711111111111116],[-111.77361111111111,37.77722222222222],[-111.77361111111111,37.77722222222222],[-111.77361111111111,37.77722222222222],[-111.77361111111111,37.77722222222222],[-112.0425,37.836111111111116],[-112.1863888888889,37.86222222222222],[-112.1863888888889,37.86222222222222],[-112.36138888888888,37.89388888888889],[-112.36138888888888,37.89388888888889],[-112.36138888888888,37.89388888888889],[-112.79833333333333,37.97138888888889],[-112.79833333333333,37.97138888888889],[-112.79833333333333,37.97138888888889],[-113.08611111111111,38.021388888888886],[-113.08611111111111,38.021388888888886],[-113.23277777777778,38.04666666666667],[-113.23277777777778,38.04666666666667],[-113.55166666666666,38.100833333333334],[-113.55166666666666,38.100833333333334],[-113.55166666666666,38.100833333333334],[-113.84555555555555,38.15],[-113.84555555555555,38.15],[-113.84555555555555,38.15],[-114.29166666666667,38.22277777777778],[-114.29166666666667,38.22277777777778],[-114.73916666666666,38.29416666666666],[-114.88944444444445,38.31777777777778],[-114.88944444444445,38.31777777777778],[-114.98833333333333,38.32972222222222],[-114.98833333333333,38.32972222222222],[-114.98833333333333,38.32972222222222],[-115.33611111111111,38.33166666666667],[-115.33611111111111,38.33166666666667],[-115.33611111111111,38.33166666666667],[-115.46083333333334,38.3325],[-115.46083333333334,38.3325],[-115.5775,38.33388888888889],[-115.75333333333333,38.33361111111111],[-115.75333333333333,38.33361111111111],[-115.75333333333333,38.33361111111111],[-116.01833333333333,38.33388888888889],[-116.01833333333333,38.33388888888889],[-116.04444444444444,38.33388888888889],[-116.04444444444444,38.33388888888889],[-116.16222222222223,38.33361111111111],[-116.16222222222223,38.33361111111111],[-116.16222222222223,38.33361111111111],[-116.30916666666667,38.331388888888895],[-116.33444444444444,38.32888888888889],[-116.33444444444444,38.32888888888889],[-116.47833333333334,38.300555555555555],[-116.59333333333333,38.27472222222222],[-116.59333333333333,38.27472222222222],[-116.61916666666666,38.26916666666666],[-116.75916666666667,38.23722222222222],[-116.75916666666667,38.23722222222222],[-116.87277777777777,38.21138888888889],[-116.87277777777777,38.21138888888889],[-116.87277777777777,38.21138888888889],[-117.1763888888889,38.14138888888889],[-117.1763888888889,38.14138888888889],[-117.32638888888889,38.10388888888889],[-117.32638888888889,38.10388888888889],[-117.39166666666668,38.059444444444445],[-117.39166666666668,38.059444444444445],[-117.41805555555555,38.02333333333333],[-117.41805555555555,38.02333333333333],[-117.48694444444445,37.926944444444445],[-117.59916666666666,37.865833333333335],[-117.68305555555555,37.86027777777778],[-117.68305555555555,37.86027777777778],[-117.81916666666666,37.853611111111114],[-118.01166666666667,37.844166666666666],[-118.14944444444446,37.83694444444445],[-118.14944444444446,37.83694444444445],[-118.23194444444445,37.8325],[-118.23194444444445,37.8325],[-118.28361111111111,37.830000000000005],[-118.28361111111111,37.830000000000005],[-118.50583333333333,37.81805555555556],[-118.50583333333333,37.81805555555556],[-118.78583333333333,37.802499999999995],[-118.78583333333333,37.802499999999995],[-118.78583333333333,37.802499999999995],[-118.92944444444444,37.79416666666666],[-118.92944444444444,37.79416666666666],[-119.32583333333334,37.77055555555555],[-119.32583333333334,37.77055555555555],[-119.32583333333334,37.77055555555555],[-119.46138888888889,37.761944444444445],[-119.46138888888889,37.761944444444445],[-119.9961111111111,37.727222222222224],[-120.12944444444443,37.718333333333334],[-120.12944444444443,37.718333333333334],[-120.36666666666666,37.7],[-120.41805555555555,37.69777777777777],[-120.41805555555555,37.69777777777777],[-120.51666666666667,37.68333333333333],[-120.56305555555555,37.68083333333333],[-120.56305555555555,37.68083333333333],[-120.65,37.666666666666664],[-120.65,37.666666666666664],[-120.69861111111112,37.664722222222224],[-120.69861111111112,37.664722222222224],[-120.78333333333333,37.65],[-120.78333333333333,37.65],[-120.82722222222222,37.64944444444444],[-120.82722222222222,37.64944444444444],[-121.25,37.6],[-121.25,37.6],[-121.31611111111111,37.58638888888889],[-121.31611111111111,37.58638888888889],[-121.36666666666666,37.583333333333336],[-121.43166666666667,37.57333333333334],[-121.43166666666667,37.57333333333334],[-121.5425,37.56055555555555],[-121.68333333333334,37.53333333333333],[-121.68333333333334,37.53333333333333],[-121.68333333333334,37.53333333333333],[-121.71000000000001,37.50666666666667],[-121.71000000000001,37.50666666666667],[-121.71666666666667,37.483333333333334],[-121.78472222222221,37.415],[-121.78472222222221,37.415],[-121.85,37.408055555555556],[-121.85,37.408055555555556],[-121.93333333333334,37.43333333333333],[-121.93333333333334,37.43333333333333],[-121.93333333333334,37.43333333333333],[-121.95666666666666,37.43805555555555],[-122.00888888888889,37.43944444444444],[-122.06666666666666,37.5],[-122.06666666666666,37.5],[-122.06666666666666,37.5],[-122.10583333333332,37.507777777777775],[-122.11666666666666,37.516666666666666],[-122.11666666666666,37.516666666666666],[-122.11666666666666,37.516666666666666],[-122.21666666666667,37.55],[-122.21666666666667,37.55],[-122.25,37.56666666666667],[-122.25,37.56666666666667],[-122.25,37.56666666666667],[-122.25,37.56666666666667],[-122.31861111111111,37.59722222222222],[-122.31861111111111,37.59722222222222],[-122.35777777777777,37.61388888888889]],"type":"LineString"}
}
