{
  "id": 2031443327,
  "type": "Feature",
  "properties": {
    "geom:area": 0,
    "geom:bbox": "-122.380000,37.620000,-77.460000,43.050000",
    "geom:latitude": 41.204776217327094,
    "geom:longitude": -99.94641233681523,
    "src:alt_label": "swim-route",
    "src:geom": "swim",
    "swim:geom": "route",
    "wof:geomhash": "3530e1d5a86a63cbfa4ab4c0586532a1",
    "wof:id": 2031443327,
    "wof:repo": "sfomuseum-data-flights-2026-06"
  },
  "bbox": [
    -122.38,
    37.62,
    -77.46,
    43.05
  ],
  "geometry": {"coordinates":[[-122.38,37.62],[-122.29,37.71],[-122.29,37.71],[-122.23,37.78],[-122.22,37.78],[-122.2,37.81],[-122.15,37.86],[-122.14,37.87],[-122.07,37.96],[-121.97,38.05],[-121.93,38.08],[-121.92,38.08],[-121.84,38.14],[-121.75,38.19],[-121.68,38.23],[-121.58,38.29],[-121.57,38.3],[-121.56,38.3],[-121.36,38.42],[-121.22,38.5],[-121.19,38.52],[-121.11,38.57],[-120.94,38.67],[-120.87,38.71],[-120.81,38.75],[-120.74,38.79],[-120.58,38.88],[-120.44,38.96],[-120.22,39.09],[-120,39.21],[-119.66,39.4],[-119.32,39.6],[-118.8,39.88],[-118.65,39.95],[-118.02,40.2],[-117.94,40.22],[-116.88,40.54],[-116.61,40.61],[-116.34,40.69],[-115.81,40.84],[-115.27,40.99],[-114.87,41.09],[-114.46,41.2],[-114.22,41.26],[-113.68,41.35],[-113.43,41.39],[-113.23,41.43],[-112.68,41.5],[-112.49,41.53],[-112.24,41.56],[-111.73,41.61],[-110.83,41.7],[-110.65,41.71],[-107.61,41.95],[-107.41,41.96],[-105.16,42.07],[-104.63,42.1],[-104.18,42.12],[-103.18,42.17],[-102.67,42.18],[-102.18,42.19],[-101.65,42.33],[-100.91,42.48],[-100.42,42.61],[-100.14,42.68],[-99.69,42.8],[-99.58,42.83],[-98.97,42.96],[-98.51,43.04],[-98.15,43.05],[-97.67,42.98],[-96.73,42.83],[-96.54,42.8],[-96.24,42.75],[-94.87,42.5],[-94.33,42.4],[-93.25,42.19],[-93.04,42.15],[-91.79,41.89],[-91.19,41.82],[-88.93,41.54],[-87,41.27],[-86.16,41.14],[-85.81,41.07],[-84.9,40.86],[-84.69,40.81],[-83.06,40.42],[-81.6,40.04],[-81.4,39.98],[-80.5,39.74],[-80.41,39.71],[-80.18,39.65],[-79.98,39.59],[-79.86,39.56],[-79.53,39.5],[-79.5,39.49],[-79.41,39.48],[-79.33,39.46],[-79.31,39.46],[-79.28,39.45],[-79.24,39.44],[-79.18,39.43],[-78.97,39.4],[-78.97,39.4],[-78.96,39.39],[-78.95,39.39],[-78.95,39.39],[-78.95,39.39],[-78.93,39.39],[-78.91,39.39],[-78.81,39.37],[-78.6,39.33],[-78.57,39.32],[-78.37,39.29],[-78.3,39.25],[-78.24,39.22],[-78.19,39.19],[-78.14,39.17],[-78.06,39.13],[-78.01,39.1],[-77.94,39.06],[-77.87,39.02],[-77.82,39],[-77.76,38.97],[-77.69,38.96],[-77.62,38.95],[-77.58,39],[-77.57,39.01],[-77.57,39.11],[-77.57,39.15],[-77.57,39.16],[-77.58,39.23],[-77.58,39.24],[-77.54,39.15],[-77.51,39.07],[-77.48,38.99],[-77.46,38.95]],"type":"LineString"}
}
