{
  "id": 2031439219,
  "type": "Feature",
  "properties": {
    "geom:area": 0,
    "geom:bbox": "-122.330556,37.500000,-86.266667,39.783333",
    "geom:latitude": 38.29897018885487,
    "geom:longitude": -104.26321580606955,
    "src:alt_label": "swim-path",
    "src:geom": "swim",
    "swim:altitudes": [
      "020",
      "068",
      "102",
      "102",
      "117",
      "117",
      "177",
      "193",
      "247",
      "247",
      "247",
      "315",
      "328",
      "340C",
      "340C",
      "340C",
      "340C",
      "340C",
      "340C",
      "340C",
      "340C",
      "340C",
      "340C",
      "340C",
      "340C",
      "340C",
      "340C",
      "340C",
      "342",
      "342",
      "342",
      "342",
      "360C",
      "360C",
      "360C",
      "360C",
      "360C",
      "360C",
      "360C",
      "360C",
      "360C",
      "360C",
      "360C",
      "360C",
      "360C",
      "360C",
      "360C",
      "360C",
      "360C",
      "360C",
      "360C",
      "360C",
      "360C",
      "360C",
      "360C",
      "360C",
      "360C",
      "360C",
      "360C",
      "360C",
      "360C",
      "360C",
      "360C",
      "360C",
      "360C",
      "360C",
      "360C",
      "360C",
      "360C",
      "360C",
      "360C",
      "360C",
      "360C",
      "360C",
      "360C",
      "360C",
      "360C",
      "360C",
      "360C",
      "360C",
      "360C",
      "360C",
      "360C",
      "360C",
      "360C",
      "360C",
      "360C",
      "360C",
      "360C",
      "360C",
      "360C",
      "360C",
      "360C",
      "360C",
      "360C",
      "360C",
      "360C",
      "360C",
      "360C",
      "360C",
      "360C",
      "360C",
      "360C",
      "360C",
      "360C",
      "360C",
      "360C",
      "360C",
      "360C",
      "360C",
      "360C",
      "360C",
      "360C",
      "360C",
      "360C",
      "360C",
      "360C",
      "360C",
      "360C",
      "360C",
      "360C",
      "360C",
      "360C",
      "360C",
      "360C",
      "360C",
      "360C",
      "360C",
      "360C",
      "360C",
      "360C",
      "360C",
      "360C",
      "360C",
      "360C",
      "360C",
      "360C",
      "360C",
      "360C",
      "360C",
      "360C",
      "360C",
      "360C",
      "360C",
      "360C",
      "360C",
      "360C",
      "360C",
      "360C",
      "360C",
      "360C",
      "360C",
      "360C",
      "360C",
      "360C",
      "360C",
      "360C",
      "360C",
      "360C",
      "360C",
      "360C",
      "360C",
      "360C",
      "360C",
      "360C",
      "360C",
      "360C",
      "360C",
      "360C",
      "360C",
      "360C",
      "360C",
      "360C",
      "360C",
      "360C",
      "360C",
      "360C",
      "360C",
      "360C",
      "360C",
      "360C",
      "360C",
      "360C",
      "360C",
      "360C",
      "360C",
      "360C",
      "360C",
      "360C",
      "360C",
      "360C",
      "360C",
      "360C",
      "360C",
      "360C",
      "360C",
      "360C",
      "360C",
      "360C",
      "360C",
      "360C",
      "360C",
      "360C",
      "360C",
      "360C",
      "360C",
      "360C",
      "360C",
      "360C",
      "360C",
      "360C",
      "360C",
      "360C",
      "360C",
      "360C",
      "360C",
      "360C",
      "360C",
      "360C",
      "360C",
      "360C",
      "360C",
      "360C",
      "360C",
      "360C",
      "360C",
      "360C",
      "360C",
      "360C",
      "360C",
      "360C",
      "360C",
      "360C",
      "360C",
      "360C",
      "360C",
      "360C",
      "360C",
      "360C",
      "360C",
      "360C",
      "360C",
      "360C",
      "360C",
      "360C",
      "360C",
      "360C",
      "360C",
      "360C",
      "360C",
      "360C",
      "360C",
      "360C",
      "360C",
      "360C",
      "360C",
      "360C",
      "360C",
      "360C",
      "360C",
      "360C",
      "360C",
      "360C",
      "360C",
      "360C",
      "360C",
      "360C",
      "360C",
      "360C",
      "360C",
      "360C",
      "360C",
      "360C",
      "360C",
      "360C",
      "360C",
      "360C",
      "360C",
      "360C",
      "360C",
      "360C",
      "360C",
      "360C",
      "360C",
      "360C",
      "360C",
      "360C",
      "360C",
      "360C",
      "360C",
      "360C",
      "360C",
      "360C",
      "360C",
      "360C",
      "360C",
      "360C",
      "360C",
      "360C",
      "360C",
      "360C",
      "360C",
      "360C",
      "360C",
      "360C",
      "360C",
      "360C",
      "360C",
      "360C",
      "360C",
      "360C",
      "360C",
      "360C",
      "360C",
      "360C",
      "360C",
      "360C",
      "360C",
      "360C",
      "360C",
      "360C",
      "360C",
      "360C",
      "360C",
      "360C",
      "360C",
      "360C",
      "360C",
      "360C",
      "360C",
      "360C",
      "360C",
      "360C",
      "360C",
      "360C",
      "360C",
      "360C",
      "360C",
      "360C",
      "360C",
      "360C",
      "360C",
      "360C",
      "360C",
      "360C",
      "360C",
      "360C",
      "360C",
      "360C",
      "360C",
      "360C",
      "360C",
      "360C",
      "360C",
      "360C",
      "360C",
      "360C",
      "360C",
      "360C",
      "360C",
      "360C",
      "360C",
      "360C",
      "360C",
      "360C",
      "360C",
      "360C",
      "360C",
      "360C",
      "360C",
      "360C",
      "360C",
      "360C",
      "346",
      "346",
      "337",
      "337",
      "337",
      "337",
      "337",
      "337",
      "337",
      "308",
      "308",
      "308",
      "298",
      "298",
      "288",
      "288",
      "288",
      "268",
      "268",
      "268",
      "268",
      "258",
      "258",
      "238",
      "238",
      "224",
      "224",
      "224",
      "224",
      "197",
      "185",
      "185",
      "178",
      "159",
      "149",
      "132",
      "132",
      "128",
      "128",
      "117",
      "109",
      "109",
      "108",
      "108",
      "108",
      "108",
      "100",
      "100",
      "085",
      "085",
      "085",
      "075",
      "054",
      "054",
      "042",
      "042",
      "035",
      "035",
      "035",
      "035",
      "025",
      "025",
      "005",
      "005",
      "005",
      "005"
    ],
    "swim:geom": "path",
    "swim:speeds": [
      191,
      273,
      303,
      303,
      355,
      355,
      403,
      413,
      435,
      435,
      435,
      454,
      452,
      437,
      437,
      438,
      438,
      439,
      439,
      439,
      439,
      439,
      439,
      439,
      438,
      438,
      438,
      438,
      437,
      437,
      437,
      437,
      442,
      439,
      439,
      439,
      439,
      440,
      440,
      439,
      440,
      440,
      443,
      443,
      443,
      444,
      444,
      446,
      445,
      445,
      445,
      445,
      445,
      440,
      440,
      440,
      439,
      439,
      439,
      439,
      435,
      435,
      435,
      436,
      438,
      438,
      438,
      439,
      442,
      442,
      442,
      442,
      442,
      440,
      440,
      442,
      433,
      433,
      433,
      434,
      434,
      432,
      432,
      431,
      432,
      432,
      432,
      430,
      430,
      430,
      429,
      432,
      432,
      432,
      430,
      423,
      420,
      420,
      420,
      420,
      420,
      421,
      421,
      421,
      423,
      423,
      423,
      424,
      424,
      424,
      424,
      424,
      424,
      424,
      426,
      426,
      426,
      426,
      427,
      427,
      427,
      427,
      427,
      427,
      427,
      428,
      428,
      427,
      427,
      427,
      427,
      429,
      429,
      429,
      432,
      432,
      435,
      435,
      435,
      437,
      437,
      438,
      438,
      437,
      437,
      435,
      435,
      435,
      435,
      435,
      432,
      432,
      428,
      428,
      431,
      427,
      427,
      427,
      427,
      426,
      426,
      426,
      426,
      426,
      425,
      426,
      426,
      426,
      426,
      429,
      429,
      426,
      426,
      426,
      434,
      434,
      434,
      439,
      435,
      435,
      439,
      439,
      439,
      439,
      436,
      436,
      437,
      437,
      436,
      436,
      436,
      436,
      436,
      431,
      431,
      436,
      436,
      436,
      436,
      428,
      428,
      428,
      428,
      428,
      428,
      429,
      430,
      430,
      430,
      430,
      430,
      430,
      430,
      431,
      431,
      431,
      431,
      431,
      431,
      431,
      431,
      431,
      432,
      432,
      432,
      432,
      432,
      432,
      432,
      433,
      433,
      433,
      433,
      433,
      433,
      433,
      432,
      432,
      432,
      432,
      430,
      430,
      429,
      429,
      426,
      426,
      426,
      426,
      425,
      425,
      425,
      425,
      424,
      424,
      424,
      424,
      424,
      424,
      424,
      424,
      424,
      424,
      424,
      424,
      423,
      423,
      423,
      423,
      422,
      422,
      422,
      421,
      421,
      421,
      421,
      421,
      421,
      424,
      424,
      424,
      424,
      424,
      425,
      425,
      425,
      425,
      425,
      425,
      426,
      426,
      426,
      426,
      425,
      424,
      424,
      424,
      424,
      424,
      424,
      424,
      420,
      420,
      421,
      421,
      420,
      420,
      420,
      420,
      420,
      420,
      423,
      423,
      422,
      425,
      428,
      428,
      428,
      428,
      427,
      427,
      425,
      425,
      425,
      425,
      424,
      424,
      424,
      424,
      422,
      422,
      422,
      422,
      422,
      422,
      422,
      421,
      421,
      421,
      421,
      421,
      420,
      420,
      420,
      420,
      420,
      420,
      420,
      421,
      421,
      421,
      422,
      422,
      424,
      424,
      424,
      424,
      424,
      424,
      424,
      424,
      424,
      423,
      423,
      423,
      423,
      422,
      422,
      422,
      422,
      421,
      421,
      421,
      421,
      421,
      421,
      423,
      423,
      423,
      423,
      423,
      423,
      423,
      431,
      431,
      431,
      427,
      427,
      421,
      421,
      421,
      410,
      410,
      410,
      410,
      404,
      404,
      391,
      391,
      382,
      382,
      382,
      382,
      363,
      352,
      352,
      354,
      326,
      310,
      302,
      302,
      303,
      303,
      299,
      291,
      291,
      254,
      254,
      254,
      254,
      250,
      250,
      244,
      244,
      244,
      239,
      232,
      232,
      213,
      213,
      194,
      194,
      194,
      194,
      166,
      166,
      154,
      154,
      154,
      154
    ],
    "swim:timestamps": [
      1780481872,
      1780481992,
      1780482074,
      1780482074,
      1780482134,
      1780482134,
      1780482314,
      1780482372,
      1780482555,
      1780482555,
      1780482555,
      1780482852,
      1780482912,
      1780483036,
      1780483036,
      1780483335,
      1780483335,
      1780483513,
      1780483513,
      1780483573,
      1780483633,
      1780483633,
      1780483815,
      1780483815,
      1780483875,
      1780483875,
      1780483875,
      1780483875,
      1780484294,
      1780484294,
      1780484294,
      1780484294,
      1780484534,
      1780484715,
      1780484715,
      1780484835,
      1780484835,
      1780484956,
      1780484956,
      1780485194,
      1780485314,
      1780485314,
      1780485434,
      1780485434,
      1780485434,
      1780485495,
      1780485495,
      1780485734,
      1780485794,
      1780485794,
      1780485794,
      1780485794,
      1780485794,
      1780486034,
      1780486094,
      1780486094,
      1780486155,
      1780486155,
      1780486155,
      1780486155,
      1780486275,
      1780486275,
      1780486275,
      1780486335,
      1780486455,
      1780486455,
      1780486455,
      1780486515,
      1780486595,
      1780486595,
      1780486695,
      1780486715,
      1780486715,
      1780486757,
      1780486757,
      1780486775,
      1780486936,
      1780486936,
      1780486936,
      1780486955,
      1780486955,
      1780486996,
      1780486996,
      1780487056,
      1780487075,
      1780487075,
      1780487075,
      1780487116,
      1780487135,
      1780487135,
      1780487176,
      1780487195,
      1780487195,
      1780487195,
      1780487256,
      1780487436,
      1780487488,
      1780487488,
      1780487488,
      1780487496,
      1780487496,
      1780487556,
      1780487616,
      1780487616,
      1780487736,
      1780487736,
      1780487736,
      1780487909,
      1780487909,
      1780487909,
      1780487909,
      1780487969,
      1780487969,
      1780487969,
      1780488089,
      1780488089,
      1780488089,
      1780488096,
      1780488149,
      1780488149,
      1780488156,
      1780488156,
      1780488209,
      1780488270,
      1780488270,
      1780488330,
      1780488390,
      1780488516,
      1780488516,
      1780488516,
      1780488576,
      1780488756,
      1780488756,
      1780488756,
      1780488876,
      1780488876,
      1780489357,
      1780489357,
      1780489357,
      1780489477,
      1780489477,
      1780489537,
      1780489537,
      1780489597,
      1780489597,
      1780489657,
      1780489657,
      1780489657,
      1780489657,
      1780489657,
      1780489717,
      1780489717,
      1780489837,
      1780489837,
      1780489851,
      1780489897,
      1780489897,
      1780489897,
      1780489911,
      1780489971,
      1780489971,
      1780489971,
      1780489971,
      1780489971,
      1780490017,
      1780490092,
      1780490092,
      1780490092,
      1780490092,
      1780490198,
      1780490198,
      1780490212,
      1780490212,
      1780490212,
      1780490332,
      1780490332,
      1780490332,
      1780490378,
      1780490392,
      1780490392,
      1780490438,
      1780490438,
      1780490438,
      1780490498,
      1780490572,
      1780490572,
      1780490618,
      1780490618,
      1780490632,
      1780490678,
      1780490678,
      1780490752,
      1780490752,
      1780490798,
      1780490798,
      1780490812,
      1780490812,
      1780490812,
      1780490812,
      1780490858,
      1780490858,
      1780491052,
      1780491052,
      1780491052,
      1780491052,
      1780491098,
      1780491112,
      1780491112,
      1780491112,
      1780491158,
      1780491158,
      1780491158,
      1780491158,
      1780491232,
      1780491232,
      1780491232,
      1780491292,
      1780491292,
      1780491292,
      1780491292,
      1780491292,
      1780491292,
      1780491413,
      1780491459,
      1780491459,
      1780491473,
      1780491519,
      1780491533,
      1780491533,
      1780491593,
      1780491593,
      1780491593,
      1780491593,
      1780491593,
      1780491653,
      1780491653,
      1780491713,
      1780491713,
      1780491713,
      1780491713,
      1780491773,
      1780491773,
      1780491819,
      1780491819,
      1780491893,
      1780491893,
      1780491893,
      1780491893,
      1780491939,
      1780491939,
      1780491953,
      1780491953,
      1780492013,
      1780492013,
      1780492013,
      1780492013,
      1780492013,
      1780492120,
      1780492120,
      1780492120,
      1780492120,
      1780492120,
      1780492133,
      1780492133,
      1780492253,
      1780492253,
      1780492253,
      1780492253,
      1780492433,
      1780492433,
      1780492433,
      1780492734,
      1780492734,
      1780492734,
      1780492734,
      1780492734,
      1780492734,
      1780492854,
      1780492854,
      1780492854,
      1780492854,
      1780492854,
      1780492914,
      1780492914,
      1780492914,
      1780492914,
      1780492914,
      1780492914,
      1780493034,
      1780493034,
      1780493034,
      1780493034,
      1780493154,
      1780493214,
      1780493214,
      1780493214,
      1780493214,
      1780493274,
      1780493274,
      1780493274,
      1780493418,
      1780493418,
      1780493455,
      1780493455,
      1780493538,
      1780493538,
      1780493538,
      1780493538,
      1780493538,
      1780493658,
      1780493695,
      1780493695,
      1780493718,
      1780493755,
      1780493875,
      1780493875,
      1780493875,
      1780493898,
      1780493959,
      1780493959,
      1780493995,
      1780493995,
      1780493995,
      1780493995,
      1780494019,
      1780494019,
      1780494019,
      1780494019,
      1780494139,
      1780494139,
      1780494176,
      1780494176,
      1780494176,
      1780494176,
      1780494176,
      1780494199,
      1780494199,
      1780494259,
      1780494259,
      1780494259,
      1780494319,
      1780494319,
      1780494319,
      1780494319,
      1780494319,
      1780494319,
      1780494319,
      1780494356,
      1780494379,
      1780494379,
      1780494416,
      1780494416,
      1780494559,
      1780494559,
      1780494559,
      1780494559,
      1780494619,
      1780494619,
      1780494619,
      1780494619,
      1780494619,
      1780494919,
      1780494919,
      1780494919,
      1780494919,
      1780494979,
      1780494979,
      1780494979,
      1780494979,
      1780495039,
      1780495039,
      1780495039,
      1780495039,
      1780495160,
      1780495160,
      1780495220,
      1780495220,
      1780495220,
      1780495220,
      1780495220,
      1780495220,
      1780495220,
      1780495400,
      1780495400,
      1780495400,
      1780495460,
      1780495460,
      1780495520,
      1780495520,
      1780495520,
      1780495640,
      1780495640,
      1780495640,
      1780495640,
      1780495700,
      1780495700,
      1780495760,
      1780495760,
      1780495793,
      1780495793,
      1780495793,
      1780495793,
      1780495880,
      1780495913,
      1780495913,
      1780495940,
      1780496000,
      1780496033,
      1780496099,
      1780496099,
      1780496120,
      1780496120,
      1780496159,
      1780496213,
      1780496213,
      1780496268,
      1780496268,
      1780496268,
      1780496268,
      1780496301,
      1780496301,
      1780496361,
      1780496361,
      1780496361,
      1780496399,
      1780496519,
      1780496519,
      1780496586,
      1780496586,
      1780496634,
      1780496634,
      1780496634,
      1780496634,
      1780496699,
      1780496699,
      1780496841,
      1780496841,
      1780496841,
      1780496841
    ],
    "wof:geomhash": "0e7f067b9726e6d40191efb116a7d6dd",
    "wof:id": 2031439219,
    "wof:repo": "sfomuseum-data-flights-2026-06"
  },
  "bbox": [
    -122.33055555555555,
    37.5,
    -86.26666666666667,
    39.78333333333333
  ],
  "geometry": {"coordinates":[[-86.26666666666667,39.733333333333334],[-86.35,39.78333333333333],[-86.48305555555555,39.73888888888889],[-86.48305555555555,39.73888888888889],[-86.59416666666667,39.70305555555556],[-86.59416666666667,39.70305555555556],[-86.98416666666667,39.57638888888889],[-87.09416666666667,39.54],[-87.5525,39.509166666666665],[-87.5525,39.509166666666665],[-87.5525,39.509166666666665],[-88.35749999999999,39.56027777777778],[-88.52111111111111,39.57],[-88.85944444444443,39.5825],[-88.85944444444443,39.5825],[-89.62722222222222,39.44944444444444],[-89.62722222222222,39.44944444444444],[-90.08722222222222,39.36666666666667],[-90.08722222222222,39.36666666666667],[-90.23972222222223,39.33916666666667],[-90.39222222222223,39.31083333333333],[-90.39222222222223,39.31083333333333],[-90.8461111111111,39.22527777777778],[-90.8461111111111,39.22527777777778],[-90.99694444444445,39.196666666666665],[-90.99694444444445,39.196666666666665],[-90.99694444444445,39.196666666666665],[-90.99694444444445,39.196666666666665],[-92.05722222222222,38.99138888888889],[-92.05722222222222,38.99138888888889],[-92.05722222222222,38.99138888888889],[-92.05722222222222,38.99138888888889],[-92.66388888888889,38.89694444444444],[-93.12333333333332,38.82333333333334],[-93.12333333333332,38.82333333333334],[-93.42750000000001,38.77361111111111],[-93.42750000000001,38.77361111111111],[-93.73388888888888,38.722500000000004],[-93.73388888888888,38.722500000000004],[-94.34944444444444,38.6175],[-94.65555555555557,38.56361111111111],[-94.65555555555557,38.56361111111111],[-94.96388888888889,38.50861111111111],[-94.96388888888889,38.50861111111111],[-94.96388888888889,38.50861111111111],[-95.11833333333333,38.48083333333334],[-95.11833333333333,38.48083333333334],[-95.73611111111111,38.36694444444444],[-95.8863888888889,38.33888888888889],[-95.8863888888889,38.33888888888889],[-95.8863888888889,38.33888888888889],[-95.8863888888889,38.33888888888889],[-95.8863888888889,38.33888888888889],[-96.49777777777778,38.23722222222222],[-96.64916666666667,38.214444444444446],[-96.64916666666667,38.214444444444446],[-96.79972222222221,38.19138888888889],[-96.79972222222221,38.19138888888889],[-96.79972222222221,38.19138888888889],[-96.79972222222221,38.19138888888889],[-97.10111111111111,38.144444444444446],[-97.10111111111111,38.144444444444446],[-97.10111111111111,38.144444444444446],[-97.25194444444445,38.12083333333334],[-97.54222222222222,38.07472222222223],[-97.54222222222222,38.07472222222223],[-97.54222222222222,38.07472222222223],[-97.69416666666667,38.04972222222222],[-97.90083333333334,38.01583333333333],[-97.90083333333334,38.01583333333333],[-98.18,37.99944444444444],[-98.20861111111111,37.992222222222225],[-98.20861111111111,37.992222222222225],[-98.3325,37.998333333333335],[-98.3325,37.998333333333335],[-98.36361111111111,37.99472222222222],[-98.78833333333333,37.99472222222222],[-98.78833333333333,37.99472222222222],[-98.78833333333333,37.99472222222222],[-98.81916666666666,37.99388888888889],[-98.81916666666666,37.99388888888889],[-98.93972222222223,37.99305555555556],[-98.93972222222223,37.99305555555556],[-99.09194444444444,37.99138888888889],[-99.12083333333332,37.989444444444445],[-99.12083333333332,37.989444444444445],[-99.12083333333332,37.989444444444445],[-99.24194444444444,37.98916666666667],[-99.2713888888889,37.98833333333334],[-99.2713888888889,37.98833333333334],[-99.39250000000001,37.98694444444445],[-99.4225,37.98638888888889],[-99.4225,37.98638888888889],[-99.4225,37.98638888888889],[-99.57305555555556,37.98416666666667],[-100.02027777777778,37.975833333333334],[-100.16555555555556,37.97277777777778],[-100.16555555555556,37.97277777777778],[-100.16555555555556,37.97277777777778],[-100.16527777777779,37.97277777777778],[-100.16527777777779,37.97277777777778],[-100.31305555555555,37.969722222222224],[-100.46194444444444,37.96611111111111],[-100.46194444444444,37.96611111111111],[-100.78527777777778,37.95777777777778],[-100.78527777777778,37.95777777777778],[-100.78527777777778,37.95777777777778],[-101.19611111111111,37.959722222222226],[-101.19611111111111,37.959722222222226],[-101.19611111111111,37.959722222222226],[-101.19611111111111,37.959722222222226],[-101.3436111111111,37.96361111111111],[-101.3436111111111,37.96361111111111],[-101.3436111111111,37.96361111111111],[-101.64166666666668,37.970555555555556],[-101.64166666666668,37.970555555555556],[-101.64166666666668,37.970555555555556],[-101.67416666666666,37.97138888888889],[-101.79388888888889,37.973888888888894],[-101.79388888888889,37.973888888888894],[-101.82583333333334,37.974722222222226],[-101.82583333333334,37.974722222222226],[-101.94194444444445,37.97694444444445],[-102.09305555555555,37.980000000000004],[-102.09305555555555,37.980000000000004],[-102.2425,37.9825],[-102.39305555555556,37.985],[-102.7286111111111,37.99],[-102.7286111111111,37.99],[-102.7286111111111,37.99],[-102.87916666666666,37.99194444444444],[-103.32805555555555,37.99638888888889],[-103.32805555555555,37.99638888888889],[-103.32805555555555,37.99638888888889],[-103.6325,37.998333333333335],[-103.6325,37.998333333333335],[-104.84333333333333,38.00416666666667],[-104.84333333333333,38.00416666666667],[-104.84333333333333,38.00416666666667],[-105.15277777777779,38.00416666666667],[-105.15277777777779,38.00416666666667],[-105.30527777777777,38.00388888888889],[-105.30527777777777,38.00388888888889],[-105.46000000000001,38.00333333333333],[-105.46000000000001,38.00333333333333],[-105.6111111111111,38.0025],[-105.6111111111111,38.0025],[-105.6111111111111,38.0025],[-105.6111111111111,38.0025],[-105.6111111111111,38.0025],[-105.76138888888889,38.00194444444445],[-105.76138888888889,38.00194444444445],[-106.06166666666667,37.99666666666667],[-106.06166666666667,37.99666666666667],[-106.10805555555555,37.99444444444445],[-106.20944444444444,37.98861111111111],[-106.20944444444444,37.98861111111111],[-106.20944444444444,37.98861111111111],[-106.2575,37.98583333333333],[-106.4063888888889,37.97694444444445],[-106.4063888888889,37.97694444444445],[-106.4063888888889,37.97694444444445],[-106.4063888888889,37.97694444444445],[-106.4063888888889,37.97694444444445],[-106.50611111111111,37.972500000000004],[-106.70611111111111,37.959722222222226],[-106.70611111111111,37.959722222222226],[-106.70611111111111,37.959722222222226],[-106.70611111111111,37.959722222222226],[-106.97638888888889,37.94444444444444],[-106.97638888888889,37.94444444444444],[-107.00638888888889,37.94277777777778],[-107.00638888888889,37.94277777777778],[-107.00638888888889,37.94277777777778],[-107.31472222222222,37.92361111111111],[-107.31472222222222,37.92361111111111],[-107.31472222222222,37.92361111111111],[-107.44083333333333,37.915277777777774],[-107.46944444444445,37.91305555555555],[-107.46944444444445,37.91305555555555],[-107.59444444444443,37.905277777777776],[-107.59444444444443,37.905277777777776],[-107.59444444444443,37.905277777777776],[-107.74722222222222,37.894999999999996],[-107.93027777777779,37.882222222222225],[-107.93027777777779,37.882222222222225],[-108.05277777777778,37.87388888888889],[-108.05277777777778,37.87388888888889],[-108.08388888888888,37.87083333333334],[-108.20416666666667,37.863055555555555],[-108.20416666666667,37.863055555555555],[-108.38861111111112,37.849444444444444],[-108.38861111111112,37.849444444444444],[-108.50666666666666,37.840833333333336],[-108.50666666666666,37.840833333333336],[-108.53888888888889,37.83833333333334],[-108.53888888888889,37.83833333333334],[-108.53888888888889,37.83833333333334],[-108.53888888888889,37.83833333333334],[-108.65472222222223,37.82972222222222],[-108.65472222222223,37.82972222222222],[-109.13361111111112,37.83111111111111],[-109.13361111111112,37.83111111111111],[-109.13361111111112,37.83111111111111],[-109.13361111111112,37.83111111111111],[-109.24861111111112,37.84388888888889],[-109.28416666666666,37.84777777777778],[-109.28416666666666,37.84777777777778],[-109.28416666666666,37.84777777777778],[-109.39972222222222,37.86027777777778],[-109.39972222222222,37.86027777777778],[-109.39972222222222,37.86027777777778],[-109.39972222222222,37.86027777777778],[-109.58388888888888,37.88027777777778],[-109.58388888888888,37.88027777777778],[-109.58388888888888,37.88027777777778],[-109.73444444444445,37.89666666666667],[-109.73444444444445,37.89666666666667],[-109.73444444444445,37.89666666666667],[-109.73444444444445,37.89666666666667],[-109.73444444444445,37.89666666666667],[-109.73444444444445,37.89666666666667],[-110.03583333333333,37.927499999999995],[-110.14861111111112,37.939166666666665],[-110.14861111111112,37.939166666666665],[-110.1863888888889,37.94305555555555],[-110.29888888888888,37.95444444444445],[-110.33944444444444,37.95861111111111],[-110.33944444444444,37.95861111111111],[-110.48972222222223,37.97361111111111],[-110.48972222222223,37.97361111111111],[-110.48972222222223,37.97361111111111],[-110.48972222222223,37.97361111111111],[-110.48972222222223,37.97361111111111],[-110.64111111111112,37.98833333333334],[-110.64111111111112,37.98833333333334],[-110.7925,38.00333333333333],[-110.7925,38.00333333333333],[-110.7925,38.00333333333333],[-110.7925,38.00333333333333],[-110.94222222222223,38.0175],[-110.94222222222223,38.0175],[-111.0436111111111,38.026944444444446],[-111.0436111111111,38.026944444444446],[-111.21944444444445,38.04333333333333],[-111.21944444444445,38.04333333333333],[-111.21944444444445,38.04333333333333],[-111.21944444444445,38.04333333333333],[-111.33944444444444,38.05444444444444],[-111.33944444444444,38.05444444444444],[-111.36888888888888,38.05722222222222],[-111.36888888888888,38.05722222222222],[-111.51527777777778,38.07055555555556],[-111.51527777777778,38.07055555555556],[-111.51527777777778,38.07055555555556],[-111.51527777777778,38.07055555555556],[-111.51527777777778,38.07055555555556],[-111.78333333333333,38.094166666666666],[-111.78333333333333,38.094166666666666],[-111.78333333333333,38.094166666666666],[-111.78333333333333,38.094166666666666],[-111.78333333333333,38.094166666666666],[-111.81277777777777,38.09666666666667],[-111.81277777777777,38.09666666666667],[-112.10777777777777,38.12222222222222],[-112.10777777777777,38.12222222222222],[-112.10777777777777,38.12222222222222],[-112.10777777777777,38.12222222222222],[-112.54722222222222,38.15861111111111],[-112.54722222222222,38.15861111111111],[-112.54722222222222,38.15861111111111],[-113.31,38.21805555555556],[-113.31,38.21805555555556],[-113.31,38.21805555555556],[-113.31,38.21805555555556],[-113.31,38.21805555555556],[-113.31,38.21805555555556],[-113.60666666666665,38.239444444444445],[-113.60666666666665,38.239444444444445],[-113.60666666666665,38.239444444444445],[-113.60666666666665,38.239444444444445],[-113.60666666666665,38.239444444444445],[-113.755,38.25],[-113.755,38.25],[-113.755,38.25],[-113.755,38.25],[-113.755,38.25],[-113.755,38.25],[-114.05472222222222,38.270833333333336],[-114.05472222222222,38.270833333333336],[-114.05472222222222,38.270833333333336],[-114.05472222222222,38.270833333333336],[-114.35333333333332,38.29083333333333],[-114.50333333333333,38.300555555555555],[-114.50333333333333,38.300555555555555],[-114.50333333333333,38.300555555555555],[-114.50333333333333,38.300555555555555],[-114.65166666666667,38.309999999999995],[-114.65166666666667,38.309999999999995],[-114.65166666666667,38.309999999999995],[-114.9975,38.28722222222222],[-114.9975,38.28722222222222],[-115.09305555555555,38.28],[-115.09305555555555,38.28],[-115.29138888888889,38.26277777777778],[-115.29138888888889,38.26277777777778],[-115.29138888888889,38.26277777777778],[-115.29138888888889,38.26277777777778],[-115.29138888888889,38.26277777777778],[-115.58777777777777,38.23555555555556],[-115.67500000000001,38.22694444444445],[-115.67500000000001,38.22694444444445],[-115.73722222222223,38.22083333333334],[-115.82555555555555,38.21277777777778],[-116.12805555555555,38.183611111111105],[-116.12805555555555,38.183611111111105],[-116.12805555555555,38.183611111111105],[-116.18944444444445,38.177499999999995],[-116.33805555555556,38.16277777777778],[-116.33805555555556,38.16277777777778],[-116.42416666666666,38.15416666666667],[-116.42416666666666,38.15416666666667],[-116.42416666666666,38.15416666666667],[-116.42416666666666,38.15416666666667],[-116.485,38.14805555555556],[-116.485,38.14805555555556],[-116.485,38.14805555555556],[-116.485,38.14805555555556],[-116.78083333333333,38.11805555555556],[-116.78083333333333,38.11805555555556],[-116.86694444444444,38.10916666666667],[-116.86694444444444,38.10916666666667],[-116.86694444444444,38.10916666666667],[-116.86694444444444,38.10916666666667],[-116.86694444444444,38.10916666666667],[-116.92833333333334,38.10277777777778],[-116.92833333333334,38.10277777777778],[-117.07694444444444,38.08694444444445],[-117.07694444444444,38.08694444444445],[-117.07694444444444,38.08694444444445],[-117.23,38.07055555555556],[-117.23,38.07055555555556],[-117.23,38.07055555555556],[-117.23,38.07055555555556],[-117.23,38.07055555555556],[-117.23,38.07055555555556],[-117.23,38.07055555555556],[-117.31861111111111,38.06111111111111],[-117.34944444444444,38.05777777777777],[-117.34944444444444,38.05777777777777],[-117.46861111111112,38.044999999999995],[-117.46861111111112,38.044999999999995],[-117.79583333333333,38.00833333333333],[-117.79583333333333,38.00833333333333],[-117.79583333333333,38.00833333333333],[-117.79583333333333,38.00833333333333],[-117.94500000000001,37.99166666666667],[-117.94500000000001,37.99166666666667],[-117.94500000000001,37.99166666666667],[-117.94500000000001,37.99166666666667],[-117.94500000000001,37.99166666666667],[-118.68138888888889,37.905833333333334],[-118.68138888888889,37.905833333333334],[-118.68138888888889,37.905833333333334],[-118.68138888888889,37.905833333333334],[-118.82777777777777,37.888333333333335],[-118.82777777777777,37.888333333333335],[-118.82777777777777,37.888333333333335],[-118.82777777777777,37.888333333333335],[-118.97333333333333,37.87222222222222],[-118.97333333333333,37.87222222222222],[-118.97333333333333,37.87222222222222],[-118.97333333333333,37.87222222222222],[-119.26916666666666,37.83777777777778],[-119.26916666666666,37.83777777777778],[-119.41722222222222,37.82027777777778],[-119.41722222222222,37.82027777777778],[-119.41722222222222,37.82027777777778],[-119.41722222222222,37.82027777777778],[-119.41722222222222,37.82027777777778],[-119.41722222222222,37.82027777777778],[-119.41722222222222,37.82027777777778],[-119.86472222222221,37.766666666666666],[-119.86472222222221,37.766666666666666],[-119.86472222222221,37.766666666666666],[-120.0125,37.748333333333335],[-120.0125,37.748333333333335],[-120.15861111111111,37.730000000000004],[-120.15861111111111,37.730000000000004],[-120.15861111111111,37.730000000000004],[-120.44555555555556,37.69416666666666],[-120.44555555555556,37.69416666666666],[-120.44555555555556,37.69416666666666],[-120.44555555555556,37.69416666666666],[-120.58527777777778,37.67833333333333],[-120.58527777777778,37.67833333333333],[-120.71861111111112,37.6625],[-120.71861111111112,37.6625],[-120.8,37.65],[-120.8,37.65],[-120.8,37.65],[-120.8,37.65],[-120.97944444444444,37.630833333333335],[-121.06666666666666,37.61666666666667],[-121.06666666666666,37.61666666666667],[-121.10166666666666,37.61416666666667],[-121.22555555555556,37.598333333333336],[-121.28333333333333,37.583333333333336],[-121.4,37.583333333333336],[-121.4,37.583333333333336],[-121.43666666666667,37.57277777777778],[-121.43666666666667,37.57277777777778],[-121.5,37.56666666666667],[-121.6,37.55],[-121.6,37.55],[-121.68333333333334,37.53333333333333],[-121.68333333333334,37.53333333333333],[-121.68333333333334,37.53333333333333],[-121.68333333333334,37.53333333333333],[-121.72416666666666,37.526944444444446],[-121.72416666666666,37.526944444444446],[-121.80527777777777,37.5075],[-121.80527777777777,37.5075],[-121.80527777777777,37.5075],[-121.86666666666666,37.5],[-122.01666666666667,37.5],[-122.01666666666667,37.5],[-122.1,37.516666666666666],[-122.1,37.516666666666666],[-122.15,37.53333333333333],[-122.15,37.53333333333333],[-122.15,37.53333333333333],[-122.15,37.53333333333333],[-122.21666666666667,37.55],[-122.21666666666667,37.55],[-122.33055555555555,37.602222222222224],[-122.33055555555555,37.602222222222224],[-122.33055555555555,37.602222222222224],[-122.33055555555555,37.602222222222224]],"type":"LineString"}
}
