{
  "id": 2031533105,
  "type": "Feature",
  "properties": {
    "geom:area": 0,
    "geom:bbox": "-122.400000,37.650000,-70.750000,44.555000",
    "geom:latitude": 42.91708102493585,
    "geom:longitude": -96.90366600851914,
    "src:alt_label": "swim-path",
    "src:geom": "swim",
    "swim:altitudes": [
      "017",
      "017",
      "017",
      "017",
      "020",
      "020",
      "039",
      "052",
      "052",
      "052",
      "052",
      "114",
      "114",
      "114",
      "136",
      "136",
      "136",
      "149",
      "149",
      "163",
      "163",
      "163",
      "163",
      "215",
      "215",
      "215",
      "215",
      "235",
      "235",
      "235",
      "235",
      "235",
      "235",
      "285",
      "285",
      "285",
      "285",
      "312",
      "312",
      "312",
      "312",
      "330C",
      "330C",
      "330C",
      "330C",
      "330C",
      "330C",
      "330C",
      "330C",
      "330C",
      "330C",
      "330C",
      "330C",
      "330C",
      "330C",
      "330C",
      "330C",
      "330C",
      "330C",
      "330C",
      "330C",
      "330C",
      "330C",
      "330C",
      "330C",
      "330C",
      "330C",
      "330C",
      "330C",
      "330C",
      "330C",
      "330C",
      "330C",
      "330C",
      "330C",
      "330C",
      "330C",
      "330C",
      "330C",
      "330C",
      "330C",
      "330C",
      "330C",
      "330C",
      "330C",
      "330C",
      "330C",
      "330C",
      "330C",
      "330C",
      "330C",
      "330C",
      "330C",
      "330C",
      "330C",
      "330C",
      "330C",
      "330C",
      "330C",
      "330C",
      "330C",
      "330C",
      "330C",
      "330C",
      "330C",
      "330C",
      "330C",
      "330C",
      "330C",
      "330C",
      "330C",
      "330C",
      "330C",
      "330C",
      "330C",
      "330C",
      "330C",
      "330C",
      "330C",
      "330C",
      "330C",
      "330C",
      "330C",
      "330C",
      "330C",
      "330C",
      "330C",
      "330C",
      "330C",
      "330C",
      "330C",
      "330C",
      "330C",
      "330C",
      "330C",
      "330C",
      "330C",
      "330C",
      "330C",
      "330C",
      "330C",
      "330C",
      "330C",
      "330C",
      "330C",
      "330C",
      "330C",
      "330",
      "331",
      "331",
      "341",
      "350C",
      "350C",
      "350C",
      "350C",
      "350C",
      "350C",
      "350C",
      "350C",
      "350C",
      "350C",
      "350C",
      "350C",
      "350C",
      "350C",
      "350C",
      "350C",
      "350C",
      "350C",
      "350C",
      "350C",
      "350C",
      "350C",
      "350C",
      "350C",
      "350C",
      "350C",
      "350C",
      "350C",
      "350C",
      "350C",
      "350C",
      "350C",
      "350C",
      "350C",
      "350C",
      "350C",
      "350C",
      "350C",
      "350C",
      "350C",
      "350C",
      "350C",
      "350C",
      "350C",
      "350C",
      "350C",
      "350C",
      "350C",
      "350C",
      "350C",
      "350C",
      "350C",
      "350C",
      "350C",
      "350C",
      "350C",
      "350C",
      "350C",
      "350C",
      "350C",
      "350C",
      "350C",
      "350C",
      "350C",
      "350C",
      "350C",
      "350C",
      "350C",
      "350C",
      "350C",
      "350C",
      "350C",
      "350C",
      "350C",
      "350C",
      "350C",
      "350C",
      "350C",
      "350C",
      "350C",
      "350C",
      "350C",
      "350C",
      "350C",
      "350C",
      "350C",
      "350C",
      "350C",
      "350C",
      "350C",
      "350C",
      "350C",
      "350C",
      "350C",
      "350C",
      "350C",
      "350C",
      "350C",
      "350C",
      "350C",
      "350C",
      "350C",
      "350C",
      "350C",
      "350C",
      "350C",
      "350C",
      "350C",
      "350C",
      "350C",
      "350C",
      "350C",
      "350C",
      "350C",
      "350C",
      "350C",
      "350C",
      "350C",
      "350C",
      "350C",
      "350C",
      "350C",
      "350C",
      "350C",
      "350C",
      "350C",
      "350C",
      "350C",
      "350C",
      "350C",
      "350C",
      "350C",
      "350C",
      "350C",
      "350C",
      "350C",
      "350C",
      "350C",
      "350C",
      "350C",
      "350C",
      "350C",
      "350C",
      "350C",
      "350C",
      "350C",
      "350C",
      "350C",
      "350C",
      "350C",
      "350C",
      "350C",
      "350C",
      "350C",
      "350C",
      "350C",
      "350C",
      "350C",
      "350C",
      "350C",
      "350C",
      "365",
      "365",
      "365",
      "365",
      "370C",
      "370C",
      "370C",
      "370C",
      "370C",
      "370C",
      "370C",
      "370C",
      "370C",
      "370C",
      "370C",
      "370C",
      "370C",
      "370C",
      "370C",
      "370C",
      "370C",
      "370C",
      "370C",
      "370C",
      "370C",
      "370C",
      "370C",
      "370C",
      "370C",
      "370C",
      "370C",
      "370C",
      "370C",
      "370C",
      "370C",
      "370C",
      "370C",
      "370C",
      "370C",
      "370C",
      "370C",
      "370C",
      "370C",
      "370C",
      "370C",
      "370C",
      "370C",
      "370C",
      "370C",
      "370C",
      "370C",
      "370C",
      "370C",
      "370C",
      "370C",
      "370C",
      "370C",
      "370C",
      "370C",
      "370C",
      "370C",
      "370C",
      "370C",
      "370C",
      "370C",
      "370C",
      "370C",
      "370C",
      "370C",
      "370C",
      "370C",
      "370C",
      "362",
      "362",
      "362",
      "334",
      "334",
      "334",
      "323",
      "323",
      "252",
      "252",
      "252",
      "252",
      "187",
      "187",
      "168",
      "154",
      "150",
      "150",
      "120",
      "120",
      "108",
      "108",
      "089",
      "089",
      "074",
      "074",
      "068",
      "039",
      "039",
      "035",
      "035"
    ],
    "swim:geom": "path",
    "swim:speeds": [
      197,
      197,
      197,
      197,
      195,
      195,
      202,
      262,
      262,
      262,
      262,
      315,
      315,
      315,
      391,
      391,
      391,
      407,
      407,
      417,
      417,
      417,
      417,
      457,
      457,
      457,
      457,
      476,
      476,
      476,
      476,
      476,
      476,
      507,
      507,
      507,
      507,
      514,
      514,
      514,
      514,
      490,
      490,
      490,
      490,
      490,
      490,
      493,
      493,
      493,
      493,
      493,
      493,
      493,
      495,
      495,
      495,
      495,
      495,
      495,
      495,
      495,
      495,
      494,
      494,
      494,
      494,
      491,
      491,
      489,
      489,
      489,
      489,
      488,
      488,
      486,
      486,
      486,
      486,
      484,
      484,
      483,
      483,
      483,
      483,
      483,
      483,
      483,
      483,
      483,
      483,
      483,
      483,
      482,
      482,
      482,
      482,
      482,
      482,
      482,
      482,
      482,
      480,
      480,
      480,
      480,
      495,
      496,
      496,
      496,
      496,
      497,
      497,
      497,
      498,
      498,
      498,
      498,
      501,
      502,
      502,
      504,
      504,
      504,
      509,
      509,
      509,
      513,
      513,
      513,
      515,
      515,
      515,
      517,
      521,
      521,
      521,
      521,
      519,
      519,
      519,
      520,
      521,
      523,
      525,
      525,
      528,
      528,
      529,
      529,
      532,
      536,
      536,
      537,
      537,
      538,
      539,
      539,
      539,
      539,
      539,
      539,
      539,
      541,
      541,
      541,
      544,
      544,
      549,
      549,
      549,
      549,
      547,
      548,
      548,
      548,
      546,
      546,
      546,
      547,
      549,
      549,
      549,
      549,
      552,
      552,
      554,
      554,
      556,
      558,
      559,
      559,
      559,
      559,
      559,
      559,
      559,
      559,
      560,
      560,
      558,
      558,
      558,
      556,
      556,
      556,
      556,
      556,
      555,
      555,
      555,
      555,
      555,
      555,
      555,
      555,
      557,
      557,
      557,
      556,
      556,
      554,
      554,
      554,
      552,
      552,
      552,
      552,
      552,
      552,
      553,
      553,
      553,
      553,
      553,
      552,
      552,
      550,
      550,
      549,
      548,
      548,
      548,
      549,
      549,
      549,
      549,
      550,
      551,
      551,
      551,
      551,
      553,
      553,
      553,
      553,
      554,
      555,
      555,
      555,
      555,
      556,
      556,
      556,
      556,
      556,
      558,
      558,
      558,
      551,
      551,
      551,
      551,
      553,
      553,
      555,
      555,
      556,
      556,
      558,
      558,
      558,
      562,
      562,
      562,
      562,
      562,
      562,
      562,
      562,
      562,
      562,
      562,
      564,
      564,
      571,
      571,
      572,
      572,
      572,
      572,
      575,
      575,
      575,
      578,
      578,
      578,
      578,
      579,
      581,
      581,
      581,
      570,
      570,
      570,
      570,
      557,
      557,
      557,
      557,
      557,
      555,
      555,
      555,
      555,
      555,
      555,
      555,
      550,
      550,
      550,
      550,
      549,
      549,
      548,
      549,
      549,
      549,
      549,
      549,
      549,
      549,
      550,
      550,
      550,
      550,
      560,
      560,
      560,
      560,
      560,
      540,
      540,
      540,
      540,
      540,
      540,
      542,
      542,
      543,
      543,
      546,
      546,
      546,
      546,
      548,
      548,
      548,
      548,
      548,
      548,
      548,
      542,
      542,
      542,
      542,
      542,
      538,
      538,
      538,
      538,
      538,
      536,
      536,
      528,
      528,
      528,
      535,
      535,
      535,
      523,
      523,
      507,
      507,
      507,
      507,
      420,
      420,
      401,
      388,
      390,
      390,
      365,
      365,
      345,
      345,
      309,
      309,
      300,
      300,
      251,
      189,
      189,
      188,
      188
    ],
    "swim:timestamps": [
      1781373387,
      1781373387,
      1781373387,
      1781373387,
      1781373403,
      1781373403,
      1781373463,
      1781373523,
      1781373523,
      1781373523,
      1781373523,
      1781373703,
      1781373703,
      1781373703,
      1781373823,
      1781373823,
      1781373823,
      1781373883,
      1781373883,
      1781373943,
      1781373943,
      1781373943,
      1781373943,
      1781374184,
      1781374184,
      1781374184,
      1781374184,
      1781374304,
      1781374304,
      1781374304,
      1781374304,
      1781374304,
      1781374304,
      1781374603,
      1781374603,
      1781374603,
      1781374603,
      1781374783,
      1781374783,
      1781374783,
      1781374783,
      1781374963,
      1781374963,
      1781374963,
      1781374963,
      1781374963,
      1781374963,
      1781375143,
      1781375143,
      1781375143,
      1781375143,
      1781375203,
      1781375203,
      1781375203,
      1781375324,
      1781375324,
      1781375324,
      1781375385,
      1781375385,
      1781375385,
      1781375385,
      1781375385,
      1781375504,
      1781375564,
      1781375564,
      1781375564,
      1781375564,
      1781375684,
      1781375684,
      1781375744,
      1781375744,
      1781375744,
      1781375744,
      1781375804,
      1781375804,
      1781375864,
      1781375864,
      1781375864,
      1781375864,
      1781376165,
      1781376165,
      1781376225,
      1781376225,
      1781376225,
      1781376225,
      1781376225,
      1781376345,
      1781376345,
      1781376345,
      1781376345,
      1781376345,
      1781376525,
      1781376525,
      1781376585,
      1781376585,
      1781376645,
      1781376645,
      1781376645,
      1781376645,
      1781376705,
      1781376705,
      1781376705,
      1781376826,
      1781376826,
      1781376826,
      1781376826,
      1781377366,
      1781377426,
      1781377426,
      1781377426,
      1781377547,
      1781377607,
      1781377607,
      1781377607,
      1781377727,
      1781377727,
      1781377727,
      1781377727,
      1781377967,
      1781378027,
      1781378027,
      1781378147,
      1781378147,
      1781378147,
      1781378268,
      1781378268,
      1781378268,
      1781378388,
      1781378388,
      1781378388,
      1781378448,
      1781378448,
      1781378448,
      1781378508,
      1781378673,
      1781378673,
      1781378673,
      1781378673,
      1781378868,
      1781378868,
      1781378868,
      1781378914,
      1781378989,
      1781379049,
      1781379109,
      1781379109,
      1781379214,
      1781379229,
      1781379274,
      1781379274,
      1781379334,
      1781379515,
      1781379515,
      1781379589,
      1781379589,
      1781379635,
      1781379755,
      1781379755,
      1781379755,
      1781379815,
      1781379875,
      1781379875,
      1781379875,
      1781380055,
      1781380055,
      1781380055,
      1781380175,
      1781380175,
      1781380356,
      1781380356,
      1781380356,
      1781380356,
      1781380584,
      1781380596,
      1781380596,
      1781380596,
      1781380716,
      1781380716,
      1781380716,
      1781380825,
      1781380896,
      1781380896,
      1781380945,
      1781380945,
      1781381065,
      1781381065,
      1781381137,
      1781381137,
      1781381185,
      1781381245,
      1781381305,
      1781381365,
      1781381365,
      1781381365,
      1781381425,
      1781381425,
      1781381425,
      1781381425,
      1781381666,
      1781381666,
      1781381786,
      1781381786,
      1781381786,
      1781381906,
      1781381906,
      1781381906,
      1781381906,
      1781381906,
      1781382147,
      1781382147,
      1781382147,
      1781382207,
      1781382207,
      1781382207,
      1781382207,
      1781382207,
      1781382447,
      1781382447,
      1781382447,
      1781382507,
      1781382507,
      1781382567,
      1781382567,
      1781382567,
      1781382687,
      1781382687,
      1781382808,
      1781382808,
      1781382808,
      1781382808,
      1781382868,
      1781382928,
      1781382928,
      1781382928,
      1781382928,
      1781382988,
      1781382988,
      1781383048,
      1781383048,
      1781383108,
      1781383228,
      1781383228,
      1781383228,
      1781383348,
      1781383348,
      1781383348,
      1781383348,
      1781383408,
      1781383469,
      1781383469,
      1781383469,
      1781383469,
      1781383649,
      1781383649,
      1781383649,
      1781383649,
      1781383709,
      1781383769,
      1781383769,
      1781383769,
      1781383769,
      1781383829,
      1781383829,
      1781383829,
      1781383829,
      1781383829,
      1781383889,
      1781383889,
      1781383889,
      1781384190,
      1781384190,
      1781384190,
      1781384190,
      1781384310,
      1781384310,
      1781384370,
      1781384370,
      1781384430,
      1781384430,
      1781384490,
      1781384490,
      1781384490,
      1781384730,
      1781384730,
      1781384730,
      1781384730,
      1781384911,
      1781384911,
      1781384911,
      1781384971,
      1781384971,
      1781384971,
      1781384971,
      1781385031,
      1781385031,
      1781385271,
      1781385271,
      1781385452,
      1781385452,
      1781385452,
      1781385452,
      1781385584,
      1781385584,
      1781385584,
      1781385644,
      1781385644,
      1781385644,
      1781385644,
      1781385704,
      1781385824,
      1781385824,
      1781385824,
      1781386004,
      1781386004,
      1781386004,
      1781386004,
      1781386413,
      1781386413,
      1781386413,
      1781386413,
      1781386413,
      1781386593,
      1781386653,
      1781386653,
      1781386653,
      1781386653,
      1781386713,
      1781386713,
      1781386833,
      1781386833,
      1781386833,
      1781386833,
      1781386893,
      1781386893,
      1781386953,
      1781387074,
      1781387074,
      1781387074,
      1781387134,
      1781387134,
      1781387134,
      1781387134,
      1781387194,
      1781387194,
      1781387194,
      1781387254,
      1781387423,
      1781387423,
      1781387423,
      1781387423,
      1781387423,
      1781387543,
      1781387543,
      1781387543,
      1781387663,
      1781387663,
      1781387663,
      1781387723,
      1781387723,
      1781387735,
      1781387735,
      1781387795,
      1781387795,
      1781387795,
      1781387795,
      1781387915,
      1781387915,
      1781387975,
      1781387975,
      1781387975,
      1781387975,
      1781387975,
      1781388216,
      1781388216,
      1781388216,
      1781388216,
      1781388216,
      1781388516,
      1781388516,
      1781388516,
      1781388516,
      1781388516,
      1781388576,
      1781388576,
      1781388696,
      1781388696,
      1781388696,
      1781388877,
      1781388877,
      1781388877,
      1781388937,
      1781388937,
      1781389117,
      1781389117,
      1781389117,
      1781389117,
      1781389309,
      1781389309,
      1781389369,
      1781389413,
      1781389429,
      1781389429,
      1781389550,
      1781389550,
      1781389593,
      1781389593,
      1781389730,
      1781389730,
      1781389790,
      1781389790,
      1781389887,
      1781390061,
      1781390061,
      1781390090,
      1781390090
    ],
    "wof:geomhash": "71047b3c0370c8881553841b74883f1a",
    "wof:id": 2031533105,
    "wof:repo": "sfomuseum-data-flights-2026-06"
  },
  "bbox": [
    -122.4,
    37.65,
    -70.75,
    44.555
  ],
  "geometry": {"coordinates":[[-122.4,37.65],[-122.4,37.65],[-122.4,37.65],[-122.4,37.65],[-122.39305555555556,37.659166666666664],[-122.39305555555556,37.659166666666664],[-122.32972222222222,37.680277777777775],[-122.2575,37.713055555555556],[-122.2575,37.713055555555556],[-122.2575,37.713055555555556],[-122.2575,37.713055555555556],[-122.06694444444445,37.89055555555556],[-122.06694444444445,37.89055555555556],[-122.06694444444445,37.89055555555556],[-121.87027777777777,38.02305555555555],[-121.87027777777777,38.02305555555555],[-121.87027777777777,38.02305555555555],[-121.76166666666667,38.093333333333334],[-121.76166666666667,38.093333333333334],[-121.64944444444446,38.1675],[-121.64944444444446,38.1675],[-121.64944444444446,38.1675],[-121.64944444444446,38.1675],[-121.14083333333333,38.49111111111111],[-121.14083333333333,38.49111111111111],[-121.14083333333333,38.49111111111111],[-121.14083333333333,38.49111111111111],[-120.88166666666666,38.650277777777774],[-120.88166666666666,38.650277777777774],[-120.88166666666666,38.650277777777774],[-120.88166666666666,38.650277777777774],[-120.88166666666666,38.650277777777774],[-120.88166666666666,38.650277777777774],[-120.18138888888889,39.03472222222222],[-120.18138888888889,39.03472222222222],[-120.18138888888889,39.03472222222222],[-120.18138888888889,39.03472222222222],[-119.69277777777778,39.23166666666667],[-119.69277777777778,39.23166666666667],[-119.69277777777778,39.23166666666667],[-119.69277777777778,39.23166666666667],[-119.22,39.42222222222222],[-119.22,39.42222222222222],[-119.22,39.42222222222222],[-119.22,39.42222222222222],[-119.22,39.42222222222222],[-119.22,39.42222222222222],[-118.74277777777777,39.60888888888889],[-118.74277777777777,39.60888888888889],[-118.74277777777777,39.60888888888889],[-118.74277777777777,39.60888888888889],[-118.58277777777778,39.67111111111111],[-118.58277777777778,39.67111111111111],[-118.58277777777778,39.67111111111111],[-118.26027777777777,39.79527777777778],[-118.26027777777777,39.79527777777778],[-118.26027777777777,39.79527777777778],[-118.09777777777778,39.856944444444444],[-118.09777777777778,39.856944444444444],[-118.09777777777778,39.856944444444444],[-118.09777777777778,39.856944444444444],[-118.09777777777778,39.856944444444444],[-117.78611111111111,39.974722222222226],[-117.6588888888889,40.022777777777776],[-117.6588888888889,40.022777777777776],[-117.6588888888889,40.022777777777776],[-117.6588888888889,40.022777777777776],[-117.30694444444444,40.153888888888886],[-117.30694444444444,40.153888888888886],[-117.14666666666668,40.213055555555556],[-117.14666666666668,40.213055555555556],[-117.14666666666668,40.213055555555556],[-117.14666666666668,40.213055555555556],[-116.99083333333333,40.27055555555555],[-116.99083333333333,40.27055555555555],[-116.83694444444444,40.32694444444445],[-116.83694444444444,40.32694444444445],[-116.83694444444444,40.32694444444445],[-116.83694444444444,40.32694444444445],[-116.01416666666667,40.62222222222222],[-116.01416666666667,40.62222222222222],[-115.85638888888889,40.67805555555555],[-115.85638888888889,40.67805555555555],[-115.85638888888889,40.67805555555555],[-115.85638888888889,40.67805555555555],[-115.85638888888889,40.67805555555555],[-115.53472222222221,40.79055555555556],[-115.53472222222221,40.79055555555556],[-115.53472222222221,40.79055555555556],[-115.53472222222221,40.79055555555556],[-115.53472222222221,40.79055555555556],[-115.0525,40.95722222222223],[-115.0525,40.95722222222223],[-114.89166666666668,41.011944444444445],[-114.89166666666668,41.011944444444445],[-114.72166666666666,41.06944444444445],[-114.72166666666666,41.06944444444445],[-114.72166666666666,41.06944444444445],[-114.72166666666666,41.06944444444445],[-114.59166666666667,41.11333333333334],[-114.59166666666667,41.11333333333334],[-114.59166666666667,41.11333333333334],[-114.2363888888889,41.23222222222223],[-114.2363888888889,41.23222222222223],[-114.2363888888889,41.23222222222223],[-114.2363888888889,41.23222222222223],[-112.77388888888889,41.69555555555555],[-112.6,41.74861111111111],[-112.6,41.74861111111111],[-112.6,41.74861111111111],[-112.25777777777778,41.85194444444445],[-112.085,41.90361111111111],[-112.085,41.90361111111111],[-112.085,41.90361111111111],[-111.73833333333333,42.00611111111111],[-111.73833333333333,42.00611111111111],[-111.73833333333333,42.00611111111111],[-111.73833333333333,42.00611111111111],[-111.03833333333333,42.20916666666667],[-110.8461111111111,42.263888888888886],[-110.8461111111111,42.263888888888886],[-110.48916666666666,42.364444444444445],[-110.48916666666666,42.364444444444445],[-110.48916666666666,42.364444444444445],[-110.13055555555555,42.46416666666667],[-110.13055555555555,42.46416666666667],[-110.13055555555555,42.46416666666667],[-109.76527777777778,42.55638888888888],[-109.76527777777778,42.55638888888888],[-109.76527777777778,42.55638888888888],[-109.57638888888889,42.60111111111111],[-109.57638888888889,42.60111111111111],[-109.57638888888889,42.60111111111111],[-109.39027777777778,42.64527777777778],[-108.90666666666667,42.75861111111111],[-108.90666666666667,42.75861111111111],[-108.90666666666667,42.75861111111111],[-108.90666666666667,42.75861111111111],[-108.26777777777778,42.90222222222222],[-108.26777777777778,42.90222222222222],[-108.26777777777778,42.90222222222222],[-108.15361111111112,42.92805555555555],[-107.91027777777778,42.981944444444444],[-107.72027777777778,43.02333333333333],[-107.52916666666667,43.06472222222222],[-107.52916666666667,43.06472222222222],[-107.17472222222223,43.14083333333333],[-107.14444444444445,43.14722222222222],[-106.99111111111111,43.17944444444444],[-106.99111111111111,43.17944444444444],[-106.78527777777778,43.21416666666667],[-106.17805555555556,43.2825],[-106.17805555555556,43.2825],[-105.93527777777778,43.30916666666666],[-105.93527777777778,43.30916666666666],[-105.77388888888889,43.32638888888889],[-105.36194444444443,43.369166666666665],[-105.36194444444443,43.369166666666665],[-105.36194444444443,43.369166666666665],[-105.1575,43.39],[-104.95611111111111,43.41],[-104.95611111111111,43.41],[-104.95611111111111,43.41],[-104.33722222222222,43.469166666666666],[-104.33722222222222,43.469166666666666],[-104.33722222222222,43.469166666666666],[-103.92444444444445,43.51027777777778],[-103.92444444444445,43.51027777777778],[-103.30166666666666,43.592222222222226],[-103.30166666666666,43.592222222222226],[-103.30166666666666,43.592222222222226],[-103.30166666666666,43.592222222222226],[-102.5225,43.68944444444444],[-102.47333333333333,43.69555555555555],[-102.47333333333333,43.69555555555555],[-102.47333333333333,43.69555555555555],[-102.05888888888889,43.74472222222222],[-102.05888888888889,43.74472222222222],[-102.05888888888889,43.74472222222222],[-101.69555555555556,43.78666666666666],[-101.44500000000001,43.815],[-101.44500000000001,43.815],[-101.27888888888889,43.83583333333333],[-101.27888888888889,43.83583333333333],[-100.86277777777777,43.891666666666666],[-100.86277777777777,43.891666666666666],[-100.61,43.92388888888889],[-100.61,43.92388888888889],[-100.44055555555556,43.945277777777775],[-100.23,43.97166666666667],[-100.01722222222222,43.99805555555556],[-99.80638888888889,44.025],[-99.80638888888889,44.025],[-99.80638888888889,44.025],[-99.59666666666666,44.052499999999995],[-99.59666666666666,44.052499999999995],[-99.59666666666666,44.052499999999995],[-99.59666666666666,44.052499999999995],[-98.74861111111112,44.1575],[-98.74861111111112,44.1575],[-98.29138888888889,44.21138888888889],[-98.29138888888889,44.21138888888889],[-98.29138888888889,44.21138888888889],[-97.90916666666668,44.255],[-97.90916666666668,44.255],[-97.90916666666668,44.255],[-97.90916666666668,44.255],[-97.90916666666668,44.255],[-97.02027777777778,44.35166666666667],[-97.02027777777778,44.35166666666667],[-97.02027777777778,44.35166666666667],[-96.80583333333333,44.37361111111111],[-96.80583333333333,44.37361111111111],[-96.80583333333333,44.37361111111111],[-96.80583333333333,44.37361111111111],[-96.80583333333333,44.37361111111111],[-95.97888888888889,44.455000000000005],[-95.97888888888889,44.455000000000005],[-95.97888888888889,44.455000000000005],[-95.7625,44.47027777777778],[-95.7625,44.47027777777778],[-95.55027777777778,44.47555555555556],[-95.55027777777778,44.47555555555556],[-95.55027777777778,44.47555555555556],[-95.11833333333333,44.48444444444444],[-95.11833333333333,44.48444444444444],[-94.6888888888889,44.49166666666667],[-94.6888888888889,44.49166666666667],[-94.6888888888889,44.49166666666667],[-94.6888888888889,44.49166666666667],[-94.44777777777779,44.495],[-94.23222222222222,44.4975],[-94.23222222222222,44.4975],[-94.23222222222222,44.4975],[-94.23222222222222,44.4975],[-94.01861111111111,44.49944444444444],[-94.01861111111111,44.49944444444444],[-93.80638888888889,44.50111111111111],[-93.80638888888889,44.50111111111111],[-93.59694444444445,44.5025],[-93.17805555555556,44.50388888888889],[-93.17805555555556,44.50388888888889],[-93.17805555555556,44.50388888888889],[-92.75555555555556,44.50388888888889],[-92.75555555555556,44.50388888888889],[-92.75555555555556,44.50388888888889],[-92.75555555555556,44.50388888888889],[-92.54277777777777,44.50333333333333],[-92.33166666666666,44.5025],[-92.33166666666666,44.5025],[-92.33166666666666,44.5025],[-92.33166666666666,44.5025],[-91.68861111111111,44.509166666666665],[-91.68861111111111,44.509166666666665],[-91.68861111111111,44.509166666666665],[-91.68861111111111,44.509166666666665],[-91.47361111111111,44.515277777777776],[-91.255,44.520833333333336],[-91.255,44.520833333333336],[-91.255,44.520833333333336],[-91.255,44.520833333333336],[-91.03972222222222,44.52583333333333],[-91.03972222222222,44.52583333333333],[-91.03972222222222,44.52583333333333],[-91.03972222222222,44.52583333333333],[-91.03972222222222,44.52583333333333],[-90.81666666666666,44.53055555555555],[-90.81666666666666,44.53055555555555],[-90.81666666666666,44.53055555555555],[-89.73194444444445,44.54805555555556],[-89.73194444444445,44.54805555555556],[-89.73194444444445,44.54805555555556],[-89.73194444444445,44.54805555555556],[-89.34166666666667,44.551944444444445],[-89.34166666666667,44.551944444444445],[-89.08055555555555,44.55361111111111],[-89.08055555555555,44.55361111111111],[-88.86333333333333,44.55472222222222],[-88.86333333333333,44.55472222222222],[-88.64583333333334,44.555],[-88.64583333333334,44.555],[-88.64583333333334,44.555],[-87.76972222222223,44.543055555555554],[-87.76972222222223,44.543055555555554],[-87.76972222222223,44.543055555555554],[-87.76972222222223,44.543055555555554],[-87.11638888888888,44.5225],[-87.11638888888888,44.5225],[-87.11638888888888,44.5225],[-86.89861111111112,44.514722222222225],[-86.89861111111112,44.514722222222225],[-86.89861111111112,44.514722222222225],[-86.89861111111112,44.514722222222225],[-86.67916666666667,44.506388888888885],[-86.67916666666667,44.506388888888885],[-85.80694444444444,44.46888888888889],[-85.80694444444444,44.46888888888889],[-85.14500000000001,44.43611111111111],[-85.14500000000001,44.43611111111111],[-85.14500000000001,44.43611111111111],[-85.14500000000001,44.43611111111111],[-84.65527777777778,44.409166666666664],[-84.65527777777778,44.409166666666664],[-84.65527777777778,44.409166666666664],[-84.43055555555556,44.396388888888886],[-84.43055555555556,44.396388888888886],[-84.43055555555556,44.396388888888886],[-84.43055555555556,44.396388888888886],[-84.20305555555557,44.382777777777775],[-83.75277777777778,44.355000000000004],[-83.75277777777778,44.355000000000004],[-83.75277777777778,44.355000000000004],[-83.08388888888888,44.30888888888889],[-83.08388888888888,44.30888888888889],[-83.08388888888888,44.30888888888889],[-83.08388888888888,44.30888888888889],[-81.65833333333335,44.13138888888889],[-81.65833333333335,44.13138888888889],[-81.65833333333335,44.13138888888889],[-81.65833333333335,44.13138888888889],[-81.65833333333335,44.13138888888889],[-81.03972222222222,44.00861111111111],[-80.83388888888888,43.966944444444444],[-80.83388888888888,43.966944444444444],[-80.83388888888888,43.966944444444444],[-80.83388888888888,43.966944444444444],[-80.6111111111111,43.92111111111111],[-80.6111111111111,43.92111111111111],[-80.20333333333333,43.83638888888889],[-80.20333333333333,43.83638888888889],[-80.20333333333333,43.83638888888889],[-80.20333333333333,43.83638888888889],[-80.00277777777778,43.79416666666666],[-80.00277777777778,43.79416666666666],[-79.80222222222221,43.75138888888889],[-79.39583333333334,43.663888888888884],[-79.39583333333334,43.663888888888884],[-79.39583333333334,43.663888888888884],[-79.19777777777779,43.611111111111114],[-79.19777777777779,43.611111111111114],[-79.19777777777779,43.611111111111114],[-79.19777777777779,43.611111111111114],[-79.0025,43.55638888888888],[-79.0025,43.55638888888888],[-79.0025,43.55638888888888],[-78.80666666666666,43.50111111111111],[-78.25444444444445,43.342222222222226],[-78.25444444444445,43.342222222222226],[-78.25444444444445,43.342222222222226],[-78.25444444444445,43.342222222222226],[-78.25444444444445,43.342222222222226],[-77.88527777777779,43.205000000000005],[-77.88527777777779,43.205000000000005],[-77.88527777777779,43.205000000000005],[-77.52777777777777,43.053888888888885],[-77.52777777777777,43.053888888888885],[-77.52777777777777,43.053888888888885],[-77.345,42.976111111111116],[-77.345,42.976111111111116],[-77.30833333333334,42.96055555555556],[-77.30833333333334,42.96055555555556],[-77.11888888888888,42.897777777777776],[-77.11888888888888,42.897777777777776],[-77.11888888888888,42.897777777777776],[-77.11888888888888,42.897777777777776],[-76.7025,42.88027777777778],[-76.7025,42.88027777777778],[-76.50361111111111,42.87361111111111],[-76.50361111111111,42.87361111111111],[-76.50361111111111,42.87361111111111],[-76.50361111111111,42.87361111111111],[-76.50361111111111,42.87361111111111],[-75.68583333333333,42.841944444444444],[-75.68583333333333,42.841944444444444],[-75.68583333333333,42.841944444444444],[-75.68583333333333,42.841944444444444],[-75.68583333333333,42.841944444444444],[-74.68166666666667,42.79472222222222],[-74.68166666666667,42.79472222222222],[-74.68166666666667,42.79472222222222],[-74.68166666666667,42.79472222222222],[-74.68166666666667,42.79472222222222],[-74.44166666666668,42.782222222222224],[-74.44166666666668,42.782222222222224],[-74.0461111111111,42.76027777777778],[-74.0461111111111,42.76027777777778],[-74.0461111111111,42.76027777777778],[-73.46027777777778,42.74444444444445],[-73.46027777777778,42.74444444444445],[-73.46027777777778,42.74444444444445],[-73.25944444444444,42.7425],[-73.25944444444444,42.7425],[-72.70361111111112,42.69277777777778],[-72.70361111111112,42.69277777777778],[-72.70361111111112,42.69277777777778],[-72.70361111111112,42.69277777777778],[-72.13166666666666,42.62444444444444],[-72.13166666666666,42.62444444444444],[-71.98333333333333,42.606944444444444],[-71.86666666666666,42.6],[-71.83944444444444,42.58861111111111],[-71.83944444444444,42.58861111111111],[-71.56638888888888,42.544999999999995],[-71.56638888888888,42.544999999999995],[-71.46666666666667,42.516666666666666],[-71.46666666666667,42.516666666666666],[-71.2125,42.47277777777778],[-71.2125,42.47277777777778],[-71.09527777777777,42.45583333333334],[-71.09527777777777,42.45583333333334],[-70.93333333333334,42.45],[-70.75,42.4],[-70.75,42.4],[-70.78388888888888,42.39722222222222],[-70.78388888888888,42.39722222222222]],"type":"LineString"}
}
