{
  "id": 2031582839,
  "type": "Feature",
  "properties": {
    "geom:area": 0,
    "geom:bbox": "-122.341770,37.468100,-121.261100,37.665920",
    "geom:latitude": 37.56100104362596,
    "geom:longitude": -121.81157025163668,
    "src:alt_label": "swim-approach",
    "src:geom": "swim",
    "swim:elevations": [
      4685,
      4570,
      4431,
      4366,
      4150,
      3915,
      3548,
      3455,
      3428,
      3350,
      3353,
      3353,
      3260,
      3195,
      3191,
      3048,
      2987,
      2836,
      2743,
      2743,
      2743,
      2743,
      2672,
      2604,
      2313,
      2254,
      2134,
      2134,
      1997,
      1807,
      1644,
      1577,
      1371,
      1179,
      1089,
      895,
      731,
      577,
      433,
      361,
      321,
      199,
      98
    ],
    "swim:geom": "approach",
    "swim:timestamps": [
      1781866571,
      1781866590,
      1781866614,
      1781866627,
      1781866662,
      1781866694,
      1781866737,
      1781866750,
      1781866758,
      1781866783,
      1781866801,
      1781866853,
      1781866875,
      1781866887,
      1781866891,
      1781866931,
      1781866971,
      1781866994,
      1781867031,
      1781867050,
      1781867054,
      1781867078,
      1781867119,
      1781867134,
      1781867183,
      1781867191,
      1781867245,
      1781867256,
      1781867299,
      1781867330,
      1781867360,
      1781867379,
      1781867405,
      1781867431,
      1781867446,
      1781867485,
      1781867513,
      1781867539,
      1781867572,
      1781867591,
      1781867599,
      1781867627,
      1781867651
    ],
    "wof:geomhash": "171dead1673741e4e87f4cb38d801a96",
    "wof:id": 2031582839,
    "wof:repo": "sfomuseum-data-flights-2026-06"
  },
  "bbox": [
    -122.34177,
    37.4681,
    -121.2611,
    37.66592
  ],
  "geometry": {"coordinates":[[-121.2611,37.59299],[-121.29081,37.58937],[-121.32633,37.5854],[-121.34584,37.58317],[-121.39854,37.57714],[-121.44628,37.57165],[-121.50818,37.56443],[-121.5276,37.56208],[-121.53988,37.56064],[-121.57622,37.55644],[-121.60181,37.55343],[-121.6703,37.57351],[-121.6944,37.59281],[-121.70681,37.60273],[-121.71149,37.60644],[-121.75403,37.63975],[-121.8025,37.66592],[-121.83546,37.66554],[-121.86888,37.63957],[-121.86242,37.62003],[-121.8594,37.61644],[-121.83979,37.59664],[-121.81309,37.55866],[-121.81598,37.54233],[-121.8307,37.49204],[-121.83441,37.48337],[-121.89948,37.4681],[-121.91422,37.47069],[-121.97217,37.48094],[-122.01369,37.48842],[-122.05307,37.49561],[-122.07792,37.50019],[-122.1096,37.5093],[-122.14013,37.52208],[-122.15682,37.52914],[-122.19629,37.54589],[-122.22443,37.55774],[-122.25025,37.56869],[-122.27916,37.58076],[-122.2944,37.58715],[-122.3005,37.58977],[-122.32268,37.59904],[-122.34177,37.60707]],"type":"LineString"}
}
