{
  "id": 2031516059,
  "type": "Feature",
  "properties": {
    "geom:area": 0,
    "geom:bbox": "-122.312500,37.455556,-73.825556,40.557500",
    "geom:latitude": 39.38914238609526,
    "geom:longitude": -98.07769477755363,
    "src:alt_label": "swim-path",
    "src:geom": "swim",
    "swim:altitudes": [
      "025",
      "025",
      "025",
      "025",
      "025",
      "092",
      "092",
      "109",
      "136",
      "136",
      "136",
      "136",
      "136",
      "169",
      "183",
      "200",
      "207",
      "207",
      "207",
      "207",
      "207",
      "216",
      "216",
      "216",
      "226",
      "226",
      "226",
      "232",
      "232",
      "263",
      "263",
      "269",
      "269",
      "269",
      "269",
      "290",
      "290",
      "290",
      "290",
      "290",
      "298",
      "304",
      "304",
      "305",
      "305",
      "305",
      "305",
      "321",
      "324",
      "324",
      "337",
      "337",
      "337",
      "337",
      "340C",
      "340C",
      "340C",
      "340C",
      "340C",
      "340C",
      "340C",
      "340C",
      "340C",
      "340C",
      "340C",
      "340C",
      "340C",
      "340C",
      "340C",
      "340C",
      "340C",
      "340C",
      "340C",
      "340C",
      "340C",
      "340C",
      "340C",
      "340C",
      "340C",
      "340C",
      "340C",
      "340C",
      "340C",
      "340C",
      "340C",
      "340C",
      "340C",
      "340C",
      "340C",
      "340C",
      "340C",
      "340C",
      "340C",
      "340C",
      "340C",
      "340C",
      "340C",
      "340C",
      "340C",
      "340C",
      "340C",
      "340C",
      "340C",
      "340C",
      "340C",
      "340C",
      "341C",
      "341C",
      "340C",
      "340C",
      "340C",
      "340C",
      "340C",
      "340C",
      "340C",
      "340C",
      "340C",
      "340C",
      "340C",
      "340C",
      "340C",
      "340C",
      "340C",
      "340C",
      "340C",
      "340C",
      "340C",
      "340C",
      "340C",
      "341C",
      "340C",
      "340C",
      "340C",
      "340C",
      "340C",
      "340C",
      "340C",
      "340C",
      "340C",
      "340C",
      "340C",
      "340C",
      "340C",
      "340C",
      "340C",
      "340C",
      "340C",
      "340C",
      "340C",
      "340C",
      "340C",
      "340C",
      "340C",
      "340C",
      "340C",
      "340C",
      "340C",
      "340C",
      "340C",
      "340C",
      "340C",
      "340C",
      "340C",
      "340C",
      "340C",
      "340C",
      "340C",
      "340C",
      "340C",
      "340C",
      "340C",
      "340C",
      "340C",
      "340C",
      "340C",
      "340C",
      "340C",
      "340C",
      "340C",
      "340C",
      "340C",
      "340C",
      "340C",
      "340C",
      "340C",
      "340C",
      "340C",
      "340C",
      "340C",
      "340C",
      "340C",
      "340C",
      "340C",
      "340C",
      "340C",
      "340C",
      "340C",
      "340C",
      "340C",
      "340C",
      "340C",
      "340C",
      "340C",
      "340C",
      "340C",
      "340C",
      "340C",
      "340C",
      "340C",
      "340C",
      "340C",
      "340C",
      "340C",
      "340C",
      "340C",
      "340C",
      "340C",
      "340C",
      "340C",
      "341C",
      "341C",
      "341C",
      "341C",
      "341C",
      "341C",
      "340C",
      "340C",
      "340C",
      "340C",
      "340C",
      "340C",
      "340C",
      "340C",
      "340C",
      "340C",
      "340C",
      "340C",
      "340C",
      "340C",
      "340C",
      "340C",
      "340C",
      "340C",
      "340C",
      "340C",
      "340C",
      "340C",
      "340C",
      "340C",
      "340C",
      "340C",
      "340C",
      "340C",
      "340C",
      "340C",
      "340C",
      "340C",
      "340C",
      "340C",
      "340C",
      "340C",
      "340C",
      "340C",
      "340C",
      "340C",
      "340C",
      "340C",
      "340C",
      "340C",
      "340C",
      "340C",
      "340C",
      "340C",
      "340C",
      "340C",
      "340C",
      "341C",
      "340C",
      "340C",
      "340C",
      "340C",
      "340C",
      "340C",
      "340C",
      "340C",
      "340C",
      "340C",
      "340C",
      "340C",
      "340C",
      "340C",
      "340C",
      "340C",
      "340C",
      "340C",
      "340C",
      "340C",
      "340C",
      "340C",
      "340C",
      "340C",
      "340C",
      "340C",
      "340C",
      "340C",
      "340C",
      "340C",
      "340C",
      "340C",
      "340C",
      "340C",
      "340C",
      "340C",
      "340C",
      "340C",
      "340C",
      "340C",
      "340C",
      "340C",
      "340C",
      "340C",
      "340C",
      "340C",
      "340C",
      "340C",
      "340C",
      "340C",
      "340C",
      "340C",
      "340C",
      "340C",
      "340C",
      "340C",
      "340C",
      "340C",
      "340C",
      "340C",
      "340C",
      "340C",
      "340C",
      "340C",
      "340C",
      "340C",
      "340C",
      "340C",
      "340C",
      "340C",
      "340C",
      "340C",
      "340C",
      "340C",
      "340C",
      "340C",
      "340C",
      "340C",
      "340C",
      "340C",
      "340C",
      "340C",
      "340C",
      "340C",
      "340C",
      "340C",
      "340C",
      "340C",
      "340C",
      "340C",
      "340C",
      "340C",
      "340C",
      "340C",
      "340C",
      "340C",
      "340C",
      "340C",
      "340C",
      "340C",
      "340C",
      "340C",
      "340C",
      "340C",
      "340C",
      "340C",
      "340C",
      "340C",
      "340C",
      "340C",
      "340C",
      "340C",
      "340C",
      "340C",
      "340C",
      "340C",
      "340C",
      "340C",
      "340C",
      "340C",
      "340C",
      "340C",
      "340C",
      "340C",
      "340C",
      "340C",
      "340C",
      "340C",
      "340C",
      "340C",
      "340C",
      "340C",
      "342",
      "343",
      "343",
      "343",
      "343",
      "343",
      "347",
      "347",
      "347",
      "350",
      "355",
      "355",
      "355",
      "355",
      "355",
      "358C",
      "358C",
      "358C",
      "360C",
      "360C",
      "360C",
      "360C",
      "360C",
      "360C",
      "360C",
      "360C",
      "360C",
      "360C",
      "360C",
      "360C",
      "360C",
      "360C",
      "360C",
      "360C",
      "360C",
      "360C",
      "360C",
      "360C",
      "360C",
      "360C",
      "360C",
      "360C",
      "360C",
      "360C",
      "360C",
      "360C",
      "360C",
      "360C",
      "360C",
      "360C",
      "360C",
      "360C",
      "360C",
      "360C",
      "360C",
      "360C",
      "360C",
      "360C",
      "360C",
      "360C",
      "360C",
      "360C",
      "360C",
      "360C",
      "360C",
      "360C",
      "360C",
      "360C",
      "360C",
      "360C",
      "360C",
      "360C",
      "360C",
      "360C",
      "360C",
      "360C",
      "360C",
      "360C",
      "360C",
      "360C",
      "360C",
      "360C",
      "360C",
      "360C",
      "360C",
      "360C",
      "360C",
      "360C",
      "360C",
      "360C",
      "360C",
      "360C",
      "360C",
      "360C",
      "360C",
      "360C",
      "360C",
      "360C",
      "360C",
      "360C",
      "360C",
      "360C",
      "360C",
      "360C",
      "360C",
      "360C",
      "360C",
      "360C",
      "360C",
      "360C",
      "360C",
      "360C",
      "360C",
      "360C",
      "360C",
      "360C",
      "360C",
      "360C",
      "360C",
      "360C",
      "360C",
      "360C",
      "360C",
      "360C",
      "360C",
      "360C",
      "360C",
      "360C",
      "360C",
      "360C",
      "360C",
      "360C",
      "360C",
      "360C",
      "360C",
      "360C",
      "360C",
      "360C",
      "360C",
      "360C",
      "360C",
      "360C",
      "360C",
      "360C",
      "360C",
      "360C",
      "360C",
      "360C",
      "360C",
      "360C",
      "360C",
      "360C",
      "360C",
      "360C",
      "360C",
      "360C",
      "360C",
      "360C",
      "360C",
      "360C",
      "360C",
      "360C",
      "360C",
      "360C",
      "360C",
      "360C",
      "360C",
      "360C",
      "360C",
      "360C",
      "360C",
      "360C",
      "360C",
      "360C",
      "360C",
      "360C",
      "360C",
      "360C",
      "360C",
      "360C",
      "360C",
      "360C",
      "360C",
      "360C",
      "360C",
      "360C",
      "360C",
      "360C",
      "360C",
      "360C",
      "360C",
      "360C",
      "360C",
      "360C",
      "360C",
      "360C",
      "360C",
      "360C",
      "360C",
      "360C",
      "360C",
      "360C",
      "360C",
      "360C",
      "360C",
      "360C",
      "360C",
      "360C",
      "360C",
      "360C",
      "360C",
      "360C",
      "360C",
      "360C",
      "360C",
      "360C",
      "360C",
      "360C",
      "360C",
      "360C",
      "360C",
      "360C",
      "360C",
      "360C",
      "360C",
      "360C",
      "361C",
      "361C",
      "361C",
      "361C",
      "361C",
      "361C",
      "361C",
      "361C",
      "360C",
      "360C",
      "360C",
      "360C",
      "360C",
      "360C",
      "360C",
      "360C",
      "360C",
      "360C",
      "360C",
      "360C",
      "360C",
      "360C",
      "360C",
      "360C",
      "360C",
      "360C",
      "360C",
      "360C",
      "360C",
      "360C",
      "360C",
      "360C",
      "360C",
      "360C",
      "360C",
      "360C",
      "360C",
      "360C",
      "360C",
      "360C",
      "360C",
      "360C",
      "360C",
      "360C",
      "360C",
      "360C",
      "360C",
      "360C",
      "360C",
      "360C",
      "360C",
      "360C",
      "360C",
      "360C",
      "360C",
      "360C",
      "360C",
      "360C",
      "360C",
      "360C",
      "360C",
      "360C",
      "360C",
      "360C",
      "360C",
      "360C",
      "360C",
      "360C",
      "360C",
      "360C",
      "360C",
      "360C",
      "360C",
      "360C",
      "360C",
      "360C",
      "360C",
      "360C",
      "360C",
      "360C",
      "360C",
      "360C",
      "360C",
      "360C",
      "360C",
      "360C",
      "360C",
      "360C",
      "360C",
      "360C",
      "360C",
      "360C",
      "360C",
      "360C",
      "360C",
      "360C",
      "360C",
      "360C",
      "360C",
      "360C",
      "360C",
      "360C",
      "360C",
      "360C",
      "360C",
      "360C",
      "360C",
      "360C",
      "360C",
      "360C",
      "360C",
      "360C",
      "360C",
      "360C",
      "360C",
      "360C",
      "360C",
      "360C",
      "360C",
      "360C",
      "360C",
      "360C",
      "360C",
      "360C",
      "360C",
      "360C",
      "360C",
      "360C",
      "360C",
      "360C",
      "360C",
      "360C",
      "360C",
      "360C",
      "360C",
      "360C",
      "360C",
      "360C",
      "360C",
      "360C",
      "360C",
      "360C",
      "360C",
      "360C",
      "360C",
      "360C",
      "360C",
      "360C",
      "360C",
      "360C",
      "360C",
      "360C",
      "360C",
      "360C",
      "360C",
      "360C",
      "360C",
      "360C",
      "360C",
      "360C",
      "360C",
      "360C",
      "360C",
      "360C",
      "359C",
      "359C",
      "359C",
      "359C",
      "359C",
      "359C",
      "360C",
      "360C",
      "360C",
      "360C",
      "360C",
      "360C",
      "360C",
      "360C",
      "360C",
      "360C",
      "360C",
      "359C",
      "359C",
      "359C",
      "359C",
      "359C",
      "360C",
      "360C",
      "360C",
      "360C",
      "360C",
      "360C",
      "360C",
      "360C",
      "360C",
      "360C",
      "360C",
      "360C",
      "360C",
      "360C",
      "360C",
      "360C",
      "360C",
      "360C",
      "360C",
      "360C",
      "360C",
      "360C",
      "360C",
      "360C",
      "360C",
      "360C",
      "360C",
      "360C",
      "360C",
      "360C",
      "360C",
      "360C",
      "360C",
      "360C",
      "360C",
      "360C",
      "360C",
      "360C",
      "360C",
      "360C",
      "360C",
      "360C",
      "360C",
      "360C",
      "360C",
      "360C",
      "360C",
      "360C",
      "360C",
      "360C",
      "360C",
      "360C",
      "360C",
      "360C",
      "360C",
      "360C",
      "360C",
      "360C",
      "360C",
      "360C",
      "360C",
      "360C",
      "360C",
      "360C",
      "360C",
      "360C",
      "360C",
      "360C",
      "360C",
      "360C",
      "360C",
      "360C",
      "360C",
      "360C",
      "360C",
      "360C",
      "360C",
      "356",
      "356",
      "356",
      "356",
      "356",
      "347",
      "347",
      "347",
      "340C",
      "340C",
      "340C",
      "340C",
      "340C",
      "340",
      "340",
      "340",
      "340",
      "340",
      "340",
      "334",
      "334",
      "334",
      "334",
      "334",
      "334",
      "308",
      "308",
      "292",
      "280",
      "280",
      "280",
      "262",
      "262",
      "240",
      "240",
      "240",
      "240",
      "240",
      "240",
      "240",
      "240",
      "125",
      "125",
      "125",
      "125",
      "125",
      "125",
      "125",
      "125",
      "094",
      "094",
      "094",
      "094",
      "094",
      "094",
      "077",
      "077",
      "077",
      "077",
      "077",
      "077",
      "067",
      "067",
      "067",
      "067",
      "067",
      "067",
      "067",
      "036",
      "027",
      "027",
      "027",
      "027",
      "027",
      "027",
      "008",
      "008",
      "008",
      "008",
      "008"
    ],
    "swim:geom": "path",
    "swim:speeds": [
      230,
      230,
      230,
      230,
      230,
      262,
      262,
      286,
      351,
      351,
      351,
      351,
      351,
      369,
      376,
      376,
      397,
      397,
      397,
      397,
      397,
      412,
      412,
      412,
      418,
      418,
      418,
      426,
      426,
      447,
      447,
      453,
      453,
      453,
      453,
      463,
      463,
      463,
      463,
      463,
      462,
      461,
      461,
      461,
      461,
      461,
      461,
      459,
      458,
      458,
      456,
      456,
      456,
      456,
      455,
      455,
      455,
      453,
      453,
      455,
      455,
      455,
      456,
      456,
      457,
      457,
      457,
      458,
      458,
      458,
      458,
      458,
      458,
      457,
      457,
      457,
      457,
      457,
      455,
      455,
      455,
      455,
      455,
      452,
      452,
      448,
      449,
      449,
      450,
      450,
      442,
      442,
      442,
      442,
      442,
      438,
      438,
      438,
      446,
      445,
      445,
      444,
      444,
      444,
      444,
      444,
      442,
      442,
      437,
      437,
      437,
      437,
      437,
      424,
      424,
      424,
      422,
      422,
      404,
      403,
      403,
      399,
      399,
      399,
      399,
      399,
      399,
      401,
      401,
      403,
      404,
      404,
      404,
      404,
      404,
      404,
      404,
      404,
      404,
      404,
      404,
      404,
      405,
      404,
      404,
      404,
      404,
      400,
      400,
      400,
      400,
      400,
      400,
      400,
      400,
      400,
      400,
      400,
      400,
      400,
      400,
      400,
      400,
      400,
      400,
      400,
      400,
      401,
      401,
      401,
      401,
      401,
      401,
      401,
      399,
      399,
      399,
      399,
      398,
      398,
      398,
      398,
      398,
      398,
      398,
      398,
      398,
      399,
      399,
      399,
      399,
      399,
      399,
      399,
      399,
      405,
      405,
      405,
      405,
      405,
      406,
      406,
      406,
      407,
      407,
      407,
      407,
      407,
      407,
      397,
      397,
      397,
      397,
      390,
      390,
      390,
      390,
      389,
      389,
      389,
      389,
      389,
      389,
      389,
      389,
      389,
      389,
      389,
      389,
      389,
      389,
      388,
      388,
      388,
      388,
      388,
      388,
      387,
      387,
      388,
      388,
      388,
      388,
      388,
      388,
      388,
      388,
      388,
      388,
      388,
      386,
      386,
      386,
      386,
      386,
      386,
      390,
      390,
      390,
      390,
      390,
      390,
      390,
      393,
      393,
      393,
      393,
      393,
      393,
      393,
      393,
      393,
      393,
      393,
      393,
      393,
      394,
      393,
      393,
      393,
      393,
      393,
      393,
      393,
      394,
      394,
      394,
      394,
      394,
      394,
      394,
      394,
      393,
      393,
      393,
      393,
      393,
      393,
      395,
      395,
      395,
      395,
      395,
      395,
      395,
      395,
      396,
      396,
      396,
      396,
      396,
      396,
      396,
      396,
      396,
      396,
      396,
      396,
      396,
      396,
      396,
      396,
      396,
      396,
      396,
      396,
      396,
      396,
      396,
      396,
      396,
      396,
      396,
      396,
      397,
      397,
      397,
      398,
      398,
      398,
      398,
      398,
      398,
      398,
      398,
      398,
      398,
      398,
      397,
      397,
      397,
      397,
      397,
      397,
      397,
      397,
      398,
      398,
      397,
      397,
      397,
      397,
      397,
      397,
      397,
      397,
      397,
      395,
      395,
      395,
      395,
      395,
      395,
      390,
      390,
      390,
      390,
      390,
      390,
      390,
      390,
      390,
      390,
      390,
      390,
      390,
      390,
      390,
      390,
      390,
      390,
      390,
      390,
      390,
      390,
      390,
      390,
      390,
      390,
      390,
      390,
      390,
      390,
      393,
      393,
      393,
      393,
      393,
      393,
      391,
      391,
      391,
      391,
      391,
      391,
      390,
      390,
      390,
      389,
      388,
      388,
      388,
      388,
      388,
      387,
      387,
      387,
      386,
      386,
      386,
      386,
      386,
      386,
      383,
      383,
      383,
      383,
      383,
      383,
      382,
      382,
      382,
      382,
      382,
      382,
      382,
      382,
      382,
      382,
      382,
      382,
      381,
      381,
      381,
      381,
      381,
      382,
      382,
      382,
      382,
      382,
      382,
      382,
      382,
      382,
      382,
      382,
      382,
      382,
      382,
      382,
      383,
      383,
      383,
      383,
      383,
      385,
      385,
      385,
      385,
      385,
      385,
      386,
      386,
      386,
      386,
      386,
      386,
      386,
      386,
      386,
      386,
      386,
      385,
      385,
      385,
      385,
      385,
      385,
      385,
      385,
      386,
      386,
      386,
      386,
      386,
      386,
      388,
      388,
      388,
      388,
      388,
      388,
      388,
      388,
      388,
      390,
      390,
      390,
      390,
      389,
      389,
      389,
      389,
      389,
      389,
      389,
      389,
      389,
      387,
      387,
      387,
      387,
      386,
      386,
      386,
      386,
      386,
      386,
      387,
      387,
      387,
      387,
      387,
      387,
      387,
      387,
      387,
      387,
      387,
      387,
      387,
      387,
      386,
      386,
      386,
      386,
      386,
      386,
      386,
      389,
      389,
      389,
      389,
      389,
      389,
      391,
      391,
      391,
      391,
      391,
      391,
      390,
      390,
      390,
      392,
      392,
      392,
      392,
      394,
      394,
      394,
      394,
      394,
      394,
      396,
      396,
      396,
      396,
      396,
      396,
      396,
      397,
      397,
      397,
      398,
      398,
      398,
      398,
      398,
      397,
      397,
      397,
      397,
      397,
      396,
      396,
      396,
      396,
      396,
      392,
      392,
      392,
      392,
      391,
      391,
      391,
      391,
      390,
      390,
      390,
      390,
      390,
      390,
      390,
      390,
      387,
      387,
      387,
      387,
      386,
      386,
      386,
      386,
      386,
      386,
      386,
      386,
      386,
      386,
      386,
      386,
      386,
      390,
      390,
      390,
      390,
      390,
      390,
      390,
      390,
      390,
      390,
      390,
      389,
      389,
      389,
      389,
      389,
      389,
      389,
      389,
      389,
      389,
      389,
      389,
      389,
      389,
      389,
      389,
      388,
      388,
      388,
      387,
      387,
      387,
      387,
      387,
      386,
      386,
      386,
      387,
      387,
      387,
      387,
      387,
      387,
      387,
      387,
      387,
      387,
      387,
      387,
      387,
      387,
      387,
      387,
      387,
      387,
      387,
      387,
      387,
      387,
      387,
      387,
      387,
      387,
      387,
      387,
      387,
      387,
      386,
      386,
      386,
      386,
      387,
      387,
      387,
      387,
      386,
      386,
      386,
      386,
      386,
      387,
      387,
      387,
      387,
      387,
      387,
      387,
      387,
      388,
      388,
      388,
      388,
      393,
      393,
      393,
      393,
      393,
      393,
      393,
      393,
      393,
      393,
      393,
      393,
      394,
      394,
      394,
      394,
      394,
      394,
      394,
      394,
      396,
      396,
      396,
      396,
      396,
      396,
      396,
      396,
      400,
      400,
      400,
      400,
      400,
      401,
      401,
      403,
      403,
      403,
      403,
      403,
      404,
      404,
      404,
      404,
      404,
      403,
      403,
      403,
      403,
      403,
      403,
      403,
      405,
      405,
      405,
      405,
      406,
      406,
      406,
      406,
      406,
      406,
      406,
      411,
      411,
      411,
      411,
      411,
      411,
      407,
      407,
      407,
      407,
      408,
      408,
      408,
      408,
      408,
      408,
      408,
      408,
      408,
      408,
      408,
      408,
      409,
      409,
      409,
      409,
      414,
      414,
      414,
      415,
      415,
      417,
      417,
      417,
      419,
      419,
      420,
      420,
      420,
      420,
      424,
      424,
      424,
      424,
      424,
      424,
      426,
      426,
      426,
      426,
      409,
      409,
      408,
      408,
      408,
      408,
      408,
      408,
      408,
      408,
      408,
      408,
      408,
      409,
      409,
      409,
      409,
      409,
      409,
      409,
      409,
      409,
      408,
      407,
      407,
      407,
      407,
      407,
      407,
      407,
      407,
      407,
      407,
      407,
      407,
      407,
      407,
      407,
      407,
      407,
      407,
      407,
      407,
      407,
      408,
      408,
      408,
      408,
      408,
      408,
      408,
      408,
      408,
      408,
      408,
      408,
      408,
      413,
      413,
      413,
      413,
      413,
      413,
      413,
      413,
      413,
      413,
      413,
      427,
      427,
      427,
      427,
      427,
      427,
      432,
      432,
      430,
      424,
      424,
      424,
      418,
      418,
      406,
      406,
      406,
      406,
      406,
      406,
      406,
      406,
      305,
      305,
      305,
      305,
      305,
      305,
      305,
      305,
      272,
      272,
      272,
      272,
      272,
      272,
      255,
      255,
      255,
      255,
      255,
      255,
      238,
      238,
      238,
      238,
      238,
      238,
      238,
      199,
      195,
      195,
      195,
      195,
      195,
      195,
      156,
      156,
      156,
      156,
      156
    ],
    "swim:timestamps": [
      1781259297,
      1781259297,
      1781259297,
      1781259297,
      1781259297,
      1781259477,
      1781259477,
      1781259537,
      1781259657,
      1781259657,
      1781259657,
      1781259657,
      1781259657,
      1781259777,
      1781259837,
      1781259898,
      1781259958,
      1781259958,
      1781259958,
      1781259958,
      1781259958,
      1781260018,
      1781260018,
      1781260018,
      1781260078,
      1781260078,
      1781260078,
      1781260138,
      1781260138,
      1781260378,
      1781260378,
      1781260438,
      1781260438,
      1781260438,
      1781260438,
      1781260619,
      1781260619,
      1781260619,
      1781260619,
      1781260619,
      1781260679,
      1781260730,
      1781260730,
      1781260739,
      1781260739,
      1781260739,
      1781260739,
      1781260859,
      1781260910,
      1781260910,
      1781261029,
      1781261029,
      1781261029,
      1781261029,
      1781261089,
      1781261089,
      1781261089,
      1781261319,
      1781261319,
      1781261379,
      1781261379,
      1781261379,
      1781261450,
      1781261450,
      1781261559,
      1781261559,
      1781261559,
      1781261570,
      1781261570,
      1781261570,
      1781261570,
      1781261630,
      1781261630,
      1781261739,
      1781261739,
      1781261739,
      1781261739,
      1781261739,
      1781261871,
      1781261871,
      1781261871,
      1781261871,
      1781261871,
      1781261919,
      1781261919,
      1781262040,
      1781262100,
      1781262100,
      1781262160,
      1781262160,
      1781262220,
      1781262231,
      1781262231,
      1781262231,
      1781262231,
      1781262280,
      1781262280,
      1781262280,
      1781262400,
      1781262461,
      1781262471,
      1781262521,
      1781262532,
      1781262581,
      1781262581,
      1781262581,
      1781262652,
      1781262652,
      1781262701,
      1781262701,
      1781262712,
      1781262712,
      1781262712,
      1781262821,
      1781262821,
      1781262821,
      1781262892,
      1781262892,
      1781263061,
      1781263072,
      1781263072,
      1781263121,
      1781263121,
      1781263182,
      1781263242,
      1781263242,
      1781263242,
      1781263313,
      1781263313,
      1781263362,
      1781263422,
      1781263422,
      1781263433,
      1781263433,
      1781263433,
      1781263433,
      1781263542,
      1781263602,
      1781263602,
      1781263602,
      1781263602,
      1781263611,
      1781263732,
      1781263792,
      1781263792,
      1781263792,
      1781263792,
      1781263972,
      1781263972,
      1781263972,
      1781264032,
      1781264032,
      1781264032,
      1781264032,
      1781264032,
      1781264203,
      1781264203,
      1781264213,
      1781264213,
      1781264213,
      1781264263,
      1781264263,
      1781264323,
      1781264323,
      1781264393,
      1781264393,
      1781264393,
      1781264443,
      1781264443,
      1781264443,
      1781264443,
      1781264443,
      1781264443,
      1781264503,
      1781264623,
      1781264623,
      1781264623,
      1781264623,
      1781264683,
      1781264683,
      1781264683,
      1781264683,
      1781264744,
      1781264744,
      1781264744,
      1781264744,
      1781264744,
      1781264804,
      1781264804,
      1781264804,
      1781264814,
      1781264814,
      1781264814,
      1781264814,
      1781264814,
      1781264984,
      1781264984,
      1781264984,
      1781264984,
      1781264984,
      1781265054,
      1781265054,
      1781265054,
      1781265174,
      1781265174,
      1781265174,
      1781265174,
      1781265174,
      1781265174,
      1781265344,
      1781265344,
      1781265344,
      1781265344,
      1781265474,
      1781265474,
      1781265474,
      1781265474,
      1781265534,
      1781265534,
      1781265585,
      1781265585,
      1781265585,
      1781265585,
      1781265585,
      1781265585,
      1781265654,
      1781265654,
      1781265715,
      1781265715,
      1781265715,
      1781265715,
      1781265775,
      1781265775,
      1781265775,
      1781265775,
      1781265775,
      1781265775,
      1781265835,
      1781265835,
      1781265956,
      1781265956,
      1781265956,
      1781265956,
      1781265956,
      1781266136,
      1781266136,
      1781266136,
      1781266136,
      1781266136,
      1781266136,
      1781266313,
      1781266313,
      1781266313,
      1781266313,
      1781266313,
      1781266313,
      1781266494,
      1781266494,
      1781266494,
      1781266494,
      1781266494,
      1781266494,
      1781266494,
      1781266674,
      1781266674,
      1781266674,
      1781266674,
      1781266674,
      1781266674,
      1781266674,
      1781266674,
      1781266914,
      1781266914,
      1781266914,
      1781266914,
      1781266914,
      1781266974,
      1781266991,
      1781266991,
      1781266991,
      1781266991,
      1781266991,
      1781266991,
      1781266991,
      1781267095,
      1781267095,
      1781267095,
      1781267095,
      1781267095,
      1781267095,
      1781267111,
      1781267155,
      1781267171,
      1781267171,
      1781267291,
      1781267291,
      1781267291,
      1781267291,
      1781267412,
      1781267412,
      1781267412,
      1781267412,
      1781267412,
      1781267412,
      1781267412,
      1781267412,
      1781267472,
      1781267472,
      1781267472,
      1781267472,
      1781267472,
      1781267472,
      1781267472,
      1781267532,
      1781267532,
      1781267532,
      1781267532,
      1781267532,
      1781267532,
      1781267575,
      1781267575,
      1781267575,
      1781267592,
      1781267592,
      1781267592,
      1781267592,
      1781267712,
      1781267712,
      1781267712,
      1781267712,
      1781267712,
      1781267712,
      1781267712,
      1781267712,
      1781267876,
      1781267876,
      1781267876,
      1781267952,
      1781267952,
      1781267952,
      1781267952,
      1781267952,
      1781267952,
      1781267996,
      1781267996,
      1781267996,
      1781268012,
      1781268012,
      1781268056,
      1781268073,
      1781268073,
      1781268073,
      1781268073,
      1781268073,
      1781268176,
      1781268176,
      1781268193,
      1781268193,
      1781268296,
      1781268296,
      1781268296,
      1781268296,
      1781268313,
      1781268313,
      1781268313,
      1781268313,
      1781268313,
      1781268417,
      1781268417,
      1781268417,
      1781268417,
      1781268417,
      1781268417,
      1781268673,
      1781268673,
      1781268673,
      1781268673,
      1781268673,
      1781268717,
      1781268717,
      1781268717,
      1781268734,
      1781268734,
      1781268734,
      1781268734,
      1781268777,
      1781268777,
      1781268794,
      1781268794,
      1781268897,
      1781268897,
      1781268897,
      1781268897,
      1781268897,
      1781268957,
      1781268957,
      1781268957,
      1781268957,
      1781268957,
      1781268957,
      1781268974,
      1781268974,
      1781268974,
      1781269094,
      1781269094,
      1781269094,
      1781269138,
      1781269138,
      1781269138,
      1781269214,
      1781269229,
      1781269229,
      1781269229,
      1781269229,
      1781269229,
      1781269258,
      1781269258,
      1781269258,
      1781269274,
      1781269318,
      1781269318,
      1781269318,
      1781269318,
      1781269318,
      1781269349,
      1781269349,
      1781269349,
      1781269378,
      1781269378,
      1781269378,
      1781269378,
      1781269378,
      1781269378,
      1781269515,
      1781269515,
      1781269515,
      1781269515,
      1781269515,
      1781269515,
      1781269575,
      1781269575,
      1781269589,
      1781269589,
      1781269589,
      1781269589,
      1781269589,
      1781269589,
      1781269649,
      1781269649,
      1781269649,
      1781269649,
      1781269695,
      1781269695,
      1781269695,
      1781269695,
      1781269695,
      1781269709,
      1781269709,
      1781269709,
      1781269769,
      1781269769,
      1781269769,
      1781269875,
      1781269875,
      1781269875,
      1781269875,
      1781269935,
      1781269935,
      1781269935,
      1781269935,
      1781269935,
      1781270056,
      1781270056,
      1781270056,
      1781270056,
      1781270056,
      1781270130,
      1781270130,
      1781270130,
      1781270130,
      1781270130,
      1781270130,
      1781270190,
      1781270190,
      1781270190,
      1781270190,
      1781270190,
      1781270370,
      1781270370,
      1781270370,
      1781270370,
      1781270370,
      1781270370,
      1781270550,
      1781270550,
      1781270550,
      1781270550,
      1781270550,
      1781270550,
      1781270610,
      1781270610,
      1781270670,
      1781270670,
      1781270670,
      1781270670,
      1781270670,
      1781270670,
      1781270790,
      1781270790,
      1781270790,
      1781270790,
      1781270790,
      1781270790,
      1781270790,
      1781270790,
      1781270790,
      1781271031,
      1781271031,
      1781271031,
      1781271031,
      1781271151,
      1781271151,
      1781271151,
      1781271151,
      1781271151,
      1781271151,
      1781271151,
      1781271151,
      1781271151,
      1781271572,
      1781271572,
      1781271572,
      1781271572,
      1781271812,
      1781271812,
      1781271812,
      1781271812,
      1781271812,
      1781271812,
      1781271872,
      1781271872,
      1781271872,
      1781271932,
      1781271932,
      1781271932,
      1781271932,
      1781271932,
      1781271932,
      1781271992,
      1781271992,
      1781271992,
      1781271992,
      1781271992,
      1781272177,
      1781272177,
      1781272177,
      1781272177,
      1781272177,
      1781272177,
      1781272177,
      1781272232,
      1781272232,
      1781272232,
      1781272232,
      1781272232,
      1781272232,
      1781272293,
      1781272293,
      1781272353,
      1781272353,
      1781272353,
      1781272353,
      1781272369,
      1781272369,
      1781272369,
      1781272413,
      1781272413,
      1781272413,
      1781272413,
      1781272473,
      1781272473,
      1781272473,
      1781272473,
      1781272473,
      1781272473,
      1781272533,
      1781272533,
      1781272533,
      1781272533,
      1781272533,
      1781272533,
      1781272533,
      1781272670,
      1781272670,
      1781272670,
      1781272713,
      1781272713,
      1781272713,
      1781272713,
      1781272713,
      1781272773,
      1781272773,
      1781272773,
      1781272773,
      1781272773,
      1781272833,
      1781272833,
      1781272833,
      1781272833,
      1781272833,
      1781272893,
      1781272893,
      1781272893,
      1781272893,
      1781272953,
      1781272953,
      1781272953,
      1781272953,
      1781272970,
      1781272970,
      1781272970,
      1781272970,
      1781272970,
      1781272970,
      1781273030,
      1781273030,
      1781273074,
      1781273074,
      1781273074,
      1781273074,
      1781273090,
      1781273090,
      1781273090,
      1781273090,
      1781273151,
      1781273211,
      1781273211,
      1781273211,
      1781273211,
      1781273211,
      1781273211,
      1781273211,
      1781273211,
      1781273374,
      1781273374,
      1781273374,
      1781273374,
      1781273374,
      1781273391,
      1781273391,
      1781273391,
      1781273434,
      1781273434,
      1781273434,
      1781273494,
      1781273494,
      1781273494,
      1781273494,
      1781273511,
      1781273511,
      1781273511,
      1781273511,
      1781273511,
      1781273614,
      1781273631,
      1781273631,
      1781273631,
      1781273691,
      1781273691,
      1781273691,
      1781273751,
      1781273751,
      1781273751,
      1781273811,
      1781273811,
      1781273811,
      1781273811,
      1781273811,
      1781273915,
      1781273915,
      1781273915,
      1781273975,
      1781273975,
      1781273975,
      1781273992,
      1781273992,
      1781273992,
      1781273992,
      1781273992,
      1781273992,
      1781274052,
      1781274052,
      1781274052,
      1781274112,
      1781274112,
      1781274112,
      1781274112,
      1781274112,
      1781274112,
      1781274155,
      1781274155,
      1781274155,
      1781274232,
      1781274232,
      1781274232,
      1781274335,
      1781274335,
      1781274335,
      1781274335,
      1781274335,
      1781274335,
      1781274395,
      1781274395,
      1781274395,
      1781274395,
      1781274472,
      1781274472,
      1781274472,
      1781274472,
      1781274515,
      1781274515,
      1781274515,
      1781274515,
      1781274515,
      1781274636,
      1781274636,
      1781274636,
      1781274636,
      1781274636,
      1781274636,
      1781274636,
      1781274636,
      1781274773,
      1781274773,
      1781274773,
      1781274773,
      1781275133,
      1781275133,
      1781275133,
      1781275133,
      1781275133,
      1781275133,
      1781275193,
      1781275193,
      1781275193,
      1781275193,
      1781275193,
      1781275193,
      1781275313,
      1781275313,
      1781275313,
      1781275313,
      1781275313,
      1781275313,
      1781275313,
      1781275313,
      1781275494,
      1781275494,
      1781275494,
      1781275494,
      1781275494,
      1781275494,
      1781275494,
      1781275494,
      1781275734,
      1781275734,
      1781275734,
      1781275734,
      1781275734,
      1781275794,
      1781275794,
      1781275854,
      1781275854,
      1781275854,
      1781275854,
      1781275854,
      1781275974,
      1781275974,
      1781275974,
      1781275974,
      1781275974,
      1781276034,
      1781276034,
      1781276034,
      1781276034,
      1781276034,
      1781276034,
      1781276034,
      1781276275,
      1781276275,
      1781276275,
      1781276275,
      1781276335,
      1781276335,
      1781276335,
      1781276335,
      1781276335,
      1781276335,
      1781276335,
      1781276583,
      1781276583,
      1781276583,
      1781276583,
      1781276583,
      1781276583,
      1781276643,
      1781276643,
      1781276643,
      1781276643,
      1781276755,
      1781276755,
      1781276755,
      1781276755,
      1781276755,
      1781276755,
      1781276755,
      1781276823,
      1781276823,
      1781276823,
      1781276823,
      1781276823,
      1781276943,
      1781276943,
      1781276943,
      1781276943,
      1781276996,
      1781276996,
      1781276996,
      1781277003,
      1781277003,
      1781277063,
      1781277063,
      1781277063,
      1781277116,
      1781277116,
      1781277123,
      1781277123,
      1781277123,
      1781277123,
      1781277244,
      1781277244,
      1781277244,
      1781277244,
      1781277244,
      1781277244,
      1781277356,
      1781277356,
      1781277356,
      1781277356,
      1781277416,
      1781277416,
      1781277476,
      1781277476,
      1781277476,
      1781277476,
      1781277484,
      1781277484,
      1781277536,
      1781277536,
      1781277597,
      1781277597,
      1781277657,
      1781277664,
      1781277664,
      1781277664,
      1781277724,
      1781277724,
      1781277724,
      1781277777,
      1781277777,
      1781277777,
      1781277844,
      1781277904,
      1781277904,
      1781277904,
      1781277904,
      1781277904,
      1781277904,
      1781277964,
      1781277964,
      1781277964,
      1781277964,
      1781278025,
      1781278025,
      1781278077,
      1781278077,
      1781278077,
      1781278085,
      1781278085,
      1781278085,
      1781278145,
      1781278145,
      1781278145,
      1781278205,
      1781278265,
      1781278265,
      1781278265,
      1781278325,
      1781278397,
      1781278397,
      1781278397,
      1781278397,
      1781278397,
      1781278457,
      1781278457,
      1781278457,
      1781278577,
      1781278577,
      1781278577,
      1781278577,
      1781278577,
      1781278637,
      1781278637,
      1781278637,
      1781278637,
      1781278637,
      1781278637,
      1781278758,
      1781278758,
      1781278758,
      1781278758,
      1781278758,
      1781278758,
      1781278818,
      1781278818,
      1781278850,
      1781278880,
      1781278880,
      1781278880,
      1781278938,
      1781278938,
      1781278998,
      1781278998,
      1781278998,
      1781278998,
      1781278998,
      1781278998,
      1781278998,
      1781278998,
      1781279366,
      1781279366,
      1781279366,
      1781279366,
      1781279366,
      1781279366,
      1781279366,
      1781279366,
      1781279539,
      1781279539,
      1781279539,
      1781279539,
      1781279539,
      1781279539,
      1781279601,
      1781279601,
      1781279601,
      1781279601,
      1781279601,
      1781279601,
      1781279719,
      1781279719,
      1781279719,
      1781279719,
      1781279719,
      1781279719,
      1781279719,
      1781279899,
      1781279959,
      1781279959,
      1781279959,
      1781279959,
      1781279959,
      1781279959,
      1781280079,
      1781280079,
      1781280079,
      1781280079,
      1781280079
    ],
    "wof:geomhash": "249d79c57a0325932de410c337efa645",
    "wof:id": 2031516059,
    "wof:repo": "sfomuseum-data-flights-2026-06"
  },
  "bbox": [
    -122.3125,
    37.455555555555556,
    -73.82555555555555,
    40.5575
  ],
  "geometry": {"coordinates":[[-73.82555555555555,40.5575],[-73.82555555555555,40.5575],[-73.82555555555555,40.5575],[-73.82555555555555,40.5575],[-73.82555555555555,40.5575],[-73.99638888888889,40.39055555555556],[-73.99638888888889,40.39055555555556],[-74.08666666666666,40.35666666666667],[-74.30749999999999,40.27361111111111],[-74.30749999999999,40.27361111111111],[-74.30749999999999,40.27361111111111],[-74.30749999999999,40.27361111111111],[-74.30749999999999,40.27361111111111],[-74.5525,40.19833333333333],[-74.68527777777778,40.1875],[-74.82249999999999,40.17638888888889],[-74.96527777777779,40.164722222222224],[-74.96527777777779,40.164722222222224],[-74.96527777777779,40.164722222222224],[-74.96527777777779,40.164722222222224],[-74.96527777777779,40.164722222222224],[-75.11388888888888,40.15277777777778],[-75.11388888888888,40.15277777777778],[-75.11388888888888,40.15277777777778],[-75.26611111111112,40.14],[-75.26611111111112,40.14],[-75.26611111111112,40.14],[-75.40222222222222,40.12833333333333],[-75.40222222222222,40.12833333333333],[-76.0375,40.072500000000005],[-76.0375,40.072500000000005],[-76.20222222222222,40.0575],[-76.20222222222222,40.0575],[-76.20222222222222,40.0575],[-76.20222222222222,40.0575],[-76.71555555555555,40.05916666666666],[-76.71555555555555,40.05916666666666],[-76.71555555555555,40.05916666666666],[-76.71555555555555,40.05916666666666],[-76.71555555555555,40.05916666666666],[-76.88222222222221,40.06027777777778],[-77.01666666666667,40.06083333333333],[-77.01666666666667,40.06083333333333],[-77.04666666666667,40.06111111111111],[-77.04666666666667,40.06111111111111],[-77.04666666666667,40.06111111111111],[-77.04666666666667,40.06111111111111],[-77.37722222222222,40.06222222222222],[-77.51194444444444,40.06222222222222],[-77.51194444444444,40.06222222222222],[-77.84027777777777,40.06194444444444],[-77.84027777777777,40.06194444444444],[-77.84027777777777,40.06194444444444],[-77.84027777777777,40.06194444444444],[-77.9961111111111,40.06166666666666],[-77.9961111111111,40.06166666666666],[-77.9961111111111,40.06166666666666],[-78.62944444444443,40.056666666666665],[-78.62944444444443,40.056666666666665],[-78.79944444444445,40.05583333333333],[-78.79944444444445,40.05583333333333],[-78.79944444444445,40.05583333333333],[-78.98361111111112,40.053888888888885],[-78.98361111111112,40.053888888888885],[-79.29694444444445,40.04944444444444],[-79.29694444444445,40.04944444444444],[-79.29694444444445,40.04944444444444],[-79.31638888888888,40.049166666666665],[-79.31638888888888,40.049166666666665],[-79.31638888888888,40.049166666666665],[-79.31638888888888,40.049166666666665],[-79.48305555555555,40.04666666666667],[-79.48305555555555,40.04666666666667],[-79.79583333333333,40.04111111111111],[-79.79583333333333,40.04111111111111],[-79.79583333333333,40.04111111111111],[-79.79583333333333,40.04111111111111],[-79.79583333333333,40.04111111111111],[-80.14722222222223,40.03388888888889],[-80.14722222222223,40.03388888888889],[-80.14722222222223,40.03388888888889],[-80.14722222222223,40.03388888888889],[-80.14722222222223,40.03388888888889],[-80.2875,40.030277777777776],[-80.2875,40.030277777777776],[-80.60333333333332,40.022777777777776],[-80.76777777777778,40.01833333333333],[-80.76777777777778,40.01833333333333],[-80.93166666666667,40.01555555555556],[-80.93166666666667,40.01555555555556],[-81.09055555555555,40.013333333333335],[-81.12222222222222,40.01277777777778],[-81.12222222222222,40.01277777777778],[-81.12222222222222,40.01277777777778],[-81.12222222222222,40.01277777777778],[-81.24972222222222,40.01083333333333],[-81.24972222222222,40.01083333333333],[-81.24972222222222,40.01083333333333],[-81.57222222222222,40.004444444444445],[-81.73444444444445,40.00111111111111],[-81.77666666666667,40],[-81.90916666666668,39.99722222222222],[-81.93805555555556,39.99666666666667],[-82.07194444444444,39.99333333333333],[-82.07194444444444,39.99333333333333],[-82.07194444444444,39.99333333333333],[-82.25694444444444,39.98888888888889],[-82.25694444444444,39.98888888888889],[-82.38722222222223,39.985],[-82.38722222222223,39.985],[-82.41277777777778,39.98444444444444],[-82.41277777777778,39.98444444444444],[-82.41277777777778,39.98444444444444],[-82.69500000000001,39.97666666666667],[-82.69500000000001,39.97666666666667],[-82.69500000000001,39.97666666666667],[-82.8711111111111,39.97138888888889],[-82.8711111111111,39.97138888888889],[-83.28611111111111,39.96],[-83.31083333333333,39.95916666666667],[-83.31083333333333,39.95916666666667],[-83.43083333333334,39.955000000000005],[-83.43083333333334,39.955000000000005],[-83.57388888888889,39.95],[-83.71694444444445,39.94472222222222],[-83.71694444444445,39.94472222222222],[-83.71694444444445,39.94472222222222],[-83.88111111111111,39.93833333333333],[-83.88111111111111,39.93833333333333],[-84,39.93388888888889],[-84.14500000000001,39.92777777777778],[-84.14500000000001,39.92777777777778],[-84.17361111111111,39.92638888888889],[-84.17361111111111,39.92638888888889],[-84.17361111111111,39.92638888888889],[-84.17361111111111,39.92638888888889],[-84.435,39.915277777777774],[-84.58,39.909166666666664],[-84.58,39.909166666666664],[-84.58,39.909166666666664],[-84.58,39.909166666666664],[-84.61555555555555,39.904444444444444],[-84.90805555555556,39.89333333333333],[-85.05222222222221,39.88611111111111],[-85.05222222222221,39.88611111111111],[-85.05222222222221,39.88611111111111],[-85.05222222222221,39.88611111111111],[-85.48222222222222,39.86388888888889],[-85.48222222222222,39.86388888888889],[-85.48222222222222,39.86388888888889],[-85.62722222222222,39.85583333333334],[-85.62722222222222,39.85583333333334],[-85.62722222222222,39.85583333333334],[-85.62722222222222,39.85583333333334],[-85.62722222222222,39.85583333333334],[-86.03999999999999,39.83416666666667],[-86.03999999999999,39.83416666666667],[-86.06194444444444,39.83305555555556],[-86.06194444444444,39.83305555555556],[-86.06194444444444,39.83305555555556],[-86.18305555555555,39.825833333333335],[-86.18305555555555,39.825833333333335],[-86.32555555555555,39.81722222222223],[-86.32555555555555,39.81722222222223],[-86.4925,39.81805555555556],[-86.4925,39.81805555555556],[-86.4925,39.81805555555556],[-86.61166666666666,39.819722222222225],[-86.61166666666666,39.819722222222225],[-86.61166666666666,39.819722222222225],[-86.61166666666666,39.819722222222225],[-86.61166666666666,39.819722222222225],[-86.61166666666666,39.819722222222225],[-86.75722222222223,39.822500000000005],[-87.04444444444444,39.8275],[-87.04444444444444,39.8275],[-87.04444444444444,39.8275],[-87.04444444444444,39.8275],[-87.1875,39.82972222222222],[-87.1875,39.82972222222222],[-87.1875,39.82972222222222],[-87.1875,39.82972222222222],[-87.31944444444444,39.83166666666667],[-87.31944444444444,39.83166666666667],[-87.31944444444444,39.83166666666667],[-87.31944444444444,39.83166666666667],[-87.31944444444444,39.83166666666667],[-87.46777777777778,39.83361111111111],[-87.46777777777778,39.83361111111111],[-87.46777777777778,39.83361111111111],[-87.50333333333333,39.83388888888889],[-87.50333333333333,39.83388888888889],[-87.50333333333333,39.83388888888889],[-87.50333333333333,39.83388888888889],[-87.50333333333333,39.83388888888889],[-87.90722222222223,39.838055555555556],[-87.90722222222223,39.838055555555556],[-87.90722222222223,39.838055555555556],[-87.90722222222223,39.838055555555556],[-87.90722222222223,39.838055555555556],[-88.08999999999999,39.839444444444446],[-88.08999999999999,39.839444444444446],[-88.08999999999999,39.839444444444446],[-88.37944444444443,39.84111111111111],[-88.37944444444443,39.84111111111111],[-88.37944444444443,39.84111111111111],[-88.37944444444443,39.84111111111111],[-88.37944444444443,39.84111111111111],[-88.37944444444443,39.84111111111111],[-88.79472222222222,39.8425],[-88.79472222222222,39.8425],[-88.79472222222222,39.8425],[-88.79472222222222,39.8425],[-89.09194444444444,39.842222222222226],[-89.09194444444444,39.842222222222226],[-89.09194444444444,39.842222222222226],[-89.09194444444444,39.842222222222226],[-89.23138888888889,39.841944444444444],[-89.23138888888889,39.841944444444444],[-89.3561111111111,39.84138888888889],[-89.3561111111111,39.84138888888889],[-89.3561111111111,39.84138888888889],[-89.3561111111111,39.84138888888889],[-89.3561111111111,39.84138888888889],[-89.3561111111111,39.84138888888889],[-89.51444444444445,39.840833333333336],[-89.51444444444445,39.840833333333336],[-89.65527777777778,39.84],[-89.65527777777778,39.84],[-89.65527777777778,39.84],[-89.65527777777778,39.84],[-89.79388888888889,39.82944444444445],[-89.79388888888889,39.82944444444445],[-89.79388888888889,39.82944444444445],[-89.79388888888889,39.82944444444445],[-89.79388888888889,39.82944444444445],[-89.79388888888889,39.82944444444445],[-89.93222222222222,39.81722222222223],[-89.93222222222222,39.81722222222223],[-90.2125,39.79194444444444],[-90.2125,39.79194444444444],[-90.2125,39.79194444444444],[-90.2125,39.79194444444444],[-90.2125,39.79194444444444],[-90.62916666666666,39.75277777777778],[-90.62916666666666,39.75277777777778],[-90.62916666666666,39.75277777777778],[-90.62916666666666,39.75277777777778],[-90.62916666666666,39.75277777777778],[-90.62916666666666,39.75277777777778],[-91.045,39.71222222222222],[-91.045,39.71222222222222],[-91.045,39.71222222222222],[-91.045,39.71222222222222],[-91.045,39.71222222222222],[-91.045,39.71222222222222],[-91.46583333333334,39.72166666666667],[-91.46583333333334,39.72166666666667],[-91.46583333333334,39.72166666666667],[-91.46583333333334,39.72166666666667],[-91.46583333333334,39.72166666666667],[-91.46583333333334,39.72166666666667],[-91.46583333333334,39.72166666666667],[-91.88861111111112,39.74388888888889],[-91.88861111111112,39.74388888888889],[-91.88861111111112,39.74388888888889],[-91.88861111111112,39.74388888888889],[-91.88861111111112,39.74388888888889],[-91.88861111111112,39.74388888888889],[-91.88861111111112,39.74388888888889],[-91.88861111111112,39.74388888888889],[-92.45777777777778,39.77111111111111],[-92.45777777777778,39.77111111111111],[-92.45777777777778,39.77111111111111],[-92.45777777777778,39.77111111111111],[-92.45777777777778,39.77111111111111],[-92.60166666666666,39.77777777777778],[-92.62833333333333,39.778888888888886],[-92.62833333333333,39.778888888888886],[-92.62833333333333,39.778888888888886],[-92.62833333333333,39.778888888888886],[-92.62833333333333,39.778888888888886],[-92.62833333333333,39.778888888888886],[-92.62833333333333,39.778888888888886],[-92.88611111111112,39.79],[-92.88611111111112,39.79],[-92.88611111111112,39.79],[-92.88611111111112,39.79],[-92.88611111111112,39.79],[-92.88611111111112,39.79],[-92.91444444444446,39.79111111111111],[-93.02916666666667,39.79611111111111],[-93.05749999999999,39.79722222222222],[-93.05749999999999,39.79722222222222],[-93.34083333333332,39.808055555555555],[-93.34083333333332,39.808055555555555],[-93.34083333333332,39.808055555555555],[-93.34083333333332,39.808055555555555],[-93.62722222222222,39.81861111111112],[-93.62722222222222,39.81861111111112],[-93.62722222222222,39.81861111111112],[-93.62722222222222,39.81861111111112],[-93.62722222222222,39.81861111111112],[-93.62722222222222,39.81861111111112],[-93.62722222222222,39.81861111111112],[-93.62722222222222,39.81861111111112],[-93.76972222222223,39.823888888888895],[-93.76972222222223,39.823888888888895],[-93.76972222222223,39.823888888888895],[-93.76972222222223,39.823888888888895],[-93.76972222222223,39.823888888888895],[-93.76972222222223,39.823888888888895],[-93.76972222222223,39.823888888888895],[-93.91416666666667,39.828611111111115],[-93.91416666666667,39.828611111111115],[-93.91416666666667,39.828611111111115],[-93.91416666666667,39.828611111111115],[-93.91416666666667,39.828611111111115],[-93.91416666666667,39.828611111111115],[-94.02833333333334,39.8325],[-94.02833333333334,39.8325],[-94.02833333333334,39.8325],[-94.05638888888889,39.833333333333336],[-94.05638888888889,39.833333333333336],[-94.05638888888889,39.833333333333336],[-94.05638888888889,39.833333333333336],[-94.34222222222222,39.842222222222226],[-94.34222222222222,39.842222222222226],[-94.34222222222222,39.842222222222226],[-94.34222222222222,39.842222222222226],[-94.34222222222222,39.842222222222226],[-94.34222222222222,39.842222222222226],[-94.34222222222222,39.842222222222226],[-94.34222222222222,39.842222222222226],[-94.71805555555555,39.8525],[-94.71805555555555,39.8525],[-94.71805555555555,39.8525],[-94.91611111111112,39.8575],[-94.91611111111112,39.8575],[-94.91611111111112,39.8575],[-94.91611111111112,39.8575],[-94.91611111111112,39.8575],[-94.91611111111112,39.8575],[-95.03222222222222,39.86027777777778],[-95.03222222222222,39.86027777777778],[-95.03222222222222,39.86027777777778],[-95.06138888888889,39.861111111111114],[-95.06138888888889,39.861111111111114],[-95.17472222222223,39.86361111111111],[-95.20583333333333,39.86416666666667],[-95.20583333333333,39.86416666666667],[-95.20583333333333,39.86416666666667],[-95.20583333333333,39.86416666666667],[-95.20583333333333,39.86416666666667],[-95.45944444444444,39.86944444444445],[-95.45944444444444,39.86944444444445],[-95.49055555555556,39.87],[-95.49055555555556,39.87],[-95.74472222222222,39.874722222222225],[-95.74472222222222,39.874722222222225],[-95.74472222222222,39.874722222222225],[-95.74472222222222,39.874722222222225],[-95.77805555555555,39.875277777777775],[-95.77805555555555,39.875277777777775],[-95.77805555555555,39.875277777777775],[-95.77805555555555,39.875277777777775],[-95.77805555555555,39.875277777777775],[-96.02805555555555,39.879444444444445],[-96.02805555555555,39.879444444444445],[-96.02805555555555,39.879444444444445],[-96.02805555555555,39.879444444444445],[-96.02805555555555,39.879444444444445],[-96.02805555555555,39.879444444444445],[-96.62694444444443,39.886944444444445],[-96.62694444444443,39.886944444444445],[-96.62694444444443,39.886944444444445],[-96.62694444444443,39.886944444444445],[-96.62694444444443,39.886944444444445],[-96.71083333333334,39.8875],[-96.71083333333334,39.8875],[-96.71083333333334,39.8875],[-96.76722222222222,39.88805555555555],[-96.76722222222222,39.88805555555555],[-96.76722222222222,39.88805555555555],[-96.76722222222222,39.88805555555555],[-96.85277777777777,39.888888888888886],[-96.85277777777777,39.888888888888886],[-96.90861111111111,39.88916666666667],[-96.90861111111111,39.88916666666667],[-97.13527777777779,39.89055555555556],[-97.13527777777779,39.89055555555556],[-97.13527777777779,39.89055555555556],[-97.13527777777779,39.89055555555556],[-97.13527777777779,39.89055555555556],[-97.27444444444444,39.89138888888889],[-97.27444444444444,39.89138888888889],[-97.27444444444444,39.89138888888889],[-97.27444444444444,39.89138888888889],[-97.27444444444444,39.89138888888889],[-97.27444444444444,39.89138888888889],[-97.33222222222221,39.891666666666666],[-97.33222222222221,39.891666666666666],[-97.33222222222221,39.891666666666666],[-97.61944444444444,39.89222222222222],[-97.61944444444444,39.89222222222222],[-97.61944444444444,39.89222222222222],[-97.70166666666667,39.89222222222222],[-97.70166666666667,39.89222222222222],[-97.70166666666667,39.89222222222222],[-97.90361111111112,39.89222222222222],[-97.92972222222222,39.89222222222222],[-97.92972222222222,39.89222222222222],[-97.92972222222222,39.89222222222222],[-97.92972222222222,39.89222222222222],[-97.92972222222222,39.89222222222222],[-97.99694444444445,39.89194444444444],[-97.99694444444445,39.89194444444444],[-97.99694444444445,39.89194444444444],[-98.04333333333334,39.89194444444444],[-98.13527777777779,39.891666666666666],[-98.13527777777779,39.891666666666666],[-98.13527777777779,39.891666666666666],[-98.13527777777779,39.891666666666666],[-98.13527777777779,39.891666666666666],[-98.20861111111111,39.89138888888889],[-98.20861111111111,39.89138888888889],[-98.20861111111111,39.89138888888889],[-98.26222222222222,39.89111111111111],[-98.26222222222222,39.89111111111111],[-98.26222222222222,39.89111111111111],[-98.26222222222222,39.89111111111111],[-98.26222222222222,39.89111111111111],[-98.26222222222222,39.89111111111111],[-98.59861111111111,39.88916666666667],[-98.59861111111111,39.88916666666667],[-98.59861111111111,39.88916666666667],[-98.59861111111111,39.88916666666667],[-98.59861111111111,39.88916666666667],[-98.59861111111111,39.88916666666667],[-98.7375,39.88805555555555],[-98.7375,39.88805555555555],[-98.76472222222222,39.88777777777778],[-98.76472222222222,39.88777777777778],[-98.76472222222222,39.88777777777778],[-98.76472222222222,39.88777777777778],[-98.76472222222222,39.88777777777778],[-98.76472222222222,39.88777777777778],[-98.90194444444445,39.88666666666666],[-98.90194444444445,39.88666666666666],[-98.90194444444445,39.88666666666666],[-98.90194444444445,39.88666666666666],[-99.01166666666667,39.88583333333333],[-99.01166666666667,39.88583333333333],[-99.01166666666667,39.88583333333333],[-99.01166666666667,39.88583333333333],[-99.01166666666667,39.88583333333333],[-99.04083333333332,39.88527777777778],[-99.04083333333332,39.88527777777778],[-99.04083333333332,39.88527777777778],[-99.17833333333334,39.88361111111111],[-99.17833333333334,39.88361111111111],[-99.17833333333334,39.88361111111111],[-99.42888888888889,39.88027777777778],[-99.42888888888889,39.88027777777778],[-99.42888888888889,39.88027777777778],[-99.42888888888889,39.88027777777778],[-99.56805555555555,39.87833333333333],[-99.56805555555555,39.87833333333333],[-99.56805555555555,39.87833333333333],[-99.56805555555555,39.87833333333333],[-99.56805555555555,39.87833333333333],[-99.84638888888888,39.87388888888889],[-99.84638888888888,39.87388888888889],[-99.84638888888888,39.87388888888889],[-99.84638888888888,39.87388888888889],[-99.84638888888888,39.87388888888889],[-100.01277777777777,39.870555555555555],[-100.01277777777777,39.870555555555555],[-100.01277777777777,39.870555555555555],[-100.01277777777777,39.870555555555555],[-100.01277777777777,39.870555555555555],[-100.01277777777777,39.870555555555555],[-100.1538888888889,39.867777777777775],[-100.1538888888889,39.867777777777775],[-100.1538888888889,39.867777777777775],[-100.1538888888889,39.867777777777775],[-100.1538888888889,39.867777777777775],[-100.56194444444444,39.85861111111111],[-100.56194444444444,39.85861111111111],[-100.56194444444444,39.85861111111111],[-100.56194444444444,39.85861111111111],[-100.56194444444444,39.85861111111111],[-100.56194444444444,39.85861111111111],[-100.98166666666667,39.84777777777778],[-100.98166666666667,39.84777777777778],[-100.98166666666667,39.84777777777778],[-100.98166666666667,39.84777777777778],[-100.98166666666667,39.84777777777778],[-100.98166666666667,39.84777777777778],[-101.11972222222222,39.84388888888889],[-101.11972222222222,39.84388888888889],[-101.2611111111111,39.83972222222222],[-101.2611111111111,39.83972222222222],[-101.2611111111111,39.83972222222222],[-101.2611111111111,39.83972222222222],[-101.2611111111111,39.83972222222222],[-101.2611111111111,39.83972222222222],[-101.54222222222222,39.83111111111111],[-101.54222222222222,39.83111111111111],[-101.54222222222222,39.83111111111111],[-101.54222222222222,39.83111111111111],[-101.54222222222222,39.83111111111111],[-101.54222222222222,39.83111111111111],[-101.54222222222222,39.83111111111111],[-101.54222222222222,39.83111111111111],[-101.54222222222222,39.83111111111111],[-102.10499999999999,39.811388888888885],[-102.10499999999999,39.811388888888885],[-102.10499999999999,39.811388888888885],[-102.10499999999999,39.811388888888885],[-102.385,39.800555555555555],[-102.385,39.800555555555555],[-102.385,39.800555555555555],[-102.385,39.800555555555555],[-102.385,39.800555555555555],[-102.385,39.800555555555555],[-102.385,39.800555555555555],[-102.385,39.800555555555555],[-102.385,39.800555555555555],[-103.36888888888888,39.757222222222225],[-103.36888888888888,39.757222222222225],[-103.36888888888888,39.757222222222225],[-103.36888888888888,39.757222222222225],[-103.92416666666666,39.72944444444445],[-103.92416666666666,39.72944444444445],[-103.92416666666666,39.72944444444445],[-103.92416666666666,39.72944444444445],[-103.92416666666666,39.72944444444445],[-103.92416666666666,39.72944444444445],[-104.06138888888889,39.721944444444446],[-104.06138888888889,39.721944444444446],[-104.06138888888889,39.721944444444446],[-104.20055555555555,39.71416666666667],[-104.20055555555555,39.71416666666667],[-104.20055555555555,39.71416666666667],[-104.20055555555555,39.71416666666667],[-104.20055555555555,39.71416666666667],[-104.20055555555555,39.71416666666667],[-104.33944444444444,39.70638888888889],[-104.33944444444444,39.70638888888889],[-104.33944444444444,39.70638888888889],[-104.33944444444444,39.70638888888889],[-104.33944444444444,39.70638888888889],[-104.75694444444444,39.675555555555555],[-104.75694444444444,39.675555555555555],[-104.75694444444444,39.675555555555555],[-104.75694444444444,39.675555555555555],[-104.75694444444444,39.675555555555555],[-104.75694444444444,39.675555555555555],[-104.75694444444444,39.675555555555555],[-104.885,39.663333333333334],[-104.885,39.663333333333334],[-104.885,39.663333333333334],[-104.885,39.663333333333334],[-104.885,39.663333333333334],[-104.885,39.663333333333334],[-105.02361111111111,39.64888888888889],[-105.02361111111111,39.64888888888889],[-105.16277777777778,39.63444444444444],[-105.16277777777778,39.63444444444444],[-105.16277777777778,39.63444444444444],[-105.16277777777778,39.63444444444444],[-105.20527777777778,39.62916666666667],[-105.20527777777778,39.62916666666667],[-105.20527777777778,39.62916666666667],[-105.3025,39.61972222222222],[-105.3025,39.61972222222222],[-105.3025,39.61972222222222],[-105.3025,39.61972222222222],[-105.44527777777778,39.60444444444445],[-105.44527777777778,39.60444444444445],[-105.44527777777778,39.60444444444445],[-105.44527777777778,39.60444444444445],[-105.44527777777778,39.60444444444445],[-105.44527777777778,39.60444444444445],[-105.58638888888889,39.589444444444446],[-105.58638888888889,39.589444444444446],[-105.58638888888889,39.589444444444446],[-105.58638888888889,39.589444444444446],[-105.58638888888889,39.589444444444446],[-105.58638888888889,39.589444444444446],[-105.58638888888889,39.589444444444446],[-105.91305555555556,39.552499999999995],[-105.91305555555556,39.552499999999995],[-105.91305555555556,39.552499999999995],[-106.01194444444444,39.54194444444444],[-106.01194444444444,39.54194444444444],[-106.01194444444444,39.54194444444444],[-106.01194444444444,39.54194444444444],[-106.01194444444444,39.54194444444444],[-106.15166666666667,39.52638888888889],[-106.15166666666667,39.52638888888889],[-106.15166666666667,39.52638888888889],[-106.15166666666667,39.52638888888889],[-106.15166666666667,39.52638888888889],[-106.31333333333333,39.507777777777775],[-106.31333333333333,39.507777777777775],[-106.31333333333333,39.507777777777775],[-106.31333333333333,39.507777777777775],[-106.31333333333333,39.507777777777775],[-106.44916666666667,39.49194444444444],[-106.44916666666667,39.49194444444444],[-106.44916666666667,39.49194444444444],[-106.44916666666667,39.49194444444444],[-106.58166666666666,39.47666666666667],[-106.58166666666666,39.47666666666667],[-106.58166666666666,39.47666666666667],[-106.58166666666666,39.47666666666667],[-106.60944444444443,39.47222222222222],[-106.60944444444443,39.47222222222222],[-106.60944444444443,39.47222222222222],[-106.60944444444443,39.47222222222222],[-106.60944444444443,39.47222222222222],[-106.60944444444443,39.47222222222222],[-106.74722222222222,39.45611111111111],[-106.74722222222222,39.45611111111111],[-106.85527777777777,39.44416666666666],[-106.85527777777777,39.44416666666666],[-106.85527777777777,39.44416666666666],[-106.85527777777777,39.44416666666666],[-106.88277777777778,39.44027777777777],[-106.88277777777778,39.44027777777777],[-106.88277777777778,39.44027777777777],[-106.88277777777778,39.44027777777777],[-107.01888888888888,39.41611111111111],[-107.15361111111112,39.38944444444444],[-107.15361111111112,39.38944444444444],[-107.15361111111112,39.38944444444444],[-107.15361111111112,39.38944444444444],[-107.15361111111112,39.38944444444444],[-107.15361111111112,39.38944444444444],[-107.15361111111112,39.38944444444444],[-107.15361111111112,39.38944444444444],[-107.53555555555555,39.315],[-107.53555555555555,39.315],[-107.53555555555555,39.315],[-107.53555555555555,39.315],[-107.53555555555555,39.315],[-107.5625,39.309444444444445],[-107.5625,39.309444444444445],[-107.5625,39.309444444444445],[-107.67,39.288333333333334],[-107.67,39.288333333333334],[-107.67,39.288333333333334],[-107.80666666666666,39.26111111111111],[-107.80666666666666,39.26111111111111],[-107.80666666666666,39.26111111111111],[-107.80666666666666,39.26111111111111],[-107.8325,39.25555555555555],[-107.8325,39.25555555555555],[-107.8325,39.25555555555555],[-107.8325,39.25555555555555],[-107.8325,39.25555555555555],[-108.07638888888889,39.206944444444446],[-108.10249999999999,39.20138888888889],[-108.10249999999999,39.20138888888889],[-108.10249999999999,39.20138888888889],[-108.23583333333333,39.174166666666665],[-108.23583333333333,39.174166666666665],[-108.23583333333333,39.174166666666665],[-108.36944444444444,39.146388888888886],[-108.36944444444444,39.146388888888886],[-108.36944444444444,39.146388888888886],[-108.49972222222222,39.12027777777778],[-108.49972222222222,39.12027777777778],[-108.49972222222222,39.12027777777778],[-108.49972222222222,39.12027777777778],[-108.49972222222222,39.12027777777778],[-108.74444444444444,39.06944444444445],[-108.74444444444444,39.06944444444445],[-108.74444444444444,39.06944444444445],[-108.8786111111111,39.04722222222222],[-108.8786111111111,39.04722222222222],[-108.8786111111111,39.04722222222222],[-108.90777777777778,39.04277777777778],[-108.90777777777778,39.04277777777778],[-108.90777777777778,39.04277777777778],[-108.90777777777778,39.04277777777778],[-108.90777777777778,39.04277777777778],[-108.90777777777778,39.04277777777778],[-109.04333333333334,39.0225],[-109.04333333333334,39.0225],[-109.04333333333334,39.0225],[-109.17916666666667,39.00222222222222],[-109.17916666666667,39.00222222222222],[-109.17916666666667,39.00222222222222],[-109.17916666666667,39.00222222222222],[-109.17916666666667,39.00222222222222],[-109.17916666666667,39.00222222222222],[-109.28888888888889,38.98583333333333],[-109.28888888888889,38.98583333333333],[-109.28888888888889,38.98583333333333],[-109.45083333333334,38.96138888888889],[-109.45083333333334,38.96138888888889],[-109.45083333333334,38.96138888888889],[-109.69611111111111,38.92388888888889],[-109.69611111111111,38.92388888888889],[-109.69611111111111,38.92388888888889],[-109.69611111111111,38.92388888888889],[-109.69611111111111,38.92388888888889],[-109.69611111111111,38.92388888888889],[-109.83027777777778,38.903055555555554],[-109.83027777777778,38.903055555555554],[-109.83027777777778,38.903055555555554],[-109.83027777777778,38.903055555555554],[-109.99305555555556,38.8775],[-109.99305555555556,38.8775],[-109.99305555555556,38.8775],[-109.99305555555556,38.8775],[-110.10055555555554,38.86055555555556],[-110.10055555555554,38.86055555555556],[-110.10055555555554,38.86055555555556],[-110.10055555555554,38.86055555555556],[-110.10055555555554,38.86055555555556],[-110.37027777777777,38.8175],[-110.37027777777777,38.8175],[-110.37027777777777,38.8175],[-110.37027777777777,38.8175],[-110.37027777777777,38.8175],[-110.37027777777777,38.8175],[-110.37027777777777,38.8175],[-110.37027777777777,38.8175],[-110.66944444444445,38.76916666666666],[-110.66944444444445,38.76916666666666],[-110.66944444444445,38.76916666666666],[-110.66944444444445,38.76916666666666],[-111.49361111111111,38.63138888888889],[-111.49361111111111,38.63138888888889],[-111.49361111111111,38.63138888888889],[-111.49361111111111,38.63138888888889],[-111.49361111111111,38.63138888888889],[-111.49361111111111,38.63138888888889],[-111.63055555555555,38.60777777777778],[-111.63055555555555,38.60777777777778],[-111.63055555555555,38.60777777777778],[-111.63055555555555,38.60777777777778],[-111.63055555555555,38.60777777777778],[-111.63055555555555,38.60777777777778],[-111.90277777777779,38.56027777777778],[-111.90277777777779,38.56027777777778],[-111.90277777777779,38.56027777777778],[-111.90277777777779,38.56027777777778],[-111.90277777777779,38.56027777777778],[-111.90277777777779,38.56027777777778],[-111.90277777777779,38.56027777777778],[-111.90277777777779,38.56027777777778],[-112.3125,38.48777777777778],[-112.3125,38.48777777777778],[-112.3125,38.48777777777778],[-112.3125,38.48777777777778],[-112.3125,38.48777777777778],[-112.3125,38.48777777777778],[-112.3125,38.48777777777778],[-112.3125,38.48777777777778],[-112.8611111111111,38.388333333333335],[-112.8611111111111,38.388333333333335],[-112.8611111111111,38.388333333333335],[-112.8611111111111,38.388333333333335],[-112.8611111111111,38.388333333333335],[-112.99722222222222,38.36333333333334],[-112.99722222222222,38.36333333333334],[-113.13972222222223,38.350833333333334],[-113.13972222222223,38.350833333333334],[-113.13972222222223,38.350833333333334],[-113.13972222222223,38.350833333333334],[-113.13972222222223,38.350833333333334],[-113.4213888888889,38.32944444444445],[-113.4213888888889,38.32944444444445],[-113.4213888888889,38.32944444444445],[-113.4213888888889,38.32944444444445],[-113.4213888888889,38.32944444444445],[-113.56388888888888,38.318333333333335],[-113.56388888888888,38.318333333333335],[-113.56388888888888,38.318333333333335],[-113.56388888888888,38.318333333333335],[-113.56388888888888,38.318333333333335],[-113.56388888888888,38.318333333333335],[-113.56388888888888,38.318333333333335],[-114.13083333333333,38.2725],[-114.13083333333333,38.2725],[-114.13083333333333,38.2725],[-114.13083333333333,38.2725],[-114.2725,38.260555555555555],[-114.2725,38.260555555555555],[-114.2725,38.260555555555555],[-114.2725,38.260555555555555],[-114.2725,38.260555555555555],[-114.2725,38.260555555555555],[-114.2725,38.260555555555555],[-114.87638888888888,38.219722222222224],[-114.87638888888888,38.219722222222224],[-114.87638888888888,38.219722222222224],[-114.87638888888888,38.219722222222224],[-114.87638888888888,38.219722222222224],[-114.87638888888888,38.219722222222224],[-115.01861111111111,38.21222222222222],[-115.01861111111111,38.21222222222222],[-115.01861111111111,38.21222222222222],[-115.01861111111111,38.21222222222222],[-115.2713888888889,38.195277777777775],[-115.2713888888889,38.195277777777775],[-115.2713888888889,38.195277777777775],[-115.2713888888889,38.195277777777775],[-115.2713888888889,38.195277777777775],[-115.2713888888889,38.195277777777775],[-115.2713888888889,38.195277777777775],[-115.45166666666667,38.1825],[-115.45166666666667,38.1825],[-115.45166666666667,38.1825],[-115.45166666666667,38.1825],[-115.45166666666667,38.1825],[-115.74222222222222,38.163333333333334],[-115.74222222222222,38.163333333333334],[-115.74222222222222,38.163333333333334],[-115.74222222222222,38.163333333333334],[-115.85833333333333,38.155277777777776],[-115.85833333333333,38.155277777777776],[-115.85833333333333,38.155277777777776],[-115.88944444444445,38.153055555555554],[-115.88944444444445,38.153055555555554],[-116.03694444444444,38.14222222222222],[-116.03694444444444,38.14222222222222],[-116.03694444444444,38.14222222222222],[-116.155,38.13361111111111],[-116.155,38.13361111111111],[-116.185,38.13138888888889],[-116.185,38.13138888888889],[-116.185,38.13138888888889],[-116.185,38.13138888888889],[-116.48472222222222,38.10861111111111],[-116.48472222222222,38.10861111111111],[-116.48472222222222,38.10861111111111],[-116.48472222222222,38.10861111111111],[-116.48472222222222,38.10861111111111],[-116.48472222222222,38.10861111111111],[-116.75361111111111,38.088055555555556],[-116.75361111111111,38.088055555555556],[-116.75361111111111,38.088055555555556],[-116.75361111111111,38.088055555555556],[-116.89805555555556,38.07638888888889],[-116.89805555555556,38.07638888888889],[-117.03972222222222,38.065],[-117.03972222222222,38.065],[-117.03972222222222,38.065],[-117.03972222222222,38.065],[-117.07166666666666,38.0625],[-117.07166666666666,38.0625],[-117.18861111111111,38.05277777777778],[-117.18861111111111,38.05277777777778],[-117.33472222222221,38.04055555555556],[-117.33472222222221,38.04055555555556],[-117.4786111111111,38.02861111111111],[-117.48111111111112,38.02833333333333],[-117.48111111111112,38.02833333333333],[-117.48111111111112,38.02833333333333],[-117.62555555555555,38.01583333333333],[-117.62555555555555,38.01583333333333],[-117.62555555555555,38.01583333333333],[-117.76833333333333,38.00361111111111],[-117.76833333333333,38.00361111111111],[-117.76833333333333,38.00361111111111],[-117.91111111111111,37.98833333333334],[-118.05277777777778,37.97361111111111],[-118.05277777777778,37.97361111111111],[-118.05277777777778,37.97361111111111],[-118.05277777777778,37.97361111111111],[-118.05277777777778,37.97361111111111],[-118.05277777777778,37.97361111111111],[-118.19555555555556,37.958333333333336],[-118.19555555555556,37.958333333333336],[-118.19555555555556,37.958333333333336],[-118.19555555555556,37.958333333333336],[-118.33555555555554,37.94305555555555],[-118.33555555555554,37.94305555555555],[-118.47666666666667,37.92777777777778],[-118.47666666666667,37.92777777777778],[-118.47666666666667,37.92777777777778],[-118.47888888888889,37.927499999999995],[-118.47888888888889,37.927499999999995],[-118.47888888888889,37.927499999999995],[-118.62027777777777,37.91166666666666],[-118.62027777777777,37.91166666666666],[-118.62027777777777,37.91166666666666],[-118.76333333333334,37.895833333333336],[-118.90527777777778,37.87972222222222],[-118.90527777777778,37.87972222222222],[-118.90527777777778,37.87972222222222],[-119.06472222222222,37.86138888888889],[-119.23666666666666,37.84138888888889],[-119.23666666666666,37.84138888888889],[-119.23666666666666,37.84138888888889],[-119.23666666666666,37.84138888888889],[-119.23666666666666,37.84138888888889],[-119.37722222222222,37.825],[-119.37722222222222,37.825],[-119.37722222222222,37.825],[-119.66611111111112,37.79055555555556],[-119.66611111111112,37.79055555555556],[-119.66611111111112,37.79055555555556],[-119.66611111111112,37.79055555555556],[-119.66611111111112,37.79055555555556],[-119.78222222222222,37.776666666666664],[-119.78222222222222,37.776666666666664],[-119.78222222222222,37.776666666666664],[-119.78222222222222,37.776666666666664],[-119.78222222222222,37.776666666666664],[-119.78222222222222,37.776666666666664],[-120.07277777777777,37.740833333333335],[-120.07277777777777,37.740833333333335],[-120.07277777777777,37.740833333333335],[-120.07277777777777,37.740833333333335],[-120.07277777777777,37.740833333333335],[-120.07277777777777,37.740833333333335],[-120.22305555555556,37.721944444444446],[-120.22305555555556,37.721944444444446],[-120.33333333333333,37.71666666666667],[-120.4,37.7],[-120.4,37.7],[-120.4,37.7],[-120.51555555555555,37.68611111111111],[-120.51555555555555,37.68611111111111],[-120.65861111111111,37.669444444444444],[-120.65861111111111,37.669444444444444],[-120.65861111111111,37.669444444444444],[-120.65861111111111,37.669444444444444],[-120.65861111111111,37.669444444444444],[-120.65861111111111,37.669444444444444],[-120.65861111111111,37.669444444444444],[-120.65861111111111,37.669444444444444],[-121.43333333333334,37.56666666666667],[-121.43333333333334,37.56666666666667],[-121.43333333333334,37.56666666666667],[-121.43333333333334,37.56666666666667],[-121.43333333333334,37.56666666666667],[-121.43333333333334,37.56666666666667],[-121.43333333333334,37.56666666666667],[-121.43333333333334,37.56666666666667],[-121.70833333333334,37.53055555555555],[-121.70833333333334,37.53055555555555],[-121.70833333333334,37.53055555555555],[-121.70833333333334,37.53055555555555],[-121.70833333333334,37.53055555555555],[-121.70833333333334,37.53055555555555],[-121.78333333333333,37.483333333333334],[-121.78333333333333,37.483333333333334],[-121.78333333333333,37.483333333333334],[-121.78333333333333,37.483333333333334],[-121.78333333333333,37.483333333333334],[-121.78333333333333,37.483333333333334],[-121.93111111111112,37.455555555555556],[-121.93111111111112,37.455555555555556],[-121.93111111111112,37.455555555555556],[-121.93111111111112,37.455555555555556],[-121.93111111111112,37.455555555555556],[-121.93111111111112,37.455555555555556],[-121.93111111111112,37.455555555555556],[-122.14722222222223,37.525],[-122.20666666666666,37.55027777777777],[-122.20666666666666,37.55027777777777],[-122.20666666666666,37.55027777777777],[-122.20666666666666,37.55027777777777],[-122.20666666666666,37.55027777777777],[-122.20666666666666,37.55027777777777],[-122.3125,37.595],[-122.3125,37.595],[-122.3125,37.595],[-122.3125,37.595],[-122.3125,37.595]],"type":"LineString"}
}
