{
  "id": 2031623975,
  "type": "Feature",
  "properties": {
    "date:inception_lower": "2026-06-23",
    "date:inception_upper": "2026-06-23",
    "edtf:cessation": "",
    "edtf:inception": "2026-06-23",
    "flysfo:actual_timestamp": -1,
    "flysfo:airline": "UA",
    "flysfo:base_airline": "",
    "flysfo:base_flight_number": "9194",
    "flysfo:date": "2026-06-23",
    "flysfo:estimated_timestamp": 1782284160,
    "flysfo:event": "D",
    "flysfo:flight_number": "UA505",
    "flysfo:gate": "F16",
    "flysfo:journey": "SFO-IAH",
    "flysfo:scheduled_timestamp": 1782284340,
    "flysfo:timestamp": 1782284340,
    "geom:area": 0,
    "geom:bbox": "-122.370943,29.977186,-95.338444,37.617990",
    "geom:latitude": 33.797588,
    "geom:longitude": -108.8546935,
    "iata:airline": "UA",
    "iata:base_airline": "",
    "icao:airline": "UAL",
    "icao:base_airline": "ANZ",
    "lbl:latitude": 37.620533,
    "lbl:longitude": -122.389374,
    "sfomuseum:airline_id": 1159285413,
    "sfomuseum:arrival_id": 102534097,
    "sfomuseum:base_flight_id": "20260623-D-ANZ-9194",
    "sfomuseum:departure_id": 102527513,
    "sfomuseum:flight_id": "20260623-D-UAL-505",
    "sfomuseum:flight_number": [
      "UAL505",
      "UA505"
    ],
    "sfomuseum:placetype": "flight",
    "src:geom": "flysfo",
    "wof:belongsto": [
      1947304067,
      102527513,
      1947304451,
      102191575,
      85633793,
      102087579,
      85922583,
      554784711,
      85688637,
      1947304457,
      1947304447,
      102085387
    ],
    "wof:country": "US",
    "wof:created": 1782317831,
    "wof:geomhash": "4d8eca8dfd12d13a56951180b27dbf13",
    "wof:hierarchy": [
      {
        "building_id": 1947304067,
        "campus_id": 102527513,
        "concourse_id": 1947304451,
        "continent_id": 102191575,
        "country_id": 85633793,
        "county_id": 102087579,
        "custom_id": 2031623975,
        "flight_id": 2031623975,
        "locality_id": 85922583,
        "postalcode_id": 554784711,
        "region_id": 85688637,
        "venue_id": 1947304457,
        "wing_id": 1947304447
      },
      {
        "building_id": 1947304067,
        "campus_id": 102527513,
        "concourse_id": 1947304451,
        "continent_id": 102191575,
        "country_id": 85633793,
        "county_id": 102085387,
        "custom_id": 2031623975,
        "flight_id": 2031623975,
        "region_id": 85688637,
        "venue_id": 1947304457,
        "wing_id": 1947304447
      }
    ],
    "wof:id": 2031623975,
    "wof:involves": [
      102534097,
      102527513,
      1159285413,
      1947304457,
      1159283697
    ],
    "wof:lastmodified": 1782317831,
    "wof:name": "UA505 (SFO-IAH)",
    "wof:parent_id": 1947304457,
    "wof:placetype": "custom",
    "wof:placetype_alt": [
      "flight"
    ],
    "wof:repo": "sfomuseum-data-flights-2026-06",
    "wof:superseded_by": [],
    "wof:supersedes": []
  },
  "bbox": [
    -122.370943,
    29.977186,
    -95.338444,
    37.61799
  ],
  "geometry": {"coordinates":[[-122.370943,37.61799],[-95.338444,29.977186]],"type":"MultiPoint"}
}
