{
  "id": 2031507425,
  "type": "Feature",
  "properties": {
    "geom:area": 0,
    "geom:bbox": "-122.360010,36.720320,-121.877330,37.612380",
    "geom:latitude": 37.22106927324164,
    "geom:longitude": -122.08664639170533,
    "src:alt_label": "swim-approach",
    "src:geom": "swim",
    "swim:elevations": [
      5681,
      5496,
      5063,
      4618,
      4515,
      4029,
      3840,
      3771,
      3391,
      3126,
      3090,
      2974,
      2960,
      2745,
      2527,
      2381,
      2220,
      2148,
      1921,
      1806,
      1676,
      1531,
      1448,
      1385,
      1277,
      1124,
      1053,
      850,
      824,
      733,
      566,
      537,
      431,
      332,
      222,
      125,
      62,
      80
    ],
    "swim:geom": "approach",
    "swim:timestamps": [
      1781213026,
      1781213042,
      1781213083,
      1781213128,
      1781213139,
      1781213187,
      1781213211,
      1781213228,
      1781213273,
      1781213304,
      1781213312,
      1781213333,
      1781213340,
      1781213382,
      1781213425,
      1781213453,
      1781213487,
      1781213502,
      1781213544,
      1781213571,
      1781213595,
      1781213615,
      1781213631,
      1781213646,
      1781213669,
      1781213698,
      1781213712,
      1781213757,
      1781213769,
      1781213793,
      1781213833,
      1781213842,
      1781213872,
      1781213900,
      1781213926,
      1781213956,
      1781213984,
      1781213987
    ],
    "wof:geomhash": "6527a20d9a2817cc729a19b994e8cd0e",
    "wof:id": 2031507425,
    "wof:repo": "sfomuseum-data-flights-2026-06"
  },
  "bbox": [
    -122.36001,
    36.72032,
    -121.87733,
    37.61238
  ],
  "geometry": {"coordinates":[[-121.87733,36.72032],[-121.89204,36.74437],[-121.91333,36.81136],[-121.93344,36.88278],[-121.93835,36.89984],[-121.96147,36.97331],[-121.9752,37.00856],[-121.98445,37.03181],[-122.00729,37.09089],[-122.03636,37.12404],[-122.04507,37.1323],[-122.06709,37.15303],[-122.07484,37.16032],[-122.11713,37.20073],[-122.15932,37.24238],[-122.18608,37.27053],[-122.18245,37.3097],[-122.17362,37.32623],[-122.1492,37.37203],[-122.13441,37.39981],[-122.12239,37.42217],[-122.11271,37.43981],[-122.10512,37.45332],[-122.09835,37.46544],[-122.10134,37.4845],[-122.12132,37.50593],[-122.13143,37.51611],[-122.17385,37.534],[-122.18439,37.5386],[-122.20481,37.54717],[-122.24066,37.56231],[-122.24774,37.56527],[-122.27064,37.57485],[-122.29212,37.58391],[-122.31242,37.59261],[-122.33623,37.60232],[-122.35756,37.61133],[-122.36001,37.61238]],"type":"LineString"}
}
