{
  "id": 2031543169,
  "type": "Feature",
  "properties": {
    "geom:area": 0,
    "geom:bbox": "-122.358840,37.492260,-121.254260,37.614290",
    "geom:latitude": 37.54270897767475,
    "geom:longitude": -121.81360228922567,
    "src:alt_label": "swim-approach",
    "src:geom": "swim",
    "swim:elevations": [
      4919,
      4845,
      4749,
      4694,
      4671,
      4511,
      4292,
      4185,
      3903,
      3771,
      3715,
      3624,
      3457,
      3203,
      3132,
      2943,
      2655,
      2501,
      2253,
      2214,
      2033,
      1749,
      1585,
      1442,
      1326,
      1191,
      1119,
      1057,
      916,
      889,
      637,
      540,
      396,
      343,
      243,
      182,
      157,
      20,
      0
    ],
    "swim:geom": "approach",
    "swim:timestamps": [
      1781568946,
      1781568967,
      1781568999,
      1781569013,
      1781569023,
      1781569045,
      1781569071,
      1781569086,
      1781569130,
      1781569151,
      1781569159,
      1781569171,
      1781569196,
      1781569226,
      1781569236,
      1781569262,
      1781569302,
      1781569323,
      1781569350,
      1781569359,
      1781569386,
      1781569429,
      1781569467,
      1781569490,
      1781569506,
      1781569527,
      1781569544,
      1781569557,
      1781569583,
      1781569592,
      1781569645,
      1781569667,
      1781569698,
      1781569710,
      1781569735,
      1781569750,
      1781569759,
      1781569795,
      1781569801
    ],
    "wof:geomhash": "5fb9ab0c1892786854d8c6e728882464",
    "wof:id": 2031543169,
    "wof:repo": "sfomuseum-data-flights-2026-06"
  },
  "bbox": [
    -122.35884,
    37.49226,
    -121.25426,
    37.61429
  ],
  "geometry": {"coordinates":[[-121.25426,37.59388],[-121.29538,37.58855],[-121.35499,37.58194],[-121.3796,37.57914],[-121.39643,37.57721],[-121.43217,37.57311],[-121.47585,37.56806],[-121.50103,37.56513],[-121.57066,37.55699],[-121.60417,37.55304],[-121.61603,37.55158],[-121.6344,37.54826],[-121.67234,37.53916],[-121.71645,37.52864],[-121.73079,37.52523],[-121.76889,37.51618],[-121.82725,37.50222],[-121.85721,37.49498],[-121.89704,37.49226],[-121.91033,37.49291],[-121.94968,37.49523],[-122.01008,37.49863],[-122.06031,37.50145],[-122.08766,37.50325],[-122.10673,37.50857],[-122.12935,37.51762],[-122.14573,37.52448],[-122.15851,37.52983],[-122.18277,37.54013],[-122.19115,37.54367],[-122.23955,37.5641],[-122.26027,37.57283],[-122.28627,37.58378],[-122.29559,37.58767],[-122.31387,37.59534],[-122.32447,37.59978],[-122.33081,37.60246],[-122.35512,37.61272],[-122.35884,37.61429]],"type":"LineString"}
}
