{
  "id": 2031542223,
  "type": "Feature",
  "properties": {
    "geom:area": 0,
    "geom:bbox": "-122.385833,37.675833,-87.550000,42.550556",
    "geom:latitude": 41.33135653644732,
    "geom:longitude": -105.03473851854568,
    "src:alt_label": "swim-path",
    "src:geom": "swim",
    "swim:altitudes": [
      "031",
      "031",
      "031",
      "031",
      "041",
      "081",
      "128",
      "128",
      "206",
      "220",
      "220",
      "220",
      "220",
      "259",
      "259",
      "268",
      "296",
      "301",
      "305",
      "325",
      "325",
      "330C",
      "330C",
      "330C",
      "330C",
      "330C",
      "330C",
      "330C",
      "330C",
      "330C",
      "329C",
      "330C",
      "330C",
      "330C",
      "330C",
      "330C",
      "330C",
      "329C",
      "330C",
      "330C",
      "330C",
      "330C",
      "330C",
      "330C",
      "330C",
      "330C",
      "330C",
      "330C",
      "330C",
      "330C",
      "330C",
      "330C",
      "330C",
      "330C",
      "330C",
      "330C",
      "330C",
      "330C",
      "330C",
      "330C",
      "329C",
      "330C",
      "330C",
      "330C",
      "330C",
      "330C",
      "330C",
      "330C",
      "330C",
      "330C",
      "330C",
      "330C",
      "329C",
      "330C",
      "330C",
      "330C",
      "330C",
      "330C",
      "330C",
      "330C",
      "330C",
      "330C",
      "330C",
      "330C",
      "330C",
      "330C",
      "330C",
      "330C",
      "330C",
      "330C",
      "330C",
      "330C",
      "330C",
      "330C",
      "329C",
      "329C",
      "329C",
      "329C",
      "330C",
      "330C",
      "330C",
      "330C",
      "329C",
      "330C",
      "330C",
      "329C",
      "330C",
      "330C",
      "330C",
      "330C",
      "330C",
      "330C",
      "330C",
      "330C",
      "330C",
      "330C",
      "330C",
      "330C",
      "330C",
      "330C",
      "330C",
      "330C",
      "330C",
      "330C",
      "330C",
      "330C",
      "330C",
      "330C",
      "330C",
      "330C",
      "330C",
      "330C",
      "330C",
      "330C",
      "330C",
      "330C",
      "330C",
      "330C",
      "330C",
      "330C",
      "330C",
      "330C",
      "330C",
      "330C",
      "330C",
      "329C",
      "330C",
      "330C",
      "330C",
      "330C",
      "330C",
      "330C",
      "330C",
      "330C",
      "330C",
      "330C",
      "330C",
      "330C",
      "330C",
      "330",
      "330",
      "330",
      "333",
      "350C",
      "350C",
      "350C",
      "350C",
      "350C",
      "350C",
      "350C",
      "350C",
      "350C",
      "350C",
      "350C",
      "350C",
      "349C",
      "350C",
      "350C",
      "350C",
      "350C",
      "350C",
      "350C",
      "350C",
      "350C",
      "350C",
      "350C",
      "350C",
      "350C",
      "350C",
      "350C",
      "350C",
      "350C",
      "350C",
      "350C",
      "350C",
      "350C",
      "350C",
      "350C",
      "350C",
      "350C",
      "350C",
      "350C",
      "350C",
      "349C",
      "349C",
      "349C",
      "349C",
      "350C",
      "350C",
      "350C",
      "349C",
      "349C",
      "349C",
      "350C",
      "350C",
      "350C",
      "350C",
      "350C",
      "350C",
      "350C",
      "350C",
      "350C",
      "349C",
      "349C",
      "349C",
      "349C",
      "349C",
      "350C",
      "349C",
      "349",
      "346",
      "346",
      "342",
      "342",
      "336",
      "336",
      "336",
      "336",
      "322",
      "322",
      "312",
      "312",
      "232",
      "232",
      "211",
      "211",
      "195",
      "195",
      "195",
      "162",
      "162",
      "162",
      "157",
      "150",
      "150",
      "134",
      "134",
      "134",
      "110",
      "110",
      "110",
      "110",
      "110",
      "110C",
      "110C",
      "110",
      "110",
      "110",
      "110",
      "110",
      "110",
      "110",
      "075",
      "073",
      "073",
      "063",
      "063",
      "040",
      "040",
      "040",
      "040",
      "040",
      "040",
      "040",
      "040",
      "008",
      "008"
    ],
    "swim:geom": "path",
    "swim:speeds": [
      182,
      182,
      182,
      182,
      205,
      278,
      362,
      362,
      412,
      420,
      420,
      420,
      420,
      460,
      460,
      467,
      481,
      482,
      482,
      482,
      482,
      477,
      477,
      477,
      478,
      478,
      478,
      478,
      478,
      478,
      476,
      478,
      478,
      480,
      487,
      487,
      488,
      489,
      487,
      487,
      487,
      487,
      484,
      484,
      484,
      484,
      484,
      486,
      486,
      486,
      490,
      490,
      490,
      489,
      489,
      489,
      489,
      489,
      488,
      488,
      486,
      483,
      482,
      482,
      481,
      481,
      481,
      482,
      484,
      485,
      485,
      485,
      484,
      482,
      482,
      482,
      482,
      483,
      483,
      483,
      483,
      484,
      484,
      487,
      487,
      487,
      487,
      488,
      488,
      488,
      489,
      490,
      490,
      493,
      493,
      493,
      493,
      493,
      494,
      494,
      494,
      495,
      495,
      495,
      495,
      496,
      497,
      497,
      497,
      497,
      497,
      497,
      498,
      498,
      498,
      499,
      499,
      501,
      501,
      503,
      503,
      503,
      504,
      506,
      506,
      509,
      509,
      509,
      507,
      507,
      507,
      507,
      508,
      508,
      508,
      508,
      508,
      508,
      508,
      508,
      508,
      508,
      508,
      508,
      508,
      506,
      508,
      508,
      508,
      508,
      511,
      514,
      514,
      513,
      515,
      515,
      515,
      516,
      516,
      517,
      517,
      523,
      529,
      534,
      535,
      538,
      538,
      538,
      540,
      542,
      543,
      543,
      543,
      545,
      545,
      546,
      547,
      549,
      549,
      550,
      550,
      552,
      553,
      553,
      553,
      554,
      554,
      554,
      554,
      554,
      554,
      557,
      557,
      557,
      557,
      557,
      555,
      555,
      557,
      557,
      558,
      558,
      558,
      556,
      556,
      553,
      551,
      549,
      549,
      549,
      548,
      548,
      548,
      548,
      548,
      548,
      548,
      550,
      550,
      549,
      549,
      549,
      547,
      547,
      547,
      546,
      546,
      546,
      546,
      546,
      547,
      547,
      548,
      548,
      551,
      551,
      551,
      551,
      556,
      556,
      556,
      556,
      466,
      466,
      440,
      440,
      425,
      425,
      425,
      379,
      379,
      379,
      382,
      382,
      382,
      377,
      377,
      377,
      344,
      344,
      316,
      316,
      316,
      320,
      320,
      328,
      328,
      332,
      332,
      332,
      332,
      332,
      282,
      275,
      275,
      252,
      252,
      211,
      211,
      211,
      211,
      211,
      214,
      216,
      216,
      135,
      135
    ],
    "swim:timestamps": [
      1781424492,
      1781424492,
      1781424492,
      1781424492,
      1781424552,
      1781424672,
      1781424852,
      1781424852,
      1781425152,
      1781425212,
      1781425212,
      1781425212,
      1781425212,
      1781425452,
      1781425452,
      1781425512,
      1781425692,
      1781425733,
      1781425752,
      1781425853,
      1781425853,
      1781425973,
      1781425973,
      1781426093,
      1781426213,
      1781426292,
      1781426292,
      1781426352,
      1781426352,
      1781426393,
      1781426592,
      1781426694,
      1781426712,
      1781426772,
      1781427114,
      1781427114,
      1781427133,
      1781427193,
      1781427414,
      1781427414,
      1781427414,
      1781427414,
      1781427654,
      1781427714,
      1781427714,
      1781427774,
      1781427774,
      1781427834,
      1781427834,
      1781427834,
      1781428074,
      1781428134,
      1781428134,
      1781428254,
      1781428254,
      1781428254,
      1781428254,
      1781428254,
      1781428314,
      1781428314,
      1781428374,
      1781428494,
      1781428554,
      1781428554,
      1781428614,
      1781428614,
      1781428614,
      1781428794,
      1781428854,
      1781428914,
      1781428914,
      1781428914,
      1781429034,
      1781429154,
      1781429154,
      1781429154,
      1781429154,
      1781429319,
      1781429319,
      1781429319,
      1781429454,
      1781429514,
      1781429514,
      1781429619,
      1781429619,
      1781429619,
      1781429634,
      1781429679,
      1781429694,
      1781429694,
      1781429754,
      1781429799,
      1781429799,
      1781429919,
      1781430039,
      1781430039,
      1781430055,
      1781430055,
      1781430115,
      1781430115,
      1781430115,
      1781430295,
      1781430339,
      1781430355,
      1781430355,
      1781430519,
      1781430579,
      1781430579,
      1781430579,
      1781430595,
      1781430655,
      1781430655,
      1781430699,
      1781430699,
      1781430715,
      1781430760,
      1781430760,
      1781430820,
      1781430820,
      1781430940,
      1781430940,
      1781430940,
      1781431000,
      1781431120,
      1781431120,
      1781431300,
      1781431300,
      1781431300,
      1781431540,
      1781431600,
      1781431600,
      1781431600,
      1781431720,
      1781431720,
      1781431780,
      1781431780,
      1781431780,
      1781431780,
      1781431840,
      1781431840,
      1781431900,
      1781431900,
      1781431900,
      1781431900,
      1781431900,
      1781431989,
      1781432020,
      1781432020,
      1781432080,
      1781432169,
      1781432260,
      1781432380,
      1781432380,
      1781432409,
      1781432469,
      1781432469,
      1781432469,
      1781432500,
      1781432500,
      1781432560,
      1781432560,
      1781432589,
      1781432620,
      1781432740,
      1781432769,
      1781432860,
      1781432860,
      1781432860,
      1781432920,
      1781432949,
      1781433009,
      1781433009,
      1781433009,
      1781433069,
      1781433069,
      1781433129,
      1781433189,
      1781433249,
      1781433249,
      1781433309,
      1781433309,
      1781433369,
      1781433429,
      1781433429,
      1781433429,
      1781433489,
      1781433489,
      1781433609,
      1781433609,
      1781433609,
      1781433609,
      1781433789,
      1781433789,
      1781433910,
      1781433910,
      1781433910,
      1781434090,
      1781434090,
      1781434248,
      1781434248,
      1781434270,
      1781434270,
      1781434330,
      1781434369,
      1781434369,
      1781434450,
      1781434510,
      1781434548,
      1781434548,
      1781434548,
      1781434608,
      1781434608,
      1781434608,
      1781434690,
      1781434690,
      1781434690,
      1781434690,
      1781434870,
      1781434870,
      1781434908,
      1781434908,
      1781434908,
      1781434969,
      1781434969,
      1781434969,
      1781435050,
      1781435050,
      1781435089,
      1781435149,
      1781435170,
      1781435209,
      1781435209,
      1781435230,
      1781435230,
      1781435269,
      1781435269,
      1781435269,
      1781435269,
      1781435350,
      1781435350,
      1781435389,
      1781435389,
      1781435630,
      1781435630,
      1781435690,
      1781435690,
      1781435750,
      1781435750,
      1781435750,
      1781435854,
      1781435854,
      1781435854,
      1781435870,
      1781435890,
      1781435890,
      1781435950,
      1781435950,
      1781435950,
      1781436082,
      1781436082,
      1781436202,
      1781436202,
      1781436202,
      1781436231,
      1781436231,
      1781436322,
      1781436322,
      1781436376,
      1781436376,
      1781436376,
      1781436376,
      1781436376,
      1781436574,
      1781436591,
      1781436591,
      1781436628,
      1781436628,
      1781436928,
      1781436928,
      1781436928,
      1781436928,
      1781436928,
      1781436952,
      1781436989,
      1781436989,
      1781437250,
      1781437250
    ],
    "wof:geomhash": "d8849cfb357a152460e148a38b90f8c0",
    "wof:id": 2031542223,
    "wof:repo": "sfomuseum-data-flights-2026-06"
  },
  "bbox": [
    -122.38583333333334,
    37.67583333333333,
    -87.55,
    42.550555555555555
  ],
  "geometry": {"coordinates":[[-122.38027777777778,37.67583333333333],[-122.38027777777778,37.67583333333333],[-122.38027777777778,37.67583333333333],[-122.38027777777778,37.67583333333333],[-122.34861111111111,37.71055555555556],[-122.38583333333334,37.864444444444445],[-122.16027777777778,38.03055555555555],[-122.16027777777778,38.03055555555555],[-121.56194444444444,38.26888888888889],[-121.42916666666667,38.32083333333334],[-121.42916666666667,38.32083333333334],[-121.42916666666667,38.32083333333334],[-121.42916666666667,38.32083333333334],[-120.82138888888889,38.51166666666666],[-120.82138888888889,38.51166666666666],[-120.66777777777779,38.55916666666666],[-120.19361111111111,38.70388888888889],[-120.09972222222221,38.730555555555554],[-120.03305555555555,38.75222222222222],[-119.78138888888888,38.827222222222225],[-119.78138888888888,38.827222222222225],[-119.46444444444445,38.92027777777778],[-119.46444444444445,38.92027777777778],[-119.14750000000001,39.01305555555555],[-118.83027777777778,39.10527777777778],[-118.60805555555555,39.169999999999995],[-118.60805555555555,39.169999999999995],[-118.45333333333333,39.21388888888889],[-118.45333333333333,39.21388888888889],[-118.32666666666667,39.249722222222225],[-117.81277777777777,39.39361111111111],[-117.52305555555556,39.473333333333336],[-117.49,39.48222222222223],[-117.30805555555555,39.53194444444444],[-116.38805555555557,39.776944444444446],[-116.38805555555557,39.776944444444446],[-116.31888888888888,39.794999999999995],[-116.15305555555557,39.83833333333334],[-115.55722222222222,39.99055555555556],[-115.55722222222222,39.99055555555556],[-115.55722222222222,39.99055555555556],[-115.55722222222222,39.99055555555556],[-114.89277777777778,40.156388888888884],[-114.7213888888889,40.19833333333333],[-114.7213888888889,40.19833333333333],[-114.55416666666666,40.23888888888889],[-114.55416666666666,40.23888888888889],[-114.38611111111112,40.27972222222222],[-114.38611111111112,40.27972222222222],[-114.38611111111112,40.27972222222222],[-113.70611111111111,40.44083333333333],[-113.53666666666666,40.48027777777778],[-113.53666666666666,40.48027777777778],[-113.19444444444444,40.55916666666666],[-113.19444444444444,40.55916666666666],[-113.19444444444444,40.55916666666666],[-113.19444444444444,40.55916666666666],[-113.19444444444444,40.55916666666666],[-113.02583333333334,40.597500000000004],[-113.02583333333334,40.597500000000004],[-112.85805555555555,40.63527777777778],[-112.51944444444445,40.71083333333333],[-112.35111111111111,40.74805555555556],[-112.35111111111111,40.74805555555556],[-112.18388888888889,40.78472222222222],[-112.18388888888889,40.78472222222222],[-112.18388888888889,40.78472222222222],[-111.64916666666667,40.9],[-111.48111111111112,40.93555555555555],[-111.30944444444444,40.97166666666667],[-111.30944444444444,40.97166666666667],[-111.30944444444444,40.97166666666667],[-110.96694444444445,41.04277777777778],[-110.62694444444443,41.11222222222222],[-110.62694444444443,41.11222222222222],[-110.62694444444443,41.11222222222222],[-110.62694444444443,41.11222222222222],[-110.17555555555556,41.20277777777778],[-110.17555555555556,41.20277777777778],[-110.17555555555556,41.20277777777778],[-109.7611111111111,41.284166666666664],[-109.58583333333333,41.31805555555556],[-109.58583333333333,41.31805555555556],[-109.30833333333334,41.37111111111111],[-109.30833333333334,41.37111111111111],[-109.30833333333334,41.37111111111111],[-109.23916666666666,41.384166666666665],[-109.10555555555555,41.409444444444446],[-109.07388888888889,41.415277777777774],[-109.07388888888889,41.415277777777774],[-108.90194444444445,41.447222222222216],[-108.76333333333334,41.473055555555554],[-108.76333333333334,41.473055555555554],[-108.4075,41.53805555555555],[-108.05444444444444,41.60138888888889],[-108.05444444444444,41.60138888888889],[-108.01583333333333,41.608333333333334],[-108.01583333333333,41.608333333333334],[-107.83749999999999,41.63972222222222],[-107.83749999999999,41.63972222222222],[-107.83749999999999,41.63972222222222],[-107.30749999999999,41.731388888888894],[-107.15861111111111,41.75666666666667],[-107.12249999999999,41.7625],[-107.12249999999999,41.7625],[-106.61861111111111,41.84638888888889],[-106.42611111111111,41.8775],[-106.42611111111111,41.8775],[-106.42611111111111,41.8775],[-106.3875,41.88388888888889],[-106.20694444444445,41.91277777777778],[-106.20694444444445,41.91277777777778],[-106.06222222222222,41.93583333333333],[-106.06222222222222,41.93583333333333],[-106.02583333333334,41.94166666666666],[-105.88055555555555,41.96472222222223],[-105.88055555555555,41.96472222222223],[-105.69777777777779,41.99305555555556],[-105.69777777777779,41.99305555555556],[-105.33111111111111,42.04944444444444],[-105.33111111111111,42.04944444444444],[-105.33111111111111,42.04944444444444],[-105.14805555555556,42.07611111111112],[-104.77388888888889,42.10916666666667],[-104.77388888888889,42.10916666666667],[-104.21055555555556,42.156388888888884],[-104.21055555555556,42.156388888888884],[-104.21055555555556,42.156388888888884],[-103.45972222222223,42.215],[-103.27444444444444,42.228611111111114],[-103.27444444444444,42.228611111111114],[-103.27444444444444,42.228611111111114],[-102.89583333333334,42.25555555555555],[-102.89583333333334,42.25555555555555],[-102.7063888888889,42.26861111111111],[-102.7063888888889,42.26861111111111],[-102.7063888888889,42.26861111111111],[-102.7063888888889,42.26861111111111],[-102.51833333333333,42.28111111111111],[-102.51833333333333,42.28111111111111],[-102.32694444444444,42.29361111111111],[-102.32694444444444,42.29361111111111],[-102.32694444444444,42.29361111111111],[-102.32694444444444,42.29361111111111],[-102.32694444444444,42.29361111111111],[-102.06555555555555,42.31083333333333],[-101.94694444444445,42.3175],[-101.94694444444445,42.3175],[-101.7425,42.32972222222222],[-101.49361111111111,42.345],[-101.16833333333334,42.362500000000004],[-100.82027777777778,42.38111111111111],[-100.82027777777778,42.38111111111111],[-100.71638888888889,42.38611111111111],[-100.52388888888889,42.395833333333336],[-100.52388888888889,42.395833333333336],[-100.52388888888889,42.395833333333336],[-100.43166666666667,42.400277777777774],[-100.43166666666667,42.400277777777774],[-100.2375,42.409444444444446],[-100.2375,42.409444444444446],[-100.13138888888888,42.41444444444444],[-100.03861111111111,42.41861111111111],[-99.61277777777777,42.43833333333333],[-99.52805555555555,42.44194444444444],[-99.2075,42.455555555555556],[-99.2075,42.455555555555556],[-99.2075,42.455555555555556],[-99.00166666666667,42.46388888888889],[-98.915,42.466944444444444],[-98.71111111111111,42.474722222222226],[-98.71111111111111,42.474722222222226],[-98.71111111111111,42.474722222222226],[-98.50583333333333,42.481944444444444],[-98.50583333333333,42.481944444444444],[-98.3,42.48888888888889],[-98.09083333333332,42.495555555555555],[-97.88583333333334,42.501666666666665],[-97.88583333333334,42.501666666666665],[-97.69027777777778,42.507222222222225],[-97.69027777777778,42.507222222222225],[-97.48361111111112,42.51277777777778],[-97.27638888888889,42.51777777777777],[-97.27638888888889,42.51777777777777],[-97.27638888888889,42.51777777777777],[-97.06666666666666,42.522777777777776],[-97.06666666666666,42.522777777777776],[-96.64805555555556,42.53111111111111],[-96.64805555555556,42.53111111111111],[-96.64805555555556,42.53111111111111],[-96.64805555555556,42.53111111111111],[-96.0175,42.54111111111111],[-96.0175,42.54111111111111],[-95.60027777777778,42.545833333333334],[-95.60027777777778,42.545833333333334],[-95.60027777777778,42.545833333333334],[-94.9713888888889,42.55],[-94.9713888888889,42.55],[-94.41638888888889,42.550555555555555],[-94.41638888888889,42.550555555555555],[-94.33222222222221,42.550555555555555],[-94.33222222222221,42.550555555555555],[-94.12055555555555,42.55],[-93.99916666666667,42.549166666666665],[-93.99916666666667,42.549166666666665],[-93.70833333333334,42.547777777777775],[-93.50083333333333,42.54611111111111],[-93.38055555555555,42.54472222222222],[-93.38055555555555,42.54472222222222],[-93.38055555555555,42.54472222222222],[-93.17555555555556,42.5425],[-93.17555555555556,42.5425],[-93.17555555555556,42.5425],[-92.88666666666667,42.538888888888884],[-92.88666666666667,42.538888888888884],[-92.88666666666667,42.538888888888884],[-92.88666666666667,42.538888888888884],[-92.26611111111112,42.52833333333333],[-92.26611111111112,42.52833333333333],[-92.14694444444446,42.52583333333333],[-92.14694444444446,42.52583333333333],[-92.14694444444446,42.52583333333333],[-91.94333333333334,42.525],[-91.94333333333334,42.525],[-91.94333333333334,42.525],[-91.66083333333334,42.526666666666664],[-91.66083333333334,42.526666666666664],[-91.53916666666666,42.526944444444446],[-91.33888888888889,42.527499999999996],[-91.25694444444444,42.52722222222222],[-91.13361111111112,42.52722222222222],[-91.13361111111112,42.52722222222222],[-91.05027777777778,42.52722222222222],[-91.05027777777778,42.52722222222222],[-90.92611111111111,42.526944444444446],[-90.92611111111111,42.526944444444446],[-90.92611111111111,42.526944444444446],[-90.92611111111111,42.526944444444446],[-90.63111111111111,42.525555555555556],[-90.63111111111111,42.525555555555556],[-90.46805555555555,42.52444444444444],[-90.46805555555555,42.52444444444444],[-89.73277777777778,42.513333333333335],[-89.73277777777778,42.513333333333335],[-89.57,42.49333333333333],[-89.57,42.49333333333333],[-89.41277777777778,42.473888888888894],[-89.41277777777778,42.473888888888894],[-89.41277777777778,42.473888888888894],[-89.13333333333334,42.43333333333333],[-89.13333333333334,42.43333333333333],[-89.13333333333334,42.43333333333333],[-89.09861111111111,42.434999999999995],[-89.05,42.43333333333333],[-89.05,42.43333333333333],[-88.9,42.416666666666664],[-88.9,42.416666666666664],[-88.9,42.416666666666664],[-88.61666666666666,42.36666666666667],[-88.61666666666666,42.36666666666667],[-88.36666666666666,42.333333333333336],[-88.36666666666666,42.333333333333336],[-88.36666666666666,42.333333333333336],[-88.33083333333333,42.309444444444445],[-88.33083333333333,42.309444444444445],[-88.16666666666667,42.233333333333334],[-88.16666666666667,42.233333333333334],[-88.06666666666666,42.18333333333333],[-88.06666666666666,42.18333333333333],[-88.06666666666666,42.18333333333333],[-88.06666666666666,42.18333333333333],[-88.06666666666666,42.18333333333333],[-87.71666666666667,42.1],[-87.69833333333334,42.092222222222226],[-87.69833333333334,42.092222222222226],[-87.63333333333334,42.083333333333336],[-87.63333333333334,42.083333333333336],[-87.55,42],[-87.55,42],[-87.55,42],[-87.55,42],[-87.55,42],[-87.58,42.00222222222222],[-87.63333333333334,42],[-87.63333333333334,42],[-87.89333333333335,42.00277777777778],[-87.89333333333335,42.00277777777778]],"type":"LineString"}
}
