{
  "id": 2031604177,
  "type": "Feature",
  "properties": {
    "geom:area": 0,
    "geom:bbox": "-122.406620,37.622890,-121.260400,38.020850",
    "geom:latitude": 37.85663948898777,
    "geom:longitude": -121.85793863770442,
    "src:alt_label": "swim-takeoff",
    "src:geom": "swim",
    "swim:elevations": [
      122,
      274,
      656,
      1189,
      1376,
      1623,
      1961,
      2607,
      3106,
      3437,
      3595,
      3956,
      4025,
      4614,
      5198,
      5534,
      5904,
      6128,
      6323,
      6827,
      6932,
      7348,
      7388,
      7680
    ],
    "swim:geom": "takeoff",
    "swim:timestamps": [
      1782042985,
      1782042995,
      1782043026,
      1782043069,
      1782043088,
      1782043106,
      1782043129,
      1782043166,
      1782043194,
      1782043226,
      1782043254,
      1782043286,
      1782043290,
      1782043330,
      1782043378,
      1782043405,
      1782043437,
      1782043458,
      1782043475,
      1782043526,
      1782043535,
      1782043575,
      1782043579,
      1782043610
    ],
    "wof:geomhash": "368149ba0cbdfe38e14428f913318121",
    "wof:id": 2031604177,
    "wof:repo": "sfomuseum-data-flights-2026-06"
  },
  "bbox": [
    -122.40662,
    37.62289,
    -121.2604,
    38.02085
  ],
  "geometry": {"coordinates":[[-122.38489,37.62289],[-122.39333,37.62639],[-122.40662,37.64733],[-122.36897,37.66734],[-122.34411,37.67439],[-122.31952,37.68216],[-122.2864,37.69306],[-122.23214,37.71132],[-122.19136,37.72918],[-122.14448,37.75351],[-122.09962,37.77662],[-122.04012,37.80682],[-122.03254,37.81062],[-121.95353,37.84622],[-121.85321,37.88661],[-121.79182,37.90992],[-121.715,37.93035],[-121.6636,37.94049],[-121.61899,37.94983],[-121.4869,37.97655],[-121.46455,37.98099],[-121.35664,38.00223],[-121.34553,38.00439],[-121.2604,38.02085]],"type":"LineString"}
}
