{
  "id": 2031437589,
  "type": "Feature",
  "properties": {
    "geom:area": 0,
    "geom:bbox": "-122.299167,33.689444,-84.283333,38.461389",
    "geom:latitude": 35.56240848569747,
    "geom:longitude": -103.44704140539399,
    "src:alt_label": "swim-path",
    "src:geom": "swim",
    "swim:altitudes": [
      "081",
      "081",
      "081",
      "160",
      "160",
      "191",
      "191",
      "191",
      "208",
      "208",
      "261",
      "261",
      "261",
      "284",
      "284",
      "284",
      "297",
      "297",
      "297",
      "297",
      "300C",
      "300C",
      "300C",
      "300C",
      "300C",
      "300C",
      "300C",
      "300C",
      "300C",
      "300C",
      "300C",
      "300C",
      "300C",
      "300C",
      "300C",
      "300C",
      "300C",
      "300C",
      "300C",
      "300C",
      "300C",
      "300C",
      "300C",
      "300C",
      "300C",
      "300C",
      "300C",
      "300C",
      "300C",
      "300C",
      "300C",
      "300C",
      "300C",
      "300C",
      "300C",
      "300C",
      "300C",
      "300C",
      "300C",
      "300C",
      "300C",
      "300C",
      "300C",
      "300C",
      "300C",
      "300C",
      "300C",
      "300C",
      "300C",
      "300C",
      "300C",
      "300C",
      "300C",
      "300C",
      "300C",
      "300C",
      "300C",
      "300C",
      "300C",
      "300C",
      "300C",
      "300C",
      "300C",
      "300C",
      "300C",
      "300C",
      "300C",
      "300C",
      "300C",
      "300C",
      "300C",
      "300C",
      "300C",
      "300C",
      "300C",
      "300",
      "300",
      "300",
      "300",
      "320",
      "327",
      "327",
      "337",
      "337",
      "340C",
      "340C",
      "340C",
      "340C",
      "340C",
      "340C",
      "340C",
      "340C",
      "340C",
      "340C",
      "340C",
      "340C",
      "340C",
      "340C",
      "340C",
      "340C",
      "340C",
      "340C",
      "340C",
      "340C",
      "340C",
      "340C",
      "340C",
      "340C",
      "340C",
      "340C",
      "340C",
      "340C",
      "340C",
      "340C",
      "340C",
      "340C",
      "340C",
      "340C",
      "340C",
      "340C",
      "340C",
      "340C",
      "340C",
      "340C",
      "340C",
      "340C",
      "340C",
      "340C",
      "340C",
      "340C",
      "340C",
      "340C",
      "340C",
      "340C",
      "340C",
      "340C",
      "340C",
      "340C",
      "340C",
      "340C",
      "340C",
      "340C",
      "340C",
      "340C",
      "340C",
      "340C",
      "340C",
      "340C",
      "340C",
      "340C",
      "340C",
      "340C",
      "340C",
      "340C",
      "340C",
      "340C",
      "340C",
      "340C",
      "340C",
      "340C",
      "340C",
      "340C",
      "340C",
      "340C",
      "340C",
      "340C",
      "340C",
      "340C",
      "340C",
      "340C",
      "340C",
      "340C",
      "340C",
      "340C",
      "340C",
      "340C",
      "340C",
      "340C",
      "340C",
      "340C",
      "340C",
      "340C",
      "340C",
      "340C",
      "340C",
      "340C",
      "340C",
      "340C",
      "340C",
      "340C",
      "340C",
      "340C",
      "340C",
      "340C",
      "340C",
      "340C",
      "340C",
      "340C",
      "340C",
      "340C",
      "340C",
      "340C",
      "340C",
      "340C",
      "340C",
      "340C",
      "340C",
      "340C",
      "340C",
      "340C",
      "340C",
      "340C",
      "340C",
      "340C",
      "340C",
      "340C",
      "340C",
      "340C",
      "340C",
      "340C",
      "340C",
      "340C",
      "340C",
      "340C",
      "340C",
      "340C",
      "340C",
      "340C",
      "340C",
      "340C",
      "340C",
      "340C",
      "340C",
      "340C",
      "340C",
      "340C",
      "340C",
      "340C",
      "340C",
      "340C",
      "340C",
      "340C",
      "340C",
      "340C",
      "340C",
      "340C",
      "340C",
      "340C",
      "340C",
      "340C",
      "340C",
      "340C",
      "340C",
      "340C",
      "340C",
      "340C",
      "340C",
      "340C",
      "340C",
      "340C",
      "340C",
      "340C",
      "340C",
      "340C",
      "340C",
      "340C",
      "340C",
      "340C",
      "340C",
      "340C",
      "340C",
      "340C",
      "340C",
      "340C",
      "340C",
      "340C",
      "340C",
      "340C",
      "340C",
      "340C",
      "340C",
      "340C",
      "340C",
      "340C",
      "340C",
      "340C",
      "340C",
      "340C",
      "340C",
      "340C",
      "340C",
      "340C",
      "340C",
      "340C",
      "340C",
      "340C",
      "340C",
      "340C",
      "340C",
      "340C",
      "340C",
      "340C",
      "340C",
      "340C",
      "340C",
      "340C",
      "340C",
      "340C",
      "340C",
      "340C",
      "340C",
      "340C",
      "331",
      "320C",
      "320C",
      "320C",
      "320C",
      "320C",
      "320C",
      "320",
      "312",
      "275",
      "211",
      "174",
      "130",
      "094",
      "094",
      "077",
      "011",
      "011",
      "011"
    ],
    "swim:geom": "path",
    "swim:speeds": [
      283,
      283,
      283,
      366,
      366,
      385,
      385,
      385,
      391,
      391,
      426,
      426,
      426,
      437,
      437,
      437,
      436,
      436,
      436,
      436,
      438,
      438,
      438,
      438,
      439,
      439,
      439,
      441,
      441,
      441,
      441,
      441,
      442,
      443,
      443,
      444,
      444,
      444,
      443,
      443,
      443,
      443,
      443,
      443,
      444,
      444,
      444,
      445,
      445,
      445,
      445,
      444,
      444,
      444,
      443,
      443,
      443,
      443,
      443,
      443,
      444,
      444,
      445,
      445,
      445,
      445,
      445,
      445,
      446,
      446,
      446,
      446,
      449,
      449,
      449,
      448,
      450,
      450,
      448,
      448,
      446,
      446,
      443,
      443,
      442,
      442,
      442,
      440,
      440,
      439,
      439,
      439,
      438,
      438,
      438,
      439,
      439,
      439,
      439,
      450,
      450,
      450,
      449,
      449,
      446,
      446,
      446,
      443,
      443,
      443,
      443,
      443,
      441,
      441,
      440,
      440,
      440,
      439,
      439,
      439,
      438,
      438,
      440,
      440,
      440,
      440,
      437,
      437,
      435,
      435,
      435,
      435,
      433,
      433,
      433,
      433,
      441,
      441,
      441,
      441,
      446,
      446,
      446,
      446,
      444,
      444,
      444,
      442,
      442,
      443,
      445,
      445,
      446,
      443,
      443,
      443,
      441,
      441,
      441,
      441,
      437,
      437,
      437,
      440,
      440,
      443,
      443,
      443,
      445,
      445,
      445,
      445,
      445,
      445,
      433,
      431,
      431,
      431,
      429,
      429,
      427,
      427,
      425,
      425,
      423,
      423,
      423,
      421,
      421,
      423,
      423,
      423,
      423,
      433,
      433,
      434,
      434,
      434,
      434,
      434,
      434,
      434,
      434,
      441,
      441,
      438,
      438,
      438,
      440,
      440,
      440,
      440,
      444,
      444,
      445,
      445,
      445,
      445,
      442,
      442,
      442,
      442,
      445,
      445,
      446,
      446,
      449,
      451,
      448,
      447,
      446,
      446,
      444,
      445,
      445,
      442,
      442,
      440,
      438,
      438,
      438,
      438,
      438,
      437,
      434,
      432,
      432,
      432,
      430,
      430,
      427,
      425,
      425,
      426,
      425,
      425,
      425,
      426,
      426,
      430,
      431,
      429,
      429,
      435,
      435,
      435,
      433,
      433,
      433,
      433,
      433,
      432,
      432,
      429,
      432,
      429,
      429,
      432,
      432,
      431,
      431,
      433,
      433,
      434,
      434,
      434,
      434,
      432,
      432,
      432,
      432,
      431,
      431,
      431,
      432,
      429,
      429,
      429,
      426,
      426,
      425,
      425,
      425,
      425,
      425,
      425,
      426,
      426,
      426,
      427,
      428,
      428,
      428,
      427,
      427,
      427,
      427,
      420,
      420,
      425,
      420,
      420,
      417,
      418,
      417,
      422,
      425,
      430,
      430,
      430,
      426,
      427,
      427,
      437,
      439,
      439,
      442,
      438,
      438,
      437,
      428,
      422,
      386,
      366,
      356,
      245,
      245,
      236,
      149,
      149,
      149
    ],
    "swim:timestamps": [
      1780536841,
      1780536841,
      1780536841,
      1780537091,
      1780537091,
      1780537211,
      1780537211,
      1780537211,
      1780537271,
      1780537271,
      1780537512,
      1780537512,
      1780537512,
      1780537632,
      1780537632,
      1780537632,
      1780537692,
      1780537692,
      1780537692,
      1780537692,
      1780538053,
      1780538053,
      1780538053,
      1780538053,
      1780538173,
      1780538173,
      1780538173,
      1780538353,
      1780538353,
      1780538353,
      1780538413,
      1780538413,
      1780538473,
      1780538593,
      1780538593,
      1780538653,
      1780538653,
      1780538653,
      1780538774,
      1780538774,
      1780538774,
      1780538894,
      1780538894,
      1780538894,
      1780539014,
      1780539014,
      1780539014,
      1780539134,
      1780539134,
      1780539134,
      1780539134,
      1780539254,
      1780539254,
      1780539254,
      1780539314,
      1780539374,
      1780539374,
      1780539434,
      1780539434,
      1780539434,
      1780539495,
      1780539495,
      1780539615,
      1780539615,
      1780539615,
      1780539615,
      1780539675,
      1780539675,
      1780539795,
      1780539795,
      1780539795,
      1780539795,
      1780539975,
      1780539975,
      1780539975,
      1780540021,
      1780540035,
      1780540035,
      1780540155,
      1780540155,
      1780540216,
      1780540216,
      1780540276,
      1780540276,
      1780540336,
      1780540336,
      1780540336,
      1780540456,
      1780540456,
      1780540516,
      1780540516,
      1780540516,
      1780540622,
      1780540622,
      1780540622,
      1780540742,
      1780540742,
      1780540742,
      1780540742,
      1780540876,
      1780540922,
      1780540922,
      1780540982,
      1780540982,
      1780541042,
      1780541042,
      1780541042,
      1780541117,
      1780541162,
      1780541162,
      1780541162,
      1780541162,
      1780541283,
      1780541283,
      1780541297,
      1780541297,
      1780541297,
      1780541403,
      1780541403,
      1780541403,
      1780541417,
      1780541417,
      1780541703,
      1780541703,
      1780541703,
      1780541703,
      1780541823,
      1780541823,
      1780541883,
      1780541883,
      1780541883,
      1780541883,
      1780542004,
      1780542004,
      1780542004,
      1780542004,
      1780542304,
      1780542304,
      1780542304,
      1780542304,
      1780542484,
      1780542484,
      1780542484,
      1780542484,
      1780542604,
      1780542604,
      1780542604,
      1780542725,
      1780542725,
      1780542785,
      1780542845,
      1780542845,
      1780542905,
      1780542965,
      1780542965,
      1780542965,
      1780543025,
      1780543025,
      1780543025,
      1780543025,
      1780543265,
      1780543265,
      1780543265,
      1780543386,
      1780543386,
      1780543446,
      1780543446,
      1780543446,
      1780543686,
      1780543686,
      1780543686,
      1780543746,
      1780543746,
      1780543746,
      1780543926,
      1780543986,
      1780543986,
      1780543986,
      1780544046,
      1780544046,
      1780544107,
      1780544107,
      1780544167,
      1780544167,
      1780544227,
      1780544227,
      1780544227,
      1780544590,
      1780544590,
      1780544650,
      1780544650,
      1780544650,
      1780544650,
      1780544888,
      1780544888,
      1780545008,
      1780545008,
      1780545008,
      1780545008,
      1780545128,
      1780545128,
      1780545128,
      1780545128,
      1780545369,
      1780545369,
      1780545669,
      1780545669,
      1780545669,
      1780545970,
      1780545970,
      1780545970,
      1780545970,
      1780546150,
      1780546150,
      1780546241,
      1780546302,
      1780546302,
      1780546302,
      1780546422,
      1780546450,
      1780546450,
      1780546482,
      1780546542,
      1780546542,
      1780546571,
      1780546571,
      1780546602,
      1780546662,
      1780546691,
      1780546751,
      1780546782,
      1780546782,
      1780546842,
      1780546871,
      1780546871,
      1780546962,
      1780546962,
      1780547082,
      1780547203,
      1780547203,
      1780547203,
      1780547231,
      1780547231,
      1780547263,
      1780547323,
      1780547352,
      1780547352,
      1780547352,
      1780547383,
      1780547383,
      1780547472,
      1780547532,
      1780547532,
      1780547592,
      1780547623,
      1780547623,
      1780547683,
      1780547712,
      1780547712,
      1780547745,
      1780547772,
      1780547815,
      1780547815,
      1780547863,
      1780547863,
      1780547892,
      1780547935,
      1780547935,
      1780547935,
      1780548055,
      1780548055,
      1780548115,
      1780548115,
      1780548163,
      1780548175,
      1780548223,
      1780548223,
      1780548235,
      1780548235,
      1780548286,
      1780548286,
      1780548344,
      1780548344,
      1780548415,
      1780548415,
      1780548415,
      1780548415,
      1780548527,
      1780548584,
      1780548596,
      1780548596,
      1780548647,
      1780548647,
      1780548647,
      1780548656,
      1780548764,
      1780548764,
      1780548776,
      1780548896,
      1780548896,
      1780548956,
      1780548992,
      1780548992,
      1780549019,
      1780549076,
      1780549076,
      1780549136,
      1780549136,
      1780549172,
      1780549256,
      1780549316,
      1780549316,
      1780549316,
      1780549440,
      1780549440,
      1780549440,
      1780549440,
      1780549857,
      1780549857,
      1780550157,
      1780550277,
      1780550277,
      1780550487,
      1780550517,
      1780550547,
      1780550697,
      1780550758,
      1780550878,
      1780550907,
      1780550998,
      1780551358,
      1780551418,
      1780551478,
      1780551628,
      1780551688,
      1780551688,
      1780551928,
      1780552108,
      1780552108,
      1780552168,
      1780552429,
      1780552528,
      1780552708,
      1780552807,
      1780552949,
      1780553129,
      1780553129,
      1780553227,
      1780553729,
      1780553729,
      1780553729
    ],
    "wof:geomhash": "39fb64ccd582ccaabdc55e525d211236",
    "wof:id": 2031437589,
    "wof:repo": "sfomuseum-data-flights-2026-06"
  },
  "bbox": [
    -122.29916666666666,
    33.68944444444444,
    -84.28333333333333,
    38.46138888888889
  ],
  "geometry": {"coordinates":[[-84.28333333333333,33.78333333333333],[-84.28333333333333,33.78333333333333],[-84.28333333333333,33.78333333333333],[-84.71833333333333,33.78388888888889],[-84.71833333333333,33.78388888888889],[-84.96777777777778,33.74138888888889],[-84.96777777777778,33.74138888888889],[-84.96777777777778,33.74138888888889],[-85.09583333333333,33.72027777777778],[-85.09583333333333,33.72027777777778],[-85.64611111111111,33.69361111111111],[-85.64611111111111,33.69361111111111],[-85.64611111111111,33.69361111111111],[-85.92611111111111,33.68944444444444],[-85.92611111111111,33.68944444444444],[-85.92611111111111,33.68944444444444],[-86.07055555555556,33.689722222222215],[-86.07055555555556,33.689722222222215],[-86.07055555555556,33.689722222222215],[-86.07055555555556,33.689722222222215],[-86.94,33.75555555555555],[-86.94,33.75555555555555],[-86.94,33.75555555555555],[-86.94,33.75555555555555],[-87.23194444444445,33.77611111111111],[-87.23194444444445,33.77611111111111],[-87.23194444444445,33.77611111111111],[-87.67027777777778,33.83277777777778],[-87.67027777777778,33.83277777777778],[-87.67027777777778,33.83277777777778],[-87.81444444444445,33.86277777777778],[-87.81444444444445,33.86277777777778],[-87.95944444444444,33.8925],[-88.24805555555555,33.95138888888889],[-88.24805555555555,33.95138888888889],[-88.39361111111111,33.980555555555554],[-88.39361111111111,33.980555555555554],[-88.39361111111111,33.980555555555554],[-88.68222222222222,34.038333333333334],[-88.68222222222222,34.038333333333334],[-88.68222222222222,34.038333333333334],[-88.96944444444445,34.095],[-88.96944444444445,34.095],[-88.96944444444445,34.095],[-89.25861111111111,34.15138888888889],[-89.25861111111111,34.15138888888889],[-89.25861111111111,34.15138888888889],[-89.54916666666666,34.208333333333336],[-89.54916666666666,34.208333333333336],[-89.54916666666666,34.208333333333336],[-89.54916666666666,34.208333333333336],[-89.80944444444444,34.271388888888886],[-89.80944444444444,34.271388888888886],[-89.80944444444444,34.271388888888886],[-89.98027777777779,34.3125],[-90.12444444444444,34.346111111111114],[-90.12444444444444,34.346111111111114],[-90.27194444444444,34.37111111111111],[-90.27194444444444,34.37111111111111],[-90.27194444444444,34.37111111111111],[-90.41777777777779,34.39555555555555],[-90.41777777777779,34.39555555555555],[-90.71166666666667,34.44444444444444],[-90.71166666666667,34.44444444444444],[-90.71166666666667,34.44444444444444],[-90.71166666666667,34.44444444444444],[-90.85972222222222,34.46888888888889],[-90.85972222222222,34.46888888888889],[-91.15527777777778,34.51694444444444],[-91.15527777777778,34.51694444444444],[-91.15527777777778,34.51694444444444],[-91.15527777777778,34.51694444444444],[-91.61222222222221,34.58972222222222],[-91.61222222222221,34.58972222222222],[-91.61222222222221,34.58972222222222],[-91.69833333333334,34.6],[-91.7611111111111,34.613055555555555],[-91.7611111111111,34.613055555555555],[-92.05805555555555,34.65888888888889],[-92.05805555555555,34.65888888888889],[-92.20833333333334,34.66888888888889],[-92.20833333333334,34.66888888888889],[-92.34888888888888,34.63333333333333],[-92.34888888888888,34.63333333333333],[-92.49166666666667,34.596111111111114],[-92.49166666666667,34.596111111111114],[-92.49166666666667,34.596111111111114],[-92.77305555555556,34.52111111111111],[-92.77305555555556,34.52111111111111],[-92.91444444444446,34.483333333333334],[-92.91444444444446,34.483333333333334],[-92.91444444444446,34.483333333333334],[-93.15861111111111,34.4175],[-93.15861111111111,34.4175],[-93.15861111111111,34.4175],[-93.43861111111111,34.34138888888889],[-93.43861111111111,34.34138888888889],[-93.43861111111111,34.34138888888889],[-93.43861111111111,34.34138888888889],[-93.76416666666667,34.29888888888889],[-93.88583333333334,34.28916666666667],[-93.88583333333334,34.28916666666667],[-94.03388888888888,34.27722222222222],[-94.03388888888888,34.27722222222222],[-94.18138888888889,34.265],[-94.18138888888889,34.265],[-94.18138888888889,34.265],[-94.35527777777777,34.25472222222222],[-94.47111111111111,34.278055555555554],[-94.47111111111111,34.278055555555554],[-94.47111111111111,34.278055555555554],[-94.47111111111111,34.278055555555554],[-94.75305555555556,34.34638888888889],[-94.75305555555556,34.34638888888889],[-94.77972222222222,34.35305555555556],[-94.77972222222222,34.35305555555556],[-94.77972222222222,34.35305555555556],[-95.03555555555555,34.415],[-95.03555555555555,34.415],[-95.03555555555555,34.415],[-95.0625,34.42111111111111],[-95.0625,34.42111111111111],[-95.75638888888889,34.524166666666666],[-95.75638888888889,34.524166666666666],[-95.75638888888889,34.524166666666666],[-95.75638888888889,34.524166666666666],[-96.045,34.565555555555555],[-96.045,34.565555555555555],[-96.18861111111111,34.586111111111116],[-96.18861111111111,34.586111111111116],[-96.18861111111111,34.586111111111116],[-96.18861111111111,34.586111111111116],[-96.47694444444444,34.62638888888889],[-96.47694444444444,34.62638888888889],[-96.47694444444444,34.62638888888889],[-96.47694444444444,34.62638888888889],[-97.21111111111111,34.726111111111116],[-97.21111111111111,34.726111111111116],[-97.21111111111111,34.726111111111116],[-97.21111111111111,34.726111111111116],[-97.66111111111111,34.776944444444446],[-97.66111111111111,34.776944444444446],[-97.66111111111111,34.776944444444446],[-97.66111111111111,34.776944444444446],[-97.96138888888889,34.782777777777774],[-97.96138888888889,34.782777777777774],[-97.96138888888889,34.782777777777774],[-98.25888888888889,34.76972222222222],[-98.25888888888889,34.76972222222222],[-98.40833333333335,34.76361111111111],[-98.55888888888889,34.757777777777775],[-98.55888888888889,34.757777777777775],[-98.71083333333334,34.75055555555556],[-98.85972222222222,34.739444444444445],[-98.85972222222222,34.739444444444445],[-98.85972222222222,34.739444444444445],[-99.00638888888889,34.72916666666667],[-99.00638888888889,34.72916666666667],[-99.00638888888889,34.72916666666667],[-99.00638888888889,34.72916666666667],[-99.59027777777777,34.698055555555555],[-99.59027777777777,34.698055555555555],[-99.59027777777777,34.698055555555555],[-99.89805555555556,34.74],[-99.89805555555556,34.74],[-100.03944444444444,34.78055555555555],[-100.03944444444444,34.78055555555555],[-100.03944444444444,34.78055555555555],[-100.59222222222222,34.93527777777778],[-100.59222222222222,34.93527777777778],[-100.59222222222222,34.93527777777778],[-100.73722222222223,34.97527777777778],[-100.73722222222223,34.97527777777778],[-100.73722222222223,34.97527777777778],[-101.16027777777778,34.94],[-101.29666666666667,34.90083333333333],[-101.29666666666667,34.90083333333333],[-101.29666666666667,34.90083333333333],[-101.43333333333334,34.86138888888889],[-101.43333333333334,34.86138888888889],[-101.57138888888889,34.82194444444445],[-101.57138888888889,34.82194444444445],[-101.70722222222223,34.783055555555556],[-101.70722222222223,34.783055555555556],[-101.83999999999999,34.74444444444445],[-101.83999999999999,34.74444444444445],[-101.83999999999999,34.74444444444445],[-102.64166666666668,34.503055555555555],[-102.64166666666668,34.503055555555555],[-102.77583333333334,34.46138888888889],[-102.77583333333334,34.46138888888889],[-102.77583333333334,34.46138888888889],[-102.77583333333334,34.46138888888889],[-103.31444444444445,34.284166666666664],[-103.31444444444445,34.284166666666664],[-103.56722222222221,34.16361111111111],[-103.56722222222221,34.16361111111111],[-103.56722222222221,34.16361111111111],[-103.56722222222221,34.16361111111111],[-103.82055555555556,34.04277777777778],[-103.82055555555556,34.04277777777778],[-103.82055555555556,34.04277777777778],[-103.82055555555556,34.04277777777778],[-104.33722222222222,33.79194444444444],[-104.33722222222222,33.79194444444444],[-104.99083333333333,33.907222222222224],[-104.99083333333333,33.907222222222224],[-104.99083333333333,33.907222222222224],[-105.61,34.23111111111111],[-105.61,34.23111111111111],[-105.61,34.23111111111111],[-105.61,34.23111111111111],[-105.99,34.427499999999995],[-105.99,34.427499999999995],[-106.18972222222223,34.53],[-106.29694444444445,34.58416666666667],[-106.29694444444445,34.58416666666667],[-106.29694444444445,34.58416666666667],[-106.56833333333333,34.721111111111114],[-106.62805555555555,34.75222222222222],[-106.62805555555555,34.75222222222222],[-106.69833333333334,34.78666666666666],[-106.82027777777778,34.848333333333336],[-106.82027777777778,34.848333333333336],[-106.88194444444444,34.87972222222222],[-106.88194444444444,34.87972222222222],[-106.95305555555557,34.91361111111111],[-107.08583333333333,34.98166666666667],[-107.14611111111111,35.01166666666666],[-107.27833333333334,35.07694444444445],[-107.33666666666666,35.10472222222222],[-107.33666666666666,35.10472222222222],[-107.47222222222223,35.17305555555555],[-107.52527777777777,35.19916666666666],[-107.52527777777777,35.19916666666666],[-107.73027777777779,35.29944444444444],[-107.73027777777779,35.29944444444444],[-107.98694444444445,35.42444444444444],[-108.24305555555556,35.54805555555556],[-108.24305555555556,35.54805555555556],[-108.24305555555556,35.54805555555556],[-108.295,35.573055555555555],[-108.295,35.573055555555555],[-108.37194444444444,35.61],[-108.49861111111112,35.670833333333334],[-108.54777777777778,35.69416666666666],[-108.54777777777778,35.69416666666666],[-108.54777777777778,35.69416666666666],[-108.6236111111111,35.73027777777778],[-108.6236111111111,35.73027777777778],[-108.80111111111111,35.81472222222222],[-108.92805555555556,35.874722222222225],[-108.92805555555556,35.874722222222225],[-109.04305555555555,35.928888888888885],[-109.10833333333333,35.95944444444445],[-109.10833333333333,35.95944444444445],[-109.23416666666667,36.018055555555556],[-109.31138888888889,36.05416666666667],[-109.31138888888889,36.05416666666667],[-109.3625,36.08027777777778],[-109.44111111111111,36.115],[-109.52,36.15],[-109.52,36.15],[-109.6236111111111,36.19916666666666],[-109.6236111111111,36.19916666666666],[-109.70194444444445,36.23555555555556],[-109.77972222222222,36.270833333333336],[-109.77972222222222,36.270833333333336],[-109.77972222222222,36.270833333333336],[-110.03666666666666,36.38722222222222],[-110.03666666666666,36.38722222222222],[-110.16527777777779,36.445277777777775],[-110.16527777777779,36.445277777777775],[-110.26861111111111,36.49444444444445],[-110.29388888888889,36.505],[-110.39694444444446,36.55277777777778],[-110.39694444444446,36.55277777777778],[-110.4238888888889,36.562777777777775],[-110.4238888888889,36.562777777777775],[-110.55499999999999,36.62361111111111],[-110.55499999999999,36.62361111111111],[-110.65944444444445,36.67055555555555],[-110.65944444444445,36.67055555555555],[-110.81583333333333,36.74055555555556],[-110.81583333333333,36.74055555555556],[-110.81583333333333,36.74055555555556],[-110.81583333333333,36.74055555555556],[-111.07777777777777,36.856944444444444],[-111.18222222222222,36.903055555555554],[-111.20805555555556,36.91444444444444],[-111.20805555555556,36.91444444444444],[-111.3386111111111,36.97166666666667],[-111.3386111111111,36.97166666666667],[-111.3386111111111,36.97166666666667],[-111.3386111111111,36.97166666666667],[-111.57472222222222,37.075],[-111.57472222222222,37.075],[-111.6,37.086111111111116],[-111.85888888888888,37.198055555555555],[-111.85888888888888,37.198055555555555],[-111.98861111111111,37.25416666666667],[-112.06805555555555,37.288333333333334],[-112.06805555555555,37.288333333333334],[-112.1463888888889,37.32166666666667],[-112.25055555555555,37.36611111111111],[-112.25055555555555,37.36611111111111],[-112.38138888888888,37.42194444444444],[-112.38138888888888,37.42194444444444],[-112.46083333333334,37.455555555555556],[-112.64500000000001,37.53333333333333],[-112.80138888888888,37.598888888888894],[-112.80138888888888,37.598888888888894],[-112.80138888888888,37.598888888888894],[-113.05722222222222,37.70583333333334],[-113.05722222222222,37.70583333333334],[-113.05722222222222,37.70583333333334],[-113.05722222222222,37.70583333333334],[-113.97333333333333,38.08111111111111],[-113.97333333333333,38.08111111111111],[-114.62916666666666,38.36194444444445],[-114.89611111111111,38.46138888888889],[-114.89611111111111,38.46138888888889],[-115.39722222222223,38.399166666666666],[-115.48222222222222,38.38777777777778],[-115.54333333333334,38.37916666666667],[-115.92500000000001,38.327222222222225],[-116.07305555555556,38.306666666666665],[-116.37277777777777,38.263888888888886],[-116.435,38.255],[-116.67416666666666,38.22027777777778],[-117.54638888888888,38.08972222222222],[-117.69555555555556,38.06666666666667],[-117.84222222222222,38.04388888888889],[-118.2325,37.981944444444444],[-118.38555555555556,37.9575],[-118.38555555555556,37.9575],[-118.99722222222222,37.869166666666665],[-119.45555555555556,37.81583333333333],[-119.45555555555556,37.81583333333333],[-119.60555555555555,37.797777777777775],[-120.25,37.71666666666667],[-120.47055555555556,37.69166666666666],[-120.88666666666667,37.64222222222222],[-121.11666666666666,37.61666666666667],[-121.3938888888889,37.57777777777778],[-121.71027777777778,37.55138888888889],[-121.71027777777778,37.55138888888889],[-121.78333333333333,37.45],[-122.29916666666666,37.58916666666667],[-122.29916666666666,37.58916666666667],[-122.29916666666666,37.58916666666667]],"type":"LineString"}
}
