{
  "id": 2031664751,
  "type": "Feature",
  "properties": {
    "geom:area": 0,
    "geom:bbox": "-122.796000,37.296640,-122.135240,38.488070",
    "geom:latitude": 37.68747805268693,
    "geom:longitude": -122.46044752972496,
    "src:alt_label": "swim-approach",
    "src:geom": "swim",
    "swim:elevations": [
      6656,
      6605,
      6373,
      6154,
      6056,
      5848,
      5720,
      5580,
      5373,
      5237,
      5032,
      4804,
      4448,
      4418,
      4387,
      4053,
      3805,
      3639,
      3477,
      3352,
      3353,
      3353,
      3353,
      3353,
      3353,
      3353,
      3257,
      3264,
      3246,
      3173,
      3075,
      2938,
      2823,
      2774,
      2710,
      2707,
      2680,
      2632,
      2558,
      2464,
      2437,
      2438,
      2463,
      2409,
      2293,
      2246,
      2160,
      2043,
      2001,
      1957,
      1941,
      1879,
      1770,
      1651,
      1546,
      1497,
      1271,
      1219,
      1123,
      1004,
      882,
      815,
      743,
      684,
      585,
      499,
      363,
      325,
      217,
      31
    ],
    "swim:geom": "approach",
    "swim:timestamps": [
      1782679016,
      1782679027,
      1782679066,
      1782679107,
      1782679125,
      1782679154,
      1782679173,
      1782679190,
      1782679218,
      1782679233,
      1782679264,
      1782679298,
      1782679346,
      1782679350,
      1782679356,
      1782679399,
      1782679435,
      1782679459,
      1782679482,
      1782679506,
      1782679527,
      1782679531,
      1782679555,
      1782679572,
      1782679590,
      1782679621,
      1782679674,
      1782679677,
      1782679680,
      1782679704,
      1782679734,
      1782679767,
      1782679796,
      1782679809,
      1782679857,
      1782679863,
      1782679869,
      1782679891,
      1782679922,
      1782679962,
      1782679981,
      1782680033,
      1782680046,
      1782680059,
      1782680091,
      1782680115,
      1782680136,
      1782680181,
      1782680197,
      1782680217,
      1782680223,
      1782680247,
      1782680276,
      1782680305,
      1782680326,
      1782680341,
      1782680391,
      1782680416,
      1782680452,
      1782680483,
      1782680510,
      1782680527,
      1782680569,
      1782680582,
      1782680605,
      1782680625,
      1782680661,
      1782680672,
      1782680701,
      1782680752
    ],
    "wof:geomhash": "e4cc606e79ed317cfc3cdd969c1ea55f",
    "wof:id": 2031664751,
    "wof:repo": "sfomuseum-data-flights-2026-06"
  },
  "bbox": [
    -122.796,
    37.29664,
    -122.13524,
    38.48807
  ],
  "geometry": {"coordinates":[[-122.796,38.48807],[-122.7936,38.46642],[-122.78564,38.3928],[-122.77748,38.31816],[-122.77427,38.2869],[-122.76892,38.23647],[-122.76158,38.20342],[-122.75312,38.17441],[-122.73978,38.12862],[-122.73253,38.10401],[-122.71797,38.05379],[-122.70246,38.00045],[-122.68065,37.9246],[-122.67843,37.91806],[-122.67426,37.90897],[-122.62452,37.85375],[-122.57884,37.81035],[-122.54966,37.78266],[-122.5211,37.75582],[-122.49241,37.72882],[-122.46814,37.706],[-122.4633,37.7014],[-122.43696,37.67675],[-122.41985,37.66068],[-122.40171,37.64361],[-122.37035,37.61378],[-122.33255,37.55627],[-122.3311,37.55282],[-122.32955,37.54936],[-122.3161,37.52223],[-122.29648,37.4899],[-122.2741,37.45355],[-122.25561,37.42332],[-122.24751,37.4094],[-122.25521,37.35465],[-122.25711,37.34782],[-122.259,37.341],[-122.26675,37.31638],[-122.29994,37.29664],[-122.35254,37.30959],[-122.37716,37.31582],[-122.44654,37.29995],[-122.46379,37.29766],[-122.48027,37.30129],[-122.49812,37.32967],[-122.48472,37.35321],[-122.46007,37.3637],[-122.39877,37.36715],[-122.37661,37.36846],[-122.34966,37.37014],[-122.34163,37.37073],[-122.31006,37.37269],[-122.27273,37.37516],[-122.23938,37.38634],[-122.21641,37.39455],[-122.20153,37.40204],[-122.16296,37.4338],[-122.14468,37.44915],[-122.13524,37.47792],[-122.14917,37.5001],[-122.1657,37.51847],[-122.1753,37.52942],[-122.20911,37.54915],[-122.22135,37.55421],[-122.24136,37.5626],[-122.25881,37.56993],[-122.28723,37.58192],[-122.29494,37.58522],[-122.31653,37.59414],[-122.35625,37.61078]],"type":"LineString"}
}
