{
  "id": 2031487071,
  "type": "Feature",
  "properties": {
    "geom:area": 0,
    "geom:bbox": "-122.333333,37.683333,-70.948333,43.405278",
    "geom:latitude": 42.32767123264446,
    "geom:longitude": -97.00747838824282,
    "src:alt_label": "swim-path",
    "src:geom": "swim",
    "swim:altitudes": [
      "032",
      "032",
      "061",
      "084",
      "084",
      "084",
      "086",
      "086",
      "114",
      "114",
      "114",
      "186",
      "186",
      "186",
      "186",
      "216",
      "216",
      "216",
      "216",
      "254",
      "254",
      "254",
      "259",
      "259",
      "277",
      "277",
      "277",
      "279",
      "279",
      "290",
      "300",
      "301",
      "301",
      "309",
      "316",
      "316",
      "323",
      "323",
      "334",
      "340",
      "344",
      "344",
      "344",
      "345",
      "349C",
      "349C",
      "349C",
      "350C",
      "350C",
      "349C",
      "349C",
      "350C",
      "350C",
      "350C",
      "350C",
      "350C",
      "350C",
      "350C",
      "350C",
      "350C",
      "350C",
      "350C",
      "349C",
      "349C",
      "350C",
      "350C",
      "350C",
      "350C",
      "349C",
      "349C",
      "349C",
      "349C",
      "350C",
      "350C",
      "350C",
      "350C",
      "350C",
      "350C",
      "350C",
      "350C",
      "350C",
      "350C",
      "350C",
      "350C",
      "351C",
      "350C",
      "350C",
      "350C",
      "350C",
      "350C",
      "350C",
      "350C",
      "350C",
      "350C",
      "350C",
      "350C",
      "350C",
      "350C",
      "350C",
      "350C",
      "350C",
      "350C",
      "350C",
      "350C",
      "350C",
      "350C",
      "350C",
      "350C",
      "350C",
      "350C",
      "350C",
      "350C",
      "350C",
      "350C",
      "350C",
      "350C",
      "350C",
      "350C",
      "350C",
      "350C",
      "350C",
      "350C",
      "350C",
      "351C",
      "351C",
      "350C",
      "350C",
      "350C",
      "350C",
      "350C",
      "350C",
      "350C",
      "350C",
      "350C",
      "350C",
      "350C",
      "350C",
      "350C",
      "350C",
      "350C",
      "350C",
      "350C",
      "350C",
      "350C",
      "350C",
      "350C",
      "350C",
      "350C",
      "350C",
      "350C",
      "350C",
      "350C",
      "350C",
      "350C",
      "350C",
      "350C",
      "350C",
      "350C",
      "350C",
      "350C",
      "350C",
      "350C",
      "350C",
      "350C",
      "350C",
      "350C",
      "350C",
      "350C",
      "350C",
      "350C",
      "350C",
      "350C",
      "350C",
      "350C",
      "350C",
      "350C",
      "350C",
      "350C",
      "350C",
      "350C",
      "350C",
      "350C",
      "350C",
      "350C",
      "350C",
      "350C",
      "350C",
      "350C",
      "350C",
      "350C",
      "350C",
      "350C",
      "350C",
      "350C",
      "350C",
      "350C",
      "350C",
      "350C",
      "350C",
      "350C",
      "351C",
      "351C",
      "351C",
      "350C",
      "350C",
      "350C",
      "350C",
      "350C",
      "350C",
      "350C",
      "350C",
      "350C",
      "350C",
      "350C",
      "350C",
      "350C",
      "350C",
      "349C",
      "350C",
      "350C",
      "350C",
      "350C",
      "350C",
      "350C",
      "350C",
      "350C",
      "350C",
      "350C",
      "350C",
      "350C",
      "350C",
      "350C",
      "350C",
      "350C",
      "350C",
      "350C",
      "350C",
      "350C",
      "350C",
      "350C",
      "350C",
      "350C",
      "350C",
      "350C",
      "350C",
      "350",
      "350",
      "350",
      "366",
      "370C",
      "370C",
      "370C",
      "370C",
      "370C",
      "370C",
      "370C",
      "370C",
      "370C",
      "370C",
      "370C",
      "370C",
      "370C",
      "370C",
      "370C",
      "370C",
      "370C",
      "370C",
      "370C",
      "370C",
      "370C",
      "370C",
      "370C",
      "370C",
      "370C",
      "370C",
      "370C",
      "370C",
      "370C",
      "370C",
      "370C",
      "370C",
      "370C",
      "370C",
      "370C",
      "370C",
      "370C",
      "370C",
      "370C",
      "370C",
      "370C",
      "370C",
      "370C",
      "370C",
      "370C",
      "370C",
      "370C",
      "370C",
      "370C",
      "370C",
      "370C",
      "370C",
      "370C",
      "370C",
      "370C",
      "370C",
      "370C",
      "370C",
      "370C",
      "370C",
      "370C",
      "370C",
      "370C",
      "370C",
      "370C",
      "371C",
      "370C",
      "370C",
      "370C",
      "370C",
      "370C",
      "370C",
      "370C",
      "370C",
      "370C",
      "370C",
      "370C",
      "370C",
      "370C",
      "370C",
      "370C",
      "370C",
      "370C",
      "370C",
      "370C",
      "370C",
      "370C",
      "370C",
      "370C",
      "370C",
      "370C",
      "370C",
      "370C",
      "370C",
      "371C",
      "371C",
      "371C",
      "370C",
      "370C",
      "370C",
      "370C",
      "370C",
      "370C",
      "370C",
      "370C",
      "370C",
      "370C",
      "370C",
      "370C",
      "370C",
      "370C",
      "370C",
      "370C",
      "370C",
      "370C",
      "370C",
      "370C",
      "370C",
      "370C",
      "370C",
      "370C",
      "370C",
      "370C",
      "370C",
      "370C",
      "370C",
      "370C",
      "370C",
      "370C",
      "370C",
      "370C",
      "370",
      "370",
      "343",
      "310C",
      "291",
      "291",
      "290",
      "290",
      "290",
      "290",
      "271",
      "271",
      "271",
      "211",
      "211",
      "190",
      "190",
      "190",
      "136",
      "136",
      "114",
      "102",
      "092",
      "092",
      "092",
      "079",
      "067",
      "049",
      "037",
      "037",
      "022",
      "022",
      "013",
      "110"
    ],
    "swim:geom": "path",
    "swim:speeds": [
      277,
      277,
      278,
      282,
      282,
      282,
      279,
      279,
      362,
      362,
      362,
      411,
      411,
      411,
      411,
      435,
      435,
      435,
      435,
      474,
      474,
      474,
      472,
      472,
      485,
      485,
      485,
      486,
      486,
      487,
      493,
      496,
      496,
      502,
      495,
      495,
      491,
      491,
      485,
      473,
      469,
      469,
      469,
      467,
      479,
      479,
      479,
      481,
      481,
      484,
      484,
      485,
      485,
      493,
      494,
      496,
      497,
      499,
      499,
      501,
      501,
      501,
      502,
      502,
      502,
      502,
      501,
      501,
      498,
      497,
      497,
      497,
      496,
      495,
      494,
      494,
      494,
      494,
      494,
      494,
      493,
      494,
      494,
      494,
      495,
      495,
      493,
      493,
      493,
      492,
      492,
      492,
      492,
      493,
      493,
      493,
      494,
      494,
      494,
      495,
      495,
      496,
      496,
      496,
      493,
      493,
      493,
      493,
      484,
      484,
      482,
      482,
      483,
      483,
      483,
      485,
      485,
      485,
      485,
      485,
      493,
      493,
      493,
      495,
      495,
      490,
      491,
      491,
      491,
      491,
      491,
      492,
      492,
      492,
      492,
      492,
      494,
      494,
      495,
      495,
      494,
      492,
      492,
      492,
      488,
      485,
      485,
      485,
      492,
      492,
      494,
      494,
      494,
      496,
      496,
      496,
      496,
      496,
      496,
      496,
      496,
      496,
      494,
      493,
      493,
      493,
      493,
      492,
      492,
      492,
      492,
      492,
      492,
      492,
      492,
      493,
      493,
      494,
      494,
      487,
      487,
      486,
      486,
      486,
      486,
      486,
      486,
      486,
      487,
      488,
      488,
      488,
      491,
      491,
      492,
      492,
      491,
      491,
      491,
      491,
      490,
      490,
      490,
      488,
      487,
      487,
      486,
      485,
      485,
      484,
      484,
      484,
      484,
      481,
      481,
      481,
      481,
      476,
      474,
      474,
      477,
      477,
      484,
      484,
      486,
      486,
      482,
      481,
      481,
      481,
      482,
      482,
      482,
      484,
      484,
      487,
      485,
      485,
      485,
      485,
      483,
      483,
      480,
      477,
      477,
      473,
      473,
      473,
      480,
      481,
      481,
      482,
      482,
      482,
      482,
      481,
      481,
      481,
      482,
      482,
      482,
      482,
      475,
      475,
      475,
      475,
      475,
      474,
      474,
      473,
      472,
      472,
      472,
      472,
      467,
      463,
      463,
      448,
      446,
      446,
      446,
      443,
      443,
      446,
      448,
      448,
      448,
      449,
      449,
      449,
      449,
      451,
      451,
      451,
      451,
      452,
      452,
      453,
      454,
      454,
      454,
      455,
      455,
      455,
      455,
      455,
      455,
      455,
      456,
      458,
      458,
      469,
      469,
      476,
      475,
      472,
      472,
      471,
      471,
      470,
      470,
      470,
      473,
      473,
      472,
      472,
      472,
      480,
      480,
      484,
      484,
      484,
      482,
      482,
      478,
      472,
      472,
      471,
      470,
      470,
      473,
      473,
      473,
      477,
      477,
      477,
      476,
      476,
      476,
      477,
      477,
      478,
      478,
      478,
      477,
      476,
      476,
      477,
      477,
      480,
      480,
      481,
      481,
      482,
      475,
      471,
      471,
      471,
      472,
      472,
      473,
      473,
      472,
      472,
      472,
      472,
      471,
      471,
      471,
      471,
      469,
      469,
      482,
      464,
      454,
      454,
      478,
      478,
      481,
      481,
      478,
      478,
      478,
      419,
      419,
      400,
      400,
      400,
      363,
      363,
      360,
      334,
      303,
      303,
      303,
      293,
      280,
      278,
      260,
      260,
      182,
      182,
      150,
      135
    ],
    "swim:timestamps": [
      1780951485,
      1780951485,
      1780951562,
      1780951605,
      1780951605,
      1780951605,
      1780951622,
      1780951622,
      1780951742,
      1780951742,
      1780951742,
      1780951983,
      1780951983,
      1780951983,
      1780951983,
      1780952103,
      1780952103,
      1780952103,
      1780952103,
      1780952343,
      1780952343,
      1780952343,
      1780952385,
      1780952385,
      1780952505,
      1780952505,
      1780952505,
      1780952523,
      1780952523,
      1780952583,
      1780952685,
      1780952704,
      1780952704,
      1780952745,
      1780952764,
      1780952764,
      1780952805,
      1780952805,
      1780952865,
      1780952884,
      1780952944,
      1780952944,
      1780952944,
      1780952985,
      1780953064,
      1780953064,
      1780953064,
      1780953166,
      1780953166,
      1780953226,
      1780953226,
      1780953244,
      1780953244,
      1780953346,
      1780953364,
      1780953406,
      1780953425,
      1780953466,
      1780953466,
      1780953545,
      1780953545,
      1780953545,
      1780953605,
      1780953605,
      1780953766,
      1780953766,
      1780953826,
      1780953826,
      1780953905,
      1780953947,
      1780953947,
      1780953947,
      1780954007,
      1780954025,
      1780954067,
      1780954085,
      1780954085,
      1780954127,
      1780954127,
      1780954127,
      1780954247,
      1780954307,
      1780954307,
      1780954307,
      1780954367,
      1780954427,
      1780954487,
      1780954487,
      1780954487,
      1780954547,
      1780954547,
      1780954547,
      1780954547,
      1780954668,
      1780954668,
      1780954668,
      1780954848,
      1780954848,
      1780954848,
      1780954908,
      1780954908,
      1780954968,
      1780954968,
      1780954968,
      1780955148,
      1780955148,
      1780955148,
      1780955148,
      1780955449,
      1780955449,
      1780955509,
      1780955509,
      1780955569,
      1780955569,
      1780955569,
      1780955749,
      1780955749,
      1780955749,
      1780955809,
      1780955809,
      1780955929,
      1780955929,
      1780955929,
      1780955989,
      1780955989,
      1780956267,
      1780956327,
      1780956350,
      1780956350,
      1780956387,
      1780956410,
      1780956508,
      1780956508,
      1780956508,
      1780956508,
      1780956530,
      1780956628,
      1780956628,
      1780956688,
      1780956688,
      1780956748,
      1780956868,
      1780956868,
      1780956891,
      1780956928,
      1780956988,
      1780956988,
      1780956988,
      1780957131,
      1780957131,
      1780957191,
      1780957191,
      1780957191,
      1780957251,
      1780957311,
      1780957311,
      1780957311,
      1780957349,
      1780957371,
      1780957371,
      1780957409,
      1780957409,
      1780957529,
      1780957589,
      1780957589,
      1780957589,
      1780957589,
      1780957612,
      1780957672,
      1780957709,
      1780957769,
      1780957769,
      1780957792,
      1780957792,
      1780957792,
      1780957829,
      1780957829,
      1780957890,
      1780957890,
      1780958310,
      1780958310,
      1780958370,
      1780958370,
      1780958430,
      1780958430,
      1780958430,
      1780958551,
      1780958551,
      1780958611,
      1780958731,
      1780958731,
      1780958731,
      1780958791,
      1780958791,
      1780958851,
      1780959010,
      1780959070,
      1780959070,
      1780959070,
      1780959070,
      1780959250,
      1780959250,
      1780959250,
      1780959370,
      1780959392,
      1780959392,
      1780959430,
      1780959490,
      1780959490,
      1780959512,
      1780959512,
      1780959550,
      1780959550,
      1780959671,
      1780959671,
      1780959671,
      1780959671,
      1780959764,
      1780959824,
      1780959824,
      1780959851,
      1780959851,
      1780959911,
      1780959911,
      1780960031,
      1780960031,
      1780960392,
      1780960452,
      1780960452,
      1780960452,
      1780960512,
      1780960512,
      1780960512,
      1780960572,
      1780960572,
      1780960752,
      1780960812,
      1780960812,
      1780960812,
      1780960812,
      1780960872,
      1780960872,
      1780960932,
      1780960993,
      1780960993,
      1780961053,
      1780961053,
      1780961053,
      1780961233,
      1780961293,
      1780961293,
      1780961353,
      1780961353,
      1780961353,
      1780961353,
      1780961413,
      1780961413,
      1780961413,
      1780961714,
      1780961714,
      1780961714,
      1780961714,
      1780962012,
      1780962012,
      1780962012,
      1780962012,
      1780962026,
      1780962072,
      1780962072,
      1780962086,
      1780962132,
      1780962146,
      1780962146,
      1780962146,
      1780962206,
      1780962252,
      1780962252,
      1780962386,
      1780962432,
      1780962432,
      1780962432,
      1780962492,
      1780962492,
      1780962567,
      1780962612,
      1780962627,
      1780962627,
      1780962687,
      1780962687,
      1780962687,
      1780962687,
      1780962747,
      1780962747,
      1780962793,
      1780962793,
      1780962853,
      1780962853,
      1780962867,
      1780962913,
      1780962913,
      1780962927,
      1780962973,
      1780962973,
      1780963033,
      1780963033,
      1780963093,
      1780963093,
      1780963093,
      1780963168,
      1780963228,
      1780963228,
      1780963408,
      1780963408,
      1780963588,
      1780963634,
      1780963694,
      1780963694,
      1780963754,
      1780963754,
      1780963814,
      1780963814,
      1780963935,
      1780964115,
      1780964115,
      1780964295,
      1780964326,
      1780964326,
      1780964536,
      1780964536,
      1780964746,
      1780964746,
      1780964806,
      1780964867,
      1780964896,
      1780964987,
      1780965107,
      1780965107,
      1780965167,
      1780965227,
      1780965227,
      1780965347,
      1780965347,
      1780965347,
      1780965468,
      1780965468,
      1780965468,
      1780966056,
      1780966056,
      1780966056,
      1780966237,
      1780966237,
      1780966297,
      1780966357,
      1780966357,
      1780966597,
      1780966717,
      1780966717,
      1780966778,
      1780966778,
      1780966958,
      1780966958,
      1780967108,
      1780967108,
      1780967168,
      1780967408,
      1780967559,
      1780967559,
      1780967619,
      1780967781,
      1780967781,
      1780967901,
      1780967901,
      1780967919,
      1780967961,
      1780968021,
      1780968039,
      1780968081,
      1780968081,
      1780968081,
      1780968100,
      1780968201,
      1780968201,
      1780968321,
      1780968502,
      1780968622,
      1780968622,
      1780968682,
      1780968682,
      1780968742,
      1780968742,
      1780968862,
      1780968862,
      1780968862,
      1780969042,
      1780969042,
      1780969102,
      1780969102,
      1780969102,
      1780969275,
      1780969275,
      1780969343,
      1780969403,
      1780969463,
      1780969463,
      1780969463,
      1780969523,
      1780969576,
      1780969643,
      1780969703,
      1780969703,
      1780969823,
      1780969823,
      1780969883,
      1780970003
    ],
    "wof:geomhash": "071995e58daace682cc063b43097ce4b",
    "wof:id": 2031487071,
    "wof:repo": "sfomuseum-data-flights-2026-06"
  },
  "bbox": [
    -122.33333333333333,
    37.68333333333333,
    -70.94833333333334,
    43.405277777777776
  ],
  "geometry": {"coordinates":[[-122.33333333333333,37.68333333333333],[-122.33333333333333,37.68333333333333],[-122.24305555555556,37.73277777777778],[-122.2,37.8],[-122.2,37.8],[-122.2,37.8],[-122.19666666666667,37.80083333333333],[-122.19666666666667,37.80083333333333],[-122.08277777777778,37.95111111111111],[-122.08277777777778,37.95111111111111],[-122.08277777777778,37.95111111111111],[-121.71361111111112,38.29416666666666],[-121.71361111111112,38.29416666666666],[-121.71361111111112,38.29416666666666],[-121.71361111111112,38.29416666666666],[-121.50638888888889,38.47083333333334],[-121.50638888888889,38.47083333333334],[-121.50638888888889,38.47083333333334],[-121.50638888888889,38.47083333333334],[-120.97833333333334,38.79222222222222],[-120.97833333333334,38.79222222222222],[-120.97833333333334,38.79222222222222],[-120.89972222222222,38.835],[-120.89972222222222,38.835],[-120.62444444444444,39.00111111111111],[-120.62444444444444,39.00111111111111],[-120.62444444444444,39.00111111111111],[-120.5936111111111,39.02222222222222],[-120.5936111111111,39.02222222222222],[-120.45416666666667,39.10527777777778],[-120.20583333333333,39.249722222222225],[-120.17277777777778,39.27111111111111],[-120.17277777777778,39.27111111111111],[-120.06083333333333,39.334722222222226],[-120.00444444444445,39.36972222222222],[-120.00444444444445,39.36972222222222],[-119.92111111111112,39.41638888888889],[-119.92111111111112,39.41638888888889],[-119.78333333333333,39.49777777777778],[-119.72805555555556,39.53055555555555],[-119.59222222222222,39.60888888888889],[-119.59222222222222,39.60888888888889],[-119.59222222222222,39.60888888888889],[-119.51305555555555,39.653888888888886],[-119.31472222222222,39.76861111111111],[-119.31472222222222,39.76861111111111],[-119.31472222222222,39.76861111111111],[-119.09194444444444,39.894999999999996],[-119.09194444444444,39.894999999999996],[-118.94472222222223,39.969166666666666],[-118.94472222222223,39.969166666666666],[-118.91111111111111,39.98555555555556],[-118.91111111111111,39.98555555555556],[-118.62972222222221,40.105555555555554],[-118.59638888888888,40.11972222222222],[-118.47416666666666,40.17166666666667],[-118.43861111111111,40.18666666666666],[-118.31305555555555,40.239444444444445],[-118.31305555555555,40.239444444444445],[-118.11444444444444,40.31722222222223],[-118.11444444444444,40.31722222222223],[-118.11444444444444,40.31722222222223],[-117.94083333333333,40.35805555555556],[-117.94083333333333,40.35805555555556],[-117.45083333333334,40.46083333333333],[-117.45083333333334,40.46083333333333],[-117.27527777777777,40.49722222222222],[-117.27527777777777,40.49722222222222],[-117.06083333333333,40.54111111111111],[-116.91944444444445,40.569722222222225],[-116.91944444444445,40.569722222222225],[-116.91944444444445,40.569722222222225],[-116.74055555555556,40.599444444444444],[-116.70083333333334,40.605555555555554],[-116.56138888888889,40.628055555555555],[-116.52472222222222,40.634166666666665],[-116.52472222222222,40.634166666666665],[-116.38361111111112,40.65694444444444],[-116.38361111111112,40.65694444444444],[-116.38361111111112,40.65694444444444],[-116.03055555555555,40.713055555555556],[-115.85388888888889,40.74055555555556],[-115.85388888888889,40.74055555555556],[-115.85388888888889,40.74055555555556],[-115.67444444444445,40.76861111111111],[-115.49777777777778,40.795833333333334],[-115.3236111111111,40.82222222222222],[-115.3236111111111,40.82222222222222],[-115.3236111111111,40.82222222222222],[-115.14694444444446,40.84861111111111],[-115.14694444444446,40.84861111111111],[-115.14694444444446,40.84861111111111],[-115.14694444444446,40.84861111111111],[-114.78999999999999,40.90138888888889],[-114.78999999999999,40.90138888888889],[-114.78999999999999,40.90138888888889],[-114.28388888888888,40.973888888888894],[-114.28388888888888,40.973888888888894],[-114.28388888888888,40.973888888888894],[-114.1061111111111,40.99888888888889],[-114.1061111111111,40.99888888888889],[-113.92527777777778,41.02388888888889],[-113.92527777777778,41.02388888888889],[-113.92527777777778,41.02388888888889],[-113.38972222222223,41.096111111111114],[-113.38972222222223,41.096111111111114],[-113.38972222222223,41.096111111111114],[-113.38972222222223,41.096111111111114],[-112.50805555555556,41.21],[-112.50805555555556,41.21],[-112.33472222222221,41.231388888888894],[-112.33472222222221,41.231388888888894],[-112.1575,41.253055555555555],[-112.1575,41.253055555555555],[-112.1575,41.253055555555555],[-111.61999999999999,41.31722222222223],[-111.61999999999999,41.31722222222223],[-111.61999999999999,41.31722222222223],[-111.44055555555556,41.338055555555556],[-111.44055555555556,41.338055555555556],[-111.0786111111111,41.37888888888889],[-111.0786111111111,41.37888888888889],[-111.0786111111111,41.37888888888889],[-110.89194444444445,41.39944444444444],[-110.89194444444445,41.39944444444444],[-110.05305555555556,41.48861111111111],[-109.87333333333332,41.50694444444444],[-109.79972222222221,41.51444444444444],[-109.79972222222221,41.51444444444444],[-109.69250000000001,41.525],[-109.62027777777777,41.532222222222224],[-109.33166666666666,41.56027777777778],[-109.33166666666666,41.56027777777778],[-109.33166666666666,41.56027777777778],[-109.33166666666666,41.56027777777778],[-109.25527777777778,41.5675],[-108.95916666666668,41.598333333333336],[-108.95916666666668,41.598333333333336],[-108.77694444444444,41.62555555555556],[-108.77694444444444,41.62555555555556],[-108.59833333333333,41.651944444444446],[-108.24222222222222,41.71638888888889],[-108.24222222222222,41.71638888888889],[-108.21222222222222,41.73166666666667],[-108.12333333333332,41.814166666666665],[-108.05166666666666,41.93666666666666],[-108.05166666666666,41.93666666666666],[-108.05166666666666,41.93666666666666],[-107.74277777777777,42.159444444444446],[-107.74277777777777,42.159444444444446],[-107.58916666666666,42.23583333333333],[-107.58916666666666,42.23583333333333],[-107.58916666666666,42.23583333333333],[-107.43472222222222,42.31194444444444],[-107.27805555555555,42.38861111111111],[-107.27805555555555,42.38861111111111],[-107.27805555555555,42.38861111111111],[-107.18694444444445,42.433055555555555],[-107.12305555555555,42.464444444444446],[-107.12305555555555,42.464444444444446],[-107.03166666666667,42.50861111111111],[-107.03166666666667,42.50861111111111],[-106.73833333333333,42.650277777777774],[-106.58166666666666,42.72527777777778],[-106.58166666666666,42.72527777777778],[-106.58166666666666,42.72527777777778],[-106.58166666666666,42.72527777777778],[-106.51888888888888,42.755],[-106.36277777777777,42.82916666666667],[-106.26861111111111,42.87388888888889],[-106.11083333333333,42.94555555555555],[-106.11083333333333,42.94555555555555],[-106.04277777777777,42.969166666666666],[-106.04277777777777,42.969166666666666],[-106.04277777777777,42.969166666666666],[-105.97333333333333,42.988055555555555],[-105.97333333333333,42.988055555555555],[-105.75138888888888,43.020833333333336],[-105.75138888888888,43.020833333333336],[-104.45166666666667,43.12027777777778],[-104.45166666666667,43.12027777777778],[-104.27,43.13305555555556],[-104.27,43.13305555555556],[-104.08444444444444,43.14555555555555],[-104.08444444444444,43.14555555555555],[-104.08444444444444,43.14555555555555],[-103.71555555555555,43.17027777777778],[-103.71555555555555,43.17027777777778],[-103.56583333333333,43.17972222222222],[-103.15944444444445,43.20444444444445],[-103.15944444444445,43.20444444444445],[-103.15944444444445,43.20444444444445],[-102.97305555555556,43.21555555555556],[-102.97305555555556,43.21555555555556],[-102.78611111111111,43.226111111111116],[-102.3111111111111,43.25194444444445],[-102.12472222222222,43.26111111111111],[-102.12472222222222,43.26111111111111],[-102.12472222222222,43.26111111111111],[-102.12472222222222,43.26111111111111],[-101.53083333333333,43.28944444444444],[-101.53083333333333,43.28944444444444],[-101.53083333333333,43.28944444444444],[-101.16333333333334,43.30555555555555],[-101.12666666666667,43.30694444444444],[-101.12666666666667,43.30694444444444],[-100.97888888888889,43.31305555555555],[-100.79805555555555,43.32027777777778],[-100.79805555555555,43.32027777777778],[-100.7611111111111,43.32166666666667],[-100.7611111111111,43.32166666666667],[-100.61416666666666,43.327222222222225],[-100.61416666666666,43.327222222222225],[-100.24944444444445,43.34027777777778],[-100.24944444444445,43.34027777777778],[-100.24944444444445,43.34027777777778],[-100.24944444444445,43.34027777777778],[-99.99944444444445,43.34805555555556],[-99.82027777777778,43.353611111111114],[-99.82027777777778,43.353611111111114],[-99.71083333333334,43.35666666666667],[-99.71083333333334,43.35666666666667],[-99.52444444444444,43.36222222222222],[-99.52444444444444,43.36222222222222],[-99.15527777777778,43.37166666666667],[-99.15527777777778,43.37166666666667],[-98.06833333333333,43.39277777777778],[-97.88611111111112,43.39555555555555],[-97.88611111111112,43.39555555555555],[-97.88611111111112,43.39555555555555],[-97.70222222222222,43.3975],[-97.70222222222222,43.3975],[-97.70222222222222,43.3975],[-97.51694444444445,43.39944444444444],[-97.51694444444445,43.39944444444444],[-96.96083333333334,43.40361111111111],[-96.7786111111111,43.404444444444444],[-96.7786111111111,43.404444444444444],[-96.7786111111111,43.404444444444444],[-96.7786111111111,43.404444444444444],[-96.59694444444445,43.405],[-96.59694444444445,43.405],[-96.41666666666667,43.405277777777776],[-96.23666666666666,43.405],[-96.23666666666666,43.405],[-96.05833333333334,43.404444444444444],[-96.05833333333334,43.404444444444444],[-96.05833333333334,43.404444444444444],[-95.47500000000001,43.40138888888889],[-95.29277777777777,43.39972222222222],[-95.29277777777777,43.39972222222222],[-95.10916666666667,43.39805555555556],[-95.10916666666667,43.39805555555556],[-95.10916666666667,43.39805555555556],[-95.10916666666667,43.39805555555556],[-94.9238888888889,43.39555555555555],[-94.9238888888889,43.39555555555555],[-94.9238888888889,43.39555555555555],[-94.0125,43.38027777777778],[-94.0125,43.38027777777778],[-94.0125,43.38027777777778],[-94.0125,43.38027777777778],[-93.13833333333334,43.35861111111111],[-93.13833333333334,43.35861111111111],[-93.13833333333334,43.35861111111111],[-93.13833333333334,43.35861111111111],[-93.06611111111111,43.35666666666667],[-92.95944444444444,43.35333333333333],[-92.95944444444444,43.35333333333333],[-92.88833333333334,43.35111111111111],[-92.78111111111112,43.34777777777778],[-92.70694444444445,43.345555555555556],[-92.70694444444445,43.345555555555556],[-92.70694444444445,43.345555555555556],[-92.53222222222222,43.34],[-92.42833333333334,43.33638888888889],[-92.42833333333334,43.33638888888889],[-92.015,43.32138888888889],[-91.91250000000001,43.31722222222223],[-91.91250000000001,43.31722222222223],[-91.91250000000001,43.31722222222223],[-91.74555555555555,43.31055555555555],[-91.74555555555555,43.31055555555555],[-91.50805555555556,43.30083333333333],[-91.40472222222223,43.296388888888885],[-91.33444444444444,43.29333333333333],[-91.33444444444444,43.29333333333333],[-91.16361111111112,43.28527777777778],[-91.16361111111112,43.28527777777778],[-91.16361111111112,43.28527777777778],[-91.16361111111112,43.28527777777778],[-90.98944444444444,43.275555555555556],[-90.98944444444444,43.275555555555556],[-90.88861111111112,43.26444444444444],[-90.88861111111112,43.26444444444444],[-90.71805555555555,43.23638888888889],[-90.71805555555555,43.23638888888889],[-90.65083333333334,43.225],[-90.55027777777778,43.2075],[-90.55027777777778,43.2075],[-90.48194444444445,43.19583333333333],[-90.37972222222221,43.17861111111111],[-90.37972222222221,43.17861111111111],[-90.21111111111111,43.151944444444446],[-90.21111111111111,43.151944444444446],[-90.04305555555555,43.12555555555556],[-90.04305555555555,43.12555555555556],[-90.04305555555555,43.12555555555556],[-89.83444444444444,43.093611111111116],[-89.63805555555557,43.0625],[-89.63805555555557,43.0625],[-89.11166666666666,43.06111111111111],[-89.11166666666666,43.06111111111111],[-88.575,43.089444444444446],[-88.4325,43.098888888888894],[-88.25666666666666,43.10805555555556],[-88.25666666666666,43.10805555555556],[-88.07694444444444,43.1175],[-88.07694444444444,43.1175],[-87.90027777777779,43.126111111111115],[-87.90027777777779,43.126111111111115],[-87.54333333333334,43.14333333333333],[-87.01777777777778,43.16583333333333],[-87.01777777777778,43.16583333333333],[-86.51444444444445,43.18555555555555],[-86.40833333333335,43.19],[-86.40833333333335,43.19],[-85.74083333333333,43.21138888888889],[-85.74083333333333,43.21138888888889],[-85.11694444444444,43.22833333333333],[-85.11694444444444,43.22833333333333],[-84.93055555555556,43.23277777777778],[-84.74777777777778,43.236666666666665],[-84.63972222222223,43.23916666666667],[-84.38555555555556,43.24388888888889],[-84.02972222222222,43.25],[-84.02972222222222,43.25],[-83.835,43.25277777777778],[-83.65416666666667,43.25472222222222],[-83.65416666666667,43.25472222222222],[-83.29277777777777,43.25861111111111],[-83.29277777777777,43.25861111111111],[-83.29277777777777,43.25861111111111],[-82.92750000000001,43.26111111111111],[-82.92750000000001,43.26111111111111],[-82.92750000000001,43.26111111111111],[-81.17666666666668,43.08083333333334],[-81.17666666666668,43.08083333333334],[-81.17666666666668,43.08083333333334],[-80.63722222222223,43.04722222222222],[-80.63722222222223,43.04722222222222],[-80.45916666666668,43.03944444444444],[-80.27583333333334,43.030833333333334],[-80.27583333333334,43.030833333333334],[-79.56694444444445,42.99527777777778],[-79.205,42.97555555555556],[-79.205,42.97555555555556],[-79.0261111111111,42.96527777777778],[-79.0261111111111,42.96527777777778],[-78.48361111111112,42.928888888888885],[-78.48361111111112,42.928888888888885],[-78.0075,42.91861111111111],[-78.0075,42.91861111111111],[-77.82472222222222,42.913888888888884],[-77.1325,42.89416666666666],[-76.68083333333334,42.88],[-76.68083333333334,42.88],[-76.505,42.87416666666667],[-76.00777777777778,42.855555555555554],[-76.00777777777778,42.855555555555554],[-75.65555555555557,42.84111111111111],[-75.65555555555557,42.84111111111111],[-75.61888888888888,42.839444444444446],[-75.47805555555556,42.833333333333336],[-75.30111111111111,42.82527777777778],[-75.26472222222222,42.82361111111111],[-75.12583333333333,42.816944444444445],[-75.12583333333333,42.816944444444445],[-75.12583333333333,42.816944444444445],[-75.09055555555555,42.81527777777777],[-74.7761111111111,42.79972222222222],[-74.7761111111111,42.79972222222222],[-74.41722222222222,42.78111111111111],[-73.89500000000001,42.751666666666665],[-73.54916666666666,42.745],[-73.54916666666666,42.745],[-73.36666666666666,42.743611111111115],[-73.36666666666666,42.743611111111115],[-73.18305555555555,42.74166666666667],[-73.18305555555555,42.74166666666667],[-72.81277777777777,42.70583333333334],[-72.81277777777777,42.70583333333334],[-72.81277777777777,42.70583333333334],[-72.31277777777777,42.64527777777778],[-72.31277777777777,42.64527777777778],[-72.15277777777779,42.62694444444445],[-72.15277777777779,42.62694444444445],[-72.15277777777779,42.62694444444445],[-71.75,42.583333333333336],[-71.75,42.583333333333336],[-71.60166666666666,42.55166666666666],[-71.47805555555556,42.52638888888889],[-71.36583333333333,42.50333333333333],[-71.36583333333333,42.50333333333333],[-71.36583333333333,42.50333333333333],[-71.26083333333334,42.48222222222223],[-71.16666666666667,42.46666666666667],[-71.06472222222222,42.49666666666667],[-71.00944444444444,42.55361111111111],[-71.00944444444444,42.55361111111111],[-70.94833333333334,42.481944444444444],[-70.94833333333334,42.481944444444444],[-70.96944444444445,42.43805555555555],[-71.00416666666666,42.36694444444444]],"type":"LineString"}
}
