{
  "id": 2031519517,
  "type": "Feature",
  "properties": {
    "geom:area": 0,
    "geom:bbox": "-122.380000,27.880000,-81.310000,37.700000",
    "geom:latitude": 32.05781377878737,
    "geom:longitude": -102.08750935512859,
    "src:alt_label": "swim-route",
    "src:geom": "swim",
    "swim:geom": "route",
    "wof:geomhash": "689ae154c17536ce145a807ee139582b",
    "wof:id": 2031519517,
    "wof:repo": "sfomuseum-data-flights-2026-06"
  },
  "bbox": [
    -122.38,
    27.88,
    -81.31,
    37.7
  ],
  "geometry": {"coordinates":[[-81.31,28.43],[-81.35,28.36],[-81.35,28.35],[-81.37,28.35],[-81.4,28.35],[-81.45,28.34],[-81.51,28.34],[-81.54,28.33],[-81.72,28.31],[-81.89,28.29],[-81.91,28.29],[-81.91,28.29],[-81.94,28.28],[-81.95,28.28],[-82,28.27],[-82.02,28.27],[-82.09,28.26],[-82.3,28.22],[-82.44,28.19],[-82.5,28.18],[-82.52,28.17],[-82.63,28.15],[-82.7,28.14],[-82.78,28.12],[-82.89,28.1],[-82.94,28.09],[-83.09,28.06],[-83.24,28.04],[-83.42,28],[-83.71,27.98],[-84.15,27.96],[-85.03,27.9],[-85.26,27.88],[-86.29,28.19],[-86.71,28.31],[-86.92,28.38],[-87.45,28.53],[-88.01,28.65],[-88.24,28.7],[-88.93,28.84],[-90.5,29.14],[-92.38,29.48],[-92.58,29.51],[-92.77,29.55],[-93.16,29.61],[-93.25,29.63],[-93.35,29.65],[-94.89,29.89],[-95.35,29.96],[-95.97,30.06],[-96.22,30.1],[-98.03,30.36],[-99.36,30.54],[-99.82,30.6],[-100.05,30.65],[-100.29,30.7],[-102.2,31.09],[-102.45,31.14],[-103.71,31.37],[-104.21,31.46],[-106.23,31.81],[-106.28,31.82],[-106.87,32.15],[-107.87,32.71],[-108.54,33.08],[-109.69,33.7],[-110.09,33.91],[-110.5,34.12],[-111.13,34.44],[-111.62,34.69],[-112.12,34.94],[-112.85,35.29],[-113.54,35.62],[-114.25,35.82],[-114.55,35.91],[-114.86,36],[-115.52,36.28],[-116.75,36.8],[-117.24,37.25],[-117.52,37.49],[-119.05,37.61],[-119.41,37.64],[-119.53,37.64],[-119.98,37.67],[-120.04,37.68],[-120.26,37.69],[-120.28,37.69],[-120.38,37.7],[-120.4,37.7],[-120.75,37.66],[-120.78,37.66],[-120.83,37.65],[-120.96,37.63],[-121,37.63],[-121.08,37.62],[-121.18,37.6],[-121.26,37.59],[-121.39,37.58],[-121.41,37.58],[-121.6,37.55],[-121.61,37.55],[-121.62,37.55],[-121.7,37.53],[-121.8,37.51],[-121.83,37.5],[-121.88,37.49],[-122.08,37.54],[-122.14,37.56],[-122.18,37.57],[-122.28,37.59],[-122.33,37.61],[-122.36,37.61],[-122.38,37.62]],"type":"LineString"}
}
