{
  "id": 2031537729,
  "type": "Feature",
  "properties": {
    "geom:area": 0,
    "geom:bbox": "-122.356840,37.492510,-121.251400,37.611060",
    "geom:latitude": 37.54345337817006,
    "geom:longitude": -121.81046660930424,
    "src:alt_label": "swim-approach",
    "src:geom": "swim",
    "swim:elevations": [
      4611,
      4502,
      4206,
      3937,
      3687,
      3487,
      3375,
      3238,
      3026,
      2559,
      2500,
      2311,
      2100,
      1899,
      1889,
      1665,
      1536,
      1465,
      1458,
      1146,
      1104,
      1079,
      777,
      584,
      554,
      365,
      321,
      250,
      210,
      116,
      13
    ],
    "swim:geom": "approach",
    "swim:timestamps": [
      1781426876,
      1781426891,
      1781426924,
      1781426954,
      1781426985,
      1781427007,
      1781427031,
      1781427068,
      1781427090,
      1781427140,
      1781427155,
      1781427200,
      1781427235,
      1781427268,
      1781427272,
      1781427321,
      1781427341,
      1781427356,
      1781427360,
      1781427418,
      1781427428,
      1781427432,
      1781427469,
      1781427506,
      1781427516,
      1781427562,
      1781427575,
      1781427594,
      1781427613,
      1781427640,
      1781427664
    ],
    "wof:geomhash": "9415a08242b54f1dcbbc80c2a24284ce",
    "wof:id": 2031537729,
    "wof:repo": "sfomuseum-data-flights-2026-06"
  },
  "bbox": [
    -122.35684,
    37.49251,
    -121.2514,
    37.61106
  ],
  "geometry": {"coordinates":[[-121.2514,37.59504],[-121.28267,37.59078],[-121.34981,37.58328],[-121.4109,37.57628],[-121.47235,37.56929],[-121.51676,37.56405],[-121.56415,37.55847],[-121.63061,37.54982],[-121.66719,37.54114],[-121.74952,37.52149],[-121.7735,37.51583],[-121.84318,37.49909],[-121.89684,37.49251],[-121.94665,37.49699],[-121.95398,37.49757],[-122.02431,37.50343],[-122.05193,37.50565],[-122.07376,37.50732],[-122.07866,37.50773],[-122.15341,37.52551],[-122.16452,37.53021],[-122.16881,37.53206],[-122.20634,37.54793],[-122.24399,37.5637],[-122.25335,37.56766],[-122.28808,37.58218],[-122.29733,37.58603],[-122.31056,37.59164],[-122.32307,37.59689],[-122.34117,37.60447],[-122.35684,37.61106]],"type":"LineString"}
}
