{
  "id": 2031498941,
  "type": "Feature",
  "properties": {
    "geom:area": 0,
    "geom:bbox": "-122.320833,33.942778,-118.450000,37.595833",
    "geom:latitude": 35.573445503835714,
    "geom:longitude": -120.685431398142,
    "src:alt_label": "swim-path",
    "src:geom": "swim",
    "swim:altitudes": [
      "011",
      "011",
      "011",
      "119",
      "145",
      "145",
      "145",
      "145",
      "145",
      "223",
      "223",
      "248",
      "248",
      "248",
      "248",
      "269",
      "269",
      "269",
      "329",
      "329",
      "329",
      "360",
      "360",
      "360",
      "360",
      "380C",
      "380C",
      "380C",
      "380C",
      "380C",
      "380C",
      "380C",
      "380C",
      "380C",
      "380C",
      "380C",
      "380C",
      "380C",
      "369",
      "369",
      "369",
      "369",
      "348",
      "348",
      "348",
      "331",
      "331",
      "314",
      "314",
      "314",
      "280",
      "280",
      "280",
      "280",
      "248",
      "248",
      "228",
      "218",
      "218",
      "218",
      "218",
      "190",
      "190",
      "185",
      "185",
      "168",
      "168",
      "168",
      "168",
      "168",
      "122",
      "122",
      "118",
      "118",
      "118",
      "118",
      "107",
      "107",
      "098",
      "098",
      "098",
      "079",
      "079",
      "068",
      "068",
      "065",
      "065",
      "047",
      "047",
      "047",
      "047",
      "042",
      "037",
      "037",
      "037",
      "032",
      "032",
      "022",
      "022",
      "022",
      "015",
      "015",
      "007",
      "007",
      "007",
      "007"
    ],
    "swim:geom": "path",
    "swim:speeds": [
      164,
      164,
      164,
      339,
      354,
      354,
      354,
      354,
      354,
      391,
      391,
      399,
      399,
      399,
      399,
      407,
      407,
      407,
      431,
      431,
      431,
      421,
      421,
      421,
      421,
      415,
      415,
      415,
      415,
      414,
      402,
      402,
      402,
      402,
      402,
      392,
      392,
      387,
      390,
      390,
      390,
      390,
      397,
      397,
      397,
      398,
      398,
      399,
      399,
      399,
      388,
      388,
      388,
      388,
      362,
      362,
      365,
      360,
      360,
      360,
      360,
      346,
      346,
      348,
      348,
      333,
      333,
      333,
      333,
      333,
      298,
      298,
      300,
      300,
      300,
      300,
      289,
      289,
      257,
      257,
      257,
      257,
      257,
      239,
      239,
      242,
      242,
      237,
      237,
      237,
      237,
      194,
      181,
      181,
      181,
      182,
      182,
      185,
      185,
      185,
      154,
      154,
      147,
      147,
      147,
      147
    ],
    "swim:timestamps": [
      1781105001,
      1781105001,
      1781105001,
      1781105307,
      1781105367,
      1781105367,
      1781105367,
      1781105367,
      1781105367,
      1781105547,
      1781105547,
      1781105608,
      1781105608,
      1781105608,
      1781105608,
      1781105672,
      1781105672,
      1781105672,
      1781105853,
      1781105853,
      1781105853,
      1781105968,
      1781105968,
      1781105968,
      1781105968,
      1781106213,
      1781106213,
      1781106213,
      1781106213,
      1781106269,
      1781106393,
      1781106393,
      1781106393,
      1781106393,
      1781106393,
      1781106449,
      1781106449,
      1781106569,
      1781106689,
      1781106689,
      1781106689,
      1781106689,
      1781106814,
      1781106814,
      1781106814,
      1781106874,
      1781106874,
      1781106934,
      1781106934,
      1781106934,
      1781107054,
      1781107054,
      1781107054,
      1781107054,
      1781107156,
      1781107156,
      1781107276,
      1781107336,
      1781107336,
      1781107336,
      1781107336,
      1781107456,
      1781107456,
      1781107475,
      1781107475,
      1781107535,
      1781107535,
      1781107535,
      1781107535,
      1781107535,
      1781107696,
      1781107696,
      1781107715,
      1781107715,
      1781107715,
      1781107715,
      1781107756,
      1781107756,
      1781107822,
      1781107822,
      1781107822,
      1781107895,
      1781107895,
      1781107942,
      1781107942,
      1781107956,
      1781107956,
      1781108076,
      1781108076,
      1781108076,
      1781108076,
      1781108136,
      1781108182,
      1781108182,
      1781108182,
      1781108242,
      1781108242,
      1781108316,
      1781108316,
      1781108316,
      1781108362,
      1781108362,
      1781108436,
      1781108436,
      1781108436,
      1781108436
    ],
    "wof:geomhash": "fb51fe82da770a8f8c7c324389de59ab",
    "wof:id": 2031498941,
    "wof:repo": "sfomuseum-data-flights-2026-06"
  },
  "bbox": [
    -122.32083333333333,
    33.94277777777778,
    -118.45,
    37.59583333333334
  ],
  "geometry": {"coordinates":[[-118.45,33.95],[-118.45,33.95],[-118.45,33.95],[-118.90194444444445,33.94277777777778],[-118.98972222222223,34.00222222222222],[-118.98972222222223,34.00222222222222],[-118.98972222222223,34.00222222222222],[-118.98972222222223,34.00222222222222],[-118.98972222222223,34.00222222222222],[-119.16972222222223,34.263888888888886],[-119.16972222222223,34.263888888888886],[-119.26888888888888,34.33888888888889],[-119.26888888888888,34.33888888888889],[-119.26888888888888,34.33888888888889],[-119.26888888888888,34.33888888888889],[-119.37833333333333,34.42194444444444],[-119.37833333333333,34.42194444444444],[-119.37833333333333,34.42194444444444],[-119.70444444444445,34.66583333333333],[-119.70444444444445,34.66583333333333],[-119.70444444444445,34.66583333333333],[-119.89194444444445,34.80555555555555],[-119.89194444444445,34.80555555555555],[-119.89194444444445,34.80555555555555],[-119.89194444444445,34.80555555555555],[-120.33638888888889,35.132777777777775],[-120.33638888888889,35.132777777777775],[-120.33638888888889,35.132777777777775],[-120.33638888888889,35.132777777777775],[-120.42777777777778,35.19972222222222],[-120.63,35.346944444444446],[-120.63,35.346944444444446],[-120.63,35.346944444444446],[-120.63,35.346944444444446],[-120.63,35.346944444444446],[-120.73166666666667,35.42111111111111],[-120.73166666666667,35.42111111111111],[-120.9075,35.57944444444445],[-121.06527777777778,35.74916666666667],[-121.06527777777778,35.74916666666667],[-121.06527777777778,35.74916666666667],[-121.06527777777778,35.74916666666667],[-121.2325,35.92833333333333],[-121.2325,35.92833333333333],[-121.2325,35.92833333333333],[-121.31666666666666,36.01722222222222],[-121.31666666666666,36.01722222222222],[-121.39527777777778,36.10777777777778],[-121.39527777777778,36.10777777777778],[-121.39527777777778,36.10777777777778],[-121.62388888888889,36.17972222222222],[-121.62388888888889,36.17972222222222],[-121.62388888888889,36.17972222222222],[-121.62388888888889,36.17972222222222],[-121.85,36.2],[-121.85,36.2],[-121.88333333333334,36.4],[-121.88333333333334,36.5],[-121.88333333333334,36.5],[-121.88333333333334,36.5],[-121.88333333333334,36.5],[-121.9,36.7],[-121.9,36.7],[-121.89361111111111,36.71944444444445],[-121.89361111111111,36.71944444444445],[-121.91361111111112,36.81027777777778],[-121.91361111111112,36.81027777777778],[-121.91361111111112,36.81027777777778],[-121.91361111111112,36.81027777777778],[-121.91361111111112,36.81027777777778],[-121.98333333333333,37.05],[-121.98333333333333,37.05],[-121.99555555555555,37.06083333333333],[-121.99555555555555,37.06083333333333],[-121.99555555555555,37.06083333333333],[-121.99555555555555,37.06083333333333],[-122.03333333333333,37.11666666666667],[-122.03333333333333,37.11666666666667],[-122.11666666666666,37.15],[-122.11666666666666,37.15],[-122.11666666666666,37.15],[-122.19638888888889,37.20416666666667],[-122.19638888888889,37.20416666666667],[-122.2,37.25],[-122.2,37.25],[-122.19722222222222,37.26694444444444],[-122.19722222222222,37.26694444444444],[-122.14416666666668,37.39083333333333],[-122.14416666666668,37.39083333333333],[-122.14416666666668,37.39083333333333],[-122.14416666666668,37.39083333333333],[-122.12416666666665,37.4475],[-122.11666666666666,37.483333333333334],[-122.11666666666666,37.483333333333334],[-122.11666666666666,37.483333333333334],[-122.16666666666667,37.53333333333333],[-122.16666666666667,37.53333333333333],[-122.22444444444444,37.555277777777775],[-122.22444444444444,37.555277777777775],[-122.22444444444444,37.555277777777775],[-122.26666666666667,37.56666666666667],[-122.26666666666667,37.56666666666667],[-122.32083333333333,37.59583333333334],[-122.32083333333333,37.59583333333334],[-122.32083333333333,37.59583333333334],[-122.32083333333333,37.59583333333334]],"type":"LineString"}
}
