{
  "id": 2031483463,
  "type": "Feature",
  "properties": {
    "geom:area": 0,
    "geom:bbox": "-122.716667,37.466667,-87.833333,43.938333",
    "geom:latitude": 41.972004753443485,
    "geom:longitude": -106.2190785559124,
    "src:alt_label": "swim-path",
    "src:geom": "swim",
    "swim:altitudes": [
      "011",
      "029",
      "029",
      "040",
      "049",
      "049",
      "049",
      "085",
      "111",
      "111",
      "149",
      "166",
      "166",
      "183",
      "183",
      "198",
      "225",
      "225",
      "232",
      "232",
      "247",
      "247",
      "268",
      "270",
      "270",
      "277",
      "277",
      "288",
      "291",
      "291",
      "300C",
      "300C",
      "300C",
      "300C",
      "300C",
      "300C",
      "300C",
      "300C",
      "300C",
      "300C",
      "300C",
      "300C",
      "300C",
      "300C",
      "300C",
      "300C",
      "300C",
      "300C",
      "300C",
      "300C",
      "300C",
      "300C",
      "300C",
      "300C",
      "300C",
      "300C",
      "300C",
      "300C",
      "300C",
      "300C",
      "300C",
      "300C",
      "300C",
      "300C",
      "300C",
      "300C",
      "300C",
      "300C",
      "300C",
      "300C",
      "300C",
      "300C",
      "300C",
      "300C",
      "300C",
      "300C",
      "300C",
      "300C",
      "300C",
      "300C",
      "300C",
      "300C",
      "300C",
      "300C",
      "300C",
      "300C",
      "300C",
      "300C",
      "300C",
      "300C",
      "300C",
      "300C",
      "300C",
      "300C",
      "300C",
      "300C",
      "300C",
      "300C",
      "300C",
      "300C",
      "300C",
      "300C",
      "300C",
      "300C",
      "300C",
      "300C",
      "300C",
      "300C",
      "300C",
      "300C",
      "300C",
      "300C",
      "300C",
      "300C",
      "300C",
      "300C",
      "300C",
      "300C",
      "300C",
      "300C",
      "300C",
      "300C",
      "300C",
      "300C",
      "300C",
      "300C",
      "300C",
      "300C",
      "300C",
      "300C",
      "300C",
      "300C",
      "300C",
      "300C",
      "300C",
      "300C",
      "300C",
      "300C",
      "300C",
      "300C",
      "300C",
      "300C",
      "300C",
      "300C",
      "300C",
      "300C",
      "300C",
      "300C",
      "300C",
      "300C",
      "300C",
      "300C",
      "300C",
      "300C",
      "300C",
      "300C",
      "300C",
      "300C",
      "300C",
      "300C",
      "300",
      "336",
      "340C",
      "340C",
      "340C",
      "340C",
      "340C",
      "340C",
      "340C",
      "340C",
      "340C",
      "340C",
      "340C",
      "340C",
      "340C",
      "340C",
      "340C",
      "340C",
      "340C",
      "340C",
      "340C",
      "340C",
      "340C",
      "340C",
      "340C",
      "340",
      "340",
      "340",
      "340",
      "334",
      "275",
      "275",
      "241",
      "206",
      "201",
      "169",
      "152",
      "110",
      "110",
      "110",
      "102",
      "082",
      "082",
      "062",
      "050",
      "042",
      "040",
      "032",
      "026",
      "016",
      "008",
      "007",
      "007"
    ],
    "swim:geom": "path",
    "swim:speeds": [
      182,
      219,
      219,
      223,
      239,
      239,
      239,
      278,
      292,
      292,
      330,
      337,
      337,
      346,
      346,
      357,
      398,
      398,
      421,
      421,
      433,
      433,
      446,
      449,
      449,
      451,
      451,
      452,
      454,
      454,
      452,
      452,
      452,
      452,
      452,
      453,
      454,
      454,
      456,
      456,
      457,
      457,
      457,
      458,
      458,
      458,
      459,
      461,
      464,
      465,
      465,
      465,
      465,
      464,
      464,
      463,
      462,
      462,
      462,
      462,
      461,
      461,
      461,
      461,
      461,
      461,
      462,
      466,
      466,
      466,
      459,
      459,
      459,
      448,
      448,
      448,
      438,
      439,
      439,
      439,
      441,
      441,
      443,
      443,
      446,
      446,
      448,
      448,
      450,
      449,
      449,
      449,
      452,
      458,
      458,
      459,
      458,
      458,
      465,
      468,
      468,
      462,
      462,
      462,
      469,
      465,
      465,
      466,
      466,
      466,
      465,
      463,
      465,
      461,
      459,
      459,
      459,
      456,
      456,
      452,
      452,
      452,
      447,
      431,
      439,
      439,
      439,
      439,
      441,
      441,
      439,
      439,
      439,
      442,
      443,
      443,
      441,
      441,
      451,
      450,
      451,
      450,
      450,
      440,
      440,
      448,
      448,
      455,
      455,
      447,
      444,
      444,
      446,
      446,
      446,
      442,
      442,
      441,
      440,
      440,
      444,
      430,
      430,
      433,
      434,
      435,
      431,
      421,
      397,
      397,
      397,
      405,
      409,
      409,
      408,
      409,
      400,
      398,
      398,
      398,
      397,
      397,
      386,
      386,
      373,
      433,
      434,
      434,
      435,
      435,
      419,
      419,
      416,
      394,
      387,
      390,
      374,
      274,
      274,
      268,
      265,
      254,
      254,
      248,
      222,
      187,
      183,
      182,
      181,
      178,
      149,
      145,
      145
    ],
    "swim:timestamps": [
      1780974536,
      1780974584,
      1780974584,
      1780974638,
      1780974674,
      1780974674,
      1780974674,
      1780974794,
      1780974854,
      1780974854,
      1780974975,
      1780975035,
      1780975035,
      1780975095,
      1780975095,
      1780975155,
      1780975336,
      1780975336,
      1780975396,
      1780975396,
      1780975496,
      1780975496,
      1780975616,
      1780975636,
      1780975636,
      1780975676,
      1780975676,
      1780975736,
      1780975756,
      1780975756,
      1780975816,
      1780975816,
      1780975936,
      1780975976,
      1780975976,
      1780976036,
      1780976057,
      1780976057,
      1780976096,
      1780976117,
      1780976156,
      1780976156,
      1780976237,
      1780976276,
      1780976276,
      1780976298,
      1780976336,
      1780976418,
      1780976538,
      1780976598,
      1780976598,
      1780976697,
      1780976697,
      1780976778,
      1780976778,
      1780976817,
      1780976959,
      1780976959,
      1780977019,
      1780977057,
      1780977079,
      1780977079,
      1780977117,
      1780977117,
      1780977177,
      1780977177,
      1780977358,
      1780977478,
      1780977478,
      1780977478,
      1780977778,
      1780977778,
      1780977778,
      1780978018,
      1780978018,
      1780978018,
      1780978379,
      1780978439,
      1780978439,
      1780978439,
      1780978559,
      1780978559,
      1780978619,
      1780978619,
      1780978679,
      1780978679,
      1780978739,
      1780978739,
      1780978799,
      1780978904,
      1780978904,
      1780978904,
      1780978979,
      1780979084,
      1780979084,
      1780979099,
      1780979144,
      1780979144,
      1780979159,
      1780979207,
      1780979219,
      1780979265,
      1780979265,
      1780979265,
      1780979280,
      1780979445,
      1780979445,
      1780979520,
      1780979520,
      1780979520,
      1780979625,
      1780979640,
      1780979685,
      1780979700,
      1780979760,
      1780979805,
      1780979805,
      1780979820,
      1780979820,
      1780979985,
      1780979985,
      1780979985,
      1780980109,
      1780980226,
      1780980346,
      1780980346,
      1780980406,
      1780980406,
      1780980469,
      1780980469,
      1780980586,
      1780980586,
      1780980649,
      1780980829,
      1780980889,
      1780980889,
      1780980947,
      1780980947,
      1780981367,
      1780981430,
      1780981487,
      1780981610,
      1780981610,
      1780981970,
      1780981970,
      1780982148,
      1780982148,
      1780982448,
      1780982448,
      1780982748,
      1780983169,
      1780983169,
      1780983529,
      1780983529,
      1780983649,
      1780984070,
      1780984070,
      1780984310,
      1780984430,
      1780984490,
      1780984791,
      1780984971,
      1780985031,
      1780985211,
      1780985271,
      1780985391,
      1780985511,
      1780985752,
      1780986233,
      1780986233,
      1780986532,
      1780986653,
      1780986713,
      1780986713,
      1780986774,
      1780986834,
      1780987074,
      1780987134,
      1780987134,
      1780987254,
      1780987314,
      1780987374,
      1780987434,
      1780987434,
      1780987494,
      1780987734,
      1780987794,
      1780987794,
      1780987854,
      1780987914,
      1780988155,
      1780988155,
      1780988275,
      1780988395,
      1780988402,
      1780988522,
      1780988582,
      1780988815,
      1780988815,
      1780988828,
      1780988882,
      1780988942,
      1780988942,
      1780989002,
      1780989122,
      1780989175,
      1780989182,
      1780989235,
      1780989295,
      1780989355,
      1780989415,
      1780989422,
      1780989422
    ],
    "wof:geomhash": "6e760d2c9fa1c47635013fcb8358c04f",
    "wof:id": 2031483463,
    "wof:repo": "sfomuseum-data-flights-2026-06"
  },
  "bbox": [
    -122.71666666666667,
    37.46666666666667,
    -87.83333333333333,
    43.93833333333333
  ],
  "geometry": {"coordinates":[[-87.88333333333334,41.983333333333334],[-87.83333333333333,42],[-87.83333333333333,42],[-87.86666666666666,42.05],[-87.90361111111112,42.06638888888889],[-87.90361111111112,42.06638888888889],[-87.90361111111112,42.06638888888889],[-88.08027777777778,42.09111111111111],[-88.21166666666667,42.10472222222222],[-88.21166666666667,42.10472222222222],[-88.44888888888889,42.144444444444446],[-88.56833333333333,42.169444444444444],[-88.56833333333333,42.169444444444444],[-88.69083333333333,42.195277777777775],[-88.69083333333333,42.195277777777775],[-88.82027777777778,42.220555555555556],[-89.24805555555555,42.215],[-89.24805555555555,42.215],[-89.40305555555557,42.20583333333334],[-89.40305555555557,42.20583333333334],[-89.65972222222223,42.18833333333333],[-89.65972222222223,42.18833333333333],[-90.00222222222222,42.16611111111111],[-90.03416666666666,42.166666666666664],[-90.03416666666666,42.166666666666664],[-90.17222222222223,42.155833333333334],[-90.17222222222223,42.155833333333334],[-90.34083333333332,42.14416666666666],[-90.37333333333332,42.14416666666666],[-90.37333333333332,42.14416666666666],[-90.54166666666667,42.1325],[-90.54166666666667,42.1325],[-90.87944444444443,42.10888888888889],[-91.01083333333334,42.09916666666667],[-91.01083333333334,42.09916666666667],[-91.18277777777779,42.08638888888889],[-91.21805555555555,42.08361111111111],[-91.21805555555555,42.08361111111111],[-91.35277777777777,42.096111111111114],[-91.38555555555556,42.103611111111114],[-91.51638888888888,42.13638888888889],[-91.51638888888888,42.13638888888889],[-91.71388888888889,42.18527777777778],[-91.84416666666667,42.21666666666667],[-91.84416666666667,42.21666666666667],[-91.8761111111111,42.224444444444444],[-92.01,42.256388888888885],[-92.20861111111111,42.30361111111111],[-92.54388888888889,42.382777777777775],[-92.70972222222223,42.421388888888885],[-92.70972222222223,42.421388888888885],[-93.01055555555556,42.490833333333335],[-93.01055555555556,42.490833333333335],[-93.21472222222222,42.51972222222222],[-93.21472222222222,42.51972222222222],[-93.35444444444444,42.53194444444444],[-93.73277777777778,42.56444444444444],[-93.73277777777778,42.56444444444444],[-93.9038888888889,42.57888888888889],[-94.0425,42.59055555555556],[-94.07638888888889,42.593333333333334],[-94.07638888888889,42.593333333333334],[-94.21527777777779,42.60472222222222],[-94.21527777777779,42.60472222222222],[-94.38861111111112,42.61944444444445],[-94.38861111111112,42.61944444444445],[-94.89472222222223,42.66583333333333],[-95.24222222222222,42.69583333333333],[-95.24222222222222,42.69583333333333],[-95.24222222222222,42.69583333333333],[-96.09944444444444,42.765277777777776],[-96.09944444444444,42.765277777777776],[-96.09944444444444,42.765277777777776],[-96.77388888888889,42.815555555555555],[-96.77388888888889,42.815555555555555],[-96.77388888888889,42.815555555555555],[-97.7713888888889,42.8825],[-97.93666666666667,42.89277777777778],[-97.93666666666667,42.89277777777778],[-97.93666666666667,42.89277777777778],[-98.27,42.9125],[-98.27,42.9125],[-98.43916666666667,42.92222222222222],[-98.43916666666667,42.92222222222222],[-98.60722222222222,42.931666666666665],[-98.60722222222222,42.931666666666665],[-98.77777777777777,42.94083333333333],[-98.77777777777777,42.94083333333333],[-98.9475,42.95],[-99.23083333333334,42.96472222222223],[-99.23083333333334,42.96472222222223],[-99.23083333333334,42.96472222222223],[-99.44611111111111,43.00805555555556],[-99.72222222222223,43.08583333333333],[-99.72222222222223,43.08583333333333],[-99.78972222222222,43.106944444444444],[-99.8863888888889,43.13305555555556],[-99.8863888888889,43.13305555555556],[-99.95361111111112,43.153888888888886],[-100.08694444444444,43.19194444444444],[-100.11916666666666,43.20138888888889],[-100.23222222222222,43.23416666666667],[-100.23222222222222,43.23416666666667],[-100.23222222222222,43.23416666666667],[-100.28916666666666,43.24916666666667],[-100.73111111111112,43.37305555555555],[-100.73111111111112,43.37305555555555],[-100.95361111111112,43.43416666666666],[-100.95361111111112,43.43416666666666],[-100.95361111111112,43.43416666666666],[-101.22611111111111,43.5075],[-101.28527777777778,43.52472222222222],[-101.39055555555557,43.552499999999995],[-101.45055555555555,43.56916666666667],[-101.61222222222221,43.61277777777778],[-101.71694444444445,43.63916666666667],[-101.71694444444445,43.63916666666667],[-101.77638888888889,43.656388888888884],[-101.77638888888889,43.656388888888884],[-102.2,43.76583333333333],[-102.2,43.76583333333333],[-102.2,43.76583333333333],[-102.55583333333333,43.86027777777778],[-102.83944444444444,43.93222222222222],[-103.16250000000001,43.93833333333333],[-103.16250000000001,43.93833333333333],[-103.32055555555556,43.89833333333333],[-103.32055555555556,43.89833333333333],[-103.51222222222222,43.84805555555556],[-103.51222222222222,43.84805555555556],[-103.79305555555555,43.77388888888889],[-103.79305555555555,43.77388888888889],[-103.98472222222222,43.724722222222226],[-104.46277777777777,43.597500000000004],[-104.61888888888888,43.555277777777775],[-104.61888888888888,43.555277777777775],[-104.74388888888889,43.52166666666667],[-104.74388888888889,43.52166666666667],[-105.93277777777779,43.27916666666667],[-106.10055555555554,43.257222222222225],[-106.26805555555555,43.23527777777778],[-106.60472222222222,43.18833333333333],[-106.60472222222222,43.18833333333333],[-107.58472222222221,43.04555555555555],[-107.58472222222221,43.04555555555555],[-108.08333333333333,42.96944444444445],[-108.08333333333333,42.96944444444445],[-108.9063888888889,42.83861111111111],[-108.9063888888889,42.83861111111111],[-109.76694444444445,42.69472222222222],[-110.89833333333334,42.49472222222222],[-110.89833333333334,42.49472222222222],[-111.85055555555554,42.31666666666667],[-111.85055555555554,42.31666666666667],[-112.17361111111111,42.254444444444445],[-113.29638888888888,41.965833333333336],[-113.29638888888888,41.965833333333336],[-113.9075,41.791666666666664],[-114.21055555555556,41.703611111111115],[-114.36166666666666,41.659444444444446],[-115.11527777777778,41.434999999999995],[-115.56166666666667,41.29861111111111],[-115.70833333333334,41.25333333333333],[-116.14972222222222,41.115833333333335],[-116.2975,41.06916666666667],[-116.5911111111111,40.976111111111116],[-116.87972222222221,40.88333333333333],[-117.44222222222223,40.69472222222222],[-118.51333333333334,40.314166666666665],[-118.51333333333334,40.314166666666665],[-119.18333333333334,40.06861111111112],[-119.44611111111111,39.97083333333334],[-119.58083333333333,39.92027777777778],[-119.58083333333333,39.92027777777778],[-119.71361111111112,39.87027777777778],[-119.845,39.82055555555556],[-120.36944444444444,39.63916666666667],[-120.5125,39.63638888888889],[-120.5125,39.63638888888889],[-120.79722222222222,39.62888888888889],[-120.93944444444445,39.624722222222225],[-121.08194444444445,39.620555555555555],[-121.24638888888889,39.61555555555556],[-121.24638888888889,39.61555555555556],[-121.38138888888888,39.61138888888889],[-121.80611111111111,39.41138888888889],[-121.89055555555557,39.308611111111105],[-121.89055555555557,39.308611111111105],[-121.97361111111111,39.20805555555556],[-122.05749999999999,39.10583333333334],[-122.40472222222223,38.67805555555555],[-122.40472222222223,38.67805555555555],[-122.55305555555556,38.493611111111115],[-122.70166666666667,38.3075],[-122.71666666666667,38.28333333333333],[-122.71666666666667,38.083333333333336],[-122.7,37.96666666666667],[-122.43833333333333,37.67833333333333],[-122.43833333333333,37.67833333333333],[-122.41666666666667,37.666666666666664],[-122.36666666666666,37.61666666666667],[-122.31666666666666,37.55],[-122.31666666666666,37.55],[-122.26666666666667,37.5],[-122.11666666666666,37.46666666666667],[-122.11527777777778,37.49944444444444],[-122.11666666666666,37.5],[-122.16194444444444,37.53111111111111],[-122.21694444444445,37.55444444444444],[-122.27166666666666,37.5775],[-122.31833333333333,37.59722222222222],[-122.33333333333333,37.6],[-122.33333333333333,37.6]],"type":"LineString"}
}
