{
  "id": 2031681759,
  "type": "Feature",
  "properties": {
    "geom:area": 0,
    "geom:bbox": "-122.343670,37.492590,-121.245950,37.607870",
    "geom:latitude": 37.542203896331756,
    "geom:longitude": -121.80155898859688,
    "src:alt_label": "swim-approach",
    "src:geom": "swim",
    "swim:elevations": [
      4777,
      4603,
      4432,
      3970,
      3599,
      3385,
      3248,
      3086,
      2950,
      2834,
      2562,
      2315,
      2281,
      2119,
      1904,
      1781,
      1623,
      1528,
      1395,
      1244,
      1117,
      992,
      686,
      664,
      395,
      291,
      169,
      100
    ],
    "swim:geom": "approach",
    "swim:timestamps": [
      1782813267,
      1782813283,
      1782813303,
      1782813349,
      1782813387,
      1782813410,
      1782813445,
      1782813475,
      1782813498,
      1782813519,
      1782813560,
      1782813595,
      1782813600,
      1782813636,
      1782813669,
      1782813704,
      1782813731,
      1782813747,
      1782813771,
      1782813795,
      1782813814,
      1782813842,
      1782813895,
      1782813902,
      1782813952,
      1782813975,
      1782814004,
      1782814023
    ],
    "wof:geomhash": "3fb3ae0059a07504d986b4ac90a58c2b",
    "wof:id": 2031681759,
    "wof:repo": "sfomuseum-data-flights-2026-06"
  },
  "bbox": [
    -122.34367,
    37.49259,
    -121.24595,
    37.60787
  ],
  "geometry": {"coordinates":[[-121.24595,37.59496],[-121.27904,37.59046],[-121.31968,37.58576],[-121.4108,37.57574],[-121.48474,37.56716],[-121.52908,37.56208],[-121.59342,37.55449],[-121.64626,37.54558],[-121.6842,37.53639],[-121.71877,37.52818],[-121.78345,37.51279],[-121.83659,37.50003],[-121.8447,37.49806],[-121.90089,37.49259],[-121.95133,37.49536],[-122.00187,37.49816],[-122.03937,37.50031],[-122.061,37.50158],[-122.09214,37.50387],[-122.1209,37.51441],[-122.14216,37.52321],[-122.17468,37.53678],[-122.2313,37.56061],[-122.23817,37.56358],[-122.28714,37.58415],[-122.30804,37.59293],[-122.3299,37.60211],[-122.34367,37.60787]],"type":"LineString"}
}
