{
  "id": 2031471619,
  "type": "Feature",
  "properties": {
    "geom:area": 0,
    "geom:bbox": "-122.754722,37.483333,-81.881944,46.800556",
    "geom:latitude": 43.30195698574103,
    "geom:longitude": -103.12512484601655,
    "src:alt_label": "swim-path",
    "src:geom": "swim",
    "swim:altitudes": [
      "360C",
      "360C",
      "360C",
      "360C",
      "360C",
      "360C",
      "360C",
      "360C",
      "360C",
      "360C",
      "360C",
      "360C",
      "360C",
      "360C",
      "360C",
      "360C",
      "360C",
      "360C",
      "360C",
      "360C",
      "360C",
      "360C",
      "360C",
      "360C",
      "360C",
      "360C",
      "360C",
      "360C",
      "360C",
      "360C",
      "360C",
      "360C",
      "360C",
      "360C",
      "360C",
      "360C",
      "360C",
      "360C",
      "360C",
      "360C",
      "360C",
      "360C",
      "360C",
      "360C",
      "360C",
      "360C",
      "360C",
      "360C",
      "360C",
      "360C",
      "360C",
      "360C",
      "360C",
      "360C",
      "360C",
      "360C",
      "360C",
      "360C",
      "360C",
      "360C",
      "360C",
      "360C",
      "360C",
      "360C",
      "360C",
      "360C",
      "360C",
      "380C",
      "380C",
      "380C",
      "380C",
      "380C",
      "380C",
      "380C",
      "380C",
      "380C",
      "380C",
      "380C",
      "380C",
      "380C",
      "380C",
      "380C",
      "380C",
      "380C",
      "380C",
      "380C",
      "380C",
      "380C",
      "380C",
      "380C",
      "380C",
      "380C",
      "380C",
      "380C",
      "380C",
      "380C",
      "380C",
      "380C",
      "380C",
      "380C",
      "380C",
      "380C",
      "380C",
      "380C",
      "380C",
      "380C",
      "380C",
      "380C",
      "380C",
      "380C",
      "380C",
      "380C",
      "380C",
      "380C",
      "380C",
      "380C",
      "380C",
      "380C",
      "380C",
      "380C",
      "380C",
      "380C",
      "380C",
      "380C",
      "380C",
      "380C",
      "380C",
      "380C",
      "380C",
      "380C",
      "380C",
      "380C",
      "380C",
      "380C",
      "380C",
      "380C",
      "380C",
      "380C",
      "380C",
      "380C",
      "380C",
      "380C",
      "380C",
      "380C",
      "380C",
      "380C",
      "380C",
      "380C",
      "380C",
      "380C",
      "380C",
      "380C",
      "380C",
      "380C",
      "380C",
      "380C",
      "380C",
      "380C",
      "380C",
      "380C",
      "380C",
      "380C",
      "380C",
      "380C",
      "380C",
      "380C",
      "380C",
      "380C",
      "380C",
      "380C",
      "380C",
      "380C",
      "380C",
      "380C",
      "380C",
      "380C",
      "380C",
      "380C",
      "380C",
      "380C",
      "380C",
      "380C",
      "380C",
      "380C",
      "380C",
      "380C",
      "380C",
      "380C",
      "380C",
      "380C",
      "380C",
      "380C",
      "380C",
      "380C",
      "380C",
      "380C",
      "380C",
      "380C",
      "380C",
      "380C",
      "380C",
      "380C",
      "380C",
      "380C",
      "380C",
      "380C",
      "380C",
      "380C",
      "380C",
      "380C",
      "380C",
      "380C",
      "380C",
      "380C",
      "380C",
      "380C",
      "380C",
      "380C",
      "380C",
      "380C",
      "380C",
      "380C",
      "380C",
      "380C",
      "380C",
      "380C",
      "380C",
      "380C",
      "380C",
      "380C",
      "380C",
      "380C",
      "380C",
      "380C",
      "380C",
      "380C",
      "380C",
      "380C",
      "380C",
      "380C",
      "380C",
      "380C",
      "380C",
      "380C",
      "380C",
      "380C",
      "380C",
      "380C",
      "380C",
      "380C",
      "380C",
      "380C",
      "380C",
      "380C",
      "380C",
      "380C",
      "380C",
      "380C",
      "380C",
      "380C",
      "380C",
      "380C",
      "380C",
      "380C",
      "380C",
      "380C",
      "380C",
      "380C",
      "380C",
      "380C",
      "380C",
      "380C",
      "380C",
      "380C",
      "380C",
      "380C",
      "380C",
      "380C",
      "380C",
      "380C",
      "380C",
      "380C",
      "380C",
      "380C",
      "380C",
      "380C",
      "380C",
      "380C",
      "380C",
      "380C",
      "380C",
      "380C",
      "380C",
      "380C",
      "380C",
      "380C",
      "380C",
      "380C",
      "380C",
      "380C",
      "380C",
      "380C",
      "380C",
      "380C",
      "380C",
      "380C",
      "380C",
      "380C",
      "380C",
      "380C",
      "380C",
      "380C",
      "380C",
      "380C",
      "380C",
      "380C",
      "380C",
      "380C",
      "380C",
      "380C",
      "380C",
      "380C",
      "380C",
      "380C",
      "380C",
      "380C",
      "380C",
      "380C",
      "380C",
      "380C",
      "380C",
      "380C",
      "380C",
      "380C",
      "380C",
      "380C",
      "380C",
      "380C",
      "380C",
      "380C",
      "380C",
      "380C",
      "380C",
      "380C",
      "380C",
      "380C",
      "380C",
      "380C",
      "380C",
      "380C",
      "380C",
      "380C",
      "380C",
      "380C",
      "380C",
      "380C",
      "380C",
      "380C",
      "380C",
      "380C",
      "380C",
      "380C",
      "380C",
      "380C",
      "380C",
      "380C",
      "380C",
      "380C",
      "380C",
      "380C",
      "380C",
      "380C",
      "380C",
      "380C",
      "380C",
      "380C",
      "380C",
      "380",
      "380",
      "380",
      "380C",
      "380C",
      "380C",
      "380C",
      "380C",
      "380C",
      "380C",
      "380C",
      "380C",
      "380C",
      "380C",
      "380C",
      "380C",
      "380",
      "380",
      "380",
      "380",
      "380",
      "380",
      "380",
      "366",
      "350",
      "350",
      "350",
      "309",
      "309",
      "266",
      "266",
      "266",
      "266",
      "202",
      "202",
      "180",
      "180",
      "180",
      "163",
      "163",
      "159",
      "159",
      "143",
      "143",
      "123",
      "122",
      "110C",
      "111C",
      "111C",
      "111C",
      "088",
      "044",
      "044",
      "044",
      "044",
      "026",
      "016",
      "002",
      "002"
    ],
    "swim:geom": "path",
    "swim:speeds": [
      456,
      456,
      456,
      456,
      456,
      450,
      450,
      450,
      450,
      450,
      447,
      447,
      447,
      447,
      447,
      446,
      446,
      446,
      446,
      446,
      446,
      446,
      445,
      445,
      445,
      444,
      442,
      442,
      442,
      438,
      438,
      438,
      428,
      428,
      428,
      427,
      427,
      427,
      427,
      420,
      420,
      420,
      420,
      420,
      417,
      417,
      417,
      418,
      418,
      418,
      420,
      420,
      420,
      420,
      420,
      425,
      425,
      427,
      427,
      427,
      429,
      429,
      431,
      431,
      432,
      432,
      432,
      417,
      417,
      417,
      418,
      418,
      420,
      420,
      420,
      420,
      425,
      425,
      425,
      424,
      424,
      425,
      425,
      423,
      423,
      423,
      429,
      429,
      432,
      432,
      436,
      436,
      436,
      436,
      437,
      437,
      437,
      437,
      437,
      437,
      437,
      437,
      437,
      439,
      441,
      441,
      441,
      441,
      442,
      442,
      442,
      442,
      439,
      439,
      439,
      439,
      438,
      440,
      440,
      440,
      440,
      442,
      442,
      442,
      442,
      435,
      432,
      432,
      425,
      425,
      425,
      422,
      416,
      425,
      421,
      420,
      420,
      420,
      424,
      424,
      423,
      424,
      424,
      424,
      424,
      423,
      423,
      424,
      424,
      424,
      424,
      424,
      424,
      423,
      423,
      423,
      423,
      423,
      424,
      423,
      423,
      423,
      424,
      425,
      426,
      428,
      428,
      428,
      427,
      427,
      428,
      428,
      429,
      429,
      429,
      430,
      428,
      428,
      428,
      427,
      427,
      427,
      429,
      429,
      421,
      421,
      421,
      421,
      413,
      413,
      413,
      412,
      411,
      409,
      409,
      409,
      408,
      408,
      408,
      411,
      411,
      412,
      412,
      412,
      422,
      422,
      431,
      437,
      437,
      439,
      439,
      437,
      437,
      437,
      437,
      436,
      434,
      434,
      434,
      429,
      430,
      430,
      430,
      430,
      422,
      420,
      420,
      421,
      421,
      419,
      419,
      419,
      417,
      416,
      416,
      417,
      416,
      416,
      416,
      416,
      417,
      411,
      411,
      409,
      409,
      409,
      409,
      409,
      409,
      409,
      418,
      418,
      418,
      420,
      420,
      420,
      420,
      420,
      420,
      420,
      420,
      419,
      420,
      420,
      420,
      420,
      420,
      421,
      422,
      422,
      424,
      424,
      424,
      424,
      424,
      423,
      423,
      423,
      421,
      420,
      420,
      415,
      415,
      415,
      415,
      421,
      421,
      422,
      422,
      422,
      421,
      421,
      421,
      421,
      410,
      410,
      408,
      408,
      411,
      411,
      408,
      408,
      403,
      403,
      403,
      400,
      400,
      399,
      399,
      399,
      411,
      411,
      411,
      413,
      413,
      414,
      416,
      416,
      416,
      416,
      412,
      410,
      410,
      407,
      408,
      408,
      402,
      402,
      402,
      397,
      397,
      397,
      395,
      395,
      395,
      397,
      397,
      397,
      399,
      399,
      399,
      400,
      401,
      401,
      401,
      400,
      400,
      400,
      399,
      399,
      399,
      399,
      401,
      401,
      405,
      405,
      405,
      406,
      406,
      409,
      409,
      409,
      416,
      416,
      417,
      417,
      418,
      418,
      418,
      418,
      418,
      418,
      418,
      418,
      418,
      418,
      418,
      418,
      418,
      418,
      414,
      414,
      414,
      413,
      413,
      413,
      414,
      414,
      425,
      425,
      430,
      430,
      430,
      432,
      432,
      432,
      434,
      434,
      434,
      434,
      435,
      430,
      430,
      430,
      426,
      426,
      425,
      425,
      425,
      425,
      397,
      397,
      397,
      397,
      397,
      381,
      381,
      384,
      384,
      363,
      363,
      355,
      359,
      285,
      282,
      282,
      282,
      261,
      202,
      202,
      202,
      202,
      175,
      176,
      137,
      137
    ],
    "swim:timestamps": [
      1780874494,
      1780874494,
      1780874494,
      1780874494,
      1780874494,
      1780874807,
      1780874807,
      1780874807,
      1780874867,
      1780874867,
      1780875047,
      1780875047,
      1780875047,
      1780875047,
      1780875047,
      1780875408,
      1780875408,
      1780875408,
      1780875408,
      1780875408,
      1780875528,
      1780875528,
      1780875588,
      1780875588,
      1780875588,
      1780875648,
      1780875708,
      1780875708,
      1780875708,
      1780875768,
      1780875768,
      1780875768,
      1780876069,
      1780876069,
      1780876069,
      1780876129,
      1780876129,
      1780876129,
      1780876129,
      1780876369,
      1780876369,
      1780876369,
      1780876369,
      1780876369,
      1780876489,
      1780876489,
      1780876489,
      1780876549,
      1780876549,
      1780876549,
      1780876670,
      1780876670,
      1780876670,
      1780876670,
      1780876670,
      1780876910,
      1780876910,
      1780877030,
      1780877030,
      1780877030,
      1780877150,
      1780877150,
      1780877210,
      1780877210,
      1780877270,
      1780877270,
      1780877270,
      1780877691,
      1780877691,
      1780877691,
      1780877811,
      1780877811,
      1780877931,
      1780877931,
      1780877931,
      1780877931,
      1780878051,
      1780878051,
      1780878051,
      1780878172,
      1780878172,
      1780878232,
      1780878232,
      1780878592,
      1780878592,
      1780878592,
      1780878772,
      1780878772,
      1780878833,
      1780878833,
      1780878953,
      1780878953,
      1780878953,
      1780878953,
      1780879013,
      1780879013,
      1780879133,
      1780879133,
      1780879133,
      1780879133,
      1780879193,
      1780879193,
      1780879193,
      1780879253,
      1780879373,
      1780879373,
      1780879373,
      1780879373,
      1780879433,
      1780879433,
      1780879433,
      1780879433,
      1780879734,
      1780879734,
      1780879734,
      1780879734,
      1780879914,
      1780879974,
      1780879974,
      1780879974,
      1780879974,
      1780880154,
      1780880154,
      1780880154,
      1780880154,
      1780880515,
      1780880635,
      1780880635,
      1780880695,
      1780880695,
      1780880695,
      1780880815,
      1780880849,
      1780880899,
      1780880935,
      1780880996,
      1780880996,
      1780880996,
      1780881079,
      1780881079,
      1780881176,
      1780881209,
      1780881209,
      1780881236,
      1780881236,
      1780881259,
      1780881259,
      1780881296,
      1780881296,
      1780881440,
      1780881440,
      1780881500,
      1780881500,
      1780881620,
      1780881630,
      1780881656,
      1780881656,
      1780881656,
      1780881680,
      1780881690,
      1780881690,
      1780881717,
      1780881740,
      1780881810,
      1780881837,
      1780881870,
      1780881870,
      1780881870,
      1780881897,
      1780881897,
      1780881920,
      1780881920,
      1780882050,
      1780882050,
      1780882050,
      1780882101,
      1780882137,
      1780882137,
      1780882137,
      1780882170,
      1780882197,
      1780882197,
      1780882221,
      1780882221,
      1780882351,
      1780882351,
      1780882351,
      1780882351,
      1780882591,
      1780882591,
      1780882591,
      1780882641,
      1780882651,
      1780882701,
      1780882701,
      1780882701,
      1780882771,
      1780882822,
      1780882822,
      1780882831,
      1780882831,
      1780882891,
      1780882891,
      1780882891,
      1780883002,
      1780883002,
      1780883062,
      1780883072,
      1780883072,
      1780883132,
      1780883132,
      1780883182,
      1780883182,
      1780883182,
      1780883242,
      1780883252,
      1780883312,
      1780883312,
      1780883312,
      1780883372,
      1780883422,
      1780883422,
      1780883422,
      1780883422,
      1780883492,
      1780883542,
      1780883542,
      1780883552,
      1780883552,
      1780883663,
      1780883663,
      1780883663,
      1780883673,
      1780883733,
      1780883733,
      1780883843,
      1780883853,
      1780883853,
      1780883853,
      1780883853,
      1780883903,
      1780883913,
      1780883913,
      1780883973,
      1780883973,
      1780884023,
      1780884023,
      1780884033,
      1780884093,
      1780884093,
      1780884143,
      1780884143,
      1780884143,
      1780884263,
      1780884263,
      1780884273,
      1780884324,
      1780884324,
      1780884384,
      1780884384,
      1780884384,
      1780884454,
      1780884564,
      1780884574,
      1780884574,
      1780884624,
      1780884624,
      1780884684,
      1780884744,
      1780884744,
      1780884804,
      1780884804,
      1780884924,
      1780884934,
      1780884934,
      1780884994,
      1780884994,
      1780884994,
      1780885044,
      1780885105,
      1780885105,
      1780885225,
      1780885225,
      1780885225,
      1780885225,
      1780885585,
      1780885585,
      1780885645,
      1780885645,
      1780885645,
      1780885886,
      1780885886,
      1780885946,
      1780885946,
      1780886066,
      1780886066,
      1780886126,
      1780886126,
      1780886426,
      1780886426,
      1780886486,
      1780886486,
      1780886546,
      1780886546,
      1780886546,
      1780886607,
      1780886607,
      1780886667,
      1780886667,
      1780886667,
      1780886967,
      1780886967,
      1780886967,
      1780887087,
      1780887087,
      1780887147,
      1780887207,
      1780887328,
      1780887328,
      1780887328,
      1780887448,
      1780887508,
      1780887508,
      1780887568,
      1780887583,
      1780887583,
      1780887643,
      1780887643,
      1780887643,
      1780887763,
      1780887763,
      1780887763,
      1780887808,
      1780887808,
      1780887868,
      1780887944,
      1780887944,
      1780887944,
      1780888229,
      1780888244,
      1780888244,
      1780888304,
      1780888364,
      1780888364,
      1780888364,
      1780888409,
      1780888409,
      1780888409,
      1780888529,
      1780888529,
      1780888529,
      1780888589,
      1780888649,
      1780888649,
      1780888724,
      1780888724,
      1780888724,
      1780888769,
      1780888769,
      1780888830,
      1780888830,
      1780888830,
      1780888950,
      1780888950,
      1780889025,
      1780889025,
      1780889070,
      1780889130,
      1780889130,
      1780889145,
      1780889145,
      1780889250,
      1780889265,
      1780889265,
      1780889265,
      1780889325,
      1780889325,
      1780889370,
      1780889370,
      1780889370,
      1780889805,
      1780889805,
      1780889805,
      1780889926,
      1780889926,
      1780889926,
      1780890046,
      1780890046,
      1780890106,
      1780890106,
      1780890226,
      1780890226,
      1780890226,
      1780890346,
      1780890346,
      1780890346,
      1780890406,
      1780890406,
      1780890406,
      1780890406,
      1780890526,
      1780890586,
      1780890586,
      1780890586,
      1780890706,
      1780890706,
      1780890826,
      1780890826,
      1780890826,
      1780890826,
      1780891007,
      1780891007,
      1780891067,
      1780891067,
      1780891067,
      1780891115,
      1780891115,
      1780891127,
      1780891127,
      1780891175,
      1780891175,
      1780891235,
      1780891247,
      1780891367,
      1780891427,
      1780891427,
      1780891427,
      1780891547,
      1780891716,
      1780891716,
      1780891716,
      1780891716,
      1780891836,
      1780891908,
      1780892016,
      1780892016
    ],
    "wof:geomhash": "24738f736701c6db3cc63e055f2b9338",
    "wof:id": 2031471619,
    "wof:repo": "sfomuseum-data-flights-2026-06"
  },
  "bbox": [
    -122.75472222222223,
    37.483333333333334,
    -81.88194444444444,
    46.800555555555555
  ],
  "geometry": {"coordinates":[[-81.88194444444444,46.42027777777778],[-81.88194444444444,46.42027777777778],[-81.88194444444444,46.42027777777778],[-81.88194444444444,46.42027777777778],[-81.88194444444444,46.42027777777778],[-82.8261111111111,46.419444444444444],[-82.8261111111111,46.419444444444444],[-82.8261111111111,46.419444444444444],[-83.00472222222223,46.419444444444444],[-83.00472222222223,46.419444444444444],[-83.5436111111111,46.418055555555554],[-83.5436111111111,46.418055555555554],[-83.5436111111111,46.418055555555554],[-83.5436111111111,46.418055555555554],[-83.5436111111111,46.418055555555554],[-84.61583333333333,46.43694444444444],[-84.61583333333333,46.43694444444444],[-84.61583333333333,46.43694444444444],[-84.61583333333333,46.43694444444444],[-84.61583333333333,46.43694444444444],[-84.97166666666666,46.46555555555556],[-84.97166666666666,46.46555555555556],[-85.14777777777779,46.47944444444445],[-85.14777777777779,46.47944444444445],[-85.14777777777779,46.47944444444445],[-85.32555555555555,46.49277777777778],[-85.50194444444445,46.50611111111111],[-85.50194444444445,46.50611111111111],[-85.50194444444445,46.50611111111111],[-85.6738888888889,46.51861111111111],[-85.6738888888889,46.51861111111111],[-85.6738888888889,46.51861111111111],[-86.52777777777777,46.577222222222225],[-86.52777777777777,46.577222222222225],[-86.52777777777777,46.577222222222225],[-86.69888888888889,46.588055555555556],[-86.69888888888889,46.588055555555556],[-86.69888888888889,46.588055555555556],[-86.69888888888889,46.588055555555556],[-87.37194444444444,46.62861111111111],[-87.37194444444444,46.62861111111111],[-87.37194444444444,46.62861111111111],[-87.37194444444444,46.62861111111111],[-87.37194444444444,46.62861111111111],[-87.70694444444445,46.64722222222222],[-87.70694444444445,46.64722222222222],[-87.70694444444445,46.64722222222222],[-87.88416666666667,46.656666666666666],[-87.88416666666667,46.656666666666666],[-87.88416666666667,46.656666666666666],[-88.2213888888889,46.674166666666665],[-88.2213888888889,46.674166666666665],[-88.2213888888889,46.674166666666665],[-88.2213888888889,46.674166666666665],[-88.2213888888889,46.674166666666665],[-88.9025,46.705555555555556],[-88.9025,46.705555555555556],[-89.24861111111112,46.72027777777778],[-89.24861111111112,46.72027777777778],[-89.24861111111112,46.72027777777778],[-89.59305555555555,46.73388888888889],[-89.59305555555555,46.73388888888889],[-89.76611111111112,46.74027777777778],[-89.76611111111112,46.74027777777778],[-89.94194444444445,46.74638888888889],[-89.94194444444445,46.74638888888889],[-89.94194444444445,46.74638888888889],[-91.14055555555557,46.78138888888889],[-91.14055555555557,46.78138888888889],[-91.14055555555557,46.78138888888889],[-91.49027777777778,46.78944444444444],[-91.49027777777778,46.78944444444444],[-91.83138888888888,46.79611111111111],[-91.83138888888888,46.79611111111111],[-91.83138888888888,46.79611111111111],[-91.83138888888888,46.79611111111111],[-92.17750000000001,46.800555555555555],[-92.17750000000001,46.800555555555555],[-92.17750000000001,46.800555555555555],[-92.51083333333334,46.742222222222225],[-92.51083333333334,46.742222222222225],[-92.67833333333334,46.70944444444445],[-92.67833333333334,46.70944444444445],[-93.66194444444444,46.510555555555555],[-93.66194444444444,46.510555555555555],[-93.66194444444444,46.510555555555555],[-94.15972222222223,46.40611111111111],[-94.15972222222223,46.40611111111111],[-94.32694444444444,46.37027777777778],[-94.32694444444444,46.37027777777778],[-94.6613888888889,46.29805555555556],[-94.6613888888889,46.29805555555556],[-94.6613888888889,46.29805555555556],[-94.6613888888889,46.29805555555556],[-94.82972222222222,46.26138888888889],[-94.82972222222222,46.26138888888889],[-95.14500000000001,46.19138888888889],[-95.14500000000001,46.19138888888889],[-95.14500000000001,46.19138888888889],[-95.14500000000001,46.19138888888889],[-95.31,46.154444444444444],[-95.31,46.154444444444444],[-95.31,46.154444444444444],[-95.47833333333334,46.11666666666667],[-95.81416666666667,46.04],[-95.81416666666667,46.04],[-95.81416666666667,46.04],[-95.81416666666667,46.04],[-95.98138888888889,46.00138888888889],[-95.98138888888889,46.00138888888889],[-95.98138888888889,46.00138888888889],[-95.98138888888889,46.00138888888889],[-96.80611111111111,45.806666666666665],[-96.80611111111111,45.806666666666665],[-96.80611111111111,45.806666666666665],[-96.80611111111111,45.806666666666665],[-97.29638888888888,45.6875],[-97.46111111111111,45.64666666666667],[-97.46111111111111,45.64666666666667],[-97.46111111111111,45.64666666666667],[-97.46111111111111,45.64666666666667],[-97.98972222222223,45.51444444444444],[-97.98972222222223,45.51444444444444],[-97.98972222222223,45.51444444444444],[-97.98972222222223,45.51444444444444],[-98.98583333333333,45.33111111111111],[-99.31527777777778,45.28361111111111],[-99.31527777777778,45.28361111111111],[-99.4588888888889,45.22694444444445],[-99.4588888888889,45.22694444444445],[-99.4588888888889,45.22694444444445],[-99.66722222222222,45.04333333333333],[-99.70472222222223,45.007222222222225],[-99.79638888888888,44.92638888888889],[-99.85555555555555,44.87583333333333],[-99.95777777777778,44.784166666666664],[-99.95777777777778,44.784166666666664],[-99.95777777777778,44.784166666666664],[-100.10416666666666,44.65222222222222],[-100.10416666666666,44.65222222222222],[-100.26555555555555,44.50666666666667],[-100.32805555555555,44.44972222222222],[-100.32805555555555,44.44972222222222],[-100.36749999999999,44.413888888888884],[-100.36749999999999,44.413888888888884],[-100.4075,44.376666666666665],[-100.4075,44.376666666666665],[-100.47027777777778,44.32],[-100.47027777777778,44.32],[-100.71555555555555,44.08972222222222],[-100.71555555555555,44.08972222222222],[-100.81583333333333,43.995555555555555],[-100.81583333333333,43.995555555555555],[-101.01416666666667,43.81027777777778],[-101.03166666666667,43.80027777777777],[-101.07166666666666,43.76277777777778],[-101.07166666666666,43.76277777777778],[-101.07166666666666,43.76277777777778],[-101.11555555555555,43.717777777777776],[-101.13166666666666,43.70638888888889],[-101.13166666666666,43.70638888888889],[-101.17083333333333,43.669444444444444],[-101.21416666666667,43.62361111111111],[-101.33055555555555,43.51861111111111],[-101.37027777777777,43.48083333333334],[-101.42944444444444,43.42472222222222],[-101.42944444444444,43.42472222222222],[-101.42944444444444,43.42472222222222],[-101.45,43.405],[-101.45,43.405],[-101.51305555555555,43.33861111111111],[-101.51305555555555,43.33861111111111],[-101.7625,43.16138888888889],[-101.7625,43.16138888888889],[-101.7625,43.16138888888889],[-101.86027777777777,43.08694444444445],[-101.92416666666666,43.04527777777778],[-101.92416666666666,43.04527777777778],[-101.92416666666666,43.04527777777778],[-102.00027777777778,42.99055555555556],[-102.03972222222222,42.96194444444445],[-102.03972222222222,42.96194444444445],[-102.09083333333332,42.92027777777778],[-102.09083333333332,42.92027777777778],[-102.34083333333332,42.744166666666665],[-102.34083333333332,42.744166666666665],[-102.34083333333332,42.744166666666665],[-102.34083333333332,42.744166666666665],[-102.78416666666666,42.41777777777777],[-102.78416666666666,42.41777777777777],[-102.78416666666666,42.41777777777777],[-102.87027777777777,42.35111111111111],[-102.89083333333333,42.33833333333334],[-102.97805555555556,42.2725],[-102.97805555555556,42.2725],[-102.97805555555556,42.2725],[-103.10666666666665,42.17722222222222],[-103.19305555555556,42.11055555555556],[-103.19305555555556,42.11055555555556],[-103.21638888888889,42.095],[-103.21638888888889,42.095],[-103.325,42.0125],[-103.325,42.0125],[-103.325,42.0125],[-103.54638888888888,41.89111111111111],[-103.54638888888888,41.89111111111111],[-103.7088888888889,41.890277777777776],[-103.74194444444444,41.89222222222222],[-103.74194444444444,41.89222222222222],[-103.90611111111112,41.89083333333333],[-103.90611111111112,41.89083333333333],[-104.03722222222223,41.888333333333335],[-104.03722222222223,41.888333333333335],[-104.03722222222223,41.888333333333335],[-104.20083333333334,41.88666666666666],[-104.22972222222222,41.88722222222222],[-104.39222222222223,41.885],[-104.39222222222223,41.885],[-104.39222222222223,41.885],[-104.5525,41.882777777777775],[-104.67972222222222,41.87972222222222],[-104.67972222222222,41.87972222222222],[-104.67972222222222,41.87972222222222],[-104.67972222222222,41.87972222222222],[-104.86777777777777,41.8775],[-104.99027777777778,41.875277777777775],[-104.99027777777778,41.875277777777775],[-105.02222222222223,41.875],[-105.02222222222223,41.875],[-105.30166666666666,41.8675],[-105.30166666666666,41.8675],[-105.30166666666666,41.8675],[-105.33416666666666,41.86833333333333],[-105.48833333333333,41.86472222222223],[-105.48833333333333,41.86472222222223],[-105.76472222222222,41.85611111111111],[-105.79805555555555,41.85722222222223],[-105.79805555555555,41.85722222222223],[-105.79805555555555,41.85722222222223],[-105.79805555555555,41.85722222222223],[-105.92416666666666,41.85388888888889],[-105.94777777777779,41.85305555555556],[-105.94777777777779,41.85305555555556],[-106.10166666666666,41.84861111111111],[-106.10166666666666,41.84861111111111],[-106.22333333333333,41.845],[-106.22333333333333,41.845],[-106.25361111111111,41.844166666666666],[-106.40611111111112,41.83972222222222],[-106.40611111111112,41.83972222222222],[-106.52944444444444,41.83555555555556],[-106.52944444444444,41.83555555555556],[-106.52944444444444,41.83555555555556],[-106.83277777777778,41.82555555555556],[-106.83277777777778,41.82555555555556],[-106.86361111111111,41.824444444444445],[-106.98944444444444,41.82],[-106.98944444444444,41.82],[-107.14555555555556,41.81361111111111],[-107.14555555555556,41.81361111111111],[-107.14555555555556,41.81361111111111],[-107.33166666666666,41.806666666666665],[-107.61138888888888,41.79555555555555],[-107.64083333333333,41.79416666666666],[-107.64083333333333,41.79416666666666],[-107.76611111111112,41.788888888888884],[-107.76611111111112,41.788888888888884],[-107.92472222222223,41.78194444444444],[-108.07944444444443,41.77472222222222],[-108.07944444444443,41.77472222222222],[-108.23694444444445,41.7675],[-108.23694444444445,41.7675],[-108.55194444444444,41.75194444444445],[-108.58194444444445,41.75055555555556],[-108.58194444444445,41.75055555555556],[-108.73777777777778,41.7425],[-108.73777777777778,41.7425],[-108.73777777777778,41.7425],[-108.86055555555555,41.736111111111114],[-109.01361111111112,41.72805555555556],[-109.01361111111112,41.72805555555556],[-109.34694444444445,41.70944444444445],[-109.34694444444445,41.70944444444445],[-109.34694444444445,41.70944444444445],[-109.34694444444445,41.70944444444445],[-110.26972222222223,41.65277777777778],[-110.26972222222223,41.65277777777778],[-110.42694444444444,41.64222222222222],[-110.42694444444444,41.64222222222222],[-110.42694444444444,41.64222222222222],[-111.03694444444444,41.6],[-111.03694444444444,41.6],[-111.19166666666668,41.58861111111111],[-111.19166666666668,41.58861111111111],[-111.49583333333334,41.56638888888889],[-111.49583333333334,41.56638888888889],[-111.64472222222223,41.55444444444444],[-111.64472222222223,41.55444444444444],[-112.39444444444445,41.494166666666665],[-112.39444444444445,41.494166666666665],[-112.54388888888889,41.481388888888894],[-112.54388888888889,41.481388888888894],[-112.71916666666667,41.46638888888889],[-112.71916666666667,41.46638888888889],[-112.71916666666667,41.46638888888889],[-112.86472222222221,41.45333333333333],[-112.86472222222221,41.45333333333333],[-113.01,41.44027777777777],[-113.01,41.44027777777777],[-113.01,41.44027777777777],[-113.74444444444444,41.371944444444445],[-113.74444444444444,41.371944444444445],[-113.74444444444444,41.371944444444445],[-114.00361111111111,41.26111111111111],[-114.00361111111111,41.26111111111111],[-114.13333333333334,41.2025],[-114.28027777777778,41.16861111111111],[-114.57194444444444,41.10027777777778],[-114.57194444444444,41.10027777777778],[-114.57194444444444,41.10027777777778],[-114.85444444444444,41.033055555555556],[-114.99694444444445,40.99888888888889],[-114.99694444444445,40.99888888888889],[-115.13722222222223,40.96555555555556],[-115.16666666666667,40.95777777777778],[-115.16666666666667,40.95777777777778],[-115.30611111111111,40.925],[-115.30611111111111,40.925],[-115.30611111111111,40.925],[-115.58,40.85777777777778],[-115.58,40.85777777777778],[-115.58,40.85777777777778],[-115.68916666666667,40.83027777777778],[-115.68916666666667,40.83027777777778],[-115.82555555555555,40.79666666666667],[-115.99166666666667,40.755],[-115.99166666666667,40.755],[-115.99166666666667,40.755],[-116.65361111111112,40.58722222222222],[-116.68194444444445,40.580000000000005],[-116.68194444444445,40.580000000000005],[-116.82055555555556,40.54416666666666],[-116.98166666666667,40.50222222222222],[-116.98166666666667,40.50222222222222],[-116.98166666666667,40.50222222222222],[-117.06027777777777,40.48166666666667],[-117.06027777777777,40.48166666666667],[-117.06027777777777,40.48166666666667],[-117.33222222222221,40.41],[-117.33222222222221,40.41],[-117.33222222222221,40.41],[-117.4961111111111,40.36638888888889],[-117.63388888888889,40.32944444444445],[-117.63388888888889,40.32944444444445],[-117.80472222222222,40.28388888888889],[-117.80472222222222,40.28388888888889],[-117.80472222222222,40.28388888888889],[-117.91472222222222,40.25388888888889],[-117.91472222222222,40.25388888888889],[-118.05416666666666,40.215833333333336],[-118.05416666666666,40.215833333333336],[-118.05416666666666,40.215833333333336],[-118.34138888888889,40.13722222222222],[-118.34138888888889,40.13722222222222],[-118.51527777777778,40.08916666666667],[-118.51527777777778,40.08916666666667],[-118.62722222222222,40.05833333333333],[-118.7675,40.01916666666666],[-118.7675,40.01916666666666],[-118.79777777777778,40.01083333333333],[-118.79777777777778,40.01083333333333],[-119.05027777777778,39.93944444444444],[-119.08111111111111,39.93083333333333],[-119.08111111111111,39.93083333333333],[-119.08111111111111,39.93083333333333],[-119.22111111111111,39.89055555555556],[-119.22111111111111,39.89055555555556],[-119.33277777777778,39.85861111111111],[-119.33277777777778,39.85861111111111],[-119.33277777777778,39.85861111111111],[-120.33944444444444,39.56472222222222],[-120.33944444444444,39.56472222222222],[-120.33944444444444,39.56472222222222],[-120.61527777777778,39.48222222222223],[-120.61527777777778,39.48222222222223],[-120.61527777777778,39.48222222222223],[-120.8913888888889,39.39888888888889],[-120.8913888888889,39.39888888888889],[-121.02333333333333,39.34277777777778],[-121.02333333333333,39.34277777777778],[-121.26416666666667,39.19194444444444],[-121.26416666666667,39.19194444444444],[-121.26416666666667,39.19194444444444],[-121.50277777777778,39.04111111111111],[-121.50277777777778,39.04111111111111],[-121.50277777777778,39.04111111111111],[-121.62277777777777,38.96527777777778],[-121.62277777777777,38.96527777777778],[-121.62277777777777,38.96527777777778],[-121.62277777777777,38.96527777777778],[-121.8611111111111,38.81333333333333],[-121.97888888888889,38.73777777777778],[-121.97888888888889,38.73777777777778],[-121.97888888888889,38.73777777777778],[-122.2125,38.58722222222222],[-122.2125,38.58722222222222],[-122.44333333333334,38.43694444444444],[-122.44333333333334,38.43694444444444],[-122.44333333333334,38.43694444444444],[-122.44333333333334,38.43694444444444],[-122.75472222222223,38.19194444444444],[-122.75472222222223,38.19194444444444],[-122.72666666666667,38.08444444444444],[-122.72666666666667,38.08444444444444],[-122.72666666666667,38.08444444444444],[-122.7,38],[-122.7,38],[-122.6975,37.98222222222223],[-122.6975,37.98222222222223],[-122.66666666666667,37.9],[-122.66666666666667,37.9],[-122.58333333333333,37.81666666666667],[-122.58277777777778,37.814166666666665],[-122.44111111111111,37.680277777777775],[-122.37777777777777,37.62083333333334],[-122.37777777777777,37.62083333333334],[-122.37777777777777,37.62083333333334],[-122.29555555555555,37.48972222222222],[-122.1,37.483333333333334],[-122.1,37.483333333333334],[-122.1,37.483333333333334],[-122.1,37.483333333333334],[-122.2,37.55],[-122.2611111111111,37.57083333333334],[-122.35,37.6],[-122.35,37.6]],"type":"LineString"}
}
