{
  "id": 2031560129,
  "type": "Feature",
  "properties": {
    "geom:area": 0,
    "geom:bbox": "-122.380000,37.620000,-104.670000,40.850000",
    "geom:latitude": 40.155054490349,
    "geom:longitude": -113.6566257057902,
    "src:alt_label": "swim-route",
    "src:geom": "swim",
    "swim:geom": "route",
    "wof:geomhash": "f679281ac589d7fdb781dc5125c1f190",
    "wof:id": 2031560129,
    "wof:repo": "sfomuseum-data-flights-2026-06"
  },
  "bbox": [
    -122.38,
    37.62,
    -104.67,
    40.85
  ],
  "geometry": {"coordinates":[[-122.38,37.62],[-122.28,37.68],[-122.27,37.69],[-122.27,37.69],[-122.21,37.72],[-122.21,37.73],[-122.2,37.73],[-122.18,37.75],[-122.14,37.79],[-122.13,37.81],[-122.07,37.88],[-122.01,37.92],[-121.85,38.02],[-121.85,38.03],[-121.79,38.07],[-121.74,38.1],[-121.73,38.11],[-121.6,38.19],[-121.53,38.25],[-121.51,38.26],[-121.42,38.32],[-121.39,38.33],[-121.39,38.34],[-121.33,38.37],[-121.31,38.38],[-121.16,38.48],[-121.08,38.53],[-121.01,38.57],[-120.94,38.62],[-120.58,38.83],[-120.18,39.08],[-118.8,39.88],[-118.02,40.2],[-117.93,40.22],[-117.67,40.28],[-116.4,40.57],[-114.5,40.7],[-114.45,40.7],[-113.76,40.73],[-112.1,40.84],[-111.98,40.85],[-109.11,40.68],[-109.05,40.67],[-108.36,40.63],[-108.13,40.61],[-107.68,40.58],[-107.29,40.55],[-106.9,40.52],[-106.53,40.49],[-106.43,40.48],[-106.37,40.47],[-106.22,40.46],[-106.16,40.45],[-106.15,40.45],[-106.12,40.45],[-106.02,40.44],[-105.91,40.43],[-105.82,40.42],[-105.62,40.39],[-105.61,40.38],[-105.61,40.38],[-105.37,40.35],[-105.36,40.34],[-105.2,40.25],[-105.15,40.22],[-105.08,40.18],[-105.04,40.15],[-105.03,40.14],[-104.89,40.03],[-104.88,40.03],[-104.8,39.97],[-104.81,39.84],[-104.81,39.79],[-104.69,39.85],[-104.67,39.86]],"type":"LineString"}
}
