{
  "id": 2031619369,
  "type": "Feature",
  "properties": {
    "geom:area": 0,
    "geom:bbox": "-122.360590,37.438530,-121.246910,37.612570",
    "geom:latitude": 37.53405426796789,
    "geom:longitude": -121.81025290444028,
    "src:alt_label": "swim-approach",
    "src:geom": "swim",
    "swim:elevations": [
      4728,
      4630,
      4445,
      4385,
      4267,
      4184,
      3922,
      3663,
      3500,
      3264,
      3125,
      2811,
      2591,
      2471,
      2439,
      2376,
      2267,
      2178,
      2040,
      1830,
      1829,
      1821,
      1655,
      1579,
      1263,
      1042,
      947,
      790,
      732,
      667,
      578,
      457,
      304,
      155,
      76,
      0
    ],
    "swim:geom": "approach",
    "swim:timestamps": [
      1782248546,
      1782248555,
      1782248605,
      1782248620,
      1782248652,
      1782248685,
      1782248717,
      1782248757,
      1782248783,
      1782248817,
      1782248833,
      1782248875,
      1782248908,
      1782248926,
      1782248945,
      1782248978,
      1782248998,
      1782249014,
      1782249032,
      1782249086,
      1782249111,
      1782249120,
      1782249147,
      1782249166,
      1782249204,
      1782249238,
      1782249258,
      1782249293,
      1782249307,
      1782249321,
      1782249341,
      1782249371,
      1782249408,
      1782249447,
      1782249471,
      1782249489
    ],
    "wof:geomhash": "facd26bb047ed08bfa3b0a6de3ea04a9",
    "wof:id": 2031619369,
    "wof:repo": "sfomuseum-data-flights-2026-06"
  },
  "bbox": [
    -122.36059,
    37.43853,
    -121.24691,
    37.61257
  ],
  "geometry": {"coordinates":[[-121.24691,37.59501],[-121.26656,37.59236],[-121.36472,37.58101],[-121.39284,37.57774],[-121.44661,37.57131],[-121.49914,37.56521],[-121.54926,37.55978],[-121.60877,37.56598],[-121.64668,37.57503],[-121.69504,37.5846],[-121.71724,37.57988],[-121.74811,37.5401],[-121.76684,37.50639],[-121.77738,37.48764],[-121.78816,37.46857],[-121.82152,37.4445],[-121.84951,37.44159],[-121.87247,37.44],[-121.89762,37.43853],[-121.96939,37.44775],[-121.99994,37.46057],[-122.01115,37.46535],[-122.0446,37.47943],[-122.06779,37.48937],[-122.10976,37.50708],[-122.14818,37.52328],[-122.16779,37.53152],[-122.20156,37.54583],[-122.21555,37.55173],[-122.22809,37.55697],[-122.24723,37.56503],[-122.2762,37.57727],[-122.3047,37.58921],[-122.33188,37.60061],[-122.34859,37.60765],[-122.36059,37.61257]],"type":"LineString"}
}
