{
  "id": 2031581381,
  "type": "Feature",
  "properties": {
    "geom:area": 0,
    "geom:bbox": "-122.656440,37.453520,-122.127420,38.491390",
    "geom:latitude": 37.8563477701569,
    "geom:longitude": -122.40654293025108,
    "src:alt_label": "swim-approach",
    "src:geom": "swim",
    "swim:elevations": [
      8565,
      8382,
      7857,
      7674,
      7301,
      6857,
      6779,
      6665,
      6393,
      5845,
      5611,
      5341,
      5200,
      5157,
      4763,
      4557,
      4223,
      3944,
      3613,
      3439,
      3355,
      3353,
      3353,
      3353,
      3353,
      3174,
      2968,
      2668,
      2591,
      2507,
      2397,
      2153,
      2066,
      1637,
      1561,
      1501,
      1463,
      1373,
      1242,
      1104,
      908,
      719,
      616,
      486,
      396,
      308,
      246,
      98,
      0
    ],
    "swim:geom": "approach",
    "swim:timestamps": [
      1781914132,
      1781914144,
      1781914186,
      1781914208,
      1781914250,
      1781914285,
      1781914291,
      1781914300,
      1781914321,
      1781914372,
      1781914396,
      1781914424,
      1781914438,
      1781914442,
      1781914477,
      1781914496,
      1781914525,
      1781914549,
      1781914584,
      1781914605,
      1781914644,
      1781914656,
      1781914677,
      1781914680,
      1781914723,
      1781914760,
      1781914790,
      1781914828,
      1781914841,
      1781914856,
      1781914874,
      1781914913,
      1781914925,
      1781914979,
      1781914990,
      1781915008,
      1781915023,
      1781915038,
      1781915059,
      1781915089,
      1781915117,
      1781915145,
      1781915160,
      1781915190,
      1781915214,
      1781915238,
      1781915254,
      1781915291,
      1781915312
    ],
    "wof:geomhash": "c9d95ab6c5adf2c2860607249cd090e0",
    "wof:id": 2031581381,
    "wof:repo": "sfomuseum-data-flights-2026-06"
  },
  "bbox": [
    -122.65644,
    37.45352,
    -122.12742,
    38.49139
  ],
  "geometry": {"coordinates":[[-122.28847,38.49139],[-122.30394,38.46867],[-122.35388,38.39093],[-122.37861,38.35323],[-122.42301,38.2842],[-122.45888,38.23009],[-122.46509,38.22074],[-122.47416,38.20659],[-122.49523,38.1734],[-122.54697,38.09368],[-122.57114,38.05684],[-122.59812,38.01552],[-122.61172,37.99461],[-122.61556,37.98877],[-122.64842,37.9379],[-122.65644,37.90684],[-122.63598,37.86345],[-122.60373,37.83276],[-122.5589,37.79062],[-122.53215,37.76562],[-122.4854,37.72239],[-122.47185,37.70992],[-122.44879,37.68834],[-122.44564,37.68542],[-122.40408,37.64591],[-122.36924,37.61237],[-122.34697,37.58265],[-122.32831,37.54258],[-122.32079,37.53005],[-122.3115,37.51499],[-122.29849,37.49833],[-122.25038,37.48021],[-122.23554,37.47511],[-122.16769,37.45352],[-122.15288,37.45455],[-122.13491,37.46687],[-122.12742,37.48106],[-122.12766,37.49574],[-122.141,37.51326],[-122.16762,37.53156],[-122.19581,37.54344],[-122.22395,37.55523],[-122.23844,37.56137],[-122.26407,37.57214],[-122.28301,37.58006],[-122.302,37.58807],[-122.31365,37.59302],[-122.3421,37.60491],[-122.35808,37.61153]],"type":"LineString"}
}
