{
  "id": 2031517239,
  "type": "Feature",
  "properties": {
    "geom:area": 0,
    "geom:bbox": "-122.360590,36.736560,-121.887630,37.612550",
    "geom:latitude": 37.22014274607729,
    "geom:longitude": -122.07329235610455,
    "src:alt_label": "swim-approach",
    "src:geom": "swim",
    "swim:elevations": [
      5318,
      5189,
      4832,
      4548,
      4363,
      4193,
      3898,
      3592,
      3418,
      3152,
      3076,
      2985,
      2683,
      2536,
      1331,
      1092,
      906,
      855,
      683,
      548,
      522,
      283,
      248,
      64,
      0
    ],
    "swim:geom": "approach",
    "swim:timestamps": [
      1781289772,
      1781289786,
      1781289824,
      1781289855,
      1781289876,
      1781289893,
      1781289925,
      1781289958,
      1781289978,
      1781290016,
      1781290046,
      1781290069,
      1781290107,
      1781290120,
      1781290317,
      1781290342,
      1781290373,
      1781290380,
      1781290408,
      1781290435,
      1781290440,
      1781290495,
      1781290504,
      1781290549,
      1781290564
    ],
    "wof:geomhash": "c0c40a1fb667ea82edf90700229cdcc0",
    "wof:id": 2031517239,
    "wof:repo": "sfomuseum-data-flights-2026-06"
  },
  "bbox": [
    -122.36059,
    36.73656,
    -121.88763,
    37.61255
  ],
  "geometry": {"coordinates":[[-121.88763,36.73656],[-121.8975,36.75721],[-121.91521,36.81772],[-121.92911,36.86656],[-121.93806,36.89915],[-121.94515,36.92469],[-121.96115,36.9726],[-121.98041,37.02166],[-121.99153,37.05113],[-122.0129,37.10542],[-122.02881,37.14605],[-122.04004,37.17491],[-122.05857,37.22176],[-122.06501,37.23816],[-122.15471,37.47984],[-122.16478,37.50837],[-122.18254,37.5389],[-122.19113,37.54329],[-122.224,37.55497],[-122.25197,37.56708],[-122.2568,37.56911],[-122.30557,37.58965],[-122.3128,37.59259],[-122.34954,37.60789],[-122.36059,37.61255]],"type":"LineString"}
}
