{
  "id": 2031442801,
  "type": "Feature",
  "properties": {
    "geom:area": 0,
    "geom:bbox": "-122.566667,34.198056,-118.376944,37.673333",
    "geom:latitude": 35.86936199371962,
    "geom:longitude": -120.60986707817409,
    "src:alt_label": "swim-path",
    "src:geom": "swim",
    "swim:altitudes": [
      "006",
      "083",
      "083",
      "083",
      "112",
      "112",
      "112",
      "112",
      "190",
      "190",
      "190",
      "190",
      "228",
      "228",
      "228",
      "228",
      "279",
      "279",
      "279",
      "279",
      "279",
      "306",
      "306",
      "306",
      "310C",
      "310C",
      "310C",
      "310C",
      "310C",
      "310C",
      "310C",
      "310C",
      "310C",
      "310C",
      "310C",
      "310C",
      "310C",
      "310C",
      "310C",
      "310C",
      "310C",
      "310C",
      "310C",
      "310C",
      "310C",
      "310C",
      "310C",
      "310C",
      "310C",
      "310C",
      "310C",
      "310C",
      "310C",
      "310C",
      "310C",
      "310C",
      "310C",
      "310C",
      "310C",
      "310C",
      "310C",
      "310C",
      "310C",
      "310C",
      "310C",
      "310C",
      "285",
      "285",
      "285",
      "285",
      "285",
      "285",
      "222",
      "222",
      "222",
      "222",
      "165",
      "165",
      "165",
      "165",
      "165",
      "165",
      "148",
      "138",
      "138",
      "138",
      "120",
      "117",
      "102",
      "102",
      "102",
      "095",
      "095",
      "074",
      "074",
      "074",
      "064",
      "064",
      "064",
      "064",
      "059",
      "059",
      "059",
      "055",
      "050",
      "050",
      "050",
      "033",
      "033",
      "033",
      "024",
      "024",
      "024",
      "024",
      "020",
      "016",
      "013",
      "013",
      "013",
      "009",
      "009"
    ],
    "swim:geom": "path",
    "swim:speeds": [
      152,
      268,
      268,
      268,
      333,
      333,
      333,
      333,
      379,
      379,
      379,
      379,
      381,
      381,
      381,
      381,
      426,
      426,
      426,
      426,
      426,
      443,
      443,
      443,
      456,
      456,
      456,
      456,
      457,
      457,
      457,
      457,
      457,
      457,
      457,
      457,
      457,
      457,
      457,
      457,
      467,
      467,
      467,
      464,
      462,
      462,
      462,
      462,
      462,
      462,
      462,
      462,
      462,
      462,
      460,
      460,
      460,
      460,
      460,
      459,
      458,
      458,
      458,
      458,
      458,
      458,
      457,
      457,
      457,
      457,
      457,
      457,
      423,
      423,
      423,
      423,
      382,
      382,
      382,
      382,
      382,
      382,
      358,
      348,
      348,
      348,
      319,
      309,
      294,
      294,
      294,
      283,
      283,
      247,
      247,
      247,
      232,
      232,
      232,
      232,
      237,
      237,
      237,
      234,
      230,
      230,
      230,
      217,
      217,
      217,
      163,
      163,
      163,
      163,
      134,
      133,
      128,
      128,
      128,
      130,
      130
    ],
    "swim:timestamps": [
      1780500806,
      1780500962,
      1780500962,
      1780500962,
      1780501022,
      1780501022,
      1780501022,
      1780501022,
      1780501142,
      1780501142,
      1780501142,
      1780501142,
      1780501201,
      1780501201,
      1780501201,
      1780501201,
      1780501321,
      1780501321,
      1780501321,
      1780501321,
      1780501321,
      1780501381,
      1780501381,
      1780501381,
      1780501454,
      1780501454,
      1780501454,
      1780501454,
      1780501514,
      1780501514,
      1780501514,
      1780501514,
      1780501621,
      1780501621,
      1780501621,
      1780501621,
      1780501681,
      1780501681,
      1780501681,
      1780501681,
      1780501802,
      1780501802,
      1780501802,
      1780501862,
      1780501875,
      1780501875,
      1780501875,
      1780501935,
      1780501935,
      1780501935,
      1780501935,
      1780501935,
      1780501995,
      1780501995,
      1780502115,
      1780502115,
      1780502115,
      1780502115,
      1780502115,
      1780502235,
      1780502295,
      1780502295,
      1780502295,
      1780502295,
      1780502295,
      1780502295,
      1780502535,
      1780502535,
      1780502535,
      1780502535,
      1780502535,
      1780502535,
      1780502775,
      1780502775,
      1780502775,
      1780502775,
      1780502956,
      1780502956,
      1780502956,
      1780502956,
      1780502956,
      1780502956,
      1780503015,
      1780503032,
      1780503032,
      1780503032,
      1780503098,
      1780503136,
      1780503196,
      1780503196,
      1780503196,
      1780503218,
      1780503218,
      1780503339,
      1780503339,
      1780503339,
      1780503436,
      1780503436,
      1780503436,
      1780503436,
      1780503459,
      1780503459,
      1780503459,
      1780503496,
      1780503513,
      1780503513,
      1780503513,
      1780503616,
      1780503616,
      1780503616,
      1780503676,
      1780503676,
      1780503676,
      1780503676,
      1780503693,
      1780503736,
      1780503753,
      1780503753,
      1780503753,
      1780503797,
      1780503797
    ],
    "wof:geomhash": "87268f20403a984da7b9a81d4606334e",
    "wof:id": 2031442801,
    "wof:repo": "sfomuseum-data-flights-2026-06"
  },
  "bbox": [
    -122.56666666666666,
    34.198055555555555,
    -118.37694444444443,
    37.67333333333333
  ],
  "geometry": {"coordinates":[[-122.38333333333334,37.61666666666667],[-122.55527777777777,37.67333333333333],[-122.55527777777777,37.67333333333333],[-122.55527777777777,37.67333333333333],[-122.56666666666666,37.59916666666667],[-122.56666666666666,37.59916666666667],[-122.56666666666666,37.59916666666667],[-122.56666666666666,37.59916666666667],[-122.39055555555557,37.45305555555556],[-122.39055555555557,37.45305555555556],[-122.39055555555557,37.45305555555556],[-122.39055555555557,37.45305555555556],[-122.29083333333332,37.3725],[-122.29083333333332,37.3725],[-122.29083333333332,37.3725],[-122.29083333333332,37.3725],[-122.08583333333333,37.200833333333335],[-122.08583333333333,37.200833333333335],[-122.08583333333333,37.200833333333335],[-122.08583333333333,37.200833333333335],[-122.08583333333333,37.200833333333335],[-121.97972222222222,37.10777777777778],[-121.97972222222222,37.10777777777778],[-121.97972222222222,37.10777777777778],[-121.85888888888888,36.995],[-121.85888888888888,36.995],[-121.85888888888888,36.995],[-121.85888888888888,36.995],[-121.75055555555555,36.90083333333333],[-121.75055555555555,36.90083333333333],[-121.75055555555555,36.90083333333333],[-121.75055555555555,36.90083333333333],[-121.55027777777778,36.73083333333334],[-121.55027777777778,36.73083333333334],[-121.55027777777778,36.73083333333334],[-121.55027777777778,36.73083333333334],[-121.44277777777778,36.63611111111111],[-121.44277777777778,36.63611111111111],[-121.44277777777778,36.63611111111111],[-121.44277777777778,36.63611111111111],[-121.22916666666667,36.442499999999995],[-121.22916666666667,36.442499999999995],[-121.22916666666667,36.442499999999995],[-121.12444444444444,36.34638888888889],[-121.10055555555554,36.32333333333334],[-121.10055555555554,36.32333333333334],[-121.10055555555554,36.32333333333334],[-121,36.225],[-121,36.225],[-121,36.225],[-121,36.225],[-121,36.225],[-120.89944444444446,36.12638888888889],[-120.89944444444446,36.12638888888889],[-120.7,35.930277777777775],[-120.7,35.930277777777775],[-120.7,35.930277777777775],[-120.7,35.930277777777775],[-120.7,35.930277777777775],[-120.49916666666667,35.73111111111111],[-120.40055555555556,35.63305555555556],[-120.40055555555556,35.63305555555556],[-120.40055555555556,35.63305555555556],[-120.40055555555556,35.63305555555556],[-120.40055555555556,35.63305555555556],[-120.40055555555556,35.63305555555556],[-120.01305555555555,35.259166666666665],[-120.01305555555555,35.259166666666665],[-120.01305555555555,35.259166666666665],[-120.01305555555555,35.259166666666665],[-120.01305555555555,35.259166666666665],[-120.01305555555555,35.259166666666665],[-119.625,34.88194444444444],[-119.625,34.88194444444444],[-119.625,34.88194444444444],[-119.625,34.88194444444444],[-119.31666666666666,34.67472222222222],[-119.31666666666666,34.67472222222222],[-119.31666666666666,34.67472222222222],[-119.31666666666666,34.67472222222222],[-119.31666666666666,34.67472222222222],[-119.31666666666666,34.67472222222222],[-119.21916666666667,34.61888888888889],[-119.16666666666667,34.6],[-119.16666666666667,34.6],[-119.16666666666667,34.6],[-119.06666666666666,34.55],[-119.02944444444444,34.52361111111111],[-118.9738888888889,34.45527777777778],[-118.9738888888889,34.45527777777778],[-118.9738888888889,34.45527777777778],[-118.95,34.416666666666664],[-118.95,34.416666666666664],[-118.83333333333333,34.3],[-118.83333333333333,34.3],[-118.83333333333333,34.3],[-118.74361111111111,34.25],[-118.74361111111111,34.25],[-118.74361111111111,34.25],[-118.74361111111111,34.25],[-118.7,34.233333333333334],[-118.7,34.233333333333334],[-118.7,34.233333333333334],[-118.67194444444445,34.223055555555554],[-118.63333333333334,34.21666666666667],[-118.63333333333334,34.21666666666667],[-118.63333333333334,34.21666666666667],[-118.52527777777777,34.2],[-118.52527777777777,34.2],[-118.52527777777777,34.2],[-118.46444444444445,34.19916666666666],[-118.46444444444445,34.19916666666666],[-118.46444444444445,34.19916666666666],[-118.46444444444445,34.19916666666666],[-118.45,34.2],[-118.42,34.198611111111106],[-118.4,34.2],[-118.4,34.2],[-118.4,34.2],[-118.37694444444443,34.198055555555555],[-118.37694444444443,34.198055555555555]],"type":"LineString"}
}
