{
  "id": 2031446443,
  "type": "Feature",
  "properties": {
    "geom:area": 0,
    "geom:bbox": "-122.380000,37.490000,-71.010000,43.300000",
    "geom:latitude": 41.44810623709489,
    "geom:longitude": -96.94211969945266,
    "src:alt_label": "swim-route",
    "src:geom": "swim",
    "swim:geom": "route",
    "wof:geomhash": "a0c2c221ce76d8cac85ba103bc5c6883",
    "wof:id": 2031446443,
    "wof:repo": "sfomuseum-data-flights-2026-06"
  },
  "bbox": [
    -122.38,
    37.49,
    -71.01,
    43.3
  ],
  "geometry": {"coordinates":[[-71.01,42.36],[-74.54,42.88],[-75.27,42.97],[-76.27,43.08],[-76.77,43.14],[-78.38,43.3],[-78.93,43.28],[-79.41,43.26],[-79.78,43.24],[-82.38,43.08],[-83.75,42.97],[-85,42.84],[-85.5,42.79],[-85.78,42.8],[-87,42.83],[-87.22,42.83],[-89.31,42.85],[-91.62,42.83],[-92.58,42.81],[-93.18,42.79],[-94,42.76],[-95.68,42.68],[-96.25,42.64],[-97.17,42.58],[-98.69,42.47],[-99.31,42.36],[-100.43,42.15],[-102.03,41.82],[-102.26,41.78],[-102.93,41.63],[-104.55,41.26],[-104.77,41.21],[-105.24,41.13],[-105.71,41.04],[-106,40.99],[-106.3,40.94],[-108.88,40.42],[-109.14,40.37],[-109.57,40.27],[-109.74,40.23],[-110.12,40.15],[-110.13,40.15],[-110.26,40.1],[-110.61,39.98],[-112.01,39.48],[-112.51,39.3],[-113.32,39.12],[-113.89,38.98],[-114.46,38.85],[-115.31,38.64],[-115.47,38.13],[-115.71,38.18],[-116.12,38.3],[-117.27,38.13],[-117.77,38.06],[-118.76,37.9],[-119.03,37.87],[-119.1,37.86],[-119.38,37.82],[-119.72,37.78],[-119.82,37.77],[-119.92,37.76],[-120.02,37.75],[-120.31,37.71],[-120.4,37.7],[-120.4,37.7],[-120.57,37.68],[-120.69,37.67],[-120.75,37.66],[-120.79,37.65],[-120.8,37.65],[-120.96,37.63],[-121,37.63],[-121.01,37.63],[-121.07,37.62],[-121.17,37.61],[-121.26,37.59],[-121.39,37.58],[-121.41,37.58],[-121.6,37.55],[-121.61,37.55],[-121.62,37.55],[-121.72,37.53],[-121.8,37.51],[-121.88,37.49],[-121.89,37.49],[-122.01,37.53],[-122.08,37.54],[-122.18,37.57],[-122.18,37.57],[-122.28,37.59],[-122.33,37.61],[-122.36,37.61],[-122.38,37.62]],"type":"LineString"}
}
