{
  "id": 2031505707,
  "type": "Feature",
  "properties": {
    "geom:area": 0,
    "geom:bbox": "-122.552570,36.721370,-121.440640,37.669650",
    "geom:latitude": 37.21291860797132,
    "geom:longitude": -122.07158374185066,
    "src:alt_label": "swim-takeoff",
    "src:geom": "swim",
    "swim:elevations": [
      273,
      734,
      1062,
      1222,
      1414,
      1965,
      2449,
      2594,
      3012,
      3327,
      3477,
      3895,
      4401,
      4653,
      5016,
      5209,
      5405,
      5852,
      6152,
      6446,
      6583,
      6781,
      6892,
      7171,
      7283,
      7360,
      7448,
      7663,
      7937,
      8080,
      8381,
      8506,
      8615,
      8737,
      8784,
      8967,
      9182,
      9216
    ],
    "swim:geom": "takeoff",
    "swim:timestamps": [
      1781158197,
      1781158228,
      1781158254,
      1781158280,
      1781158298,
      1781158338,
      1781158371,
      1781158380,
      1781158407,
      1781158428,
      1781158449,
      1781158479,
      1781158526,
      1781158549,
      1781158577,
      1781158593,
      1781158609,
      1781158647,
      1781158677,
      1781158706,
      1781158722,
      1781158741,
      1781158751,
      1781158780,
      1781158792,
      1781158801,
      1781158810,
      1781158839,
      1781158877,
      1781158892,
      1781158928,
      1781158946,
      1781158958,
      1781158975,
      1781158980,
      1781159001,
      1781159030,
      1781159041
    ],
    "wof:geomhash": "68e0a291dabada3f93e2ce922f037243",
    "wof:id": 2031505707,
    "wof:repo": "sfomuseum-data-flights-2026-06"
  },
  "bbox": [
    -122.55257,
    36.72137,
    -121.44064,
    37.66965
  ],
  "geometry": {"coordinates":[[-122.39812,37.62847],[-122.42589,37.64038],[-122.44854,37.65037],[-122.47577,37.66295],[-122.50087,37.66965],[-122.55257,37.64593],[-122.54992,37.60182],[-122.54289,37.59022],[-122.5192,37.55572],[-122.50004,37.52839],[-122.4789,37.49977],[-122.43945,37.46421],[-122.36733,37.41144],[-122.32995,37.38406],[-122.28434,37.35002],[-122.25913,37.33131],[-122.2326,37.31174],[-122.16915,37.2649],[-122.11845,37.22727],[-122.06893,37.19061],[-122.04194,37.17058],[-122.00798,37.14533],[-121.98986,37.1319],[-121.93818,37.09341],[-121.91671,37.07743],[-121.90117,37.06584],[-121.8847,37.05351],[-121.8332,37.01489],[-121.7612,36.96057],[-121.73128,36.94001],[-121.6617,36.88818],[-121.6283,36.86348],[-121.60349,36.84486],[-121.56976,36.81957],[-121.56086,36.81281],[-121.51958,36.78152],[-121.46178,36.73766],[-121.44064,36.72137]],"type":"LineString"}
}
