{
  "id": 2031645229,
  "type": "Feature",
  "properties": {
    "geom:area": 0,
    "geom:bbox": "-122.351160,37.425590,-121.274330,37.647250",
    "geom:latitude": 37.54110393314661,
    "geom:longitude": -121.82117367037839,
    "src:alt_label": "swim-approach",
    "src:geom": "swim",
    "swim:elevations": [
      4943,
      4799,
      4475,
      4291,
      4135,
      3526,
      3324,
      3297,
      3241,
      3113,
      3049,
      3048,
      2974,
      2958,
      2857,
      2743,
      2743,
      2741,
      2743,
      2743,
      2743,
      2743,
      2629,
      2551,
      2195,
      2146,
      2134,
      2104,
      2000,
      1868,
      1829,
      1739,
      1708,
      1584,
      1271,
      1097,
      959,
      893,
      761,
      559,
      487,
      373,
      232,
      157,
      65
    ],
    "swim:geom": "approach",
    "swim:timestamps": [
      1782467624,
      1782467636,
      1782467665,
      1782467683,
      1782467700,
      1782467757,
      1782467786,
      1782467793,
      1782467809,
      1782467840,
      1782467871,
      1782467898,
      1782467937,
      1782467940,
      1782467958,
      1782467998,
      1782468003,
      1782468030,
      1782468076,
      1782468110,
      1782468124,
      1782468152,
      1782468204,
      1782468216,
      1782468257,
      1782468272,
      1782468291,
      1782468326,
      1782468344,
      1782468366,
      1782468408,
      1782468446,
      1782468450,
      1782468485,
      1782468531,
      1782468555,
      1782468592,
      1782468606,
      1782468635,
      1782468683,
      1782468700,
      1782468727,
      1782468769,
      1782468786,
      1782468817
    ],
    "wof:geomhash": "bed32569b5b5d6ab543a483c523dbe3e",
    "wof:id": 2031645229,
    "wof:repo": "sfomuseum-data-flights-2026-06"
  },
  "bbox": [
    -122.35116,
    37.42559,
    -121.27433,
    37.64725
  ],
  "geometry": {"coordinates":[[-121.27433,37.59101],[-121.29712,37.58811],[-121.35107,37.5824],[-121.3842,37.57861],[-121.41553,37.57479],[-121.51939,37.5628],[-121.57342,37.55646],[-121.58448,37.55515],[-121.61203,37.55196],[-121.66301,37.54975],[-121.70331,37.57051],[-121.73361,37.58871],[-121.7776,37.6145],[-121.78097,37.61642],[-121.80024,37.62735],[-121.84759,37.64725],[-121.85432,37.64682],[-121.88178,37.62897],[-121.86402,37.58103],[-121.82699,37.55352],[-121.81102,37.54304],[-121.77825,37.52109],[-121.77037,37.46841],[-121.77606,37.45614],[-121.81073,37.4256],[-121.83019,37.42559],[-121.85563,37.42685],[-121.90163,37.42923],[-121.92506,37.43091],[-121.95104,37.43957],[-121.99752,37.45961],[-122.03886,37.47708],[-122.04335,37.47897],[-122.07951,37.49427],[-122.12006,37.51144],[-122.14143,37.52036],[-122.17332,37.53395],[-122.18592,37.53921],[-122.21157,37.5501],[-122.25224,37.56705],[-122.2668,37.57326],[-122.28724,37.58185],[-122.31769,37.59468],[-122.32931,37.59955],[-122.35116,37.60863]],"type":"LineString"}
}
