{
  "id": 2031641821,
  "type": "Feature",
  "properties": {
    "geom:area": 0,
    "geom:bbox": "-122.412290,37.625640,-121.246760,38.423380",
    "geom:latitude": 38.035094030459376,
    "geom:longitude": -121.86037362741575,
    "src:alt_label": "swim-takeoff",
    "src:geom": "swim",
    "swim:elevations": [
      183,
      539,
      909,
      1141,
      1274,
      1708,
      2220,
      2404,
      2831,
      3255,
      3419,
      3525,
      3856,
      4019,
      4380,
      4729,
      5130,
      5416,
      5750,
      5859,
      5970,
      6257,
      6394,
      6691,
      7079,
      7318,
      7501,
      7638,
      7995,
      8188
    ],
    "swim:geom": "takeoff",
    "swim:timestamps": [
      1782371545,
      1782371571,
      1782371601,
      1782371629,
      1782371649,
      1782371687,
      1782371724,
      1782371736,
      1782371772,
      1782371810,
      1782371842,
      1782371855,
      1782371885,
      1782371898,
      1782371927,
      1782371958,
      1782371995,
      1782372021,
      1782372055,
      1782372065,
      1782372078,
      1782372105,
      1782372120,
      1782372153,
      1782372191,
      1782372218,
      1782372238,
      1782372252,
      1782372295,
      1782372318
    ],
    "wof:geomhash": "3a66de4427fbd52b01d6ffe93c8a841c",
    "wof:id": 2031641821,
    "wof:repo": "sfomuseum-data-flights-2026-06"
  },
  "bbox": [
    -122.41229,
    37.62564,
    -121.24676,
    38.42338
  ],
  "geometry": {"coordinates":[[-122.39119,37.62564],[-122.41229,37.63915],[-122.4089,37.66366],[-122.37831,37.67394],[-122.3512,37.67658],[-122.29525,37.69342],[-122.25587,37.72717],[-122.2478,37.74169],[-122.22387,37.78566],[-122.19737,37.83411],[-122.15786,37.87026],[-122.13493,37.88445],[-122.0849,37.91488],[-122.06298,37.92817],[-122.01146,37.95941],[-121.95668,37.9929],[-121.8909,38.03302],[-121.84234,38.06265],[-121.7779,38.1018],[-121.76031,38.1125],[-121.73556,38.12747],[-121.68167,38.16015],[-121.65211,38.17799],[-121.58708,38.21729],[-121.50932,38.26415],[-121.45442,38.29713],[-121.41384,38.32151],[-121.38509,38.33871],[-121.29554,38.39339],[-121.24676,38.42338]],"type":"LineString"}
}
