{
  "id": 2031421875,
  "type": "Feature",
  "properties": {
    "geom:area": 0,
    "geom:bbox": "-123.446111,37.418333,-122.102500,47.615000",
    "geom:latitude": 42.428959806263634,
    "geom:longitude": -123.003203516777,
    "src:alt_label": "swim-path",
    "src:geom": "swim",
    "swim:altitudes": [
      "043",
      "044",
      "044",
      "062",
      "062",
      "062",
      "096",
      "099",
      "099",
      "099",
      "125",
      "125",
      "178",
      "178",
      "191",
      "191",
      "191",
      "191",
      "191",
      "249",
      "249",
      "249",
      "249",
      "279",
      "279",
      "279",
      "279",
      "279",
      "290",
      "290",
      "290",
      "290",
      "290",
      "314",
      "314",
      "314",
      "314",
      "314",
      "314",
      "340",
      "340",
      "340",
      "340",
      "350C",
      "350C",
      "350C",
      "350C",
      "350C",
      "350C",
      "350C",
      "350C",
      "350C",
      "350C",
      "350C",
      "350C",
      "350C",
      "350C",
      "350C",
      "350C",
      "350C",
      "350C",
      "350C",
      "350C",
      "350C",
      "350C",
      "350C",
      "350C",
      "350C",
      "350C",
      "350C",
      "350C",
      "350C",
      "350C",
      "350C",
      "350C",
      "350C",
      "350C",
      "350C",
      "350C",
      "350C",
      "350C",
      "350C",
      "350C",
      "350C",
      "350C",
      "350C",
      "350C",
      "350C",
      "350C",
      "350C",
      "350C",
      "350C",
      "350C",
      "350C",
      "350C",
      "350C",
      "350C",
      "350C",
      "350C",
      "350C",
      "350C",
      "350C",
      "350C",
      "350C",
      "350C",
      "350C",
      "350C",
      "350C",
      "350C",
      "350C",
      "350C",
      "350C",
      "350C",
      "350C",
      "350C",
      "350C",
      "350C",
      "350C",
      "350C",
      "350C",
      "350C",
      "350C",
      "350C",
      "350C",
      "350C",
      "350C",
      "350C",
      "350C",
      "350C",
      "350C",
      "350C",
      "350C",
      "350C",
      "350C",
      "350C",
      "350C",
      "350C",
      "350C",
      "350C",
      "350C",
      "350C",
      "350C",
      "350C",
      "350C",
      "350C",
      "350C",
      "350C",
      "350C",
      "350C",
      "350C",
      "350C",
      "350C",
      "350C",
      "350C",
      "350C",
      "350C",
      "350C",
      "350C",
      "350C",
      "350C",
      "351C",
      "351C",
      "351C",
      "351C",
      "351C",
      "350C",
      "350C",
      "350C",
      "350C",
      "350C",
      "350C",
      "350C",
      "350C",
      "350C",
      "350C",
      "350",
      "350",
      "350",
      "350",
      "350",
      "340",
      "340",
      "340",
      "340",
      "330",
      "330",
      "330",
      "330",
      "255",
      "255",
      "255",
      "255",
      "255",
      "255",
      "234",
      "234",
      "234",
      "175",
      "175",
      "175",
      "175",
      "175",
      "175",
      "129",
      "129",
      "129",
      "129",
      "123",
      "123",
      "111C",
      "111C",
      "111C",
      "111C",
      "081",
      "081",
      "081",
      "081",
      "060",
      "060",
      "060",
      "060",
      "048",
      "048",
      "048",
      "035",
      "035",
      "035",
      "035",
      "010",
      "010",
      "003",
      "003",
      "003"
    ],
    "swim:geom": "path",
    "swim:speeds": [
      173,
      185,
      185,
      252,
      252,
      252,
      270,
      276,
      276,
      276,
      295,
      295,
      325,
      325,
      358,
      358,
      358,
      358,
      358,
      393,
      393,
      393,
      393,
      398,
      398,
      398,
      398,
      398,
      412,
      412,
      412,
      412,
      412,
      434,
      434,
      434,
      434,
      434,
      434,
      463,
      463,
      463,
      463,
      467,
      467,
      467,
      469,
      469,
      469,
      469,
      469,
      474,
      474,
      476,
      476,
      476,
      476,
      476,
      478,
      478,
      478,
      478,
      482,
      482,
      482,
      482,
      482,
      483,
      483,
      484,
      484,
      485,
      485,
      485,
      485,
      485,
      485,
      485,
      485,
      484,
      484,
      484,
      483,
      483,
      483,
      483,
      483,
      483,
      483,
      483,
      483,
      483,
      483,
      484,
      484,
      484,
      484,
      484,
      484,
      484,
      481,
      483,
      481,
      481,
      483,
      483,
      483,
      483,
      483,
      483,
      483,
      483,
      484,
      484,
      484,
      484,
      484,
      484,
      484,
      484,
      484,
      484,
      484,
      484,
      484,
      483,
      483,
      482,
      482,
      481,
      481,
      481,
      480,
      480,
      480,
      480,
      479,
      479,
      479,
      478,
      478,
      478,
      477,
      477,
      469,
      469,
      466,
      466,
      466,
      466,
      458,
      458,
      458,
      458,
      458,
      422,
      422,
      422,
      422,
      422,
      434,
      434,
      434,
      434,
      441,
      452,
      452,
      452,
      450,
      450,
      450,
      450,
      449,
      449,
      448,
      447,
      447,
      447,
      444,
      444,
      438,
      438,
      438,
      438,
      438,
      438,
      438,
      438,
      426,
      426,
      426,
      426,
      426,
      426,
      414,
      414,
      414,
      375,
      375,
      375,
      375,
      375,
      375,
      291,
      291,
      291,
      291,
      268,
      268,
      259,
      259,
      259,
      259,
      247,
      247,
      247,
      247,
      204,
      204,
      204,
      204,
      202,
      202,
      202,
      196,
      196,
      196,
      196,
      150,
      150,
      136,
      136,
      136
    ],
    "swim:timestamps": [
      1780327551,
      1780327557,
      1780327557,
      1780327611,
      1780327611,
      1780327611,
      1780327671,
      1780327677,
      1780327677,
      1780327677,
      1780327731,
      1780327731,
      1780327851,
      1780327851,
      1780327911,
      1780327911,
      1780327911,
      1780327911,
      1780327911,
      1780328092,
      1780328092,
      1780328092,
      1780328092,
      1780328212,
      1780328212,
      1780328212,
      1780328212,
      1780328212,
      1780328272,
      1780328272,
      1780328272,
      1780328272,
      1780328272,
      1780328392,
      1780328392,
      1780328392,
      1780328392,
      1780328392,
      1780328392,
      1780328572,
      1780328572,
      1780328572,
      1780328572,
      1780328632,
      1780328632,
      1780328632,
      1780328873,
      1780328873,
      1780328873,
      1780328873,
      1780328873,
      1780328993,
      1780328993,
      1780329053,
      1780329053,
      1780329053,
      1780329053,
      1780329053,
      1780329113,
      1780329113,
      1780329113,
      1780329113,
      1780329293,
      1780329293,
      1780329293,
      1780329293,
      1780329293,
      1780329473,
      1780329473,
      1780329533,
      1780329533,
      1780329594,
      1780329594,
      1780329594,
      1780329594,
      1780329594,
      1780329654,
      1780329654,
      1780329654,
      1780329714,
      1780329714,
      1780329714,
      1780329834,
      1780329834,
      1780329834,
      1780329954,
      1780329954,
      1780329954,
      1780329954,
      1780330014,
      1780330014,
      1780330074,
      1780330074,
      1780330090,
      1780330090,
      1780330090,
      1780330090,
      1780330151,
      1780330151,
      1780330151,
      1780330194,
      1780330211,
      1780330254,
      1780330254,
      1780330271,
      1780330271,
      1780330271,
      1780330331,
      1780330331,
      1780330331,
      1780330375,
      1780330375,
      1780330391,
      1780330391,
      1780330435,
      1780330435,
      1780330435,
      1780330495,
      1780330495,
      1780330555,
      1780330555,
      1780330555,
      1780330555,
      1780330571,
      1780330571,
      1780330615,
      1780330631,
      1780330675,
      1780330675,
      1780330735,
      1780330735,
      1780330735,
      1780330795,
      1780330795,
      1780330795,
      1780330811,
      1780330855,
      1780330855,
      1780330855,
      1780330872,
      1780330872,
      1780330872,
      1780330915,
      1780330915,
      1780330975,
      1780330975,
      1780330992,
      1780330992,
      1780330992,
      1780330992,
      1780331096,
      1780331096,
      1780331096,
      1780331096,
      1780331096,
      1780331276,
      1780331276,
      1780331276,
      1780331352,
      1780331352,
      1780331396,
      1780331396,
      1780331396,
      1780331396,
      1780331412,
      1780331516,
      1780331516,
      1780331516,
      1780331653,
      1780331653,
      1780331653,
      1780331653,
      1780331696,
      1780331696,
      1780331713,
      1780331773,
      1780331773,
      1780331773,
      1780331833,
      1780331833,
      1780331893,
      1780331893,
      1780331893,
      1780331893,
      1780331953,
      1780331953,
      1780331953,
      1780331953,
      1780332253,
      1780332253,
      1780332253,
      1780332253,
      1780332253,
      1780332253,
      1780332313,
      1780332313,
      1780332313,
      1780332494,
      1780332494,
      1780332494,
      1780332494,
      1780332494,
      1780332494,
      1780332677,
      1780332677,
      1780332677,
      1780332677,
      1780332734,
      1780332734,
      1780332794,
      1780332794,
      1780332794,
      1780332794,
      1780333034,
      1780333034,
      1780333034,
      1780333034,
      1780333155,
      1780333155,
      1780333155,
      1780333155,
      1780333215,
      1780333215,
      1780333215,
      1780333275,
      1780333275,
      1780333275,
      1780333275,
      1780333455,
      1780333455,
      1780333515,
      1780333515,
      1780333515
    ],
    "wof:geomhash": "53000858a44bf537e6d41bc449393ea0",
    "wof:id": 2031421875,
    "wof:repo": "sfomuseum-data-flights-2026-06"
  },
  "bbox": [
    -123.44611111111111,
    37.41833333333333,
    -122.10249999999999,
    47.615
  ],
  "geometry": {"coordinates":[[-122.30916666666667,47.522777777777776],[-122.3111111111111,47.528888888888886],[-122.3111111111111,47.528888888888886],[-122.33638888888889,47.580555555555556],[-122.33638888888889,47.580555555555556],[-122.33638888888889,47.580555555555556],[-122.42722222222223,47.61472222222223],[-122.44111111111111,47.615],[-122.44111111111111,47.615],[-122.44111111111111,47.615],[-122.52638888888889,47.58027777777778],[-122.52638888888889,47.58027777777778],[-122.71444444444445,47.45944444444445],[-122.71444444444445,47.45944444444445],[-122.81638888888888,47.3925],[-122.81638888888888,47.3925],[-122.81638888888888,47.3925],[-122.81638888888888,47.3925],[-122.81638888888888,47.3925],[-123.13611111111112,47.157222222222224],[-123.13611111111112,47.157222222222224],[-123.13611111111112,47.157222222222224],[-123.13611111111112,47.157222222222224],[-123.21527777777779,46.952222222222225],[-123.21527777777779,46.952222222222225],[-123.21527777777779,46.952222222222225],[-123.21527777777779,46.952222222222225],[-123.21527777777779,46.952222222222225],[-123.21138888888889,46.837500000000006],[-123.21138888888889,46.837500000000006],[-123.21138888888889,46.837500000000006],[-123.21138888888889,46.837500000000006],[-123.21138888888889,46.837500000000006],[-123.20333333333333,46.59805555555556],[-123.20333333333333,46.59805555555556],[-123.20333333333333,46.59805555555556],[-123.20333333333333,46.59805555555556],[-123.20333333333333,46.59805555555556],[-123.20333333333333,46.59805555555556],[-123.19083333333333,46.22777777777778],[-123.19083333333333,46.22777777777778],[-123.19083333333333,46.22777777777778],[-123.19083333333333,46.22777777777778],[-123.18666666666667,46.09666666666667],[-123.18666666666667,46.09666666666667],[-123.18666666666667,46.09666666666667],[-123.16944444444445,45.57527777777778],[-123.16944444444445,45.57527777777778],[-123.16944444444445,45.57527777777778],[-123.16944444444445,45.57527777777778],[-123.16944444444445,45.57527777777778],[-123.16111111111111,45.31055555555555],[-123.16111111111111,45.31055555555555],[-123.15722222222223,45.17666666666666],[-123.15722222222223,45.17666666666666],[-123.15722222222223,45.17666666666666],[-123.15722222222223,45.17666666666666],[-123.15722222222223,45.17666666666666],[-123.15305555555557,45.04111111111111],[-123.15305555555557,45.04111111111111],[-123.15305555555557,45.04111111111111],[-123.15305555555557,45.04111111111111],[-123.14027777777778,44.63583333333333],[-123.14027777777778,44.63583333333333],[-123.14027777777778,44.63583333333333],[-123.14027777777778,44.63583333333333],[-123.14027777777778,44.63583333333333],[-123.12638888888888,44.23111111111111],[-123.12638888888888,44.23111111111111],[-123.12166666666666,44.09638888888889],[-123.12166666666666,44.09638888888889],[-123.11722222222221,43.967222222222226],[-123.11722222222221,43.967222222222226],[-123.11722222222221,43.967222222222226],[-123.11722222222221,43.967222222222226],[-123.11722222222221,43.967222222222226],[-123.1125,43.83222222222223],[-123.1125,43.83222222222223],[-123.1125,43.83222222222223],[-123.10749999999999,43.69888888888889],[-123.10749999999999,43.69888888888889],[-123.10749999999999,43.69888888888889],[-123.09833333333333,43.42833333333333],[-123.09833333333333,43.42833333333333],[-123.09833333333333,43.42833333333333],[-123.08888888888889,43.16083333333333],[-123.08888888888889,43.16083333333333],[-123.08888888888889,43.16083333333333],[-123.08888888888889,43.16083333333333],[-123.08444444444444,43.02638888888889],[-123.08444444444444,43.02638888888889],[-123.07972222222222,42.89111111111111],[-123.07972222222222,42.89111111111111],[-123.07888888888888,42.853611111111114],[-123.07888888888888,42.853611111111114],[-123.07888888888888,42.853611111111114],[-123.07888888888888,42.853611111111114],[-123.0736111111111,42.720555555555556],[-123.0736111111111,42.720555555555556],[-123.0736111111111,42.720555555555556],[-123.07027777777778,42.61416666666667],[-123.06944444444444,42.587500000000006],[-123.06583333333333,42.48111111111111],[-123.06583333333333,42.48111111111111],[-123.065,42.45388888888889],[-123.065,42.45388888888889],[-123.065,42.45388888888889],[-123.06055555555555,42.32055555555556],[-123.06055555555555,42.32055555555556],[-123.06055555555555,42.32055555555556],[-123.05722222222222,42.21388888888889],[-123.05722222222222,42.21388888888889],[-123.05638888888889,42.186388888888885],[-123.05638888888889,42.186388888888885],[-123.05277777777778,42.07888888888889],[-123.05277777777778,42.07888888888889],[-123.05277777777778,42.07888888888889],[-123.04861111111111,41.94611111111111],[-123.04861111111111,41.94611111111111],[-123.04444444444444,41.811388888888885],[-123.04444444444444,41.811388888888885],[-123.04444444444444,41.811388888888885],[-123.04444444444444,41.811388888888885],[-123.0436111111111,41.78444444444444],[-123.0436111111111,41.78444444444444],[-123.04027777777777,41.678888888888885],[-123.03944444444444,41.651944444444446],[-123.03611111111111,41.54611111111111],[-123.03611111111111,41.54611111111111],[-123.03166666666667,41.413333333333334],[-123.03166666666667,41.413333333333334],[-123.03166666666667,41.413333333333334],[-123.0275,41.26888888888889],[-123.0275,41.26888888888889],[-123.0275,41.26888888888889],[-123.02638888888889,41.23833333333334],[-123.02333333333333,41.13611111111111],[-123.02333333333333,41.13611111111111],[-123.02333333333333,41.13611111111111],[-123.0225,41.10583333333334],[-123.0225,41.10583333333334],[-123.0225,41.10583333333334],[-123.01944444444445,41.00333333333333],[-123.01944444444445,41.00333333333333],[-123.01555555555555,40.87305555555555],[-123.01555555555555,40.87305555555555],[-123.01444444444445,40.844722222222224],[-123.01444444444445,40.844722222222224],[-123.01444444444445,40.844722222222224],[-123.01444444444445,40.844722222222224],[-123.00861111111111,40.644444444444446],[-123.00861111111111,40.644444444444446],[-123.00861111111111,40.644444444444446],[-123.00861111111111,40.644444444444446],[-123.00861111111111,40.644444444444446],[-123.16027777777778,40.330555555555556],[-123.16027777777778,40.330555555555556],[-123.16027777777778,40.330555555555556],[-123.35527777777777,40.246944444444445],[-123.35527777777777,40.246944444444445],[-123.41833333333334,40.19694444444444],[-123.41833333333334,40.19694444444444],[-123.41833333333334,40.19694444444444],[-123.41833333333334,40.19694444444444],[-123.44611111111111,40.14944444444444],[-123.41027777777778,39.95666666666667],[-123.41027777777778,39.95666666666667],[-123.41027777777778,39.95666666666667],[-123.3,39.664722222222224],[-123.3,39.664722222222224],[-123.3,39.664722222222224],[-123.3,39.664722222222224],[-123.27416666666666,39.59638888888889],[-123.27416666666666,39.59638888888889],[-123.255,39.544999999999995],[-123.21000000000001,39.42527777777777],[-123.21000000000001,39.42527777777777],[-123.21000000000001,39.42527777777777],[-123.16527777777779,39.30555555555555],[-123.16527777777779,39.30555555555555],[-123.12138888888889,39.18861111111111],[-123.12138888888889,39.18861111111111],[-123.12138888888889,39.18861111111111],[-123.12138888888889,39.18861111111111],[-123.07833333333333,39.07222222222222],[-123.07833333333333,39.07222222222222],[-123.07833333333333,39.07222222222222],[-123.07833333333333,39.07222222222222],[-122.86222222222221,38.485],[-122.86222222222221,38.485],[-122.86222222222221,38.485],[-122.86222222222221,38.485],[-122.86222222222221,38.485],[-122.86222222222221,38.485],[-122.82166666666666,38.37388888888889],[-122.82166666666666,38.37388888888889],[-122.82166666666666,38.37388888888889],[-122.72027777777778,38.06222222222222],[-122.72027777777778,38.06222222222222],[-122.72027777777778,38.06222222222222],[-122.72027777777778,38.06222222222222],[-122.72027777777778,38.06222222222222],[-122.72027777777778,38.06222222222222],[-122.56666666666666,37.8],[-122.56666666666666,37.8],[-122.56666666666666,37.8],[-122.56666666666666,37.8],[-122.51833333333333,37.75361111111111],[-122.51833333333333,37.75361111111111],[-122.46027777777778,37.698611111111106],[-122.46027777777778,37.698611111111106],[-122.46027777777778,37.698611111111106],[-122.46027777777778,37.698611111111106],[-122.27638888888889,37.461111111111116],[-122.27638888888889,37.461111111111116],[-122.27638888888889,37.461111111111116],[-122.27638888888889,37.461111111111116],[-122.13361111111112,37.41833333333333],[-122.13361111111112,37.41833333333333],[-122.13361111111112,37.41833333333333],[-122.13361111111112,37.41833333333333],[-122.10249999999999,37.46666666666667],[-122.10249999999999,37.46666666666667],[-122.10249999999999,37.46666666666667],[-122.13416666666667,37.51277777777778],[-122.13416666666667,37.51277777777778],[-122.13416666666667,37.51277777777778],[-122.13416666666667,37.51277777777778],[-122.29944444444445,37.58694444444445],[-122.29944444444445,37.58694444444445],[-122.34083333333332,37.60416666666667],[-122.34083333333332,37.60416666666667],[-122.34083333333332,37.60416666666667]],"type":"LineString"}
}
