{
  "id": 2031474373,
  "type": "Feature",
  "properties": {
    "geom:area": 0,
    "geom:bbox": "-122.853010,37.407990,-122.103670,38.313380",
    "geom:latitude": 37.748311096642176,
    "geom:longitude": -122.46543036279367,
    "src:alt_label": "swim-approach",
    "src:geom": "swim",
    "swim:elevations": [
      6614,
      6323,
      5994,
      5811,
      5533,
      5209,
      4631,
      4389,
      4102,
      3799,
      3561,
      3450,
      3354,
      3353,
      3353,
      3353,
      3315,
      3171,
      2696,
      2615,
      2438,
      2203,
      2100,
      1846,
      1629,
      1416,
      1222,
      1219,
      1219,
      1187,
      1154,
      1111,
      997,
      902,
      789,
      669,
      549,
      473,
      361,
      195,
      119,
      0
    ],
    "swim:geom": "approach",
    "swim:timestamps": [
      1780853275,
      1780853300,
      1780853337,
      1780853357,
      1780853386,
      1780853419,
      1780853484,
      1780853511,
      1780853540,
      1780853575,
      1780853599,
      1780853616,
      1780853652,
      1780853676,
      1780853701,
      1780853740,
      1780853780,
      1780853796,
      1780853846,
      1780853854,
      1780853875,
      1780853904,
      1780853922,
      1780853962,
      1780853991,
      1780854017,
      1780854049,
      1780854072,
      1780854128,
      1780854169,
      1780854180,
      1780854198,
      1780854230,
      1780854252,
      1780854278,
      1780854318,
      1780854342,
      1780854361,
      1780854395,
      1780854433,
      1780854455,
      1780854480
    ],
    "wof:geomhash": "a7931c83bbe0fc23e7736142b0f28acc",
    "wof:id": 2031474373,
    "wof:repo": "sfomuseum-data-flights-2026-06"
  },
  "bbox": [
    -122.85301,
    37.40799,
    -122.10367,
    38.31338
  ],
  "geometry": {"coordinates":[[-122.85301,38.31338],[-122.83319,38.26801],[-122.8054,38.20393],[-122.79108,38.17042],[-122.76995,38.1213],[-122.74614,38.06712],[-122.70069,37.9628],[-122.68158,37.91945],[-122.65003,37.87772],[-122.60388,37.83406],[-122.57044,37.80249],[-122.54915,37.78235],[-122.50406,37.73983],[-122.47572,37.71303],[-122.44944,37.68835],[-122.40993,37.65158],[-122.37069,37.61431],[-122.3569,37.59877],[-122.32804,37.54535],[-122.32409,37.53649],[-122.31121,37.51444],[-122.29207,37.48316],[-122.2812,37.46545],[-122.25878,37.42881],[-122.22959,37.41407],[-122.19906,37.40799],[-122.16859,37.42218],[-122.14955,37.43663],[-122.10367,37.47256],[-122.11329,37.50162],[-122.11971,37.50816],[-122.13355,37.5164],[-122.16,37.52847],[-122.17927,37.53611],[-122.20108,37.54544],[-122.23453,37.55971],[-122.25418,37.56802],[-122.26904,37.57434],[-122.29409,37.58486],[-122.32227,37.59656],[-122.33889,37.60371],[-122.35744,37.6114]],"type":"LineString"}
}
