{
  "id": 2031515315,
  "type": "Feature",
  "properties": {
    "date:cessation_lower": "2026-06-12",
    "date:cessation_upper": "2026-06-12",
    "date:inception_lower": "2026-06-11",
    "date:inception_upper": "2026-06-11",
    "edtf:cessation": "2026-06-12T01:12:00Z",
    "edtf:inception": "2026-06-11T20:22:00Z",
    "flysfo:actual_timestamp": -1,
    "flysfo:airline": "UA",
    "flysfo:date": "2026-06-11",
    "flysfo:estimated_timestamp": 1781204400,
    "flysfo:event": "D",
    "flysfo:flight_number": "UA8260",
    "flysfo:gate": "",
    "flysfo:journey": "SFO-HNL",
    "flysfo:scheduled_timestamp": 1781204400,
    "flysfo:timestamp": 1781204400,
    "geom:area": 0,
    "geom:bbox": "-157.918416,21.332508,-122.370943,37.617990",
    "geom:latitude": 29.475248999999998,
    "geom:longitude": -140.1446795,
    "iata:airline": "UA",
    "icao:aircraft": "B39M",
    "icao:airline": "UAL",
    "lbl:latitude": 37.61799,
    "lbl:longitude": -122.370943,
    "sfomuseum:aircraft_id": 1528104577,
    "sfomuseum:airline_id": 1159285413,
    "sfomuseum:arrival_id": 102533997,
    "sfomuseum:departure_id": 102527513,
    "sfomuseum:flight_id": "20260611-D-UAL-8260",
    "sfomuseum:flight_number": [
      "UAL8260",
      "UA8260"
    ],
    "sfomuseum:placetype": "flight",
    "src:geom": "flysfo",
    "src:geom_alt": [
      "swim-route",
      "swim-path"
    ],
    "swim:tail_number": "N37525",
    "wof:belongsto": [],
    "wof:concordances": {
      "swim:flight_ref": "148996164",
      "swim:gufi": "KO613945ct"
    },
    "wof:country": "US",
    "wof:created": 1781281101,
    "wof:geomhash": "ff961493fc59fc665836e174da62aa8e",
    "wof:hierarchy": [
      {
        "custom_id": 2031515315,
        "flight_id": 2031515315
      }
    ],
    "wof:id": 2031515315,
    "wof:involves": [
      102533997,
      102527513,
      1159285413,
      1528104577
    ],
    "wof:lastmodified": 1781281224,
    "wof:name": "UA8260 (SFO-HNL)",
    "wof:parent_id": -1,
    "wof:placetype": "custom",
    "wof:placetype_alt": [
      "flight"
    ],
    "wof:repo": "sfomuseum-data-flights-2026-06",
    "wof:superseded_by": [],
    "wof:supersedes": []
  },
  "bbox": [
    -157.918416,
    21.332508,
    -122.370943,
    37.61799
  ],
  "geometry": {"coordinates":[[-122.370943,37.61799],[-157.918416,21.332508]],"type":"MultiPoint"}
}
