{
  "id": 2031425923,
  "type": "Feature",
  "properties": {
    "geom:area": 0,
    "geom:bbox": "-122.530580,36.730890,-121.555920,37.666480",
    "geom:latitude": 37.221823430851465,
    "geom:longitude": -122.10589995671934,
    "src:alt_label": "swim-takeoff",
    "src:geom": "swim",
    "swim:elevations": [
      213,
      305,
      613,
      867,
      1064,
      1374,
      1440,
      2113,
      2750,
      2974,
      3375,
      3706,
      3898,
      4597,
      5198,
      5472,
      5643,
      6049,
      6104,
      6218,
      6357,
      7083,
      7405,
      7972,
      8082,
      8235,
      8230,
      8230,
      8230,
      8230,
      8230,
      8202,
      8146,
      7984,
      7827,
      7712
    ],
    "swim:geom": "takeoff",
    "swim:timestamps": [
      1780350415,
      1780350422,
      1780350448,
      1780350470,
      1780350494,
      1780350536,
      1780350542,
      1780350579,
      1780350609,
      1780350621,
      1780350645,
      1780350674,
      1780350695,
      1780350735,
      1780350777,
      1780350794,
      1780350805,
      1780350835,
      1780350838,
      1780350844,
      1780350853,
      1780350898,
      1780350920,
      1780350957,
      1780350963,
      1780350987,
      1780351018,
      1780351043,
      1780351072,
      1780351096,
      1780351112,
      1780351146,
      1780351159,
      1780351192,
      1780351221,
      1780351240
    ],
    "wof:geomhash": "7d5d96aff5a2235369c3ec4e1c07191d",
    "wof:id": 2031425923,
    "wof:repo": "sfomuseum-data-flights-2026-06"
  },
  "bbox": [
    -122.53058,
    36.73089,
    -121.55592,
    37.66648
  ],
  "geometry": {"coordinates":[[-122.38519,37.62489],[-122.39073,37.62697],[-122.4105,37.63479],[-122.42778,37.64194],[-122.44705,37.65049],[-122.49003,37.66619],[-122.4985,37.66648],[-122.53058,37.63478],[-122.51315,37.59964],[-122.50524,37.58506],[-122.49375,37.55506],[-122.47282,37.51616],[-122.44353,37.49117],[-122.38624,37.44296],[-122.32293,37.38914],[-122.29703,37.36721],[-122.28124,37.35383],[-122.23371,37.31341],[-122.229,37.30938],[-122.21959,37.30141],[-122.20548,37.28934],[-122.13579,37.22983],[-122.10134,37.20032],[-122.04469,37.15121],[-122.03574,37.14341],[-121.99845,37.11193],[-121.95212,37.0718],[-121.91048,37.03586],[-121.85927,36.99143],[-121.81639,36.95585],[-121.78715,36.93067],[-121.7251,36.87727],[-121.70289,36.8583],[-121.64296,36.80745],[-121.58925,36.76066],[-121.55592,36.73089]],"type":"LineString"}
}
