{
  "id": 2031661849,
  "type": "Feature",
  "properties": {
    "geom:area": 0,
    "geom:bbox": "-122.341910,37.430100,-121.272060,37.607150",
    "geom:latitude": 37.523255295043334,
    "geom:longitude": -121.81430281767221,
    "src:alt_label": "swim-approach",
    "src:geom": "swim",
    "swim:elevations": [
      5140,
      4957,
      4462,
      4301,
      4119,
      3991,
      3775,
      3691,
      3327,
      3115,
      2976,
      2804,
      2494,
      2438,
      2369,
      2072,
      1955,
      1829,
      1829,
      1695,
      1603,
      1524,
      1389,
      1319,
      1175,
      935,
      826,
      599,
      453,
      361,
      314,
      133,
      110
    ],
    "swim:geom": "approach",
    "swim:timestamps": [
      1782648138,
      1782648152,
      1782648197,
      1782648227,
      1782648261,
      1782648286,
      1782648319,
      1782648332,
      1782648376,
      1782648411,
      1782648427,
      1782648452,
      1782648497,
      1782648523,
      1782648557,
      1782648596,
      1782648612,
      1782648642,
      1782648660,
      1782648700,
      1782648712,
      1782648726,
      1782648765,
      1782648789,
      1782648821,
      1782648860,
      1782648883,
      1782648925,
      1782648957,
      1782648978,
      1782648991,
      1782649039,
      1782649051
    ],
    "wof:geomhash": "0a40b3f3bf6c0ec31fa18d7af95c8c15",
    "wof:id": 2031661849,
    "wof:repo": "sfomuseum-data-flights-2026-06"
  },
  "bbox": [
    -122.34191,
    37.4301,
    -121.27206,
    37.60715
  ],
  "geometry": {"coordinates":[[-121.27206,37.59087],[-121.29641,37.58783],[-121.37312,37.57963],[-121.42367,37.57385],[-121.47518,37.56793],[-121.5117,37.56348],[-121.55909,37.55778],[-121.57715,37.55572],[-121.638,37.54735],[-121.68522,37.53598],[-121.70594,37.52762],[-121.73,37.50568],[-121.7723,37.46451],[-121.79723,37.44177],[-121.84035,37.4301],[-121.89381,37.4309],[-121.91611,37.43179],[-121.95302,37.44317],[-121.97175,37.45078],[-122.01379,37.46865],[-122.02647,37.474],[-122.04081,37.48007],[-122.08123,37.49725],[-122.10567,37.50756],[-122.13859,37.52145],[-122.17871,37.53841],[-122.20229,37.54841],[-122.24429,37.56606],[-122.27403,37.57859],[-122.29202,37.58622],[-122.30117,37.59004],[-122.33369,37.60371],[-122.34191,37.60715]],"type":"LineString"}
}
