{
  "id": 2031434679,
  "type": "Feature",
  "properties": {
    "geom:area": 0,
    "geom:bbox": "-122.407830,37.627750,-121.450640,38.505490",
    "geom:latitude": 38.023163402880236,
    "geom:longitude": -121.9094087278666,
    "src:alt_label": "swim-takeoff",
    "src:geom": "swim",
    "swim:elevations": [
      246,
      410,
      779,
      1072,
      1216,
      1445,
      2024,
      2083,
      2151,
      2496,
      2900,
      3223,
      3538,
      3724,
      4083,
      4380,
      4607,
      4762,
      5087,
      5309,
      5515,
      5865,
      6071,
      6144,
      6215,
      6356,
      6554
    ],
    "swim:geom": "takeoff",
    "swim:timestamps": [
      1780397151,
      1780397166,
      1780397203,
      1780397226,
      1780397251,
      1780397287,
      1780397331,
      1780397338,
      1780397343,
      1780397374,
      1780397409,
      1780397445,
      1780397507,
      1780397535,
      1780397570,
      1780397603,
      1780397628,
      1780397643,
      1780397685,
      1780397716,
      1780397740,
      1780397780,
      1780397809,
      1780397828,
      1780397850,
      1780397884,
      1780397914
    ],
    "wof:geomhash": "144b65d179b9da8e9683081831250dce",
    "wof:id": 2031434679,
    "wof:repo": "sfomuseum-data-flights-2026-06"
  },
  "bbox": [
    -122.40783,
    37.62775,
    -121.45064,
    38.50549
  ],
  "geometry": {"coordinates":[[-122.39681,37.62775],[-122.40783,37.63574],[-122.39679,37.66435],[-122.37066,37.66883],[-122.3402,37.67666],[-122.29177,37.69275],[-122.22659,37.71498],[-122.2166,37.71839],[-122.20889,37.72102],[-122.16078,37.73788],[-122.10671,37.75682],[-122.05379,37.78364],[-121.99129,37.86725],[-121.95923,37.90963],[-121.91808,37.96358],[-121.87948,38.01396],[-121.84979,38.0531],[-121.83194,38.07665],[-121.78188,38.14251],[-121.74328,38.19328],[-121.71335,38.23254],[-121.66343,38.29786],[-121.62702,38.34541],[-121.60219,38.37779],[-121.57306,38.41506],[-121.51457,38.46589],[-121.45064,38.50549]],"type":"LineString"}
}
