{
  "id": 2031503487,
  "type": "Feature",
  "properties": {
    "geom:area": 0,
    "geom:bbox": "-122.733611,37.648611,-122.021111,47.607222",
    "geom:latitude": 42.759957671003846,
    "geom:longitude": -122.32680864032505,
    "src:alt_label": "swim-path",
    "src:geom": "swim",
    "swim:altitudes": [
      "014",
      "014",
      "014",
      "057",
      "119",
      "119",
      "119",
      "119",
      "119",
      "206",
      "206",
      "206",
      "206",
      "228",
      "228",
      "246",
      "246",
      "263",
      "263",
      "263",
      "281",
      "316",
      "316",
      "333",
      "333",
      "333",
      "349",
      "349",
      "349",
      "373",
      "373",
      "373",
      "380C",
      "380C",
      "380C",
      "380C",
      "380C",
      "380C",
      "380C",
      "380C",
      "380C",
      "380C",
      "380C",
      "380C",
      "380C",
      "380C",
      "380C",
      "380C",
      "380C",
      "380C",
      "380C",
      "380C",
      "380C",
      "380C",
      "380C",
      "380C",
      "380C",
      "380C",
      "380C",
      "380C",
      "380C",
      "380C",
      "380C",
      "380C",
      "380C",
      "380C",
      "380C",
      "380C",
      "380C",
      "380C",
      "380C",
      "380C",
      "380C",
      "380C",
      "380C",
      "380C",
      "380C",
      "380C",
      "380C",
      "380C",
      "380C",
      "380C",
      "380C",
      "380C",
      "380C",
      "380C",
      "380C",
      "380C",
      "380C",
      "380C",
      "380C",
      "380C",
      "380C",
      "380C",
      "380C",
      "380C",
      "380C",
      "380C",
      "380C",
      "380C",
      "380C",
      "380C",
      "380C",
      "380C",
      "380C",
      "380C",
      "380",
      "380",
      "380",
      "380",
      "380",
      "276",
      "276",
      "276",
      "276",
      "211",
      "211",
      "211",
      "211",
      "166",
      "166",
      "166",
      "166",
      "149",
      "149",
      "149",
      "149",
      "140",
      "140",
      "140",
      "126",
      "126",
      "119",
      "119",
      "119",
      "105",
      "105",
      "105",
      "086",
      "082",
      "082",
      "082",
      "082",
      "082",
      "063",
      "058",
      "058",
      "058",
      "058",
      "035",
      "035",
      "035",
      "024",
      "021",
      "021",
      "008",
      "008",
      "008"
    ],
    "swim:geom": "path",
    "swim:speeds": [
      178,
      178,
      178,
      242,
      324,
      324,
      324,
      324,
      324,
      383,
      383,
      383,
      383,
      396,
      396,
      407,
      407,
      424,
      424,
      424,
      427,
      431,
      431,
      428,
      428,
      428,
      419,
      419,
      419,
      414,
      414,
      414,
      410,
      410,
      413,
      413,
      413,
      412,
      412,
      412,
      410,
      410,
      410,
      407,
      407,
      407,
      407,
      408,
      408,
      408,
      408,
      408,
      413,
      413,
      413,
      413,
      413,
      415,
      415,
      415,
      415,
      403,
      403,
      403,
      400,
      400,
      400,
      400,
      400,
      400,
      399,
      399,
      399,
      399,
      383,
      383,
      383,
      383,
      379,
      379,
      379,
      379,
      379,
      378,
      378,
      378,
      378,
      378,
      372,
      372,
      372,
      368,
      368,
      368,
      365,
      365,
      362,
      362,
      362,
      360,
      360,
      360,
      359,
      359,
      359,
      359,
      358,
      358,
      358,
      358,
      358,
      332,
      332,
      332,
      332,
      325,
      325,
      325,
      325,
      341,
      341,
      341,
      341,
      286,
      286,
      286,
      278,
      274,
      274,
      274,
      269,
      269,
      267,
      267,
      267,
      261,
      261,
      261,
      260,
      238,
      238,
      238,
      238,
      238,
      242,
      244,
      244,
      244,
      244,
      209,
      209,
      209,
      185,
      175,
      175,
      147,
      147,
      147
    ],
    "swim:timestamps": [
      1781097804,
      1781097804,
      1781097804,
      1781097924,
      1781098105,
      1781098105,
      1781098105,
      1781098105,
      1781098105,
      1781098345,
      1781098345,
      1781098345,
      1781098345,
      1781098405,
      1781098405,
      1781098465,
      1781098465,
      1781098525,
      1781098525,
      1781098525,
      1781098585,
      1781098705,
      1781098705,
      1781098765,
      1781098765,
      1781098765,
      1781098823,
      1781098823,
      1781098823,
      1781098945,
      1781098945,
      1781098945,
      1781099306,
      1781099306,
      1781099426,
      1781099426,
      1781099426,
      1781099545,
      1781099545,
      1781099545,
      1781099666,
      1781099666,
      1781099666,
      1781099783,
      1781099783,
      1781099783,
      1781099783,
      1781099963,
      1781099963,
      1781099963,
      1781099963,
      1781099963,
      1781100266,
      1781100266,
      1781100266,
      1781100266,
      1781100266,
      1781100384,
      1781100384,
      1781100384,
      1781100384,
      1781100624,
      1781100624,
      1781100624,
      1781100685,
      1781100685,
      1781100685,
      1781100685,
      1781100805,
      1781100805,
      1781100866,
      1781100866,
      1781100866,
      1781100866,
      1781101046,
      1781101046,
      1781101046,
      1781101046,
      1781101286,
      1781101286,
      1781101286,
      1781101286,
      1781101286,
      1781101466,
      1781101466,
      1781101466,
      1781101466,
      1781101466,
      1781101705,
      1781101705,
      1781101705,
      1781101765,
      1781101765,
      1781101765,
      1781101825,
      1781101825,
      1781101885,
      1781101885,
      1781101885,
      1781101945,
      1781101945,
      1781101945,
      1781102126,
      1781102126,
      1781102126,
      1781102126,
      1781102306,
      1781102306,
      1781102306,
      1781102306,
      1781102306,
      1781102786,
      1781102786,
      1781102786,
      1781102786,
      1781102967,
      1781102967,
      1781102967,
      1781102967,
      1781103108,
      1781103108,
      1781103108,
      1781103108,
      1781103207,
      1781103207,
      1781103207,
      1781103228,
      1781103267,
      1781103267,
      1781103267,
      1781103327,
      1781103327,
      1781103354,
      1781103354,
      1781103354,
      1781103414,
      1781103414,
      1781103414,
      1781103507,
      1781103540,
      1781103540,
      1781103540,
      1781103540,
      1781103540,
      1781103628,
      1781103649,
      1781103649,
      1781103649,
      1781103649,
      1781103781,
      1781103781,
      1781103781,
      1781103841,
      1781103902,
      1781103902,
      1781103989,
      1781103989,
      1781103989
    ],
    "wof:geomhash": "7817e157b71a97b71b25b65680154a73",
    "wof:id": 2031503487,
    "wof:repo": "sfomuseum-data-flights-2026-06"
  },
  "bbox": [
    -122.73361111111112,
    37.64861111111111,
    -122.02111111111111,
    47.60722222222223
  ],
  "geometry": {"coordinates":[[-122.39583333333334,37.64861111111111],[-122.39583333333334,37.64861111111111],[-122.39583333333334,37.64861111111111],[-122.34277777777777,37.76083333333333],[-122.35694444444444,37.98277777777778],[-122.35694444444444,37.98277777777778],[-122.35694444444444,37.98277777777778],[-122.35694444444444,37.98277777777778],[-122.35694444444444,37.98277777777778],[-122.39861111111112,38.378055555555555],[-122.39861111111112,38.378055555555555],[-122.39861111111112,38.378055555555555],[-122.39861111111112,38.378055555555555],[-122.41527777777779,38.487500000000004],[-122.41527777777779,38.487500000000004],[-122.42111111111112,38.599722222222226],[-122.42111111111112,38.599722222222226],[-122.41000000000001,38.71472222222223],[-122.41000000000001,38.71472222222223],[-122.41000000000001,38.71472222222223],[-122.40305555555557,38.83527777777778],[-122.38333333333334,39.07638888888889],[-122.38333333333334,39.07638888888889],[-122.3736111111111,39.19361111111111],[-122.3736111111111,39.19361111111111],[-122.3736111111111,39.19361111111111],[-122.36277777777777,39.31361111111111],[-122.36277777777777,39.31361111111111],[-122.36277777777777,39.31361111111111],[-122.34444444444443,39.54277777777778],[-122.34444444444443,39.54277777777778],[-122.34444444444443,39.54277777777778],[-122.28527777777778,40.23722222222222],[-122.28527777777778,40.23722222222222],[-122.26527777777778,40.46666666666667],[-122.26527777777778,40.46666666666667],[-122.26527777777778,40.46666666666667],[-122.24777777777778,40.670833333333334],[-122.24777777777778,40.670833333333334],[-122.24777777777778,40.670833333333334],[-122.22583333333334,40.92111111111111],[-122.22583333333334,40.92111111111111],[-122.22583333333334,40.92111111111111],[-122.20722222222223,41.12444444444444],[-122.20722222222223,41.12444444444444],[-122.20722222222223,41.12444444444444],[-122.20722222222223,41.12444444444444],[-122.17722222222223,41.47],[-122.17722222222223,41.47],[-122.17722222222223,41.47],[-122.17722222222223,41.47],[-122.17722222222223,41.47],[-122.12555555555555,42.044999999999995],[-122.12555555555555,42.044999999999995],[-122.12555555555555,42.044999999999995],[-122.12555555555555,42.044999999999995],[-122.12555555555555,42.044999999999995],[-122.10416666666666,42.279444444444444],[-122.10416666666666,42.279444444444444],[-122.10416666666666,42.279444444444444],[-122.10416666666666,42.279444444444444],[-122.0625,42.730555555555554],[-122.0625,42.730555555555554],[-122.0625,42.730555555555554],[-122.0525,42.84027777777778],[-122.0525,42.84027777777778],[-122.0525,42.84027777777778],[-122.0525,42.84027777777778],[-122.03166666666667,43.062777777777775],[-122.03166666666667,43.062777777777775],[-122.02111111111111,43.17388888888889],[-122.02111111111111,43.17388888888889],[-122.02111111111111,43.17388888888889],[-122.02111111111111,43.17388888888889],[-122.03416666666666,43.47972222222222],[-122.03416666666666,43.47972222222222],[-122.03416666666666,43.47972222222222],[-122.03416666666666,43.47972222222222],[-122.13305555555554,43.895833333333336],[-122.13305555555554,43.895833333333336],[-122.13305555555554,43.895833333333336],[-122.13305555555554,43.895833333333336],[-122.13305555555554,43.895833333333336],[-122.20777777777778,44.20527777777778],[-122.20777777777778,44.20527777777778],[-122.20777777777778,44.20527777777778],[-122.20777777777778,44.20527777777778],[-122.20777777777778,44.20527777777778],[-122.31222222222222,44.63305555555556],[-122.31222222222222,44.63305555555556],[-122.31222222222222,44.63305555555556],[-122.33694444444444,44.73388888888889],[-122.33694444444444,44.73388888888889],[-122.33694444444444,44.73388888888889],[-122.36138888888888,44.8325],[-122.36138888888888,44.8325],[-122.38444444444445,44.925555555555555],[-122.38444444444445,44.925555555555555],[-122.38444444444445,44.925555555555555],[-122.4088888888889,45.02333333333333],[-122.4088888888889,45.02333333333333],[-122.4088888888889,45.02333333333333],[-122.48222222222222,45.316944444444445],[-122.48222222222222,45.316944444444445],[-122.48222222222222,45.316944444444445],[-122.48222222222222,45.316944444444445],[-122.55611111111111,45.61],[-122.55611111111111,45.61],[-122.55611111111111,45.61],[-122.55611111111111,45.61],[-122.55611111111111,45.61],[-122.72416666666666,46.36972222222222],[-122.72416666666666,46.36972222222222],[-122.72416666666666,46.36972222222222],[-122.72416666666666,46.36972222222222],[-122.73361111111112,46.64055555555556],[-122.73361111111112,46.64055555555556],[-122.73361111111112,46.64055555555556],[-122.73361111111112,46.64055555555556],[-122.66583333333334,46.84777777777778],[-122.66583333333334,46.84777777777778],[-122.66583333333334,46.84777777777778],[-122.66583333333334,46.84777777777778],[-122.54972222222221,46.96555555555556],[-122.54972222222221,46.96555555555556],[-122.54972222222221,46.96555555555556],[-122.53888888888889,46.99333333333333],[-122.51805555555555,47.038333333333334],[-122.51805555555555,47.038333333333334],[-122.51805555555555,47.038333333333334],[-122.49472222222222,47.11083333333333],[-122.49472222222222,47.11083333333333],[-122.48777777777778,47.14694444444444],[-122.48777777777778,47.14694444444444],[-122.48777777777778,47.14694444444444],[-122.47472222222223,47.219166666666666],[-122.47472222222223,47.219166666666666],[-122.47472222222223,47.219166666666666],[-122.45916666666668,47.32833333333333],[-122.45555555555556,47.3675],[-122.45555555555556,47.3675],[-122.45555555555556,47.3675],[-122.45555555555556,47.3675],[-122.45555555555556,47.3675],[-122.45527777777778,47.463055555555556],[-122.45722222222223,47.49],[-122.45722222222223,47.49],[-122.45722222222223,47.49],[-122.45722222222223,47.49],[-122.39277777777778,47.60722222222223],[-122.39277777777778,47.60722222222223],[-122.39277777777778,47.60722222222223],[-122.32138888888889,47.593611111111116],[-122.31916666666666,47.54416666666666],[-122.31916666666666,47.54416666666666],[-122.31777777777778,47.484722222222224],[-122.31777777777778,47.484722222222224],[-122.31777777777778,47.484722222222224]],"type":"LineString"}
}
