{
  "id": 2031528743,
  "type": "Feature",
  "properties": {
    "geom:area": 0,
    "geom:bbox": "-122.380000,32.480000,-97.040000,37.700000",
    "geom:latitude": 34.87774406453688,
    "geom:longitude": -109.72809621951798,
    "src:alt_label": "swim-route",
    "src:geom": "swim",
    "swim:geom": "route",
    "wof:geomhash": "2956d63c0748f290efff0c506ec71b3a",
    "wof:id": 2031528743,
    "wof:repo": "sfomuseum-data-flights-2026-06"
  },
  "bbox": [
    -122.38,
    32.48,
    -97.04,
    37.7
  ],
  "geometry": {"coordinates":[[-97.04,32.9],[-97.05,32.81],[-97.05,32.74],[-97.05,32.71],[-97.11,32.7],[-97.14,32.69],[-97.3,32.69],[-97.5,32.68],[-97.54,32.68],[-97.56,32.68],[-97.73,32.68],[-97.73,32.68],[-97.92,32.66],[-98.04,32.65],[-98.13,32.65],[-98.16,32.64],[-98.22,32.64],[-98.35,32.63],[-98.43,32.62],[-98.6,32.61],[-98.98,32.58],[-99.02,32.57],[-99.12,32.56],[-99.33,32.55],[-100.02,32.5],[-100.32,32.48],[-101.94,32.82],[-102.82,33],[-103.8,33.19],[-104.62,33.34],[-106.07,33.71],[-106.56,33.83],[-106.75,33.87],[-106.99,33.93],[-109.14,34.42],[-109.45,34.54],[-110.27,34.86],[-110.8,35.06],[-111.67,35.15],[-112.14,35.27],[-112.59,35.39],[-113.54,35.62],[-113.72,35.67],[-114.25,35.82],[-114.55,35.91],[-114.86,36],[-115.03,36.07],[-115.52,36.28],[-116.75,36.8],[-116.99,37.02],[-117.24,37.25],[-117.52,37.49],[-119.05,37.61],[-119.41,37.64],[-119.53,37.64],[-119.98,37.67],[-120.04,37.68],[-120.26,37.69],[-120.28,37.69],[-120.38,37.7],[-120.4,37.7],[-120.75,37.66],[-120.78,37.66],[-120.83,37.65],[-120.96,37.63],[-121,37.63],[-121.08,37.62],[-121.18,37.6],[-121.26,37.59],[-121.39,37.58],[-121.41,37.58],[-121.6,37.55],[-121.61,37.55],[-121.62,37.55],[-121.7,37.53],[-121.8,37.51],[-121.83,37.5],[-121.88,37.49],[-122.08,37.54],[-122.14,37.56],[-122.18,37.57],[-122.28,37.59],[-122.33,37.61],[-122.36,37.61],[-122.38,37.62]],"type":"LineString"}
}
