{
  "id": 2031551743,
  "type": "Feature",
  "properties": {
    "geom:area": 0,
    "geom:bbox": "-126.898056,37.633333,-122.400000,37.846667",
    "geom:latitude": 37.77035557821883,
    "geom:longitude": -124.64533861585831,
    "src:alt_label": "swim-path",
    "src:geom": "swim",
    "swim:altitudes": [
      "006",
      "067C",
      "071",
      "083C",
      "102C",
      "106",
      "146",
      "146",
      "146",
      "161",
      "161",
      "233",
      "233",
      "233",
      "246",
      "246",
      "276",
      "276",
      "276",
      "300C",
      "300C",
      "300C",
      "300C",
      "300C",
      "300C",
      "300C",
      "300C",
      "300C",
      "300C",
      "300C",
      "300C",
      "300C",
      "300C",
      "300C"
    ],
    "swim:geom": "path",
    "swim:speeds": [
      182,
      300,
      299,
      310,
      320,
      327,
      413,
      413,
      413,
      432,
      432,
      472,
      472,
      472,
      479,
      479,
      510,
      510,
      510,
      534,
      534,
      535,
      537,
      537,
      537,
      537,
      537,
      538,
      538,
      537,
      537,
      537,
      537,
      537
    ],
    "swim:timestamps": [
      1781561844,
      1781562076,
      1781562100,
      1781562136,
      1781562196,
      1781562220,
      1781562400,
      1781562400,
      1781562400,
      1781562460,
      1781562460,
      1781562761,
      1781562761,
      1781562761,
      1781562821,
      1781562821,
      1781563001,
      1781563001,
      1781563001,
      1781563181,
      1781563181,
      1781563241,
      1781563301,
      1781563301,
      1781563301,
      1781563361,
      1781563361,
      1781563482,
      1781563482,
      1781563542,
      1781563542,
      1781563602,
      1781563602,
      1781563602
    ],
    "wof:geomhash": "f5c3f1b5c23ad0eb9400b5acd13754eb",
    "wof:id": 2031551743,
    "wof:repo": "sfomuseum-data-flights-2026-06"
  },
  "bbox": [
    -126.89805555555556,
    37.63333333333333,
    -122.4,
    37.84666666666667
  ],
  "geometry": {"coordinates":[[-122.4,37.63333333333333],[-122.7,37.68333333333333],[-122.73527777777778,37.68888888888888],[-122.81666666666666,37.68333333333333],[-122.91666666666667,37.68333333333333],[-122.96000000000001,37.70111111111111],[-123.37388888888889,37.722500000000004],[-123.37388888888889,37.722500000000004],[-123.37388888888889,37.722500000000004],[-123.52111111111111,37.72972222222222],[-123.52111111111111,37.72972222222222],[-124.31666666666666,37.76611111111111],[-124.31666666666666,37.76611111111111],[-124.31666666666666,37.76611111111111],[-124.48722222222223,37.77333333333333],[-124.48722222222223,37.77333333333333],[-125.0125,37.79361111111111],[-125.0125,37.79361111111111],[-125.0125,37.79361111111111],[-125.56916666666666,37.81222222222222],[-125.56916666666666,37.81222222222222],[-125.75944444444444,37.81805555555556],[-125.94555555555556,37.82333333333334],[-125.94555555555556,37.82333333333334],[-125.94555555555556,37.82333333333334],[-126.13611111111112,37.828611111111115],[-126.13611111111112,37.828611111111115],[-126.51472222222222,37.83833333333334],[-126.51472222222222,37.83833333333334],[-126.71083333333334,37.8425],[-126.71083333333334,37.8425],[-126.89805555555556,37.84666666666667],[-126.89805555555556,37.84666666666667],[-126.89805555555556,37.84666666666667]],"type":"LineString"}
}
