{
  "id": 2031533515,
  "type": "Feature",
  "properties": {
    "geom:area": 0,
    "geom:bbox": "-123.486010,37.625440,-122.391440,37.731320",
    "geom:latitude": 37.69749484853978,
    "geom:longitude": -122.93435450135294,
    "src:alt_label": "swim-takeoff",
    "src:geom": "swim",
    "swim:elevations": [
      122,
      336,
      539,
      894,
      1061,
      1156,
      1278,
      1374,
      1696,
      1875,
      2228,
      2469,
      2709,
      2867,
      3013,
      3135,
      3158,
      3323,
      3447,
      3657,
      3896,
      4053,
      4195,
      4461,
      4587
    ],
    "swim:geom": "takeoff",
    "swim:timestamps": [
      1781393945,
      1781393963,
      1781393981,
      1781394026,
      1781394057,
      1781394083,
      1781394116,
      1781394134,
      1781394174,
      1781394195,
      1781394231,
      1781394255,
      1781394279,
      1781394297,
      1781394312,
      1781394323,
      1781394335,
      1781394377,
      1781394395,
      1781394431,
      1781394470,
      1781394506,
      1781394527,
      1781394566,
      1781394584
    ],
    "wof:geomhash": "bb8ddd621bb5915198475cf231e568c0",
    "wof:id": 2031533515,
    "wof:repo": "sfomuseum-data-flights-2026-06"
  },
  "bbox": [
    -123.48601,
    37.62544,
    -122.39144,
    37.73132
  ],
  "geometry": {"coordinates":[[-122.39144,37.62544],[-122.40835,37.63263],[-122.4255,37.6399],[-122.46957,37.65948],[-122.50205,37.67314],[-122.53504,37.67658],[-122.58222,37.67954],[-122.60908,37.68107],[-122.67382,37.68469],[-122.70854,37.687],[-122.76879,37.69057],[-122.80923,37.69299],[-122.85075,37.69563],[-122.88191,37.6971],[-122.90797,37.69863],[-122.92723,37.69978],[-122.94893,37.70105],[-123.02969,37.70587],[-123.06595,37.70782],[-123.14096,37.71205],[-123.22299,37.7166],[-123.30487,37.72105],[-123.35338,37.72388],[-123.44372,37.72903],[-123.48601,37.73132]],"type":"LineString"}
}
