{
  "id": 2031545233,
  "type": "Feature",
  "properties": {
    "geom:area": 0,
    "geom:bbox": "-122.734180,37.436840,-122.108190,37.984430",
    "geom:latitude": 37.67478331121931,
    "geom:longitude": -122.41890507370034,
    "src:alt_label": "swim-approach",
    "src:geom": "swim",
    "swim:elevations": [
      4267,
      3979,
      3785,
      3593,
      3536,
      3361,
      3353,
      3353,
      3353,
      3353,
      3353,
      3352,
      3353,
      3116,
      2968,
      2814,
      2660,
      2371,
      2064,
      1918,
      1803,
      1759,
      1517,
      1312,
      1235,
      1068,
      817,
      730,
      518,
      428,
      255,
      191,
      42,
      86
    ],
    "swim:geom": "approach",
    "swim:timestamps": [
      1781548081,
      1781548225,
      1781548250,
      1781548282,
      1781548296,
      1781548329,
      1781548352,
      1781548394,
      1781548426,
      1781548444,
      1781548502,
      1781548538,
      1781548591,
      1781548657,
      1781548684,
      1781548720,
      1781548749,
      1781548781,
      1781548814,
      1781548837,
      1781548858,
      1781548864,
      1781548905,
      1781548938,
      1781548953,
      1781548983,
      1781549034,
      1781549050,
      1781549095,
      1781549113,
      1781549158,
      1781549176,
      1781549216,
      1781549223
    ],
    "wof:geomhash": "e4cf66a81ae961749ef62a8b2660fbe0",
    "wof:id": 2031545233,
    "wof:repo": "sfomuseum-data-flights-2026-06"
  },
  "bbox": [
    -122.73418,
    37.43684,
    -122.10819,
    37.98443
  ],
  "geometry": {"coordinates":[[-122.72281,37.84328],[-122.73418,37.98443],[-122.69073,37.97679],[-122.65818,37.93993],[-122.65128,37.92145],[-122.63571,37.87585],[-122.62545,37.84522],[-122.59363,37.79869],[-122.56333,37.76893],[-122.54504,37.75432],[-122.48579,37.70717],[-122.44873,37.67774],[-122.39332,37.63396],[-122.32608,37.58012],[-122.31212,37.55177],[-122.29915,37.51126],[-122.28391,37.48],[-122.24619,37.46184],[-122.20526,37.44668],[-122.17671,37.43684],[-122.14839,37.43857],[-122.14115,37.44163],[-122.10819,37.4752],[-122.10993,37.50514],[-122.12319,37.51421],[-122.15341,37.5276],[-122.20486,37.54929],[-122.22087,37.55608],[-122.26177,37.57341],[-122.2781,37.58032],[-122.31319,37.59507],[-122.32646,37.60068],[-122.35207,37.61144],[-122.3566,37.61345]],"type":"LineString"}
}
