{
  "id": 2031444345,
  "type": "Feature",
  "properties": {
    "geom:area": 0,
    "geom:bbox": "-122.380000,37.490000,-73.550000,43.200000",
    "geom:latitude": 41.27693075360962,
    "geom:longitude": -96.88916825891354,
    "src:alt_label": "swim-route",
    "src:geom": "swim",
    "swim:geom": "route",
    "wof:geomhash": "84f465c94aa42d66406f946398fa5619",
    "wof:id": 2031444345,
    "wof:repo": "sfomuseum-data-flights-2026-06"
  },
  "bbox": [
    -122.38,
    37.49,
    -73.55,
    43.2
  ],
  "geometry": {"coordinates":[[-73.78,40.64],[-73.91,40.71],[-73.94,40.73],[-74.04,40.78],[-74.06,40.79],[-74.06,40.8],[-74.1,40.82],[-74.12,40.83],[-74.16,40.85],[-74.19,40.87],[-74.23,40.88],[-74.26,40.9],[-74.29,40.92],[-74.31,40.93],[-74.35,40.95],[-74.38,40.97],[-74.4,40.98],[-74.41,40.98],[-74.47,41.02],[-74.51,41.04],[-74.6,41.09],[-74.63,41.1],[-74.67,41.12],[-74.7,41.14],[-74.53,41.07],[-74.29,40.97],[-74.08,40.88],[-73.55,40.66],[-73.62,40.72],[-73.65,40.74],[-73.68,40.77],[-73.74,40.82],[-73.75,40.83],[-73.8,40.87],[-73.85,40.92],[-73.88,40.94],[-73.9,40.96],[-73.99,41.04],[-74.14,41.08],[-74.16,41.09],[-74.19,41.09],[-74.22,41.09],[-74.31,41.1],[-74.35,41.1],[-74.46,41.11],[-74.5,41.12],[-74.55,41.12],[-74.62,41.13],[-74.7,41.14],[-74.7,41.14],[-74.76,41.16],[-74.77,41.17],[-74.85,41.2],[-75.03,41.28],[-75.2,41.36],[-75.32,41.41],[-75.48,41.48],[-75.53,41.49],[-75.54,41.49],[-75.81,41.57],[-75.86,41.58],[-75.95,41.61],[-76.11,41.65],[-76.22,41.69],[-76.42,41.74],[-76.52,41.77],[-76.59,41.79],[-76.7,41.82],[-76.93,41.88],[-77.35,41.99],[-77.41,42.01],[-78.27,42.24],[-78.91,42.4],[-79.62,42.57],[-79.79,42.61],[-80.5,42.64],[-80.6,42.65],[-81.27,42.67],[-82.48,42.8],[-82.55,42.81],[-82.71,42.83],[-83.3,42.91],[-83.66,42.94],[-83.9,42.96],[-84.59,43.02],[-85,43.06],[-86.27,43.2],[-87,43.17],[-88.28,43.12],[-88.35,43.12],[-89.34,43.13],[-89.86,43.13],[-91.32,43.13],[-93.33,43.09],[-94.08,43.02],[-94.35,43],[-94.71,42.96],[-95.39,42.89],[-96.23,42.79],[-96.44,42.76],[-96.85,42.71],[-97.37,42.65],[-97.64,42.61],[-98.69,42.47],[-98.93,42.43],[-99.04,42.41],[-99.31,42.36],[-100.17,42.2],[-102.03,41.82],[-102.26,41.78],[-102.65,41.69],[-102.93,41.63],[-103.06,41.6],[-103.66,41.47],[-104.24,41.34],[-104.55,41.26],[-104.77,41.21],[-105.71,41.04],[-106,40.99],[-106.03,40.99],[-106.29,40.94],[-106.58,40.88],[-107.44,40.72],[-107.7,40.66],[-108.18,40.57],[-108.66,40.47],[-109.14,40.37],[-109.57,40.27],[-110.13,40.15],[-112.51,39.3],[-112.93,39.21],[-113.32,39.12],[-114.63,38.81],[-115.31,38.65],[-115.53,38.59],[-116.2,38.42],[-116.74,38.28],[-117.27,38.14],[-117.77,38],[-118.76,37.9],[-119.1,37.86],[-119.38,37.82],[-119.72,37.78],[-119.82,37.77],[-119.92,37.76],[-120.02,37.75],[-120.31,37.71],[-120.4,37.7],[-120.4,37.7],[-120.57,37.68],[-120.69,37.67],[-120.75,37.66],[-120.79,37.65],[-120.8,37.65],[-120.96,37.63],[-121,37.63],[-121.01,37.63],[-121.07,37.62],[-121.17,37.61],[-121.26,37.59],[-121.39,37.58],[-121.41,37.58],[-121.6,37.55],[-121.61,37.55],[-121.62,37.55],[-121.72,37.53],[-121.8,37.51],[-121.88,37.49],[-121.89,37.49],[-122.01,37.53],[-122.08,37.54],[-122.18,37.57],[-122.18,37.57],[-122.28,37.59],[-122.33,37.61],[-122.36,37.61],[-122.38,37.62]],"type":"LineString"}
}
