{
  "id": 2031505627,
  "type": "Feature",
  "properties": {
    "date:cessation_lower": "2026-06-11",
    "date:cessation_upper": "2026-06-11",
    "date:inception_lower": "2026-06-11",
    "date:inception_upper": "2026-06-11",
    "edtf:cessation": "2026-06-11T07:45:00Z",
    "edtf:inception": "2026-06-11T03:52:00Z",
    "flysfo:actual_timestamp": -1,
    "flysfo:airline": "UA",
    "flysfo:base_airline": "",
    "flysfo:base_flight_number": "5166",
    "flysfo:date": "2026-06-10",
    "flysfo:estimated_timestamp": 1781148240,
    "flysfo:event": "D",
    "flysfo:flight_number": "UA1763",
    "flysfo:gate": "F14",
    "flysfo:journey": "SFO-ORD",
    "flysfo:scheduled_timestamp": 1781141640,
    "flysfo:timestamp": 1781148240,
    "geom:area": 0,
    "geom:bbox": "-122.370943,37.617990,-87.894364,41.983038",
    "geom:latitude": 39.800514,
    "geom:longitude": -105.1326535,
    "iata:airline": "UA",
    "iata:base_airline": "",
    "icao:aircraft": "B753",
    "icao:airline": "UAL",
    "icao:base_airline": "ACA",
    "lbl:latitude": 37.620304,
    "lbl:longitude": -122.388827,
    "sfomuseum:aircraft_id": 1159289945,
    "sfomuseum:airline_id": 1159285413,
    "sfomuseum:arrival_id": 102533631,
    "sfomuseum:base_flight_id": "20260610-D-ACA-5166",
    "sfomuseum:departure_id": 102527513,
    "sfomuseum:flight_id": "20260610-D-UAL-1763",
    "sfomuseum:flight_number": [
      "UAL1763",
      "UA1763"
    ],
    "sfomuseum:placetype": "flight",
    "src:geom": "flysfo",
    "src:geom_alt": [
      "swim-route",
      "swim-path",
      "swim-takeoff"
    ],
    "swim:tail_number": "N57864",
    "wof:belongsto": [
      1947304067,
      102527513,
      1947304451,
      102191575,
      85633793,
      102087579,
      85922583,
      554784711,
      85688637,
      1947304453,
      1947304447,
      102085387
    ],
    "wof:concordances": {
      "swim:flight_ref": "148848396",
      "swim:gufi": "KO0381052G"
    },
    "wof:country": "US",
    "wof:created": 1781194635,
    "wof:geomhash": "7a75cc81bf790964b92a4927d3978f50",
    "wof:hierarchy": [
      {
        "building_id": 1947304067,
        "campus_id": 102527513,
        "concourse_id": 1947304451,
        "continent_id": 102191575,
        "country_id": 85633793,
        "county_id": 102087579,
        "custom_id": 2031505627,
        "flight_id": 2031505627,
        "locality_id": 85922583,
        "postalcode_id": 554784711,
        "region_id": 85688637,
        "venue_id": 1947304453,
        "wing_id": 1947304447
      },
      {
        "building_id": 1947304067,
        "campus_id": 102527513,
        "concourse_id": 1947304451,
        "continent_id": 102191575,
        "country_id": 85633793,
        "county_id": 102085387,
        "custom_id": 2031505627,
        "flight_id": 2031505627,
        "region_id": 85688637,
        "venue_id": 1947304453,
        "wing_id": 1947304447
      }
    ],
    "wof:id": 2031505627,
    "wof:involves": [
      1159283597,
      1159289945,
      102533631,
      102527513,
      1159285413,
      1947304453
    ],
    "wof:lastmodified": 1781194789,
    "wof:name": "UA1763 (SFO-ORD)",
    "wof:parent_id": 1947304453,
    "wof:placetype": "custom",
    "wof:placetype_alt": [
      "flight"
    ],
    "wof:repo": "sfomuseum-data-flights-2026-06",
    "wof:superseded_by": [],
    "wof:supersedes": []
  },
  "bbox": [
    -122.370943,
    37.61799,
    -87.894364,
    41.983038
  ],
  "geometry": {"coordinates":[[-122.370943,37.61799],[-87.894364,41.983038]],"type":"MultiPoint"}
}
