{
  "id": 2031550719,
  "type": "Feature",
  "properties": {
    "geom:area": 0,
    "geom:bbox": "-122.451944,37.627222,-87.497222,41.847222",
    "geom:latitude": 39.42457024377101,
    "geom:longitude": -104.78234929182578,
    "src:alt_label": "swim-path",
    "src:geom": "swim",
    "swim:altitudes": [
      "008",
      "025",
      "274",
      "323",
      "350",
      "370C",
      "370C",
      "370C",
      "370C",
      "370C",
      "370C",
      "370C",
      "370C",
      "370C",
      "370C",
      "370C",
      "370C",
      "370C",
      "370C",
      "370C",
      "370C",
      "370C",
      "370C",
      "370C",
      "370C",
      "370C",
      "370C",
      "370C",
      "370C",
      "370C",
      "370C",
      "370C",
      "370C",
      "387",
      "390C",
      "390C",
      "390C",
      "390C",
      "390C",
      "390C",
      "390C",
      "390C",
      "390C",
      "390C",
      "390C",
      "390C",
      "390C",
      "390C",
      "390C",
      "387",
      "377",
      "356",
      "316",
      "304",
      "250",
      "191",
      "155",
      "101",
      "101",
      "070",
      "060",
      "060C",
      "040",
      "040",
      "034",
      "030",
      "029",
      "012"
    ],
    "swim:geom": "path",
    "swim:speeds": [
      154,
      204,
      437,
      455,
      456,
      469,
      465,
      467,
      470,
      473,
      473,
      474,
      473,
      475,
      478,
      480,
      480,
      481,
      489,
      492,
      499,
      501,
      507,
      512,
      514,
      517,
      516,
      518,
      528,
      529,
      530,
      529,
      530,
      542,
      541,
      541,
      541,
      542,
      545,
      547,
      548,
      549,
      551,
      552,
      552,
      551,
      555,
      555,
      553,
      546,
      545,
      545,
      514,
      508,
      459,
      405,
      368,
      340,
      329,
      280,
      277,
      280,
      279,
      278,
      235,
      177,
      164,
      140
    ],
    "swim:timestamps": [
      1781529668,
      1781529728,
      1781530389,
      1781530569,
      1781530689,
      1781530907,
      1781531290,
      1781531530,
      1781531770,
      1781532109,
      1781532229,
      1781532589,
      1781532950,
      1781533070,
      1781533310,
      1781533550,
      1781533611,
      1781533791,
      1781534151,
      1781534211,
      1781534452,
      1781534692,
      1781534812,
      1781534992,
      1781535114,
      1781535595,
      1781535655,
      1781536015,
      1781536436,
      1781536736,
      1781536796,
      1781537112,
      1781537277,
      1781537457,
      1781537593,
      1781537791,
      1781537998,
      1781538073,
      1781538194,
      1781538392,
      1781538584,
      1781538824,
      1781539155,
      1781539305,
      1781539365,
      1781539546,
      1781539756,
      1781539803,
      1781539923,
      1781540044,
      1781540104,
      1781540237,
      1781540464,
      1781540537,
      1781540838,
      1781541062,
      1781541183,
      1781541378,
      1781541483,
      1781541635,
      1781541810,
      1781541856,
      1781542036,
      1781542156,
      1781542296,
      1781542397,
      1781542517,
      1781542637
    ],
    "wof:geomhash": "2e97f0c83fded09ae71c4167ef58b3a5",
    "wof:id": 2031550719,
    "wof:repo": "sfomuseum-data-flights-2026-06"
  },
  "bbox": [
    -122.45194444444445,
    37.62722222222222,
    -87.49722222222222,
    41.84722222222222
  ],
  "geometry": {"coordinates":[[-122.39472222222223,37.62722222222222],[-122.45194444444445,37.651666666666664],[-121.42750000000001,37.95527777777778],[-120.95527777777778,38.01416666666667],[-120.6413888888889,38.06222222222222],[-120.05,38.14861111111111],[-119.01611111111112,38.29694444444444],[-118.37055555555555,38.38361111111111],[-117.72083333333333,38.466944444444444],[-116.78555555555555,38.565],[-116.44944444444445,38.593611111111116],[-115.44444444444444,38.67333333333333],[-114.44222222222223,38.743611111111115],[-114.10277777777777,38.76555555555556],[-113.43166666666667,38.85055555555556],[-112.76194444444444,38.95888888888889],[-112.59194444444444,38.98555555555556],[-112.08083333333333,39.025555555555556],[-111.04833333333333,39.046388888888885],[-110.87166666666666,39.049166666666665],[-110.16000000000001,39.056666666666665],[-109.44833333333334,39.06027777777778],[-109.08722222222222,39.06055555555555],[-108.54972222222221,39.07805555555556],[-108.14472222222223,39.1075],[-106.67916666666667,39.20305555555556],[-106.49416666666667,39.21361111111111],[-105.40138888888889,39.27055555555555],[-104.08388888888888,39.325833333333335],[-103.13527777777779,39.35638888888889],[-102.94361111111111,39.36472222222223],[-101.97333333333333,39.47694444444445],[-101.44250000000001,39.53527777777778],[-100.87333333333332,39.595],[-100.4038888888889,39.64138888888889],[-99.7761111111111,39.700833333333335],[-99.11916666666666,39.75944444444445],[-98.89,39.77916666666667],[-98.5,39.81111111111111],[-97.8275,39.86361111111111],[-97.19861111111112,39.90861111111111],[-96.4063888888889,39.96055555555556],[-95.3275,40.022777777777776],[-94.80916666666667,40.04888888888889],[-94.6125,40.058611111111105],[-94.01333333333334,40.084722222222226],[-93.33277777777778,40.111111111111114],[-93.1738888888889,40.11638888888889],[-92.7775,40.129444444444445],[-92.35888888888888,40.18138888888889],[-92.16638888888889,40.21944444444445],[-91.74583333333334,40.30138888888889],[-91.05499999999999,40.47972222222222],[-90.84638888888888,40.54361111111111],[-90.04583333333333,40.78333333333333],[-89.53416666666666,40.968333333333334],[-89.28833333333333,41.075],[-88.96166666666667,41.21611111111111],[-88.73388888888888,41.29527777777778],[-88.48333333333333,41.38333333333333],[-88.25,41.53333333333333],[-88.18222222222222,41.55694444444444],[-87.915,41.680277777777775],[-87.73305555555555,41.75527777777778],[-87.51666666666667,41.766666666666666],[-87.49722222222222,41.843333333333334],[-87.61916666666666,41.84722222222222],[-87.71555555555555,41.81388888888888]],"type":"LineString"}
}
