{
  "id": 2031424027,
  "type": "Feature",
  "properties": {
    "geom:area": 0,
    "geom:bbox": "-122.752500,37.653333,-122.207222,45.549444",
    "geom:latitude": 41.60107291249552,
    "geom:longitude": -122.50049754842233,
    "src:alt_label": "swim-path",
    "src:geom": "swim",
    "swim:altitudes": [
      "017",
      "112",
      "112",
      "176",
      "221",
      "241",
      "241",
      "241",
      "275",
      "296",
      "314",
      "314",
      "340",
      "357",
      "380C",
      "380C",
      "380C",
      "380C",
      "380C",
      "380C",
      "380C",
      "380C",
      "380C",
      "380C",
      "380C",
      "380C",
      "380C",
      "380C",
      "380C",
      "380C",
      "380C",
      "380C",
      "380",
      "380",
      "380",
      "380",
      "364",
      "281",
      "260",
      "240",
      "143",
      "143",
      "102",
      "102",
      "023",
      "013",
      "013"
    ],
    "swim:geom": "path",
    "swim:speeds": [
      192,
      297,
      297,
      396,
      432,
      442,
      442,
      442,
      462,
      465,
      458,
      458,
      447,
      437,
      420,
      421,
      419,
      418,
      414,
      412,
      410,
      411,
      387,
      382,
      376,
      374,
      374,
      377,
      377,
      380,
      380,
      381,
      382,
      384,
      388,
      388,
      394,
      426,
      410,
      395,
      335,
      335,
      316,
      316,
      175,
      144,
      144
    ],
    "swim:timestamps": [
      1780366690,
      1780366930,
      1780366930,
      1780367110,
      1780367231,
      1780367291,
      1780367291,
      1780367291,
      1780367411,
      1780367471,
      1780367531,
      1780367531,
      1780367711,
      1780367831,
      1780367951,
      1780367967,
      1780368252,
      1780368268,
      1780368388,
      1780368432,
      1780368508,
      1780368568,
      1780368748,
      1780368809,
      1780368972,
      1780369049,
      1780369049,
      1780369273,
      1780369273,
      1780369407,
      1780369407,
      1780369707,
      1780369828,
      1780369948,
      1780370008,
      1780370008,
      1780370128,
      1780370308,
      1780370368,
      1780370428,
      1780370729,
      1780370729,
      1780370849,
      1780370849,
      1780371270,
      1780371343,
      1780371343
    ],
    "wof:geomhash": "34956c0506203553c79eb6dc8c8db2b7",
    "wof:id": 2031424027,
    "wof:repo": "sfomuseum-data-flights-2026-06"
  },
  "bbox": [
    -122.7525,
    37.65333333333333,
    -122.20722222222223,
    45.54944444444444
  ],
  "geometry": {"coordinates":[[-122.39888888888889,37.65333333333333],[-122.20722222222223,37.85055555555556],[-122.20722222222223,37.85055555555556],[-122.24472222222222,38.12833333333333],[-122.26333333333334,38.36388888888889],[-122.27305555555556,38.487500000000004],[-122.27305555555556,38.487500000000004],[-122.27305555555556,38.487500000000004],[-122.2936111111111,38.75055555555556],[-122.30388888888889,38.88138888888889],[-122.31416666666667,39.00861111111111],[-122.31416666666667,39.00861111111111],[-122.34388888888888,39.382777777777775],[-122.36194444444443,39.608333333333334],[-122.38083333333333,39.842222222222226],[-122.38277777777778,39.86472222222223],[-122.42916666666667,40.43666666666666],[-122.43083333333334,40.458333333333336],[-122.45,40.68833333333333],[-122.4575,40.77916666666667],[-122.46888888888888,40.91583333333333],[-122.47805555555556,41.029444444444444],[-122.50611111111111,41.36333333333334],[-122.51555555555555,41.47527777777778],[-122.54083333333332,41.76916666666666],[-122.55138888888888,41.89361111111111],[-122.55138888888888,41.89361111111111],[-122.58416666666666,42.2725],[-122.58416666666666,42.2725],[-122.60638888888889,42.52583333333333],[-122.60638888888889,42.52583333333333],[-122.65277777777779,43.04972222222222],[-122.67222222222223,43.26305555555555],[-122.6913888888889,43.475],[-122.70111111111112,43.5825],[-122.70111111111112,43.5825],[-122.72111111111111,43.80277777777778],[-122.7525,44.151944444444446],[-122.74166666666667,44.26555555555556],[-122.73083333333334,44.37638888888889],[-122.66444444444446,44.861666666666665],[-122.66444444444446,44.861666666666665],[-122.6036111111111,45.04472222222222],[-122.6036111111111,45.04472222222222],[-122.44083333333333,45.52055555555555],[-122.505,45.54944444444444],[-122.505,45.54944444444444]],"type":"LineString"}
}
