{
  "id": 2031460901,
  "type": "Feature",
  "properties": {
    "geom:area": 0,
    "geom:bbox": "-122.650833,33.950000,-118.195000,37.714722",
    "geom:latitude": 35.807692451940554,
    "geom:longitude": -120.44156393294638,
    "src:alt_label": "swim-path",
    "src:geom": "swim",
    "swim:altitudes": [
      "009",
      "099",
      "131",
      "239",
      "294",
      "320",
      "334",
      "350C",
      "350C",
      "350C",
      "350",
      "350",
      "350",
      "350",
      "191",
      "167",
      "147",
      "131",
      "105",
      "099",
      "082",
      "079",
      "074",
      "064",
      "030",
      "026",
      "025",
      "003"
    ],
    "swim:geom": "path",
    "swim:speeds": [
      164,
      242,
      307,
      422,
      478,
      495,
      492,
      511,
      500,
      504,
      490,
      490,
      496,
      503,
      389,
      380,
      371,
      355,
      307,
      287,
      288,
      290,
      263,
      245,
      194,
      196,
      193,
      144
    ],
    "swim:timestamps": [
      1780727383,
      1780727580,
      1780727640,
      1780727881,
      1780728061,
      1780728120,
      1780728181,
      1780728421,
      1780728481,
      1780728541,
      1780729021,
      1780729081,
      1780729142,
      1780729201,
      1780729622,
      1780729682,
      1780729742,
      1780729781,
      1780729923,
      1780729949,
      1780730021,
      1780730043,
      1780730081,
      1780730147,
      1780730343,
      1780730376,
      1780730403,
      1780730562
    ],
    "wof:geomhash": "334b6ff5b1925ef9e105f04db110fc65",
    "wof:id": 2031460901,
    "wof:repo": "sfomuseum-data-flights-2026-06"
  },
  "bbox": [
    -122.65083333333334,
    33.95,
    -118.19500000000001,
    37.71472222222223
  ],
  "geometry": {"coordinates":[[-122.38333333333334,37.61666666666667],[-122.57944444444443,37.71472222222223],[-122.65083333333334,37.68222222222222],[-122.25805555555556,37.36388888888889],[-121.90333333333334,37.08972222222222],[-121.76444444444445,36.97833333333333],[-121.65277777777779,36.899166666666666],[-121.15472222222223,36.504444444444445],[-121.03277777777778,36.41111111111111],[-120.90027777777779,36.31888888888889],[-119.97916666666667,35.49583333333334],[-119.89194444444445,35.379444444444445],[-119.80277777777778,35.26583333333333],[-119.69472222222223,35.15],[-119.07777777777777,34.463055555555556],[-119.0025,34.37694444444445],[-118.93,34.294999999999995],[-118.86666666666666,34.233333333333334],[-118.71972222222223,34.081388888888895],[-118.68333333333334,34.05],[-118.56666666666666,34.016666666666666],[-118.55166666666666,34.01888888888889],[-118.48333333333333,34.016666666666666],[-118.38333333333334,34.016666666666666],[-118.19500000000001,34.00111111111111],[-118.23333333333333,33.983333333333334],[-118.24666666666667,33.96944444444445],[-118.4,33.95]],"type":"LineString"}
}
