{
  "id": 2031456515,
  "type": "Feature",
  "properties": {
    "geom:area": 0,
    "geom:bbox": "-122.364160,37.437540,-121.274850,37.649660",
    "geom:latitude": 37.54833327312925,
    "geom:longitude": -121.82630612746517,
    "src:alt_label": "swim-approach",
    "src:geom": "swim",
    "swim:elevations": [
      4736,
      4676,
      4323,
      4246,
      4108,
      3973,
      3762,
      3641,
      3504,
      3350,
      3353,
      3353,
      3272,
      3106,
      3048,
      3048,
      3048,
      3048,
      3048,
      2894,
      2744,
      2742,
      2399,
      2352,
      2302,
      2139,
      2134,
      2032,
      1912,
      1682,
      1600,
      1526,
      1401,
      1346,
      1159,
      1037,
      912,
      847,
      766,
      735,
      581,
      501,
      419,
      347,
      215,
      151,
      128,
      0
    ],
    "swim:geom": "approach",
    "swim:timestamps": [
      1780692953,
      1780692962,
      1780693015,
      1780693022,
      1780693037,
      1780693052,
      1780693100,
      1780693133,
      1780693154,
      1780693181,
      1780693221,
      1780693247,
      1780693277,
      1780693312,
      1780693334,
      1780693377,
      1780693382,
      1780693397,
      1780693422,
      1780693451,
      1780693493,
      1780693504,
      1780693556,
      1780693568,
      1780693578,
      1780693610,
      1780693629,
      1780693659,
      1780693687,
      1780693738,
      1780693755,
      1780693768,
      1780693793,
      1780693802,
      1780693853,
      1780693880,
      1780693917,
      1780693934,
      1780693948,
      1780693958,
      1780694002,
      1780694025,
      1780694049,
      1780694081,
      1780694108,
      1780694126,
      1780694131,
      1780694168
    ],
    "wof:geomhash": "3bf713f8a422b2fbdd80bd681e29fc5d",
    "wof:id": 2031456515,
    "wof:repo": "sfomuseum-data-flights-2026-06"
  },
  "bbox": [
    -122.36416,
    37.43754,
    -121.27485,
    37.64966
  ],
  "geometry": {"coordinates":[[-121.27485,37.59114],[-121.29281,37.58886],[-121.39247,37.57786],[-121.40454,37.5765],[-121.43116,37.57355],[-121.45748,37.57048],[-121.53802,37.56093],[-121.58628,37.55531],[-121.61691,37.55216],[-121.65154,37.56462],[-121.69798,37.5909],[-121.72868,37.60836],[-121.76381,37.62804],[-121.8066,37.64966],[-121.83683,37.64937],[-121.88417,37.62554],[-121.88464,37.62038],[-121.87764,37.60388],[-121.8511,37.583],[-121.81832,37.55898],[-121.77367,37.52241],[-121.77121,37.51072],[-121.79709,37.45588],[-121.8104,37.44864],[-121.82373,37.4466],[-121.86536,37.44281],[-121.89096,37.44055],[-121.93021,37.43754],[-121.96468,37.44606],[-122.02257,37.47],[-122.03951,37.47745],[-122.05276,37.48308],[-122.07519,37.49252],[-122.08314,37.49579],[-122.12691,37.51427],[-122.14895,37.5235],[-122.1779,37.53591],[-122.19097,37.54132],[-122.20224,37.54607],[-122.20988,37.54927],[-122.24345,37.56346],[-122.26084,37.57086],[-122.27805,37.57799],[-122.30085,37.58739],[-122.32009,37.59572],[-122.33285,37.60099],[-122.33638,37.60246],[-122.36416,37.61357]],"type":"LineString"}
}
