{
  "id": 2031457027,
  "type": "Feature",
  "properties": {
    "geom:area": 0,
    "geom:bbox": "-122.359150,37.520130,-122.040920,37.617020",
    "geom:latitude": 37.56352096807336,
    "geom:longitude": -122.17101753515453,
    "src:alt_label": "swim-approach",
    "src:geom": "swim",
    "swim:elevations": [
      2101,
      1740,
      1533,
      1524,
      1220,
      1216,
      1076,
      1011,
      856,
      760,
      642,
      457,
      354,
      272,
      122,
      0
    ],
    "swim:geom": "approach",
    "swim:timestamps": [
      1780680488,
      1780680538,
      1780680563,
      1780680570,
      1780680627,
      1780680632,
      1780680663,
      1780680680,
      1780680718,
      1780680735,
      1780680759,
      1780680803,
      1780680830,
      1780680849,
      1780680890,
      1780680921
    ],
    "wof:geomhash": "048572b7ab91174817b8deefc11121dc",
    "wof:id": 2031457027,
    "wof:repo": "sfomuseum-data-flights-2026-06"
  },
  "bbox": [
    -122.35915,
    37.52013,
    -122.04092,
    37.61702
  ],
  "geometry": {"coordinates":[[-122.12262,37.61702],[-122.06766,37.58187],[-122.04391,37.5618],[-122.04092,37.55534],[-122.08732,37.52138],[-122.09357,37.52088],[-122.13212,37.52013],[-122.15035,37.52712],[-122.19258,37.54425],[-122.21028,37.55172],[-122.23374,37.56167],[-122.27271,37.57816],[-122.29387,37.58703],[-122.30726,37.59278],[-122.3371,37.60507],[-122.35915,37.6138]],"type":"LineString"}
}
