{
  "id": 2031531279,
  "type": "Feature",
  "properties": {
    "geom:area": 0,
    "geom:bbox": "-180.000000,31.140000,175.340000,53.100000",
    "geom:latitude": 49.920394911243946,
    "geom:longitude": -2.936665209717262,
    "src:alt_label": "swim-route",
    "src:geom": "swim",
    "swim:geom": "route",
    "wof:geomhash": "cee4df8bc672ce81a676e97309579183",
    "wof:id": 2031531279,
    "wof:repo": "sfomuseum-data-flights-2026-06"
  },
  "bbox": [
    -180,
    31.14,
    175.34,
    53.1
  ],
  "geometry": {"coordinates":[[[-122.38,37.62],[-122.5,37.67],[-122.5,37.67],[-122.5,37.68],[-122.59,37.73],[-122.59,37.73],[-122.63,37.75],[-122.69,37.79],[-122.7,37.79],[-122.74,37.81],[-122.76,37.82],[-122.79,37.87],[-122.91,38.01],[-123.15,38.3],[-123.16,38.3],[-123.3,38.48],[-123.42,38.61],[-123.48,38.68],[-123.59,38.82],[-123.64,38.87],[-123.69,38.92],[-123.75,39],[-124.07,39.12],[-124.25,39.19],[-126.5,40],[-127,40.3],[-127,40.3],[-130,42],[-130.92,42.54],[-138.32,46.28],[-140,47],[-147.35,50.08],[-150,51],[-152.41,51.58],[-154.89,52.11],[-156.15,52.35],[-160,53],[-161.78,53.06],[-161.86,53.06],[-165.73,53.1],[-170,53],[-172.54,52.83],[-180,52]],[[175.34,51.26],[161.33,47.55],[159.47,46.62],[155.1,44.18],[149.65,40.42],[148.96,39.9],[148.11,39.23],[147.28,38.56],[145.67,37.2],[141.35,36.37],[139.51,35.97],[137.78,35.55],[136.18,35.15],[136.13,35.14],[134.92,34.81],[134.08,34.58],[133.44,34.39],[132.6,34.15],[132.13,34.01],[132.13,34.01],[131.04,33.67],[129.05,33.02],[128.65,32.89],[126.65,32.2],[126.65,32.19],[126.06,32.06],[125,31.83],[124.16,31.65],[124.1,31.64],[124,31.61],[124,31.61],[123.94,31.6],[123.7,31.55],[123.5,31.5],[123.36,31.47],[123.06,31.42],[122.78,31.36],[122.7,31.34],[122.51,31.3],[122.26,31.25],[122.21,31.24],[122.07,31.21],[121.98,31.19],[121.89,31.17],[121.79,31.14]]],"type":"MultiLineString"}
}
