{
  "id": 2031658725,
  "type": "Feature",
  "properties": {
    "geom:area": 0,
    "geom:bbox": "-122.414350,37.629280,-121.245160,38.147440",
    "geom:latitude": 37.94511687549795,
    "geom:longitude": -121.89585925008312,
    "src:alt_label": "swim-takeoff",
    "src:geom": "swim",
    "swim:elevations": [
      338,
      592,
      723,
      1111,
      1355,
      1716,
      2085,
      2557,
      2849,
      3156,
      3495,
      3660,
      3864,
      3974,
      4197,
      4483,
      4733,
      5019,
      5220,
      5418,
      5510,
      5666,
      5898,
      5927,
      6247,
      6311
    ],
    "swim:geom": "takeoff",
    "swim:timestamps": [
      1782602382,
      1782602396,
      1782602412,
      1782602455,
      1782602486,
      1782602513,
      1782602538,
      1782602575,
      1782602596,
      1782602619,
      1782602666,
      1782602690,
      1782602723,
      1782602743,
      1782602776,
      1782602814,
      1782602841,
      1782602872,
      1782602896,
      1782602920,
      1782602935,
      1782602959,
      1782602996,
      1782603005,
      1782603054,
      1782603063
    ],
    "wof:geomhash": "692b5fde57d57c006a30cf85068cb9a5",
    "wof:id": 2031658725,
    "wof:repo": "sfomuseum-data-flights-2026-06"
  },
  "bbox": [
    -122.41435,
    37.62928,
    -121.24516,
    38.14744
  ],
  "geometry": {"coordinates":[[-122.39958,37.62928],[-122.40964,37.63876],[-122.41435,37.65211],[-122.37976,37.68144],[-122.34928,37.70829],[-122.33621,37.73964],[-122.34725,37.76822],[-122.35568,37.81177],[-122.33554,37.83367],[-122.29946,37.84893],[-122.21631,37.87379],[-122.17,37.8868],[-122.10118,37.90599],[-122.05675,37.91882],[-121.98244,37.94039],[-121.88975,37.96676],[-121.8242,37.98504],[-121.74641,38.00701],[-121.68644,38.02372],[-121.62541,38.0408],[-121.58698,38.05155],[-121.52687,38.06859],[-121.4273,38.09694],[-121.40319,38.10374],[-121.26962,38.14075],[-121.24516,38.14744]],"type":"LineString"}
}
