{
  "id": 2031528569,
  "type": "Feature",
  "properties": {
    "geom:area": 0,
    "geom:bbox": "-122.770000,37.620000,-74.170000,43.550000",
    "geom:latitude": 42.30253298867878,
    "geom:longitude": -98.99711811220418,
    "src:alt_label": "swim-route",
    "src:geom": "swim",
    "swim:geom": "route",
    "wof:geomhash": "73d1c02d396e82a33fe4d7d444891724",
    "wof:id": 2031528569,
    "wof:repo": "sfomuseum-data-flights-2026-06"
  },
  "bbox": [
    -122.77,
    37.62,
    -74.17,
    43.55
  ],
  "geometry": {"coordinates":[[-74.17,40.69],[-74.26,40.77],[-74.31,40.81],[-74.32,40.82],[-74.34,40.84],[-74.36,40.85],[-74.38,40.87],[-74.4,40.88],[-74.43,40.91],[-74.45,40.93],[-74.46,40.94],[-74.48,40.96],[-74.5,40.97],[-74.51,40.98],[-74.55,41.01],[-74.57,41.03],[-74.62,41.07],[-74.64,41.09],[-74.66,41.1],[-74.69,41.13],[-74.7,41.14],[-74.74,41.15],[-74.78,41.17],[-74.78,41.17],[-74.85,41.2],[-74.93,41.24],[-75.01,41.27],[-75.17,41.34],[-75.28,41.39],[-75.46,41.47],[-75.47,41.47],[-75.48,41.48],[-75.52,41.49],[-75.86,41.58],[-76.22,41.69],[-76.25,41.69],[-76.52,41.77],[-76.54,41.78],[-76.93,41.88],[-77.21,41.96],[-77.35,41.99],[-77.41,42.01],[-78.27,42.24],[-78.8,42.37],[-78.91,42.4],[-79.62,42.57],[-79.79,42.61],[-80.5,42.64],[-80.6,42.65],[-81.7,42.58],[-82.71,42.69],[-83.11,42.76],[-84.75,42.88],[-85,42.92],[-85.54,42.96],[-86.95,43.05],[-87,43.05],[-88.28,43.12],[-88.83,43.17],[-90.2,43.29],[-90.72,43.34],[-91.09,43.36],[-91.2,43.37],[-91.63,43.4],[-91.96,43.43],[-93.63,43.53],[-93.79,43.53],[-93.84,43.53],[-93.99,43.53],[-94.59,43.55],[-96.59,43.55],[-97.93,43.53],[-98.91,43.51],[-100.62,43.46],[-101.78,43.41],[-106.28,43.09],[-107.14,42.99],[-109.82,42.62],[-111.87,42.3],[-112.45,42.2],[-113.36,41.95],[-113.8,41.82],[-114.5,41.62],[-114.85,41.51],[-115.5,41.32],[-117.04,40.83],[-117.8,40.58],[-118.3,40.41],[-118.37,40.39],[-118.63,40.28],[-119.42,39.96],[-120.51,39.56],[-121.1,39.34],[-121.7,38.98],[-121.86,38.89],[-121.92,38.85],[-122.17,38.7],[-122.22,38.68],[-122.44,38.54],[-122.44,38.54],[-122.68,38.31],[-122.69,38.3],[-122.77,38.22],[-122.75,38.16],[-122.72,38.06],[-122.69,37.95],[-122.67,37.9],[-122.67,37.9],[-122.65,37.87],[-122.62,37.85],[-122.59,37.82],[-122.58,37.81],[-122.51,37.74],[-122.5,37.73],[-122.44,37.68],[-122.37,37.62],[-122.38,37.62]],"type":"LineString"}
}
