{
  "id": 2031483715,
  "type": "Feature",
  "properties": {
    "geom:area": 0,
    "geom:bbox": "-122.770000,37.620000,-75.240000,43.650000",
    "geom:latitude": 42.11638039424849,
    "geom:longitude": -99.48800878293034,
    "src:alt_label": "swim-route",
    "src:geom": "swim",
    "swim:geom": "route",
    "wof:geomhash": "b0ebd67b6bd798b3655d85cfd11e5f53",
    "wof:id": 2031483715,
    "wof:repo": "sfomuseum-data-flights-2026-06"
  },
  "bbox": [
    -122.77,
    37.62,
    -75.24,
    43.65
  ],
  "geometry": {"coordinates":[[-75.24,39.87],[-75.29,39.93],[-75.32,39.96],[-75.35,39.99],[-75.37,40.02],[-75.4,40.04],[-75.42,40.07],[-75.45,40.1],[-75.46,40.11],[-75.48,40.13],[-75.5,40.15],[-75.5,40.16],[-75.55,40.21],[-75.56,40.22],[-75.57,40.23],[-75.7,40.32],[-75.71,40.32],[-75.73,40.34],[-75.8,40.38],[-75.88,40.43],[-75.89,40.44],[-76.37,40.52],[-76.52,40.54],[-76.59,40.55],[-76.6,40.55],[-76.66,40.56],[-76.68,40.56],[-76.78,40.57],[-77.44,40.63],[-77.57,40.64],[-77.8,40.66],[-77.98,40.67],[-78.12,40.68],[-78.52,40.72],[-78.67,40.77],[-78.77,40.81],[-79.19,40.89],[-80.89,41.49],[-81.95,41.81],[-83.03,42.12],[-84,42.38],[-85,42.66],[-85.47,42.78],[-85.5,42.79],[-86.01,42.85],[-87,42.97],[-88,43.09],[-88.28,43.12],[-88.56,43.14],[-90.2,43.29],[-91.09,43.36],[-93.01,43.49],[-93.84,43.54],[-94.84,43.58],[-96.41,43.64],[-96.78,43.65],[-97.45,43.64],[-98.44,43.61],[-98.68,43.6],[-100.2,43.54],[-100.78,43.51],[-101.02,43.5],[-101.72,43.46],[-103.13,43.37],[-104.09,43.29],[-104.16,43.28],[-104.95,43.22],[-106.28,43.09],[-106.53,43.06],[-106.9,43.02],[-107.14,42.99],[-109.82,42.62],[-111.18,42.41],[-111.87,42.3],[-112.45,42.2],[-113.36,41.95],[-114.5,41.62],[-118.3,40.41],[-118.37,40.39],[-119.42,39.96],[-120.51,39.56],[-121.1,39.34],[-121.13,39.32],[-121.23,39.26],[-121.6,39.04],[-121.65,39.02],[-121.82,38.91],[-121.84,38.9],[-121.92,38.85],[-122.25,38.66],[-122.29,38.63],[-122.44,38.54],[-122.68,38.31],[-122.69,38.3],[-122.77,38.22],[-122.75,38.16],[-122.7,38],[-122.69,37.95],[-122.67,37.9],[-122.65,37.87],[-122.59,37.82],[-122.58,37.81],[-122.53,37.77],[-122.51,37.74],[-122.5,37.74],[-122.5,37.73],[-122.44,37.68],[-122.37,37.62],[-122.38,37.62]],"type":"LineString"}
}
