{
  "id": 2031681693,
  "type": "Feature",
  "properties": {
    "geom:area": 0,
    "geom:bbox": "-122.357960,36.723520,-121.879590,37.611490",
    "geom:latitude": 37.2120042453136,
    "geom:longitude": -122.06987292396681,
    "src:alt_label": "swim-approach",
    "src:geom": "swim",
    "swim:elevations": [
      5404,
      5055,
      4728,
      4585,
      4192,
      3896,
      3478,
      3309,
      3253,
      3063,
      2795,
      2535,
      2441,
      2438,
      2412,
      2157,
      1996,
      1700,
      1370,
      1256,
      1061,
      975,
      943,
      888,
      752,
      665,
      574,
      401,
      335,
      198,
      130,
      17
    ],
    "swim:geom": "approach",
    "swim:timestamps": [
      1782843834,
      1782843865,
      1782843896,
      1782843911,
      1782843948,
      1782843976,
      1782844018,
      1782844047,
      1782844060,
      1782844093,
      1782844126,
      1782844161,
      1782844177,
      1782844224,
      1782844247,
      1782844288,
      1782844309,
      1782844339,
      1782844377,
      1782844392,
      1782844429,
      1782844451,
      1782844464,
      1782844483,
      1782844518,
      1782844541,
      1782844563,
      1782844618,
      1782844632,
      1782844672,
      1782844695,
      1782844729
    ],
    "wof:geomhash": "7688ad70c3a047cdde49b45f8017697a",
    "wof:id": 2031681693,
    "wof:repo": "sfomuseum-data-flights-2026-06"
  },
  "bbox": [
    -122.35796,
    36.72352,
    -121.87959,
    37.61149
  ],
  "geometry": {"coordinates":[[-121.87959,36.72352],[-121.90154,36.77056],[-121.91532,36.81869],[-121.92152,36.84076],[-121.93769,36.89853],[-121.94968,36.94105],[-121.97209,37.00121],[-121.98774,37.0416],[-121.99434,37.05814],[-122.00979,37.09812],[-122.02575,37.13906],[-122.04189,37.18002],[-122.04925,37.19905],[-122.07132,37.25511],[-122.08237,37.28318],[-122.10114,37.33107],[-122.11103,37.35587],[-122.12422,37.39105],[-122.13866,37.43397],[-122.14464,37.45159],[-122.15788,37.48963],[-122.16502,37.51038],[-122.16879,37.52171],[-122.17966,37.53481],[-122.20917,37.54908],[-122.22876,37.55708],[-122.24697,37.56492],[-122.28807,37.58214],[-122.29631,37.58564],[-122.32156,37.59633],[-122.33645,37.60254],[-122.35796,37.61149]],"type":"LineString"}
}
