{
  "id": 2031536019,
  "type": "Feature",
  "properties": {
    "geom:area": 0,
    "geom:bbox": "-122.770000,37.620000,-73.780000,45.150000",
    "geom:latitude": 42.799019331517705,
    "geom:longitude": -98.47774357736384,
    "src:alt_label": "swim-route",
    "src:geom": "swim",
    "swim:geom": "route",
    "wof:geomhash": "941bbabf57542d250695c031ba8c0149",
    "wof:id": 2031536019,
    "wof:repo": "sfomuseum-data-flights-2026-06"
  },
  "bbox": [
    -122.77,
    37.62,
    -73.78,
    45.15
  ],
  "geometry": {"coordinates":[[-73.78,40.64],[-73.86,40.75],[-73.88,40.77],[-73.93,40.85],[-73.95,40.87],[-73.97,40.9],[-73.99,40.92],[-74.01,40.95],[-74.03,40.98],[-74.05,41],[-73.86,41.02],[-73.88,41.04],[-73.99,41.12],[-74.1,41.21],[-74.22,41.3],[-74.34,41.4],[-74.36,41.41],[-74.36,41.41],[-74.43,41.44],[-74.49,41.47],[-74.5,41.47],[-74.55,41.49],[-74.56,41.49],[-74.69,41.55],[-74.8,41.6],[-74.89,41.63],[-75.02,41.69],[-75.14,41.74],[-75.2,41.77],[-75.29,41.81],[-75.47,41.88],[-75.61,41.94],[-75.77,42.01],[-76.14,42.16],[-76.27,42.2],[-76.65,42.32],[-77.03,42.44],[-77.15,42.48],[-77.27,42.51],[-77.56,42.6],[-77.74,42.66],[-78.01,42.73],[-78.11,42.76],[-78.22,42.79],[-78.33,42.82],[-78.64,42.85],[-79.02,42.88],[-79.31,42.91],[-79.68,42.95],[-80.02,42.98],[-80.07,42.98],[-80.28,43],[-80.54,43.02],[-81.1,43.07],[-82.26,43.27],[-82.28,43.27],[-82.29,43.27],[-82.56,43.27],[-82.71,43.26],[-84.26,43.66],[-87.3,44.37],[-88.09,44.53],[-88.19,44.56],[-89.35,44.71],[-90.27,44.82],[-93.11,45.12],[-93.37,45.15],[-93.57,45.13],[-93.77,45.11],[-94.17,45.08],[-95.07,45],[-95.22,44.99],[-95.37,44.97],[-97.3,44.77],[-97.97,44.69],[-98.06,44.68],[-99.91,44.45],[-100.22,44.4],[-101.45,44.22],[-101.97,44.14],[-102.49,44.06],[-102.98,43.98],[-103.01,43.98],[-103.29,43.91],[-103.56,43.84],[-104.11,43.69],[-104.93,43.47],[-105.15,43.41],[-105.92,43.19],[-106.13,43.13],[-106.48,43.04],[-106.67,43.01],[-106.96,42.96],[-107.06,42.93],[-107.13,42.93],[-107.36,42.89],[-107.46,42.86],[-107.6,42.84],[-107.88,42.79],[-108.33,42.7],[-108.56,42.65],[-108.59,42.64],[-108.78,42.61],[-109.04,42.55],[-109.67,42.4],[-109.76,42.38],[-111,42.11],[-112.37,41.81],[-112.93,41.66],[-114.47,41.28],[-118.05,40.28],[-118.58,40.13],[-119.79,39.76],[-120.5,39.53],[-121,39.37],[-121.1,39.34],[-121.1,39.33],[-121.36,39.18],[-121.58,39.05],[-121.66,39.01],[-121.73,38.96],[-121.81,38.92],[-122.01,38.8],[-122.06,38.77],[-122.16,38.71],[-122.3,38.63],[-122.31,38.62],[-122.44,38.54],[-122.45,38.53],[-122.68,38.31],[-122.69,38.3],[-122.77,38.22],[-122.75,38.16],[-122.7,37.99],[-122.69,37.95],[-122.67,37.9],[-122.67,37.9],[-122.65,37.87],[-122.59,37.82],[-122.58,37.81],[-122.55,37.79],[-122.55,37.78],[-122.51,37.74],[-122.5,37.73],[-122.44,37.68],[-122.37,37.62],[-122.38,37.62]],"type":"LineString"}
}
