{
  "id": 2031613321,
  "type": "Feature",
  "properties": {
    "geom:area": 0,
    "geom:bbox": "-122.407890,37.624690,-121.249000,38.123210",
    "geom:latitude": 37.8830938417853,
    "geom:longitude": -121.84501981253985,
    "src:alt_label": "swim-takeoff",
    "src:geom": "swim",
    "swim:elevations": [
      213,
      305,
      568,
      629,
      920,
      1251,
      1533,
      1701,
      1985,
      2039,
      2357,
      2718,
      3173,
      3327,
      3452,
      3565,
      3614,
      3846,
      4152,
      4270,
      4473,
      4636,
      4905,
      5066,
      5247,
      5416,
      5760,
      6197,
      6333
    ],
    "swim:geom": "takeoff",
    "swim:timestamps": [
      1782149127,
      1782149133,
      1782149157,
      1782149161,
      1782149192,
      1782149237,
      1782149268,
      1782149285,
      1782149307,
      1782149311,
      1782149334,
      1782149361,
      1782149397,
      1782149422,
      1782149445,
      1782149460,
      1782149468,
      1782149500,
      1782149547,
      1782149557,
      1782149580,
      1782149603,
      1782149636,
      1782149656,
      1782149679,
      1782149700,
      1782149736,
      1782149788,
      1782149807
    ],
    "wof:geomhash": "33a95012995bb7407b069dca08d66855",
    "wof:id": 2031613321,
    "wof:repo": "sfomuseum-data-flights-2026-06"
  },
  "bbox": [
    -122.40789,
    37.62469,
    -121.249,
    38.12321
  ],
  "geometry": {"coordinates":[[-122.38903,37.62469],[-122.39386,37.62689],[-122.40726,37.64133],[-122.40789,37.64529],[-122.38936,37.66512],[-122.33681,37.67887],[-122.2942,37.69225],[-122.26944,37.70022],[-122.2359,37.71103],[-122.22923,37.71316],[-122.19507,37.72724],[-122.15733,37.74695],[-122.10521,37.77422],[-122.06758,37.79376],[-122.03119,37.81248],[-122.00503,37.82553],[-121.99159,37.83147],[-121.93025,37.85609],[-121.836,37.89317],[-121.81517,37.90146],[-121.76787,37.92001],[-121.71842,37.93952],[-121.64556,37.96826],[-121.60156,37.98556],[-121.54864,38.00636],[-121.50186,38.02472],[-121.41726,38.05772],[-121.2948,38.10545],[-121.249,38.12321]],"type":"LineString"}
}
