{
  "id": 2031556025,
  "type": "Feature",
  "properties": {
    "geom:area": 0,
    "geom:bbox": "-157.916667,21.183333,-122.150000,37.603889",
    "geom:latitude": 29.597590089128552,
    "geom:longitude": -140.0576448670607,
    "src:alt_label": "swim-path",
    "src:geom": "swim",
    "swim:altitudes": [
      "002",
      "002",
      "008C",
      "035C",
      "070C",
      "104C",
      "104C",
      "104C",
      "163C",
      "163C",
      "163C",
      "209C",
      "209C",
      "209C",
      "296C",
      "296C",
      "296C",
      "379C",
      "379C",
      "379C",
      "390",
      "390",
      "390",
      "390",
      "390",
      "390",
      "390",
      "390",
      "390",
      "390",
      "390",
      "390",
      "390",
      "390",
      "390",
      "390",
      "390",
      "390",
      "390",
      "390",
      "390",
      "390",
      "390",
      "390",
      "390",
      "390",
      "390",
      "390C",
      "390C",
      "390C",
      "390C",
      "390C",
      "390C",
      "390C",
      "390C",
      "390C",
      "390C",
      "390C",
      "390",
      "390",
      "390",
      "390",
      "390",
      "390",
      "390",
      "390",
      "390",
      "390",
      "390",
      "390",
      "390",
      "390",
      "390",
      "372",
      "372",
      "372",
      "228",
      "228",
      "228",
      "163",
      "159",
      "159",
      "159",
      "133",
      "089",
      "089",
      "073",
      "060",
      "060",
      "060",
      "060",
      "046",
      "046",
      "046",
      "032",
      "028",
      "026",
      "017",
      "017",
      "010",
      "010",
      "004",
      "004",
      "002"
    ],
    "swim:geom": "path",
    "swim:speeds": [
      160,
      160,
      170,
      220,
      260,
      280,
      280,
      280,
      420,
      420,
      420,
      440,
      440,
      440,
      470,
      470,
      470,
      450,
      450,
      450,
      470,
      470,
      470,
      470,
      470,
      470,
      470,
      470,
      470,
      470,
      470,
      470,
      470,
      470,
      470,
      470,
      470,
      480,
      480,
      480,
      480,
      480,
      480,
      480,
      480,
      480,
      480,
      476,
      476,
      476,
      474,
      473,
      473,
      473,
      473,
      473,
      473,
      473,
      469,
      469,
      468,
      468,
      466,
      463,
      463,
      462,
      460,
      460,
      460,
      460,
      460,
      459,
      459,
      444,
      444,
      444,
      439,
      439,
      439,
      405,
      398,
      398,
      398,
      384,
      285,
      285,
      278,
      276,
      278,
      276,
      276,
      278,
      278,
      278,
      235,
      224,
      217,
      177,
      177,
      145,
      145,
      127,
      127,
      123
    ],
    "swim:timestamps": [
      1781632273,
      1781632273,
      1781632280,
      1781632340,
      1781632401,
      1781632460,
      1781632460,
      1781632460,
      1781632641,
      1781632641,
      1781632641,
      1781632761,
      1781632761,
      1781632761,
      1781633062,
      1781633062,
      1781633062,
      1781633363,
      1781633363,
      1781633363,
      1781633543,
      1781633543,
      1781633543,
      1781633664,
      1781633664,
      1781633784,
      1781633784,
      1781633844,
      1781633904,
      1781633964,
      1781634024,
      1781634024,
      1781634084,
      1781634084,
      1781634084,
      1781634145,
      1781634145,
      1781634506,
      1781634566,
      1781634566,
      1781634626,
      1781634626,
      1781634712,
      1781634712,
      1781634833,
      1781634833,
      1781634833,
      1781646628,
      1781646628,
      1781646628,
      1781646689,
      1781646749,
      1781646749,
      1781646749,
      1781646869,
      1781646869,
      1781646989,
      1781646989,
      1781647169,
      1781647169,
      1781647229,
      1781647229,
      1781647289,
      1781647349,
      1781647349,
      1781647409,
      1781647470,
      1781647470,
      1781647470,
      1781647530,
      1781647530,
      1781647590,
      1781647590,
      1781647770,
      1781647770,
      1781647770,
      1781648010,
      1781648010,
      1781648010,
      1781648130,
      1781648136,
      1781648136,
      1781648136,
      1781648191,
      1781648371,
      1781648371,
      1781648431,
      1781648551,
      1781648561,
      1781648611,
      1781648611,
      1781648671,
      1781648671,
      1781648671,
      1781648741,
      1781648791,
      1781648802,
      1781648862,
      1781648862,
      1781648912,
      1781648912,
      1781648972,
      1781648972,
      1781648982
    ],
    "wof:geomhash": "ee91b1fa1a0bf98bdf3bdcf7b1bd08a8",
    "wof:id": 2031556025,
    "wof:repo": "sfomuseum-data-flights-2026-06"
  },
  "bbox": [
    -157.91666666666666,
    21.183333333333334,
    -122.15,
    37.60388888888889
  ],
  "geometry": {"coordinates":[[-157.91666666666666,21.3],[-157.91666666666666,21.3],[-157.9,21.3],[-157.86666666666667,21.25],[-157.81666666666666,21.2],[-157.73333333333332,21.183333333333334],[-157.73333333333332,21.183333333333334],[-157.73333333333332,21.183333333333334],[-157.45,21.316666666666666],[-157.45,21.316666666666666],[-157.45,21.316666666666666],[-157.23333333333332,21.45],[-157.23333333333332,21.45],[-157.23333333333332,21.45],[-156.65,21.816666666666666],[-156.65,21.816666666666666],[-156.65,21.816666666666666],[-156.06666666666666,22.166666666666668],[-156.06666666666666,22.166666666666668],[-156.06666666666666,22.166666666666668],[-155.71666666666667,22.383333333333333],[-155.71666666666667,22.383333333333333],[-155.71666666666667,22.383333333333333],[-155.48333333333332,22.516666666666666],[-155.48333333333332,22.516666666666666],[-155.25,22.666666666666668],[-155.25,22.666666666666668],[-155.13333333333333,22.733333333333334],[-155.01666666666668,22.8],[-154.9,22.866666666666667],[-154.78333333333333,22.95],[-154.78333333333333,22.95],[-154.65,23.016666666666666],[-154.65,23.016666666666666],[-154.65,23.016666666666666],[-154.53333333333333,23.083333333333332],[-154.53333333333333,23.083333333333332],[-153.81666666666666,23.516666666666666],[-153.68333333333334,23.583333333333332],[-153.68333333333334,23.583333333333332],[-153.56666666666666,23.65],[-153.56666666666666,23.65],[-153.38333333333333,23.75],[-153.38333333333333,23.75],[-153.15,23.9],[-153.15,23.9],[-153.15,23.9],[-126.54388888888889,35.6025],[-126.54388888888889,35.6025],[-126.54388888888889,35.6025],[-126.39027777777778,35.64722222222222],[-126.23944444444444,35.69027777777777],[-126.23944444444444,35.69027777777777],[-126.23944444444444,35.69027777777777],[-125.9388888888889,35.785555555555554],[-125.9388888888889,35.785555555555554],[-125.64111111111112,35.88666666666666],[-125.64111111111112,35.88666666666666],[-125.19638888888889,36.036944444444444],[-125.19638888888889,36.036944444444444],[-125.04861111111111,36.08583333333333],[-125.04861111111111,36.08583333333333],[-124.90138888888889,36.13472222222222],[-124.75666666666666,36.18611111111111],[-124.75666666666666,36.18611111111111],[-124.6286111111111,36.25833333333333],[-124.49888888888889,36.333333333333336],[-124.49888888888889,36.333333333333336],[-124.49888888888889,36.333333333333336],[-124.37083333333332,36.4075],[-124.37083333333332,36.4075],[-124.24222222222222,36.48111111111111],[-124.24222222222222,36.48111111111111],[-123.83638888888889,36.713055555555556],[-123.83638888888889,36.713055555555556],[-123.83638888888889,36.713055555555556],[-123.32666666666667,37.000277777777775],[-123.32666666666667,37.000277777777775],[-123.32666666666667,37.000277777777775],[-123.0911111111111,37.13138888888889],[-123.08333333333333,37.13333333333333],[-123.08333333333333,37.13333333333333],[-123.08333333333333,37.13333333333333],[-122.98055555555555,37.19277777777778],[-122.66722222222222,37.30361111111111],[-122.66722222222222,37.30361111111111],[-122.57472222222222,37.32472222222223],[-122.39055555555557,37.3675],[-122.36666666666666,37.36666666666667],[-122.30111111111111,37.39472222222222],[-122.30111111111111,37.39472222222222],[-122.21833333333333,37.43333333333333],[-122.21833333333333,37.43333333333333],[-122.21833333333333,37.43333333333333],[-122.15,37.5],[-122.18527777777778,37.53944444444444],[-122.2,37.55],[-122.26666666666667,37.56666666666667],[-122.26666666666667,37.56666666666667],[-122.2975,37.586111111111116],[-122.2975,37.586111111111116],[-122.33999999999999,37.60388888888889],[-122.33999999999999,37.60388888888889],[-122.35,37.6]],"type":"LineString"}
}
