{
  "id": 2031623347,
  "type": "Feature",
  "properties": {
    "geom:area": 0,
    "geom:bbox": "-122.543480,36.741160,-121.489680,37.666350",
    "geom:latitude": 37.193984389060205,
    "geom:longitude": -122.06139544291028,
    "src:alt_label": "swim-takeoff",
    "src:geom": "swim",
    "swim:elevations": [
      1253,
      1749,
      1820,
      2932,
      3436,
      3823,
      3916,
      4026,
      4736,
      4995,
      5364,
      5743,
      6150,
      6487,
      7047,
      7336,
      7606,
      7827,
      8320,
      8652,
      8839,
      8983,
      9214,
      9591,
      9943,
      10087
    ],
    "swim:geom": "takeoff",
    "swim:timestamps": [
      1782247329,
      1782247377,
      1782247380,
      1782247439,
      1782247466,
      1782247491,
      1782247505,
      1782247531,
      1782247585,
      1782247604,
      1782247635,
      1782247666,
      1782247693,
      1782247717,
      1782247764,
      1782247792,
      1782247821,
      1782247844,
      1782247888,
      1782247912,
      1782247928,
      1782247942,
      1782247965,
      1782248002,
      1782248033,
      1782248046
    ],
    "wof:geomhash": "ce20fc921331ed12f2bfa18c19eceda7",
    "wof:id": 2031623347,
    "wof:repo": "sfomuseum-data-flights-2026-06"
  },
  "bbox": [
    -122.54348,
    36.74116,
    -121.48968,
    37.66635
  ],
  "geometry": {"coordinates":[[-122.48554,37.66635],[-122.54264,37.64273],[-122.54348,37.63896],[-122.51384,37.56763],[-122.49722,37.5343],[-122.48016,37.50232],[-122.46723,37.48613],[-122.43001,37.4567],[-122.34244,37.39255],[-122.30887,37.36786],[-122.2569,37.32957],[-122.20155,37.28878],[-122.1538,37.25326],[-122.11123,37.22176],[-122.02549,37.15841],[-121.97378,37.11993],[-121.9193,37.07927],[-121.87483,37.04563],[-121.78699,36.98018],[-121.74081,36.9457],[-121.70919,36.92214],[-121.68324,36.90229],[-121.63726,36.86771],[-121.57026,36.81011],[-121.51347,36.76141],[-121.48968,36.74116]],"type":"LineString"}
}
