{
  "id": 2031422725,
  "type": "Feature",
  "properties": {
    "geom:area": 0,
    "geom:bbox": "-122.380000,34.920000,-80.950000,37.620000",
    "geom:latitude": 36.396075674500814,
    "geom:longitude": -101.31650762535341,
    "src:alt_label": "swim-route",
    "src:geom": "swim",
    "swim:geom": "route",
    "wof:geomhash": "2f6188857778b982649c59cc4babcac8",
    "wof:id": 2031422725,
    "wof:repo": "sfomuseum-data-flights-2026-06"
  },
  "bbox": [
    -122.38,
    34.92,
    -80.95,
    37.62
  ],
  "geometry": {"coordinates":[[-122.38,37.62],[-118.83,37.62],[-117.09,37.58],[-115.8,37.53],[-114.01,37.45],[-111.84,37.31],[-109.17,37.08],[-108.65,37.02],[-106.33,36.76],[-105.95,36.72],[-105.35,36.64],[-105.11,36.61],[-104.84,36.57],[-102.11,36.17],[-100,35.81],[-98.74,35.58],[-97.16,35.19],[-97.15,35.18],[-97.09,35.19],[-97.07,35.2],[-96.04,35.3],[-95.72,35.36],[-95.38,35.45],[-95,35.52],[-94.75,35.57],[-93.08,35.67],[-90.96,35.76],[-89.39,35.8],[-87.51,35.83],[-87.33,35.83],[-85.76,35.83],[-85.32,35.82],[-85.15,35.82],[-85.08,35.82],[-84.64,35.81],[-84.55,35.82],[-84.43,35.83],[-84.21,35.85],[-83.47,35.89],[-83.36,35.87],[-83.16,35.83],[-82.78,35.74],[-82.7,35.72],[-82.28,35.63],[-82.06,35.58],[-82.05,35.57],[-81.83,35.49],[-81.81,35.48],[-81.73,35.45],[-81.68,35.44],[-81.57,35.41],[-81.49,35.38],[-81.46,35.37],[-81.32,35.34],[-81.23,35.31],[-81.07,35.26],[-81.07,35.26],[-81.07,35.23],[-81.06,35.15],[-81.06,35.1],[-81.06,35.07],[-81.02,35.11],[-80.98,34.92],[-80.97,34.92],[-80.97,34.92],[-80.95,35.21]],"type":"LineString"}
}
