{
  "id": 2031585911,
  "type": "Feature",
  "properties": {
    "geom:area": 0,
    "geom:bbox": "-122.410070,37.628780,-121.244270,38.166010",
    "geom:latitude": 37.98952761567506,
    "geom:longitude": -121.94064072491419,
    "src:alt_label": "swim-takeoff",
    "src:geom": "swim",
    "swim:elevations": [
      244,
      513,
      901,
      1048,
      1189,
      1422,
      1939,
      2325,
      2543,
      2867,
      3174,
      3353,
      3530,
      3838,
      4159,
      4255,
      4333,
      4513,
      5021,
      5164,
      5396,
      5601,
      6072,
      6315,
      6448,
      6653,
      6891,
      7016,
      7246
    ],
    "swim:geom": "takeoff",
    "swim:timestamps": [
      1781916516,
      1781916536,
      1781916566,
      1781916592,
      1781916612,
      1781916641,
      1781916669,
      1781916706,
      1781916720,
      1781916740,
      1781916767,
      1781916795,
      1781916820,
      1781916847,
      1781916888,
      1781916903,
      1781916917,
      1781916935,
      1781916987,
      1781917003,
      1781917028,
      1781917055,
      1781917106,
      1781917136,
      1781917150,
      1781917180,
      1781917221,
      1781917239,
      1781917272
    ],
    "wof:geomhash": "a46486c84ca3d0195219463c363d96e9",
    "wof:id": 2031585911,
    "wof:repo": "sfomuseum-data-flights-2026-06"
  },
  "bbox": [
    -122.41007,
    37.62878,
    -121.24427,
    38.16601
  ],
  "geometry": {"coordinates":[[-122.39775,37.62878],[-122.41007,37.64281],[-122.39631,37.66508],[-122.37534,37.68175],[-122.35781,37.69953],[-122.3359,37.7305],[-122.34202,37.76551],[-122.36913,37.80959],[-122.37793,37.827],[-122.38555,37.85257],[-122.38504,37.889],[-122.37413,37.92807],[-122.33586,37.95257],[-122.28186,37.9632],[-122.19598,37.97887],[-122.16332,37.9855],[-122.13255,37.9918],[-122.09117,38.00008],[-121.96962,38.02463],[-121.9318,38.03233],[-121.8733,38.04392],[-121.80777,38.0571],[-121.68036,38.08168],[-121.6045,38.09611],[-121.56838,38.10316],[-121.49118,38.11817],[-121.38278,38.13933],[-121.33403,38.14871],[-121.24427,38.16601]],"type":"LineString"}
}
