{
  "id": 2031541931,
  "type": "Feature",
  "properties": {
    "geom:area": 0,
    "geom:bbox": "-122.350000,37.716111,-121.600000,38.833333",
    "geom:latitude": 38.28653725812788,
    "geom:longitude": -121.92158787074052,
    "src:alt_label": "swim-path",
    "src:geom": "swim",
    "swim:altitudes": [
      "054",
      "099",
      "099",
      "099",
      "100C",
      "102C",
      "100",
      "101C",
      "101C",
      "100",
      "100",
      "100",
      "098C",
      "092",
      "075",
      "067",
      "060",
      "060",
      "040",
      "024",
      "018",
      "014",
      "010",
      "010"
    ],
    "swim:geom": "path",
    "swim:speeds": [
      260,
      288,
      293,
      294,
      293,
      280,
      282,
      281,
      281,
      283,
      288,
      288,
      289,
      287,
      289,
      284,
      279,
      279,
      282,
      198,
      165,
      148,
      150,
      150
    ],
    "swim:timestamps": [
      1781506091,
      1781506173,
      1781506222,
      1781506228,
      1781506271,
      1781506331,
      1781506348,
      1781506391,
      1781506391,
      1781506408,
      1781506529,
      1781506529,
      1781506691,
      1781506713,
      1781506773,
      1781506811,
      1781506833,
      1781506833,
      1781506931,
      1781507133,
      1781507193,
      1781507253,
      1781507291,
      1781507291
    ],
    "wof:geomhash": "3bf6d84420777e76303e203cfa4d1e15",
    "wof:id": 2031541931,
    "wof:repo": "sfomuseum-data-flights-2026-06"
  },
  "bbox": [
    -122.35,
    37.71611111111111,
    -121.6,
    38.833333333333336
  ],
  "geometry": {"coordinates":[[-122.34194444444444,37.71611111111111],[-122.35,37.833333333333336],[-122.29972222222221,37.879444444444445],[-122.29527777777777,37.885],[-122.25305555555556,37.91833333333333],[-122.18444444444445,37.974444444444444],[-122.15361111111112,37.99861111111111],[-122.11527777777778,38.03055555555555],[-122.11527777777778,38.03055555555555],[-122.08416666666666,38.05472222222222],[-121.94638888888889,38.17111111111111],[-121.94638888888889,38.17111111111111],[-121.76916666666666,38.33638888888889],[-121.75,38.36666666666667],[-121.71666666666667,38.43333333333333],[-121.71055555555556,38.486111111111114],[-121.7,38.516666666666666],[-121.7,38.516666666666666],[-121.68,38.62583333333333],[-121.66666666666667,38.833333333333336],[-121.6,38.81666666666667],[-121.6,38.78333333333333],[-121.60027777777778,38.757222222222225],[-121.60027777777778,38.757222222222225]],"type":"LineString"}
}
