{
  "id": 2031610305,
  "type": "Feature",
  "properties": {
    "geom:area": 0,
    "geom:bbox": "-123.501690,36.968550,-122.078630,37.613210",
    "geom:latitude": 37.295486914261744,
    "geom:longitude": -122.691706012592,
    "src:alt_label": "swim-approach",
    "src:geom": "swim",
    "swim:elevations": [
      5558,
      5302,
      5076,
      4788,
      4456,
      4349,
      4075,
      3796,
      3563,
      3290,
      3199,
      3094,
      3048,
      3048,
      3048,
      3025,
      2994,
      2793,
      2620,
      2585,
      2440,
      2438,
      2438,
      2438,
      2438,
      2438,
      2366,
      2138,
      1921,
      1629,
      1448,
      1183,
      1096,
      911,
      794,
      706,
      614,
      484,
      283,
      250,
      69,
      446
    ],
    "swim:geom": "approach",
    "swim:timestamps": [
      1782192791,
      1782192818,
      1782192851,
      1782192887,
      1782192928,
      1782192939,
      1782192975,
      1782193007,
      1782193037,
      1782193067,
      1782193082,
      1782193112,
      1782193166,
      1782193191,
      1782193221,
      1782193251,
      1782193260,
      1782193296,
      1782193344,
      1782193365,
      1782193404,
      1782193425,
      1782193446,
      1782193488,
      1782193512,
      1782193536,
      1782193554,
      1782193578,
      1782193606,
      1782193644,
      1782193665,
      1782193703,
      1782193720,
      1782193765,
      1782193796,
      1782193811,
      1782193834,
      1782193865,
      1782193915,
      1782193924,
      1782193970,
      1782193991
    ],
    "wof:geomhash": "8f49eb5d877b4e4915d3c759aa318ec7",
    "wof:id": 2031610305,
    "wof:repo": "sfomuseum-data-flights-2026-06"
  },
  "bbox": [
    -123.50169,
    36.96855,
    -122.07863,
    37.61321
  ],
  "geometry": {"coordinates":[[-123.50169,36.96855],[-123.44713,36.9923],[-123.38198,37.02173],[-123.31288,37.05406],[-123.23529,37.0895],[-123.2135,37.09938],[-123.14648,37.1298],[-123.08676,37.15682],[-123.03183,37.18166],[-122.97632,37.20663],[-122.94925,37.21896],[-122.89676,37.24256],[-122.79892,37.27271],[-122.75175,37.28383],[-122.69508,37.29699],[-122.64044,37.3096],[-122.6248,37.31324],[-122.56367,37.32753],[-122.4839,37.34596],[-122.4511,37.35355],[-122.39208,37.36707],[-122.36182,37.37403],[-122.33302,37.3806],[-122.27616,37.39366],[-122.24342,37.40115],[-122.21131,37.40848],[-122.18722,37.41405],[-122.15516,37.42147],[-122.11793,37.42981],[-122.08156,37.45263],[-122.07863,37.47326],[-122.10483,37.50341],[-122.12271,37.51258],[-122.16999,37.53246],[-122.20241,37.54616],[-122.21876,37.55304],[-122.24057,37.56222],[-122.26679,37.57327],[-122.30671,37.59004],[-122.31371,37.59297],[-122.34792,37.60736],[-122.36085,37.61321]],"type":"LineString"}
}
