{
  "id": 2031461359,
  "type": "Feature",
  "properties": {
    "geom:area": 0,
    "geom:bbox": "-122.547440,36.723590,-121.446090,37.665950",
    "geom:latitude": 37.21129355168078,
    "geom:longitude": -122.06950565927283,
    "src:alt_label": "swim-takeoff",
    "src:geom": "swim",
    "swim:elevations": [
      305,
      754,
      916,
      914,
      1012,
      1119,
      1361,
      2127,
      2554,
      3074,
      3321,
      3563,
      4020,
      4316,
      4695,
      5070,
      5400,
      5748,
      5888,
      6335,
      6631,
      6730,
      6751,
      6813,
      7001,
      7353,
      7406,
      7846,
      7871,
      8284,
      8433
    ],
    "swim:geom": "takeoff",
    "swim:timestamps": [
      1780651007,
      1780651042,
      1780651067,
      1780651089,
      1780651121,
      1780651131,
      1780651143,
      1780651195,
      1780651222,
      1780651251,
      1780651267,
      1780651302,
      1780651341,
      1780651363,
      1780651397,
      1780651431,
      1780651462,
      1780651491,
      1780651502,
      1780651544,
      1780651582,
      1780651602,
      1780651609,
      1780651631,
      1780651664,
      1780651707,
      1780651713,
      1780651768,
      1780651772,
      1780651824,
      1780651838
    ],
    "wof:geomhash": "dc1aca597bd33538f59f7fd6fc56b302",
    "wof:id": 2031461359,
    "wof:repo": "sfomuseum-data-flights-2026-06"
  },
  "bbox": [
    -122.54744,
    36.72359,
    -121.44609,
    37.66595
  ],
  "geometry": {"coordinates":[[-122.40114,37.62989],[-122.43208,37.64378],[-122.45681,37.65457],[-122.48267,37.66595],[-122.52667,37.66396],[-122.53806,37.6562],[-122.54744,37.64208],[-122.52434,37.57935],[-122.50378,37.54592],[-122.48413,37.50858],[-122.46956,37.48849],[-122.42441,37.4512],[-122.36321,37.40752],[-122.3289,37.38245],[-122.27495,37.34417],[-122.2191,37.30368],[-122.16594,37.26422],[-122.11762,37.22885],[-122.09763,37.21441],[-122.02495,37.15943],[-121.95901,37.10843],[-121.92222,37.08077],[-121.90961,37.07128],[-121.86629,37.03888],[-121.80122,36.99048],[-121.71359,36.9253],[-121.70096,36.91588],[-121.5897,36.83191],[-121.58082,36.82574],[-121.47537,36.74584],[-121.44609,36.72359]],"type":"LineString"}
}
