{
  "id": 2031573637,
  "type": "Feature",
  "properties": {
    "geom:area": 0,
    "geom:bbox": "-121.962680,36.741790,-121.902280,36.976640",
    "geom:latitude": 36.860179290663346,
    "geom:longitude": -121.92862767573497,
    "src:alt_label": "swim-approach",
    "src:geom": "swim",
    "swim:elevations": [
      5041,
      4726,
      4529,
      4324,
      3996,
      3919,
      3770
    ],
    "swim:geom": "approach",
    "swim:timestamps": [
      1781852235,
      1781852277,
      1781852300,
      1781852324,
      1781852367,
      1781852377,
      1781852392
    ],
    "wof:geomhash": "635b39b6aa2c9f640845ae0ac98b4ed3",
    "wof:id": 2031573637,
    "wof:repo": "sfomuseum-data-flights-2026-06"
  },
  "bbox": [
    -121.96268,
    36.74179,
    -121.90228,
    36.97664
  ],
  "geometry": {"coordinates":[[-121.90228,36.74179],[-121.91262,36.80697],[-121.9219,36.84043],[-121.93186,36.87662],[-121.94975,36.94038],[-121.95433,36.95503],[-121.96268,36.97664]],"type":"LineString"}
}
