{
  "id": 2031534673,
  "type": "Feature",
  "properties": {
    "geom:area": 0,
    "geom:bbox": "-122.341944,32.017778,-114.812222,37.604722",
    "geom:latitude": 34.73973279309355,
    "geom:longitude": -118.8173048731789,
    "src:alt_label": "swim-path",
    "src:geom": "swim",
    "swim:altitudes": [
      "380C",
      "380C",
      "380C",
      "380C",
      "380C",
      "380C",
      "380C",
      "380C",
      "380C",
      "380C",
      "380C",
      "380C",
      "380C",
      "380C",
      "380C",
      "380C",
      "380C",
      "380C",
      "380C",
      "380C",
      "380C",
      "380C",
      "380C",
      "380C",
      "380C",
      "380C",
      "380C",
      "380C",
      "380C",
      "380C",
      "380C",
      "380C",
      "380C",
      "380C",
      "380C",
      "380C",
      "380C",
      "380C",
      "378",
      "378",
      "324",
      "324",
      "277",
      "256",
      "219",
      "171",
      "171",
      "137",
      "096",
      "078",
      "078",
      "060",
      "054",
      "040",
      "035",
      "019",
      "003",
      "003"
    ],
    "swim:geom": "path",
    "swim:speeds": [
      448,
      448,
      444,
      444,
      444,
      444,
      442,
      439,
      440,
      440,
      442,
      443,
      443,
      450,
      450,
      449,
      449,
      447,
      447,
      445,
      445,
      451,
      451,
      447,
      445,
      445,
      445,
      444,
      444,
      440,
      437,
      437,
      435,
      435,
      432,
      432,
      430,
      430,
      425,
      425,
      440,
      440,
      428,
      419,
      400,
      369,
      369,
      326,
      296,
      288,
      288,
      283,
      238,
      227,
      199,
      189,
      153,
      153
    ],
    "swim:timestamps": [
      1781494958,
      1781494958,
      1781495198,
      1781495198,
      1781495378,
      1781495378,
      1781495438,
      1781495559,
      1781495619,
      1781495619,
      1781495799,
      1781495859,
      1781495859,
      1781495919,
      1781495979,
      1781496039,
      1781496039,
      1781496160,
      1781496160,
      1781496340,
      1781496340,
      1781496580,
      1781496580,
      1781496821,
      1781496881,
      1781496941,
      1781497001,
      1781497119,
      1781497119,
      1781497299,
      1781497602,
      1781497602,
      1781497660,
      1781497660,
      1781497840,
      1781497840,
      1781498080,
      1781498080,
      1781498200,
      1781498200,
      1781498320,
      1781498320,
      1781498440,
      1781498500,
      1781498596,
      1781498741,
      1781498741,
      1781498861,
      1781499011,
      1781499077,
      1781499077,
      1781499137,
      1781499257,
      1781499377,
      1781499437,
      1781499521,
      1781499641,
      1781499641
    ],
    "wof:geomhash": "d51bc97afccdc3d89380d28aa9dab651",
    "wof:id": 2031534673,
    "wof:repo": "sfomuseum-data-flights-2026-06"
  },
  "bbox": [
    -122.34194444444444,
    32.01777777777777,
    -114.81222222222222,
    37.60472222222222
  ],
  "geometry": {"coordinates":[[-114.81222222222222,32.01777777777777],[-114.81222222222222,32.01777777777777],[-115.24555555555555,32.34666666666667],[-115.24555555555555,32.34666666666667],[-115.5736111111111,32.59305555555556],[-115.5736111111111,32.59305555555556],[-115.68611111111112,32.67027777777778],[-115.93138888888889,32.79944444444444],[-116.05416666666666,32.86361111111111],[-116.05416666666666,32.86361111111111],[-116.43916666666667,33.06472222222222],[-116.54472222222222,33.119166666666665],[-116.54472222222222,33.119166666666665],[-116.6563888888889,33.19916666666666],[-116.76333333333334,33.28777777777778],[-116.86805555555554,33.374722222222225],[-116.86805555555554,33.374722222222225],[-117.07972222222222,33.55],[-117.07972222222222,33.55],[-117.41194444444444,33.82194444444445],[-117.41194444444444,33.82194444444445],[-117.83166666666666,34.17777777777778],[-117.83166666666666,34.17777777777778],[-118.26472222222222,34.52027777777778],[-118.38555555555556,34.58972222222222],[-118.50833333333334,34.66027777777778],[-118.63083333333333,34.730000000000004],[-118.885,34.87416666666667],[-118.885,34.87416666666667],[-119.2538888888889,35.081944444444446],[-119.86527777777778,35.42111111111111],[-119.86527777777778,35.42111111111111],[-119.98833333333333,35.48888888888889],[-119.98833333333333,35.48888888888889],[-120.35138888888888,35.68527777777778],[-120.35138888888888,35.68527777777778],[-120.88083333333333,35.886944444444445],[-120.88083333333333,35.886944444444445],[-121.15833333333335,35.94916666666666],[-121.15833333333335,35.94916666666666],[-121.36833333333333,36.09666666666667],[-121.36833333333333,36.09666666666667],[-121.53555555555555,36.297777777777775],[-121.615,36.39416666666666],[-121.75,36.55],[-121.90305555555557,36.77222222222222],[-121.90305555555557,36.77222222222222],[-121.95416666666667,36.95527777777778],[-122.1,37.13333333333333],[-122.16666666666667,37.2],[-122.16666666666667,37.2],[-122.25,37.25],[-122.2,37.36666666666667],[-122.11666666666666,37.483333333333334],[-122.16666666666667,37.53333333333333],[-122.24166666666667,37.562777777777775],[-122.34194444444444,37.60472222222222],[-122.34194444444444,37.60472222222222]],"type":"LineString"}
}
