{
  "id": 2031529085,
  "type": "Feature",
  "properties": {
    "geom:area": 0,
    "geom:bbox": "-122.316667,37.466667,-77.577500,42.575556",
    "geom:latitude": 40.45140708749745,
    "geom:longitude": -99.74750850388348,
    "src:alt_label": "swim-path",
    "src:geom": "swim",
    "swim:altitudes": [
      "039",
      "038",
      "038",
      "052",
      "052",
      "087",
      "087",
      "086",
      "086",
      "086",
      "111",
      "111",
      "130",
      "130",
      "130",
      "130",
      "183",
      "183",
      "183",
      "183",
      "183",
      "183",
      "257",
      "271",
      "271",
      "271",
      "271",
      "271",
      "271",
      "280C",
      "280C",
      "280C",
      "280C",
      "280C",
      "280C",
      "280C",
      "280C",
      "280C",
      "280C",
      "280C",
      "280C",
      "280C",
      "280C",
      "280C",
      "280C",
      "280C",
      "280C",
      "280C",
      "280C",
      "280C",
      "280C",
      "280C",
      "280C",
      "280C",
      "280C",
      "280C",
      "280C",
      "280C",
      "280C",
      "280C",
      "280C",
      "280C",
      "280C",
      "280C",
      "280C",
      "280C",
      "280C",
      "280C",
      "280C",
      "280C",
      "280C",
      "280C",
      "280C",
      "280C",
      "280C",
      "280C",
      "280C",
      "280C",
      "280C",
      "280C",
      "280C",
      "280C",
      "280C",
      "280C",
      "280C",
      "280C",
      "280C",
      "280C",
      "280C",
      "280C",
      "280C",
      "280C",
      "280C",
      "280C",
      "280C",
      "280C",
      "280C",
      "280C",
      "280C",
      "280C",
      "280C",
      "280C",
      "280C",
      "280C",
      "280C",
      "280C",
      "280C",
      "280C",
      "280C",
      "280C",
      "280C",
      "280C",
      "280C",
      "280C",
      "280C",
      "280C",
      "280C",
      "280C",
      "280C",
      "280C",
      "280C",
      "280C",
      "280C",
      "280C",
      "280C",
      "280C",
      "280C",
      "280C",
      "280C",
      "280C",
      "280C",
      "280C",
      "280C",
      "280C",
      "280C",
      "280C",
      "280C",
      "280C",
      "280C",
      "280C",
      "280C",
      "280C",
      "280C",
      "280C",
      "280C",
      "280C",
      "280C",
      "280C",
      "280C",
      "280C",
      "280C",
      "280C",
      "280C",
      "280C",
      "280C",
      "280C",
      "280C",
      "280C",
      "280C",
      "280C",
      "280C",
      "280C",
      "280C",
      "280C",
      "280C",
      "280C",
      "280C",
      "280C",
      "280C",
      "280C",
      "280C",
      "280C",
      "280C",
      "280C",
      "280C",
      "280C",
      "280C",
      "280C",
      "280C",
      "280C",
      "280C",
      "280C",
      "280C",
      "280C",
      "280C",
      "280C",
      "280C",
      "280C",
      "280C",
      "280C",
      "280C",
      "280C",
      "280C",
      "280C",
      "280C",
      "280C",
      "293",
      "293",
      "293",
      "293",
      "312",
      "320C",
      "320C",
      "320C",
      "320C",
      "320C",
      "320C",
      "320C",
      "320C",
      "320C",
      "320C",
      "320C",
      "320C",
      "320C",
      "320C",
      "320C",
      "320C",
      "320C",
      "320C",
      "320C",
      "320C",
      "320C",
      "320C",
      "320C",
      "320C",
      "320C",
      "320C",
      "320C",
      "320C",
      "320C",
      "320C",
      "320C",
      "320C",
      "320C",
      "320C",
      "320C",
      "320C",
      "320C",
      "320C",
      "320C",
      "320C",
      "320C",
      "320C",
      "320C",
      "320C",
      "320C",
      "320C",
      "320C",
      "320C",
      "320C",
      "320C",
      "320C",
      "320C",
      "320C",
      "320C",
      "320C",
      "320C",
      "320C",
      "320C",
      "320C",
      "320C",
      "320C",
      "320C",
      "320C",
      "320C",
      "320C",
      "320C",
      "320C",
      "320C",
      "320C",
      "320C",
      "320C",
      "320C",
      "320C",
      "320C",
      "320C",
      "320C",
      "320C",
      "320C",
      "320C",
      "320C",
      "320C",
      "320C",
      "320C",
      "320C",
      "320C",
      "320C",
      "320C",
      "320C",
      "320C",
      "320C",
      "320C",
      "320C",
      "320C",
      "320C",
      "320C",
      "320C",
      "320C",
      "320C",
      "320C",
      "320C",
      "320C",
      "320C",
      "320C",
      "320C",
      "320C",
      "320C",
      "320C",
      "320C",
      "320C",
      "320C",
      "320C",
      "320C",
      "320C",
      "320C",
      "320C",
      "320C",
      "320C",
      "320C",
      "320C",
      "320C",
      "320C",
      "320C",
      "320C",
      "320C",
      "320C",
      "320C",
      "320C",
      "320C",
      "320C",
      "320C",
      "320C",
      "320C",
      "320C",
      "320C",
      "320C",
      "320C",
      "320C",
      "320C",
      "320C",
      "320C",
      "320C",
      "320C",
      "320C",
      "320C",
      "320C",
      "320C",
      "320C",
      "320C",
      "320C",
      "320C",
      "320C",
      "320C",
      "320C",
      "320C",
      "320C",
      "320C",
      "320C",
      "320C",
      "320C",
      "320C",
      "320C",
      "320C",
      "320C",
      "320C",
      "320C",
      "320C",
      "320C",
      "320C",
      "320C",
      "320C",
      "320C",
      "320C",
      "320C",
      "320C",
      "320C",
      "320C",
      "320C",
      "320C",
      "320C",
      "320C",
      "320C",
      "320C",
      "320C",
      "320C",
      "320C",
      "320C",
      "320C",
      "320C",
      "320C",
      "320C",
      "320C",
      "320C",
      "320C",
      "320C",
      "320C",
      "320C",
      "320C",
      "320C",
      "320C",
      "320C",
      "320C",
      "320C",
      "320C",
      "320C",
      "320C",
      "320C",
      "320C",
      "320C",
      "320C",
      "320C",
      "320C",
      "320C",
      "320C",
      "320C",
      "320C",
      "320C",
      "320C",
      "320C",
      "320C",
      "320C",
      "320C",
      "320C",
      "320C",
      "320C",
      "320C",
      "320C",
      "320C",
      "320C",
      "320C",
      "320C",
      "320C",
      "320C",
      "320C",
      "320C",
      "320C",
      "320C",
      "320C",
      "320C",
      "320C",
      "320C",
      "320C",
      "320C",
      "320C",
      "320C",
      "320C",
      "320C",
      "320C",
      "320C",
      "320C",
      "320C",
      "320C",
      "320C",
      "320C",
      "320C",
      "320C",
      "320C",
      "320C",
      "320C",
      "320C",
      "320",
      "320",
      "320",
      "320",
      "283",
      "224",
      "178",
      "178",
      "153",
      "122",
      "122",
      "089",
      "089",
      "072",
      "072",
      "064",
      "059",
      "059",
      "053",
      "026",
      "021",
      "009",
      "009"
    ],
    "swim:geom": "path",
    "swim:speeds": [
      248,
      248,
      248,
      265,
      265,
      274,
      274,
      274,
      274,
      274,
      280,
      280,
      291,
      291,
      291,
      291,
      319,
      319,
      319,
      319,
      319,
      319,
      347,
      348,
      348,
      348,
      348,
      348,
      348,
      377,
      377,
      377,
      371,
      371,
      366,
      366,
      363,
      363,
      363,
      363,
      363,
      363,
      362,
      362,
      394,
      394,
      394,
      402,
      402,
      403,
      403,
      403,
      405,
      405,
      405,
      405,
      406,
      406,
      406,
      406,
      406,
      406,
      406,
      406,
      406,
      410,
      410,
      410,
      412,
      412,
      412,
      412,
      413,
      413,
      413,
      413,
      413,
      411,
      411,
      411,
      407,
      407,
      407,
      407,
      407,
      406,
      406,
      406,
      404,
      404,
      404,
      404,
      404,
      398,
      398,
      396,
      396,
      396,
      396,
      396,
      396,
      396,
      396,
      396,
      396,
      397,
      397,
      397,
      397,
      398,
      398,
      398,
      397,
      397,
      397,
      397,
      396,
      396,
      396,
      396,
      396,
      396,
      396,
      396,
      397,
      397,
      398,
      398,
      398,
      398,
      398,
      398,
      398,
      398,
      398,
      398,
      399,
      399,
      398,
      398,
      398,
      389,
      389,
      389,
      389,
      390,
      389,
      389,
      388,
      388,
      389,
      389,
      389,
      394,
      394,
      394,
      407,
      407,
      409,
      409,
      393,
      393,
      393,
      393,
      394,
      393,
      393,
      394,
      393,
      391,
      391,
      391,
      391,
      391,
      391,
      398,
      405,
      405,
      405,
      404,
      405,
      405,
      405,
      405,
      405,
      407,
      411,
      411,
      410,
      410,
      410,
      409,
      409,
      402,
      402,
      402,
      427,
      427,
      427,
      427,
      427,
      423,
      422,
      422,
      422,
      422,
      421,
      422,
      423,
      423,
      423,
      423,
      423,
      422,
      422,
      422,
      421,
      422,
      422,
      423,
      423,
      423,
      426,
      426,
      427,
      427,
      427,
      427,
      427,
      427,
      425,
      425,
      425,
      425,
      426,
      426,
      426,
      424,
      424,
      424,
      424,
      424,
      424,
      423,
      423,
      423,
      422,
      421,
      420,
      420,
      420,
      420,
      421,
      422,
      422,
      422,
      422,
      422,
      423,
      423,
      423,
      423,
      423,
      422,
      422,
      422,
      422,
      420,
      420,
      420,
      420,
      422,
      422,
      422,
      423,
      423,
      421,
      421,
      424,
      424,
      424,
      424,
      424,
      424,
      423,
      423,
      423,
      423,
      424,
      424,
      424,
      426,
      426,
      426,
      430,
      430,
      431,
      431,
      431,
      431,
      433,
      434,
      434,
      432,
      432,
      432,
      432,
      432,
      430,
      430,
      430,
      430,
      430,
      418,
      418,
      418,
      418,
      420,
      420,
      423,
      423,
      423,
      429,
      429,
      430,
      430,
      438,
      438,
      439,
      439,
      439,
      439,
      439,
      439,
      439,
      437,
      437,
      437,
      437,
      436,
      436,
      436,
      436,
      436,
      436,
      439,
      439,
      439,
      438,
      438,
      438,
      438,
      437,
      437,
      438,
      438,
      438,
      440,
      440,
      440,
      439,
      439,
      439,
      439,
      437,
      437,
      437,
      439,
      439,
      437,
      437,
      436,
      436,
      436,
      436,
      436,
      436,
      436,
      436,
      436,
      436,
      435,
      435,
      435,
      433,
      433,
      433,
      433,
      433,
      433,
      436,
      436,
      436,
      437,
      437,
      437,
      439,
      439,
      439,
      439,
      439,
      440,
      440,
      440,
      440,
      440,
      447,
      447,
      447,
      442,
      442,
      442,
      447,
      442,
      446,
      446,
      446,
      442,
      442,
      444,
      444,
      444,
      444,
      441,
      441,
      441,
      441,
      441,
      442,
      443,
      443,
      443,
      443,
      442,
      442,
      442,
      443,
      444,
      444,
      444,
      392,
      392,
      390,
      390,
      409,
      422,
      423,
      422,
      422,
      421,
      419,
      419,
      420,
      424,
      424,
      427,
      427,
      447,
      447,
      447,
      452,
      452,
      452,
      452,
      417,
      391,
      366,
      366,
      357,
      342,
      342,
      267,
      267,
      244,
      244,
      243,
      240,
      240,
      242,
      231,
      200,
      157,
      157
    ],
    "swim:timestamps": [
      1781372767,
      1781372775,
      1781372775,
      1781372801,
      1781372801,
      1781372888,
      1781372888,
      1781372895,
      1781372895,
      1781372895,
      1781372948,
      1781372948,
      1781373008,
      1781373008,
      1781373008,
      1781373008,
      1781373188,
      1781373188,
      1781373188,
      1781373188,
      1781373188,
      1781373188,
      1781373489,
      1781373556,
      1781373556,
      1781373556,
      1781373556,
      1781373556,
      1781373556,
      1781373676,
      1781373676,
      1781373676,
      1781373729,
      1781373729,
      1781373789,
      1781373789,
      1781373856,
      1781373856,
      1781373856,
      1781373856,
      1781373856,
      1781373909,
      1781373969,
      1781373969,
      1781374037,
      1781374037,
      1781374037,
      1781374089,
      1781374089,
      1781374150,
      1781374150,
      1781374157,
      1781374277,
      1781374277,
      1781374277,
      1781374277,
      1781374337,
      1781374337,
      1781374337,
      1781374457,
      1781374457,
      1781374457,
      1781374457,
      1781374457,
      1781374457,
      1781374635,
      1781374635,
      1781374635,
      1781374695,
      1781374695,
      1781374695,
      1781374695,
      1781374815,
      1781374815,
      1781374815,
      1781374815,
      1781374815,
      1781374875,
      1781374875,
      1781374875,
      1781375055,
      1781375055,
      1781375055,
      1781375055,
      1781375055,
      1781375175,
      1781375175,
      1781375175,
      1781375296,
      1781375296,
      1781375296,
      1781375296,
      1781375296,
      1781375416,
      1781375416,
      1781375476,
      1781375476,
      1781375476,
      1781375476,
      1781375476,
      1781375476,
      1781375836,
      1781375836,
      1781375836,
      1781375836,
      1781375896,
      1781375896,
      1781375896,
      1781375896,
      1781375957,
      1781375957,
      1781375957,
      1781376257,
      1781376257,
      1781376257,
      1781376257,
      1781376437,
      1781376437,
      1781376437,
      1781376497,
      1781376497,
      1781376497,
      1781376497,
      1781376497,
      1781376738,
      1781376738,
      1781376798,
      1781376798,
      1781376798,
      1781376798,
      1781376858,
      1781376858,
      1781376858,
      1781376918,
      1781376918,
      1781376978,
      1781377041,
      1781377041,
      1781377101,
      1781377101,
      1781377101,
      1781377281,
      1781377281,
      1781377281,
      1781377281,
      1781377401,
      1781377461,
      1781377461,
      1781377642,
      1781377642,
      1781377702,
      1781377702,
      1781377702,
      1781377762,
      1781377762,
      1781377762,
      1781377942,
      1781377942,
      1781378002,
      1781378002,
      1781378325,
      1781378325,
      1781378325,
      1781378325,
      1781378363,
      1781378445,
      1781378445,
      1781378483,
      1781378565,
      1781378904,
      1781378904,
      1781378986,
      1781378986,
      1781378986,
      1781378986,
      1781379106,
      1781379226,
      1781379325,
      1781379325,
      1781379406,
      1781379445,
      1781379445,
      1781379466,
      1781379466,
      1781379466,
      1781379527,
      1781379745,
      1781379745,
      1781379866,
      1781379866,
      1781379926,
      1781379986,
      1781379986,
      1781380127,
      1781380127,
      1781380127,
      1781380248,
      1781380248,
      1781380248,
      1781380248,
      1781380346,
      1781380406,
      1781380466,
      1781380488,
      1781380488,
      1781380488,
      1781380608,
      1781380728,
      1781380849,
      1781380849,
      1781380849,
      1781380849,
      1781380849,
      1781381029,
      1781381029,
      1781381029,
      1781381149,
      1781381209,
      1781381209,
      1781381269,
      1781381269,
      1781381269,
      1781381389,
      1781381389,
      1781381570,
      1781381570,
      1781381570,
      1781381570,
      1781381630,
      1781381630,
      1781381750,
      1781381750,
      1781381750,
      1781381750,
      1781381810,
      1781381810,
      1781381810,
      1781381870,
      1781381870,
      1781382050,
      1781382050,
      1781382050,
      1781382050,
      1781382110,
      1781382110,
      1781382110,
      1781382170,
      1781382230,
      1781382290,
      1781382290,
      1781382290,
      1781382290,
      1781382651,
      1781382711,
      1781382711,
      1781382711,
      1781382711,
      1781382711,
      1781382891,
      1781382891,
      1781382891,
      1781382951,
      1781382951,
      1781383071,
      1781383071,
      1781383071,
      1781383071,
      1781383194,
      1781383194,
      1781383314,
      1781383314,
      1781383372,
      1781383372,
      1781383372,
      1781383432,
      1781383432,
      1781383495,
      1781383495,
      1781383612,
      1781383612,
      1781383612,
      1781383732,
      1781383732,
      1781383732,
      1781383792,
      1781383792,
      1781383852,
      1781383852,
      1781383912,
      1781383912,
      1781383912,
      1781383975,
      1781384035,
      1781384035,
      1781384153,
      1781384153,
      1781384276,
      1781384276,
      1781384276,
      1781384276,
      1781384333,
      1781384393,
      1781384453,
      1781384516,
      1781384516,
      1781384516,
      1781384516,
      1781384516,
      1781384814,
      1781384814,
      1781384814,
      1781384814,
      1781384814,
      1781384994,
      1781385054,
      1781385054,
      1781385054,
      1781385114,
      1781385114,
      1781385237,
      1781385237,
      1781385237,
      1781385294,
      1781385294,
      1781385357,
      1781385357,
      1781385475,
      1781385475,
      1781385535,
      1781385535,
      1781385595,
      1781385595,
      1781385655,
      1781385655,
      1781385655,
      1781385715,
      1781385715,
      1781385715,
      1781385715,
      1781385895,
      1781385895,
      1781385895,
      1781385955,
      1781385955,
      1781385955,
      1781386075,
      1781386075,
      1781386075,
      1781386256,
      1781386256,
      1781386256,
      1781386256,
      1781386316,
      1781386316,
      1781386436,
      1781386436,
      1781386436,
      1781386496,
      1781386496,
      1781386496,
      1781386616,
      1781386616,
      1781386616,
      1781386616,
      1781386676,
      1781386676,
      1781386676,
      1781386856,
      1781386856,
      1781386919,
      1781386919,
      1781386979,
      1781386979,
      1781386979,
      1781386979,
      1781387039,
      1781387039,
      1781387039,
      1781387340,
      1781387340,
      1781387340,
      1781387460,
      1781387460,
      1781387460,
      1781387580,
      1781387580,
      1781387640,
      1781387640,
      1781387640,
      1781387640,
      1781387941,
      1781387941,
      1781387941,
      1781388001,
      1781388001,
      1781388001,
      1781388181,
      1781388181,
      1781388181,
      1781388241,
      1781388241,
      1781388301,
      1781388361,
      1781388361,
      1781388361,
      1781388361,
      1781388531,
      1781388531,
      1781388531,
      1781388541,
      1781388541,
      1781388541,
      1781388591,
      1781388602,
      1781388651,
      1781388651,
      1781388651,
      1781388662,
      1781388722,
      1781388771,
      1781388771,
      1781388771,
      1781388771,
      1781389012,
      1781389022,
      1781389072,
      1781389082,
      1781389082,
      1781389142,
      1781389192,
      1781389192,
      1781389202,
      1781389202,
      1781389262,
      1781389262,
      1781389262,
      1781389323,
      1781389372,
      1781389372,
      1781389383,
      1781389503,
      1781389503,
      1781389612,
      1781389612,
      1781389683,
      1781389743,
      1781389793,
      1781389863,
      1781389863,
      1781389923,
      1781390033,
      1781390033,
      1781390093,
      1781390273,
      1781390273,
      1781390333,
      1781390333,
      1781390453,
      1781390453,
      1781390453,
      1781390634,
      1781390634,
      1781390634,
      1781390694,
      1781390814,
      1781390962,
      1781391088,
      1781391088,
      1781391174,
      1781391262,
      1781391262,
      1781391442,
      1781391442,
      1781391535,
      1781391535,
      1781391557,
      1781391622,
      1781391622,
      1781391655,
      1781391775,
      1781391835,
      1781391922,
      1781391922
    ],
    "wof:geomhash": "db52139c4a631caa46469565fe51f91e",
    "wof:id": 2031529085,
    "wof:repo": "sfomuseum-data-flights-2026-06"
  },
  "bbox": [
    -122.31666666666666,
    37.46666666666667,
    -77.5775,
    42.57555555555556
  ],
  "geometry": {"coordinates":[[-77.5775,39.025555555555556],[-77.57777777777777,39.02611111111111],[-77.57777777777777,39.02611111111111],[-77.6,39.06666666666667],[-77.6,39.06666666666667],[-77.65305555555557,39.1625],[-77.65305555555557,39.1625],[-77.65277777777779,39.1625],[-77.65277777777779,39.1625],[-77.65277777777779,39.1625],[-77.69444444444444,39.23777777777778],[-77.69444444444444,39.23777777777778],[-77.73555555555555,39.3125],[-77.73555555555555,39.3125],[-77.73555555555555,39.3125],[-77.73555555555555,39.3125],[-77.88916666666667,39.54666666666667],[-77.88916666666667,39.54666666666667],[-77.88916666666667,39.54666666666667],[-77.88916666666667,39.54666666666667],[-77.88916666666667,39.54666666666667],[-77.88916666666667,39.54666666666667],[-78.44166666666668,39.71527777777778],[-78.55833333333334,39.750277777777775],[-78.55833333333334,39.750277777777775],[-78.55833333333334,39.750277777777775],[-78.55833333333334,39.750277777777775],[-78.55833333333334,39.750277777777775],[-78.55833333333334,39.750277777777775],[-78.78666666666666,39.84861111111111],[-78.78666666666666,39.84861111111111],[-78.78666666666666,39.84861111111111],[-78.89805555555556,39.901111111111106],[-78.89805555555556,39.901111111111106],[-79.00972222222222,39.953611111111115],[-79.00972222222222,39.953611111111115],[-79.12277777777777,40.00694444444444],[-79.12277777777777,40.00694444444444],[-79.12277777777777,40.00694444444444],[-79.12277777777777,40.00694444444444],[-79.12277777777777,40.00694444444444],[-79.2325,40.05777777777777],[-79.34472222222222,40.11],[-79.34472222222222,40.11],[-79.48833333333333,40.17638888888889],[-79.48833333333333,40.17638888888889],[-79.48833333333333,40.17638888888889],[-79.58833333333332,40.222500000000004],[-79.58833333333332,40.222500000000004],[-79.71361111111112,40.28],[-79.71361111111112,40.28],[-79.7388888888889,40.291666666666664],[-79.99111111111111,40.406666666666666],[-79.99111111111111,40.406666666666666],[-79.99111111111111,40.406666666666666],[-79.99111111111111,40.406666666666666],[-80.09833333333333,40.45527777777778],[-80.09833333333333,40.45527777777778],[-80.09833333333333,40.45527777777778],[-80.36472222222221,40.57555555555556],[-80.36472222222221,40.57555555555556],[-80.36472222222221,40.57555555555556],[-80.36472222222221,40.57555555555556],[-80.36472222222221,40.57555555555556],[-80.36472222222221,40.57555555555556],[-80.74722222222222,40.74583333333334],[-80.74722222222222,40.74583333333334],[-80.74722222222222,40.74583333333334],[-80.88277777777778,40.80583333333333],[-80.88277777777778,40.80583333333333],[-80.88277777777778,40.80583333333333],[-80.88277777777778,40.80583333333333],[-81.13861111111112,40.918055555555554],[-81.13861111111112,40.918055555555554],[-81.13861111111112,40.918055555555554],[-81.13861111111112,40.918055555555554],[-81.13861111111112,40.918055555555554],[-81.26777777777778,40.974444444444444],[-81.26777777777778,40.974444444444444],[-81.26777777777778,40.974444444444444],[-81.66361111111112,41.14555555555555],[-81.66361111111112,41.14555555555555],[-81.66361111111112,41.14555555555555],[-81.66361111111112,41.14555555555555],[-81.66361111111112,41.14555555555555],[-81.9225,41.256388888888885],[-81.9225,41.256388888888885],[-81.9225,41.256388888888885],[-82.19,41.36222222222222],[-82.19,41.36222222222222],[-82.19,41.36222222222222],[-82.19,41.36222222222222],[-82.19,41.36222222222222],[-82.47500000000001,41.41277777777778],[-82.47500000000001,41.41277777777778],[-82.61694444444444,41.43722222222222],[-82.61694444444444,41.43722222222222],[-82.61694444444444,41.43722222222222],[-82.61694444444444,41.43722222222222],[-82.61694444444444,41.43722222222222],[-82.61694444444444,41.43722222222222],[-83.46777777777778,41.580555555555556],[-83.46777777777778,41.580555555555556],[-83.46777777777778,41.580555555555556],[-83.46777777777778,41.580555555555556],[-83.615,41.60444444444445],[-83.615,41.60444444444445],[-83.615,41.60444444444445],[-83.615,41.60444444444445],[-83.75972222222222,41.62777777777778],[-83.75972222222222,41.62777777777778],[-83.75972222222222,41.62777777777778],[-84.4888888888889,41.74305555555556],[-84.4888888888889,41.74305555555556],[-84.4888888888889,41.74305555555556],[-84.4888888888889,41.74305555555556],[-84.91972222222223,41.808611111111105],[-84.91972222222223,41.808611111111105],[-84.91972222222223,41.808611111111105],[-85.065,41.83027777777778],[-85.065,41.83027777777778],[-85.065,41.83027777777778],[-85.065,41.83027777777778],[-85.065,41.83027777777778],[-85.63333333333334,41.913333333333334],[-85.63333333333334,41.913333333333334],[-85.78166666666667,41.93472222222222],[-85.78166666666667,41.93472222222222],[-85.78166666666667,41.93472222222222],[-85.78166666666667,41.93472222222222],[-85.9238888888889,41.95472222222222],[-85.9238888888889,41.95472222222222],[-85.9238888888889,41.95472222222222],[-86.06916666666666,41.975],[-86.06916666666666,41.975],[-86.21666666666667,41.995555555555555],[-86.36472222222221,42.01583333333333],[-86.36472222222221,42.01583333333333],[-86.51,42.035555555555554],[-86.51,42.035555555555554],[-86.51,42.035555555555554],[-86.94111111111111,42.093333333333334],[-86.94111111111111,42.093333333333334],[-86.94111111111111,42.093333333333334],[-86.94111111111111,42.093333333333334],[-87.2275,42.13055555555555],[-87.36999999999999,42.14888888888889],[-87.36999999999999,42.14888888888889],[-87.79833333333333,42.19416666666666],[-87.79833333333333,42.19416666666666],[-87.91444444444446,42.20277777777778],[-87.91444444444446,42.20277777777778],[-87.91444444444446,42.20277777777778],[-88.0911111111111,42.215],[-88.0911111111111,42.215],[-88.0911111111111,42.215],[-88.57249999999999,42.24805555555556],[-88.57249999999999,42.24805555555556],[-88.72666666666667,42.25833333333333],[-88.72666666666667,42.25833333333333],[-89.51,42.33777777777778],[-89.51,42.33777777777778],[-89.51,42.33777777777778],[-89.51,42.33777777777778],[-89.59694444444445,42.35777777777778],[-89.76666666666667,42.39277777777778],[-89.76666666666667,42.39277777777778],[-89.88166666666666,42.416666666666664],[-90.0675,42.44944444444444],[-90.87583333333333,42.57555555555556],[-90.87583333333333,42.57555555555556],[-91.06583333333333,42.51611111111111],[-91.06583333333333,42.51611111111111],[-91.06583333333333,42.51611111111111],[-91.06583333333333,42.51611111111111],[-91.32944444444443,42.410555555555554],[-91.59888888888888,42.30138888888889],[-91.81138888888889,42.214444444444446],[-91.81138888888889,42.214444444444446],[-91.99805555555555,42.13777777777778],[-92.07777777777777,42.105000000000004],[-92.07777777777777,42.105000000000004],[-92.13055555555555,42.08305555555556],[-92.13055555555555,42.08305555555556],[-92.13055555555555,42.08305555555556],[-92.26444444444445,42.027499999999996],[-92.6613888888889,41.74138888888889],[-92.6613888888889,41.74138888888889],[-92.92555555555556,41.614444444444445],[-92.92555555555556,41.614444444444445],[-93.07055555555556,41.58861111111111],[-93.22055555555556,41.58361111111111],[-93.22055555555556,41.58361111111111],[-93.57638888888889,41.57027777777778],[-93.57638888888889,41.57027777777778],[-93.57638888888889,41.57027777777778],[-93.88861111111112,41.55833333333333],[-93.88861111111112,41.55833333333333],[-93.88861111111112,41.55833333333333],[-93.88861111111112,41.55833333333333],[-94.14250000000001,41.5475],[-94.29638888888888,41.54083333333333],[-94.45222222222222,41.53388888888889],[-94.50694444444444,41.53138888888889],[-94.50694444444444,41.53138888888889],[-94.50694444444444,41.53138888888889],[-94.81583333333333,41.51722222222222],[-95.12777777777777,41.501666666666665],[-95.43972222222223,41.48527777777778],[-95.43972222222223,41.48527777777778],[-95.43972222222223,41.48527777777778],[-95.43972222222223,41.48527777777778],[-95.43972222222223,41.48527777777778],[-95.91083333333334,41.45888888888889],[-95.91083333333334,41.45888888888889],[-95.91083333333334,41.45888888888889],[-96.22055555555556,41.44083333333333],[-96.39250000000001,41.430277777777775],[-96.39250000000001,41.430277777777775],[-96.54722222222222,41.42055555555555],[-96.54722222222222,41.42055555555555],[-96.54722222222222,41.42055555555555],[-96.8611111111111,41.400277777777774],[-96.8611111111111,41.400277777777774],[-97.3325,41.36805555555556],[-97.3325,41.36805555555556],[-97.3325,41.36805555555556],[-97.3325,41.36805555555556],[-97.48722222222223,41.356944444444444],[-97.48722222222223,41.356944444444444],[-97.80138888888888,41.33416666666667],[-97.80138888888888,41.33416666666667],[-97.80138888888888,41.33416666666667],[-97.80138888888888,41.33416666666667],[-97.94361111111111,41.32333333333334],[-97.94361111111111,41.32333333333334],[-97.94361111111111,41.32333333333334],[-98.09944444444444,41.31166666666666],[-98.09944444444444,41.31166666666666],[-98.56527777777778,41.27472222222222],[-98.56527777777778,41.27472222222222],[-98.56527777777778,41.27472222222222],[-98.56527777777778,41.27472222222222],[-98.7325,41.26083333333333],[-98.7325,41.26083333333333],[-98.7325,41.26083333333333],[-98.87583333333333,41.24888888888889],[-99.02888888888889,41.236111111111114],[-99.19944444444445,41.22138888888889],[-99.19944444444445,41.22138888888889],[-99.19944444444445,41.22138888888889],[-99.19944444444445,41.22138888888889],[-100.10138888888888,41.13916666666667],[-100.25361111111111,41.124722222222225],[-100.25361111111111,41.124722222222225],[-100.25361111111111,41.124722222222225],[-100.25361111111111,41.124722222222225],[-100.25361111111111,41.124722222222225],[-100.71472222222222,41.07944444444445],[-100.71472222222222,41.07944444444445],[-100.71472222222222,41.07944444444445],[-100.86416666666666,41.064166666666665],[-100.86416666666666,41.064166666666665],[-101.19805555555556,41.02972222222222],[-101.19805555555556,41.02972222222222],[-101.19805555555556,41.02972222222222],[-101.19805555555556,41.02972222222222],[-101.49694444444445,40.99638888888889],[-101.49694444444445,40.99638888888889],[-101.80083333333333,40.965],[-101.80083333333333,40.965],[-101.96277777777777,40.94694444444444],[-101.96277777777777,40.94694444444444],[-101.96277777777777,40.94694444444444],[-102.11555555555555,40.93],[-102.11555555555555,40.93],[-102.26388888888889,40.91222222222222],[-102.26388888888889,40.91222222222222],[-102.5775,40.876666666666665],[-102.5775,40.876666666666665],[-102.5775,40.876666666666665],[-102.88277777777778,40.84055555555556],[-102.88277777777778,40.84055555555556],[-102.88277777777778,40.84055555555556],[-103.0363888888889,40.82194444444445],[-103.0363888888889,40.82194444444445],[-103.18805555555556,40.80333333333333],[-103.18805555555556,40.80333333333333],[-103.34333333333333,40.78388888888889],[-103.34333333333333,40.78388888888889],[-103.34333333333333,40.78388888888889],[-103.49027777777778,40.745555555555555],[-103.63722222222223,40.70638888888889],[-103.63722222222223,40.70638888888889],[-103.94805555555556,40.66694444444444],[-103.94805555555556,40.66694444444444],[-104.26083333333334,40.62722222222222],[-104.26083333333334,40.62722222222222],[-104.26083333333334,40.62722222222222],[-104.26083333333334,40.62722222222222],[-104.41444444444446,40.60722222222223],[-104.56805555555555,40.58694444444445],[-104.72444444444444,40.566111111111105],[-104.88222222222221,40.54361111111111],[-104.88222222222221,40.54361111111111],[-104.88222222222221,40.54361111111111],[-104.88222222222221,40.54361111111111],[-104.88222222222221,40.54361111111111],[-105.65305555555557,40.43722222222222],[-105.65305555555557,40.43722222222222],[-105.65305555555557,40.43722222222222],[-105.65305555555557,40.43722222222222],[-105.65305555555557,40.43722222222222],[-106.09888888888888,40.37277777777778],[-106.25916666666667,40.34916666666667],[-106.25916666666667,40.34916666666667],[-106.25916666666667,40.34916666666667],[-106.40944444444445,40.32666666666667],[-106.40944444444445,40.32666666666667],[-106.70805555555556,40.28055555555555],[-106.70805555555556,40.28055555555555],[-106.70805555555556,40.28055555555555],[-106.86999999999999,40.25666666666667],[-106.86999999999999,40.25666666666667],[-107.01972222222223,40.233333333333334],[-107.01972222222223,40.233333333333334],[-107.33194444444445,40.18444444444444],[-107.33194444444445,40.18444444444444],[-107.48861111111111,40.159444444444446],[-107.48861111111111,40.159444444444446],[-107.65083333333334,40.13333333333333],[-107.65083333333334,40.13333333333333],[-107.79694444444445,40.109722222222224],[-107.79694444444445,40.109722222222224],[-107.79694444444445,40.109722222222224],[-107.95361111111112,40.08416666666667],[-107.95361111111112,40.08416666666667],[-107.95361111111112,40.08416666666667],[-107.95361111111112,40.08416666666667],[-108.41277777777778,40.0075],[-108.41277777777778,40.0075],[-108.41277777777778,40.0075],[-108.56472222222222,39.98166666666667],[-108.56472222222222,39.98166666666667],[-108.56472222222222,39.98166666666667],[-108.87194444444444,39.92916666666667],[-108.87194444444444,39.92916666666667],[-108.87194444444444,39.92916666666667],[-109.33055555555555,39.84916666666667],[-109.33055555555555,39.84916666666667],[-109.33055555555555,39.84916666666667],[-109.33055555555555,39.84916666666667],[-109.48388888888888,39.82166666666667],[-109.48388888888888,39.82166666666667],[-109.79055555555556,39.766666666666666],[-109.79055555555556,39.766666666666666],[-109.79055555555556,39.766666666666666],[-109.94611111111111,39.738055555555555],[-109.94611111111111,39.738055555555555],[-109.94611111111111,39.738055555555555],[-110.2525,39.68138888888889],[-110.2525,39.68138888888889],[-110.2525,39.68138888888889],[-110.2525,39.68138888888889],[-110.40527777777778,39.65277777777778],[-110.40527777777778,39.65277777777778],[-110.40527777777778,39.65277777777778],[-110.86583333333333,39.56527777777777],[-110.86583333333333,39.56527777777777],[-111.04888888888888,39.53],[-111.04888888888888,39.53],[-111.2,39.50083333333333],[-111.2,39.50083333333333],[-111.2,39.50083333333333],[-111.2,39.50083333333333],[-111.34305555555555,39.47277777777778],[-111.34305555555555,39.47277777777778],[-111.34305555555555,39.47277777777778],[-112.10138888888888,39.32055555555556],[-112.10138888888888,39.32055555555556],[-112.10138888888888,39.32055555555556],[-112.40333333333334,39.25888888888889],[-112.40333333333334,39.25888888888889],[-112.40333333333334,39.25888888888889],[-112.71333333333334,39.193888888888885],[-112.71333333333334,39.193888888888885],[-112.86222222222221,39.16222222222222],[-112.86222222222221,39.16222222222222],[-112.86222222222221,39.16222222222222],[-112.86222222222221,39.16222222222222],[-113.60888888888888,39.001666666666665],[-113.60888888888888,39.001666666666665],[-113.60888888888888,39.001666666666665],[-113.75694444444444,38.969166666666666],[-113.75694444444444,38.969166666666666],[-113.75694444444444,38.969166666666666],[-114.20694444444445,38.869166666666665],[-114.20694444444445,38.869166666666665],[-114.20694444444445,38.869166666666665],[-114.35749999999999,38.835],[-114.35749999999999,38.835],[-114.50861111111111,38.800555555555555],[-114.65861111111111,38.76638888888889],[-114.65861111111111,38.76638888888889],[-114.65861111111111,38.76638888888889],[-114.65861111111111,38.76638888888889],[-115.08111111111111,38.668055555555554],[-115.08111111111111,38.668055555555554],[-115.08111111111111,38.668055555555554],[-115.10777777777777,38.6625],[-115.10777777777777,38.6625],[-115.10777777777777,38.6625],[-115.23194444444445,38.6325],[-115.25833333333334,38.62694444444445],[-115.38166666666666,38.59722222222222],[-115.38166666666666,38.59722222222222],[-115.38166666666666,38.59722222222222],[-115.40972222222223,38.59111111111111],[-115.56,38.55555555555555],[-115.68222222222222,38.52777777777778],[-115.68222222222222,38.52777777777778],[-115.68222222222222,38.52777777777778],[-115.68222222222222,38.52777777777778],[-116.28027777777778,38.38111111111111],[-116.30749999999999,38.37444444444444],[-116.42944444444444,38.344166666666666],[-116.4588888888889,38.337500000000006],[-116.4588888888889,38.337500000000006],[-116.60027777777778,38.375277777777775],[-116.70694444444445,38.43194444444444],[-116.70694444444445,38.43194444444444],[-116.72972222222222,38.44305555555555],[-116.72972222222222,38.44305555555555],[-116.88,38.42833333333333],[-116.88,38.42833333333333],[-116.88,38.42833333333333],[-117.02722222222222,38.388333333333335],[-117.14833333333334,38.355555555555554],[-117.14833333333334,38.355555555555554],[-117.17527777777778,38.34805555555556],[-117.44555555555556,38.29722222222222],[-117.44555555555556,38.29722222222222],[-117.69166666666668,38.27638888888889],[-117.69166666666668,38.27638888888889],[-117.85694444444444,38.26361111111111],[-118.0025,38.29138888888889],[-118.12138888888889,38.316944444444445],[-118.29055555555556,38.35388888888889],[-118.29055555555556,38.35388888888889],[-118.435,38.385555555555555],[-118.7,38.41583333333333],[-118.7,38.41583333333333],[-118.84861111111111,38.41],[-119.28444444444445,38.32277777777778],[-119.28444444444445,38.32277777777778],[-119.41222222222223,38.259166666666665],[-119.41222222222223,38.259166666666665],[-119.66388888888889,38.11888888888889],[-119.66388888888889,38.11888888888889],[-119.66388888888889,38.11888888888889],[-120.05499999999999,37.89833333333333],[-120.05499999999999,37.89833333333333],[-120.05499999999999,37.89833333333333],[-120.185,37.824444444444445],[-120.43583333333333,37.696666666666665],[-120.8,37.65],[-121.06666666666666,37.61666666666667],[-121.06666666666666,37.61666666666667],[-121.23111111111112,37.59666666666667],[-121.41666666666667,37.56666666666667],[-121.41666666666667,37.56666666666667],[-121.73333333333333,37.516666666666666],[-121.73333333333333,37.516666666666666],[-121.85805555555555,37.49472222222222],[-121.85805555555555,37.49472222222222],[-121.9,37.483333333333334],[-121.98333333333333,37.46666666666667],[-121.98333333333333,37.46666666666667],[-122.01805555555555,37.467777777777776],[-122.16166666666668,37.528888888888886],[-122.22416666666666,37.555277777777775],[-122.31666666666666,37.583333333333336],[-122.31666666666666,37.583333333333336]],"type":"LineString"}
}
