{
  "id": 2031478935,
  "type": "Feature",
  "properties": {
    "date:cessation_lower": "2026-06-08",
    "date:cessation_upper": "2026-06-08",
    "date:inception_lower": "2026-06-08",
    "date:inception_upper": "2026-06-08",
    "edtf:cessation": "2026-06-08T01:07:00Z",
    "edtf:inception": "2026-06-08T00:13:00Z",
    "flysfo:actual_timestamp": -1,
    "flysfo:airline": "UA",
    "flysfo:base_airline": "",
    "flysfo:base_flight_number": "1066",
    "flysfo:date": "2026-06-07",
    "flysfo:estimated_timestamp": 1780875540,
    "flysfo:event": "D",
    "flysfo:flight_number": "UA1754",
    "flysfo:gate": "F15",
    "flysfo:journey": "SFO-LAX",
    "flysfo:scheduled_timestamp": 1780874700,
    "flysfo:timestamp": 1780875540,
    "geom:area": 0,
    "geom:bbox": "-122.370943,33.942593,-118.389510,37.617990",
    "geom:latitude": 35.780291500000004,
    "geom:longitude": -120.38022649999999,
    "iata:airline": "UA",
    "iata:base_airline": "",
    "icao:aircraft": "B39M",
    "icao:airline": "UAL",
    "icao:base_airline": "CMP",
    "lbl:latitude": 37.620818,
    "lbl:longitude": -122.389182,
    "sfomuseum:aircraft_id": 1528104577,
    "sfomuseum:airline_id": 1159285413,
    "sfomuseum:arrival_id": 102533795,
    "sfomuseum:base_flight_id": "20260607-D-CMP-1066",
    "sfomuseum:departure_id": 102527513,
    "sfomuseum:flight_id": "20260607-D-UAL-1754",
    "sfomuseum:flight_number": [
      "UAL1754",
      "UA1754"
    ],
    "sfomuseum:placetype": "flight",
    "src:geom": "flysfo",
    "src:geom_alt": [
      "swim-route",
      "swim-path",
      "swim-takeoff"
    ],
    "swim:tail_number": "N17438",
    "wof:belongsto": [
      1947304067,
      102527513,
      1947304451,
      102191575,
      85633793,
      102087579,
      85922583,
      554784711,
      85688637,
      1947304455,
      1947304447,
      102085387
    ],
    "wof:concordances": {
      "swim:flight_ref": "148678119",
      "swim:gufi": "KO813621dr"
    },
    "wof:country": "US",
    "wof:created": 1780935427,
    "wof:geomhash": "602be2a828e3460cadf44be5b1c2e36b",
    "wof:hierarchy": [
      {
        "building_id": 1947304067,
        "campus_id": 102527513,
        "concourse_id": 1947304451,
        "continent_id": 102191575,
        "country_id": 85633793,
        "county_id": 102087579,
        "custom_id": 2031478935,
        "flight_id": 2031478935,
        "locality_id": 85922583,
        "postalcode_id": 554784711,
        "region_id": 85688637,
        "venue_id": 1947304455,
        "wing_id": 1947304447
      },
      {
        "building_id": 1947304067,
        "campus_id": 102527513,
        "concourse_id": 1947304451,
        "continent_id": 102191575,
        "country_id": 85633793,
        "county_id": 102085387,
        "custom_id": 2031478935,
        "flight_id": 2031478935,
        "region_id": 85688637,
        "venue_id": 1947304455,
        "wing_id": 1947304447
      }
    ],
    "wof:id": 2031478935,
    "wof:involves": [
      1528104577,
      102533795,
      102527513,
      1159285413,
      1947304455,
      1159284211
    ],
    "wof:lastmodified": 1780935582,
    "wof:name": "UA1754 (SFO-LAX)",
    "wof:parent_id": 1947304455,
    "wof:placetype": "custom",
    "wof:placetype_alt": [
      "flight"
    ],
    "wof:repo": "sfomuseum-data-flights-2026-06",
    "wof:superseded_by": [],
    "wof:supersedes": []
  },
  "bbox": [
    -122.370943,
    33.942593,
    -118.38951,
    37.61799
  ],
  "geometry": {"coordinates":[[-122.370943,37.61799],[-118.38951,33.942593]],"type":"MultiPoint"}
}
