{
  "id": 2031428473,
  "type": "Feature",
  "properties": {
    "geom:area": 0,
    "geom:bbox": "-122.364120,36.737600,-121.888810,37.613650",
    "geom:latitude": 37.232999046240266,
    "geom:longitude": -122.0698628846921,
    "src:alt_label": "swim-approach",
    "src:geom": "swim",
    "swim:elevations": [
      5488,
      5390,
      5194,
      4953,
      4796,
      4566,
      4235,
      4071,
      3759,
      3485,
      3239,
      3001,
      2944,
      2749,
      2457,
      2286,
      2098,
      1932,
      1798,
      1566,
      1279,
      1194,
      1093,
      1066,
      1035,
      955,
      806,
      725,
      607,
      469,
      334,
      291,
      123,
      103,
      240
    ],
    "swim:geom": "approach",
    "swim:timestamps": [
      1780396404,
      1780396417,
      1780396439,
      1780396466,
      1780396484,
      1780396513,
      1780396554,
      1780396572,
      1780396610,
      1780396644,
      1780396676,
      1780396706,
      1780396713,
      1780396744,
      1780396790,
      1780396814,
      1780396849,
      1780396874,
      1780396899,
      1780396932,
      1780396968,
      1780396999,
      1780397027,
      1780397040,
      1780397055,
      1780397081,
      1780397119,
      1780397134,
      1780397170,
      1780397210,
      1780397243,
      1780397257,
      1780397303,
      1780397338,
      1780397343
    ],
    "wof:geomhash": "94e510fdcd65fae812c06ed862926744",
    "wof:id": 2031428473,
    "wof:repo": "sfomuseum-data-flights-2026-06"
  },
  "bbox": [
    -122.36412,
    36.7376,
    -121.88881,
    37.61365
  ],
  "geometry": {"coordinates":[[-121.88881,36.7376],[-121.8978,36.75695],[-121.90718,36.7889],[-121.919,36.83021],[-121.9263,36.85598],[-121.93811,36.89889],[-121.95541,36.95854],[-121.96543,36.98399],[-121.98599,37.03676],[-122.00405,37.08312],[-122.02092,37.12605],[-122.03699,37.16687],[-122.0407,37.17639],[-122.05604,37.21548],[-122.07757,37.2706],[-122.08859,37.29865],[-122.1034,37.3366],[-122.09895,37.36372],[-122.09124,37.38948],[-122.08088,37.42367],[-122.08943,37.45934],[-122.10039,37.48897],[-122.11713,37.50873],[-122.12923,37.5147],[-122.14278,37.52123],[-122.16847,37.5319],[-122.20222,37.54604],[-122.21512,37.55147],[-122.241,37.56229],[-122.26952,37.57431],[-122.29364,37.58443],[-122.30376,37.58869],[-122.33647,37.60239],[-122.36042,37.6124],[-122.36412,37.61365]],"type":"LineString"}
}
