{
  "id": 2031533069,
  "type": "Feature",
  "properties": {
    "geom:area": 0,
    "geom:bbox": "-122.558611,32.688611,-116.954722,37.659444",
    "geom:latitude": 35.00160380147382,
    "geom:longitude": -120.03939952802261,
    "src:alt_label": "swim-path",
    "src:geom": "swim",
    "swim:altitudes": [
      "030",
      "030",
      "030",
      "045",
      "045",
      "064",
      "094",
      "094",
      "094",
      "094",
      "111",
      "111",
      "135",
      "135",
      "135",
      "135",
      "157",
      "159",
      "159",
      "159",
      "215",
      "215",
      "232",
      "232",
      "232",
      "233",
      "233",
      "266",
      "266",
      "267",
      "279",
      "279",
      "281",
      "281",
      "290",
      "292",
      "292",
      "292",
      "305",
      "305",
      "315",
      "315",
      "315",
      "327",
      "327",
      "327",
      "330C",
      "330C",
      "330C",
      "330C",
      "330C",
      "330C",
      "330C",
      "330C",
      "330C",
      "330C",
      "330C",
      "330C",
      "330C",
      "330C",
      "330C",
      "330C",
      "330C",
      "330C",
      "330C",
      "330C",
      "330C",
      "330C",
      "330C",
      "330C",
      "330C",
      "330C",
      "330C",
      "330C",
      "330C",
      "330C",
      "330C",
      "330C",
      "330C",
      "330C",
      "330C",
      "330C",
      "330C",
      "330C",
      "330C",
      "330C",
      "330C",
      "330C",
      "330C",
      "330C",
      "330C",
      "330C",
      "330C",
      "330C",
      "330C",
      "330C",
      "330C",
      "330C",
      "326",
      "310C",
      "310C",
      "310C",
      "310C",
      "310C",
      "310C",
      "184",
      "184",
      "173",
      "168",
      "168",
      "168",
      "159",
      "159",
      "159",
      "118",
      "111",
      "111",
      "111",
      "111",
      "107",
      "107",
      "107",
      "107",
      "103",
      "103",
      "103",
      "097",
      "097",
      "084",
      "084",
      "072",
      "072",
      "072",
      "072",
      "053",
      "049",
      "049",
      "049",
      "049",
      "045",
      "045",
      "035",
      "035",
      "035",
      "029",
      "029"
    ],
    "swim:geom": "path",
    "swim:speeds": [
      196,
      196,
      196,
      265,
      265,
      273,
      299,
      299,
      299,
      299,
      299,
      299,
      362,
      362,
      362,
      362,
      377,
      377,
      377,
      377,
      416,
      416,
      431,
      431,
      431,
      431,
      431,
      440,
      440,
      440,
      448,
      448,
      449,
      449,
      456,
      459,
      459,
      459,
      465,
      465,
      470,
      470,
      470,
      472,
      472,
      472,
      474,
      474,
      475,
      475,
      475,
      474,
      474,
      474,
      472,
      472,
      472,
      472,
      472,
      472,
      469,
      464,
      464,
      464,
      464,
      464,
      464,
      464,
      464,
      464,
      464,
      465,
      465,
      465,
      465,
      465,
      465,
      465,
      465,
      465,
      465,
      464,
      464,
      465,
      465,
      465,
      465,
      465,
      465,
      465,
      465,
      465,
      465,
      457,
      457,
      457,
      457,
      457,
      455,
      459,
      459,
      459,
      459,
      459,
      459,
      400,
      400,
      397,
      368,
      368,
      368,
      361,
      361,
      361,
      336,
      335,
      335,
      335,
      335,
      309,
      309,
      309,
      309,
      275,
      275,
      275,
      278,
      278,
      277,
      277,
      258,
      258,
      258,
      258,
      219,
      209,
      209,
      209,
      209,
      206,
      206,
      197,
      197,
      197,
      182,
      182
    ],
    "swim:timestamps": [
      1781372359,
      1781372359,
      1781372359,
      1781372429,
      1781372429,
      1781372469,
      1781372549,
      1781372549,
      1781372549,
      1781372549,
      1781372618,
      1781372618,
      1781372670,
      1781372670,
      1781372670,
      1781372670,
      1781372730,
      1781372738,
      1781372738,
      1781372738,
      1781372910,
      1781372910,
      1781372970,
      1781372970,
      1781372970,
      1781372978,
      1781372978,
      1781373090,
      1781373090,
      1781373098,
      1781373150,
      1781373150,
      1781373159,
      1781373159,
      1781373210,
      1781373219,
      1781373219,
      1781373219,
      1781373279,
      1781373279,
      1781373331,
      1781373331,
      1781373331,
      1781373391,
      1781373391,
      1781373391,
      1781373451,
      1781373451,
      1781373511,
      1781373511,
      1781373511,
      1781373579,
      1781373579,
      1781373579,
      1781373631,
      1781373639,
      1781373639,
      1781373639,
      1781373639,
      1781373639,
      1781373691,
      1781373931,
      1781373931,
      1781373931,
      1781373931,
      1781373992,
      1781373992,
      1781374060,
      1781374060,
      1781374060,
      1781374060,
      1781374180,
      1781374180,
      1781374180,
      1781374180,
      1781374300,
      1781374300,
      1781374300,
      1781374300,
      1781374300,
      1781374300,
      1781374352,
      1781374352,
      1781374601,
      1781374601,
      1781374601,
      1781374601,
      1781374601,
      1781374601,
      1781374781,
      1781374781,
      1781374781,
      1781374781,
      1781374961,
      1781374961,
      1781374961,
      1781374961,
      1781374961,
      1781375021,
      1781375081,
      1781375081,
      1781375081,
      1781375081,
      1781375081,
      1781375081,
      1781375414,
      1781375414,
      1781375442,
      1781375469,
      1781375469,
      1781375469,
      1781375502,
      1781375502,
      1781375502,
      1781375649,
      1781375682,
      1781375682,
      1781375682,
      1781375682,
      1781375709,
      1781375709,
      1781375709,
      1781375709,
      1781375769,
      1781375769,
      1781375769,
      1781375802,
      1781375802,
      1781375862,
      1781375862,
      1781375923,
      1781375923,
      1781375923,
      1781375923,
      1781376043,
      1781376070,
      1781376070,
      1781376070,
      1781376070,
      1781376103,
      1781376103,
      1781376163,
      1781376163,
      1781376163,
      1781376195,
      1781376195
    ],
    "wof:geomhash": "9c72588d963acc28ebc26fd7434b5422",
    "wof:id": 2031533069,
    "wof:repo": "sfomuseum-data-flights-2026-06"
  },
  "bbox": [
    -122.5586111111111,
    32.68861111111111,
    -116.95472222222223,
    37.659444444444446
  ],
  "geometry": {"coordinates":[[-122.45,37.65],[-122.45,37.65],[-122.45,37.65],[-122.535,37.659444444444446],[-122.535,37.659444444444446],[-122.55,37.6],[-122.55138888888888,37.50666666666667],[-122.55138888888888,37.50666666666667],[-122.55138888888888,37.50666666666667],[-122.55138888888888,37.50666666666667],[-122.55416666666666,37.40972222222222],[-122.55416666666666,37.40972222222222],[-122.55527777777777,37.31388888888888],[-122.55527777777777,37.31388888888888],[-122.55527777777777,37.31388888888888],[-122.55527777777777,37.31388888888888],[-122.55833333333334,37.20916666666667],[-122.5586111111111,37.200833333333335],[-122.5586111111111,37.200833333333335],[-122.5586111111111,37.200833333333335],[-122.48,36.89138888888889],[-122.48,36.89138888888889],[-122.40472222222223,36.78916666666667],[-122.40472222222223,36.78916666666667],[-122.40472222222223,36.78916666666667],[-122.39833333333334,36.78055555555555],[-122.39833333333334,36.78055555555555],[-122.25055555555555,36.57833333333333],[-122.25055555555555,36.57833333333333],[-122.24305555555556,36.56805555555556],[-122.17222222222223,36.470555555555556],[-122.17222222222223,36.470555555555556],[-122.16472222222222,36.46],[-122.16472222222222,36.46],[-122.09333333333333,36.36138888888889],[-122.08666666666666,36.352222222222224],[-122.08666666666666,36.352222222222224],[-122.08666666666666,36.352222222222224],[-122.00472222222223,36.23833333333334],[-122.00472222222223,36.23833333333334],[-121.93138888888889,36.13666666666666],[-121.93138888888889,36.13666666666666],[-121.93138888888889,36.13666666666666],[-121.84777777777778,36.02305555555555],[-121.84777777777778,36.02305555555555],[-121.84777777777778,36.02305555555555],[-121.71111111111111,35.92777777777778],[-121.71111111111111,35.92777777777778],[-121.57777777777777,35.85027777777778],[-121.57777777777777,35.85027777777778],[-121.57777777777777,35.85027777777778],[-121.45194444444445,35.77722222222222],[-121.45194444444445,35.77722222222222],[-121.45194444444445,35.77722222222222],[-121.31666666666666,35.698055555555555],[-121.32138888888889,35.700833333333335],[-121.32138888888889,35.700833333333335],[-121.32138888888889,35.700833333333335],[-121.32138888888889,35.700833333333335],[-121.32138888888889,35.700833333333335],[-121.18833333333333,35.62305555555555],[-120.68027777777779,35.32166666666667],[-120.68027777777779,35.32166666666667],[-120.68027777777779,35.32166666666667],[-120.68027777777779,35.32166666666667],[-120.55416666666666,35.24611111111111],[-120.55416666666666,35.24611111111111],[-120.42083333333333,35.16583333333333],[-120.42083333333333,35.16583333333333],[-120.42083333333333,35.16583333333333],[-120.42083333333333,35.16583333333333],[-120.16472222222222,35.01111111111111],[-120.16472222222222,35.01111111111111],[-120.16472222222222,35.01111111111111],[-120.16472222222222,35.01111111111111],[-119.90527777777778,34.85305555555556],[-119.90527777777778,34.85305555555556],[-119.90527777777778,34.85305555555556],[-119.90527777777778,34.85305555555556],[-119.90527777777778,34.85305555555556],[-119.90527777777778,34.85305555555556],[-119.80277777777778,34.79],[-119.80277777777778,34.79],[-119.28166666666667,34.468333333333334],[-119.28166666666667,34.468333333333334],[-119.28166666666667,34.468333333333334],[-119.28166666666667,34.468333333333334],[-119.28166666666667,34.468333333333334],[-119.28166666666667,34.468333333333334],[-118.90666666666667,34.23361111111111],[-118.90666666666667,34.23361111111111],[-118.90666666666667,34.23361111111111],[-118.90666666666667,34.23361111111111],[-118.54138888888889,34.00277777777778],[-118.54138888888889,34.00277777777778],[-118.54138888888889,34.00277777777778],[-118.54138888888889,34.00277777777778],[-118.54138888888889,34.00277777777778],[-118.42111111111112,33.92472222222222],[-118.30555555555556,33.83555555555556],[-118.30555555555556,33.83555555555556],[-118.30555555555556,33.83555555555556],[-118.30555555555556,33.83555555555556],[-118.30555555555556,33.83555555555556],[-118.30555555555556,33.83555555555556],[-117.71666666666667,33.35],[-117.71666666666667,33.35],[-117.67472222222223,33.3175],[-117.63333333333334,33.28333333333333],[-117.63333333333334,33.28333333333333],[-117.63333333333334,33.28333333333333],[-117.59472222222222,33.2425],[-117.59472222222222,33.2425],[-117.59472222222222,33.2425],[-117.41666666666667,33.06666666666667],[-117.38833333333334,33.02305555555555],[-117.38833333333334,33.02305555555555],[-117.38833333333334,33.02305555555555],[-117.38833333333334,33.02305555555555],[-117.35,32.983333333333334],[-117.35,32.983333333333334],[-117.35,32.983333333333334],[-117.35,32.983333333333334],[-117.3,32.916666666666664],[-117.3,32.916666666666664],[-117.3,32.916666666666664],[-117.27888888888889,32.89194444444444],[-117.27888888888889,32.89194444444444],[-117.22666666666667,32.82944444444445],[-117.22666666666667,32.82944444444445],[-117.15083333333334,32.79805555555556],[-117.15083333333334,32.79805555555556],[-117.15083333333334,32.79805555555556],[-117.15083333333334,32.79805555555556],[-117.00083333333333,32.763333333333335],[-116.96666666666667,32.75],[-116.96666666666667,32.75],[-116.96666666666667,32.75],[-116.96666666666667,32.75],[-116.95472222222223,32.72777777777778],[-116.95472222222223,32.72777777777778],[-116.99111111111111,32.68861111111111],[-116.99111111111111,32.68861111111111],[-116.99111111111111,32.68861111111111],[-117.03333333333333,32.7],[-117.03333333333333,32.7]],"type":"LineString"}
}
