{
  "id": 2031496901,
  "type": "Feature",
  "properties": {
    "geom:area": 0,
    "geom:bbox": "-122.390000,37.620000,-121.590000,38.700000",
    "geom:latitude": 38.140076015200535,
    "geom:longitude": -122.03434344046606,
    "src:alt_label": "swim-route",
    "src:geom": "swim",
    "swim:geom": "route",
    "wof:geomhash": "dc052f6bd6a7d1996ea0e29728a58ca5",
    "wof:id": 2031496901,
    "wof:repo": "sfomuseum-data-flights-2026-06"
  },
  "bbox": [
    -122.39,
    37.62,
    -121.59,
    38.7
  ],
  "geometry": {"coordinates":[[-122.38,37.62],[-122.3,37.68],[-122.31,37.7],[-122.31,37.7],[-122.34,37.75],[-122.34,37.76],[-122.35,37.76],[-122.36,37.78],[-122.39,37.85],[-122.38,37.94],[-121.97,38.15],[-121.84,38.27],[-121.82,38.29],[-121.82,38.29],[-121.78,38.32],[-121.76,38.35],[-121.74,38.37],[-121.71,38.48],[-121.7,38.53],[-121.69,38.56],[-121.68,38.61],[-121.66,38.63],[-121.59,38.7]],"type":"LineString"}
}
