{
  "id": 2031496819,
  "type": "Feature",
  "properties": {
    "geom:area": 0,
    "geom:bbox": "-122.550690,37.189150,-121.243660,37.670350",
    "geom:latitude": 37.38259171859356,
    "geom:longitude": -122.00214840812568,
    "src:alt_label": "swim-takeoff",
    "src:geom": "swim",
    "swim:elevations": [
      122,
      968,
      1115,
      1770,
      2057,
      2656,
      3194,
      3450,
      3593,
      4131,
      4186,
      4333,
      4534,
      4817,
      5124,
      5544,
      5720,
      5762,
      6403,
      6725,
      6852,
      7268,
      7401,
      7838,
      8173,
      8678,
      8937,
      9206,
      9449,
      9449
    ],
    "swim:geom": "takeoff",
    "swim:timestamps": [
      1781008761,
      1781008828,
      1781008844,
      1781008881,
      1781008903,
      1781008935,
      1781008976,
      1781009005,
      1781009017,
      1781009057,
      1781009061,
      1781009071,
      1781009085,
      1781009107,
      1781009134,
      1781009171,
      1781009187,
      1781009194,
      1781009247,
      1781009275,
      1781009288,
      1781009330,
      1781009343,
      1781009383,
      1781009408,
      1781009452,
      1781009477,
      1781009505,
      1781009543,
      1781009551
    ],
    "wof:geomhash": "6081379f4948ea681c0569065bbd2be4",
    "wof:id": 2031496819,
    "wof:repo": "sfomuseum-data-flights-2026-06"
  },
  "bbox": [
    -122.55069,
    37.18915,
    -121.24366,
    37.67035
  ],
  "geometry": {"coordinates":[[-122.38781,37.62433],[-122.44609,37.64878],[-122.46429,37.657],[-122.51091,37.67035],[-122.54063,37.65695],[-122.55069,37.61661],[-122.5185,37.565],[-122.49341,37.52247],[-122.48112,37.50321],[-122.4174,37.45625],[-122.41073,37.45243],[-122.39208,37.44158],[-122.36664,37.42712],[-122.3222,37.40926],[-122.26412,37.39638],[-122.17873,37.37953],[-122.14179,37.37213],[-122.12489,37.36879],[-122.0007,37.34414],[-121.93346,37.33075],[-121.90184,37.32443],[-121.7976,37.3034],[-121.76598,37.29698],[-121.6649,37.27633],[-121.60283,37.26298],[-121.49205,37.24077],[-121.42961,37.22773],[-121.36015,37.21357],[-121.2639,37.19383],[-121.24366,37.18915]],"type":"LineString"}
}
