{
  "id": 2031436363,
  "type": "Feature",
  "properties": {
    "date:inception_lower": "2026-06-03",
    "date:inception_upper": "2026-06-03",
    "edtf:cessation": "",
    "edtf:inception": "2026-06-03",
    "flysfo:actual_timestamp": -1,
    "flysfo:airline": "NH",
    "flysfo:base_airline": "",
    "flysfo:base_flight_number": "6094",
    "flysfo:date": "2026-06-03",
    "flysfo:estimated_timestamp": -1,
    "flysfo:event": "A",
    "flysfo:flight_number": "NH8",
    "flysfo:gate": "",
    "flysfo:journey": "NRT-SFO",
    "flysfo:scheduled_timestamp": 1780508100,
    "flysfo:timestamp": 1780508100,
    "geom:area": 0,
    "geom:bbox": "-122.370943,35.755744,140.395257,37.617990",
    "geom:latitude": 36.686867,
    "geom:longitude": 9.012156999999995,
    "iata:airline": "NH",
    "iata:base_airline": "",
    "icao:airline": "ANA",
    "icao:base_airline": "THA",
    "lbl:latitude": 37.61799,
    "lbl:longitude": -122.370943,
    "sfomuseum:airline_id": 1159283875,
    "sfomuseum:arrival_id": 102527513,
    "sfomuseum:base_flight_id": "20260603-A-THA-6094",
    "sfomuseum:departure_id": 102541685,
    "sfomuseum:flight_id": "20260603-A-ANA-8",
    "sfomuseum:flight_number": [
      "ANA8",
      "NH8"
    ],
    "sfomuseum:placetype": "flight",
    "src:geom": "flysfo",
    "wof:belongsto": [],
    "wof:country": "US",
    "wof:created": 1780588977,
    "wof:geomhash": "d46bcc8d1d94e68df95be799ac6a3b4c",
    "wof:hierarchy": [
      {
        "custom_id": 2031436363,
        "flight_id": 2031436363
      }
    ],
    "wof:id": 2031436363,
    "wof:involves": [
      102527513,
      102541685,
      1159283875,
      -1,
      1159285639
    ],
    "wof:lastmodified": 1780588977,
    "wof:name": "NH8 (NRT-SFO)",
    "wof:parent_id": -1,
    "wof:placetype": "custom",
    "wof:placetype_alt": [
      "flight"
    ],
    "wof:repo": "sfomuseum-data-flights-2026-06",
    "wof:superseded_by": [],
    "wof:supersedes": []
  },
  "bbox": [
    -122.370943,
    35.755744,
    140.395257,
    37.61799
  ],
  "geometry": {"coordinates":[[140.395257,35.755744],[-122.370943,37.61799]],"type":"MultiPoint"}
}
