{
  "id": 2031523995,
  "type": "Feature",
  "properties": {
    "geom:area": 0,
    "geom:bbox": "-122.547900,36.734420,-121.492990,37.665220",
    "geom:latitude": 37.22425532553561,
    "geom:longitude": -122.08971042435441,
    "src:alt_label": "swim-takeoff",
    "src:geom": "swim",
    "swim:elevations": [
      152,
      938,
      1130,
      1477,
      1608,
      1904,
      2037,
      2451,
      3053,
      3263,
      3585,
      4032,
      4194,
      4541,
      5125,
      5377,
      5646,
      5873,
      5994,
      6469,
      6732,
      7093,
      7226,
      7429,
      7478,
      7925,
      8103,
      8275,
      8552,
      8683,
      9004
    ],
    "swim:geom": "takeoff",
    "swim:timestamps": [
      1781257309,
      1781257375,
      1781257400,
      1781257433,
      1781257443,
      1781257467,
      1781257481,
      1781257511,
      1781257556,
      1781257579,
      1781257616,
      1781257647,
      1781257657,
      1781257687,
      1781257735,
      1781257755,
      1781257773,
      1781257791,
      1781257801,
      1781257846,
      1781257871,
      1781257906,
      1781257924,
      1781257948,
      1781257954,
      1781258005,
      1781258027,
      1781258052,
      1781258090,
      1781258102,
      1781258138
    ],
    "wof:geomhash": "b084852bd878c75cfb21a24a460ff05b",
    "wof:id": 2031523995,
    "wof:repo": "sfomuseum-data-flights-2026-06"
  },
  "bbox": [
    -122.5479,
    36.73442,
    -121.49299,
    37.66522
  ],
  "geometry": {"coordinates":[[-122.39292,37.62619],[-122.45583,37.6532],[-122.48243,37.66522],[-122.52735,37.66261],[-122.53903,37.65414],[-122.5479,37.62668],[-122.541,37.60816],[-122.52014,37.5701],[-122.48728,37.51148],[-122.46392,37.4822],[-122.40861,37.44092],[-122.36008,37.40508],[-122.34377,37.39317],[-122.29648,37.35892],[-122.21587,37.29993],[-122.18302,37.27555],[-122.15147,37.25205],[-122.12085,37.22924],[-122.10377,37.21657],[-122.02673,37.15931],[-121.98186,37.12591],[-121.92079,37.08039],[-121.88713,37.05527],[-121.84391,37.02308],[-121.83284,37.01482],[-121.73956,36.93931],[-121.69768,36.90652],[-121.65287,36.86895],[-121.58213,36.80968],[-121.55979,36.79112],[-121.49299,36.73442]],"type":"LineString"}
}
