{
  "id": 2031659821,
  "type": "Feature",
  "properties": {
    "geom:area": 0,
    "geom:bbox": "-122.398960,37.626110,-121.295950,38.155490",
    "geom:latitude": 37.98486122208566,
    "geom:longitude": -121.95948276389912,
    "src:alt_label": "swim-takeoff",
    "src:geom": "swim",
    "swim:elevations": [
      244,
      402,
      781,
      880,
      1301,
      1672,
      1935,
      2109,
      2374,
      2682,
      2997,
      3652,
      3721,
      4056,
      4504,
      4898,
      5197,
      5460,
      5825,
      6080,
      6324,
      6428,
      6763,
      7084,
      7336,
      7581,
      7713
    ],
    "swim:geom": "takeoff",
    "swim:timestamps": [
      1782604225,
      1782604239,
      1782604288,
      1782604298,
      1782604341,
      1782604377,
      1782604404,
      1782604416,
      1782604437,
      1782604455,
      1782604470,
      1782604524,
      1782604530,
      1782604560,
      1782604610,
      1782604644,
      1782604668,
      1782604698,
      1782604736,
      1782604763,
      1782604798,
      1782604811,
      1782604851,
      1782604886,
      1782604914,
      1782604943,
      1782604956
    ],
    "wof:geomhash": "5d45380a276edbcebf6dcac2fb95a6d4",
    "wof:id": 2031659821,
    "wof:repo": "sfomuseum-data-flights-2026-06"
  },
  "bbox": [
    -122.39896,
    37.62611,
    -121.29595,
    38.15549
  ],
  "geometry": {"coordinates":[[-122.39094,37.62611],[-122.39896,37.63353],[-122.37547,37.67126],[-122.36919,37.67878],[-122.34063,37.71857],[-122.34403,37.75833],[-122.35968,37.78768],[-122.36566,37.80149],[-122.37679,37.8255],[-122.38449,37.8473],[-122.3855,37.86577],[-122.36247,37.93391],[-122.35393,37.94003],[-122.29943,37.96041],[-122.19152,37.97994],[-122.11371,37.99477],[-122.05509,38.00645],[-121.98527,38.02054],[-121.88904,38.03987],[-121.82075,38.05334],[-121.73187,38.07098],[-121.69724,38.07785],[-121.58711,38.09925],[-121.49263,38.11766],[-121.41428,38.1329],[-121.33316,38.1486],[-121.29595,38.15549]],"type":"LineString"}
}
