{
  "id": 2031439449,
  "type": "Feature",
  "properties": {
    "date:cessation_lower": "2026-06-03",
    "date:cessation_upper": "2026-06-03",
    "date:inception_lower": "2026-06-03",
    "date:inception_upper": "2026-06-03",
    "edtf:cessation": "2026-06-03T04:30:43-07:00",
    "edtf:inception": "2026-06-03T07:50:00Z",
    "flysfo:actual_timestamp": -1,
    "flysfo:airline": "UA",
    "flysfo:base_airline": "",
    "flysfo:base_flight_number": "6614",
    "flysfo:date": "2026-06-03",
    "flysfo:estimated_timestamp": 1780512300,
    "flysfo:event": "A",
    "flysfo:flight_number": "UA892",
    "flysfo:gate": "A12",
    "flysfo:journey": "ICN-SFO",
    "flysfo:scheduled_timestamp": 1780513200,
    "flysfo:timestamp": 1780513200,
    "geom:area": 0,
    "geom:bbox": "-122.370943,37.453966,126.661632,37.617990",
    "geom:latitude": 37.535978,
    "geom:longitude": 2.1453445,
    "iata:airline": "UA",
    "iata:base_airline": "",
    "icao:aircraft": "B789",
    "icao:airline": "UAL",
    "icao:base_airline": "AAR",
    "lbl:latitude": 37.611747,
    "lbl:longitude": -122.39043,
    "sfomuseum:aircraft_id": 1159293215,
    "sfomuseum:airline_id": 1159285413,
    "sfomuseum:arrival_id": 102527513,
    "sfomuseum:base_flight_id": "20260603-A-AAR-6614",
    "sfomuseum:departure_id": 102556451,
    "sfomuseum:flight_id": "20260603-A-UAL-892",
    "sfomuseum:flight_number": [
      "UAL892",
      "UA892"
    ],
    "sfomuseum:placetype": "flight",
    "src:geom": "flysfo",
    "src:geom_alt": [
      "swim-route",
      "swim-path",
      "swim-approach"
    ],
    "swim:tail_number": "N19986",
    "wof:belongsto": [
      1947304067,
      102527513,
      1947304073,
      102191575,
      85633793,
      102087579,
      85922583,
      554784711,
      85688637,
      1947304083,
      1947304069,
      102085387
    ],
    "wof:concordances": {
      "swim:flight_ref": "148255808",
      "swim:gufi": "KO609304oA"
    },
    "wof:country": "US",
    "wof:created": 1780589344,
    "wof:geomhash": "83e2c60a8819c96e9fa3721059c5eac5",
    "wof:hierarchy": [
      {
        "building_id": 1947304067,
        "campus_id": 102527513,
        "concourse_id": 1947304073,
        "continent_id": 102191575,
        "country_id": 85633793,
        "county_id": 102087579,
        "custom_id": 2031439449,
        "flight_id": 2031439449,
        "locality_id": 85922583,
        "postalcode_id": 554784711,
        "region_id": 85688637,
        "venue_id": 1947304083,
        "wing_id": 1947304069
      },
      {
        "building_id": 1947304067,
        "campus_id": 102527513,
        "concourse_id": 1947304073,
        "continent_id": 102191575,
        "country_id": 85633793,
        "county_id": 102085387,
        "custom_id": 2031439449,
        "flight_id": 2031439449,
        "region_id": 85688637,
        "venue_id": 1947304083,
        "wing_id": 1947304069
      }
    ],
    "wof:id": 2031439449,
    "wof:involves": [
      1159293215,
      102527513,
      102556451,
      1159285413,
      1947304083,
      1159283917
    ],
    "wof:lastmodified": 1780589965,
    "wof:name": "UA892 (ICN-SFO)",
    "wof:parent_id": 1947304083,
    "wof:placetype": "custom",
    "wof:placetype_alt": [
      "flight"
    ],
    "wof:repo": "sfomuseum-data-flights-2026-06",
    "wof:superseded_by": [],
    "wof:supersedes": []
  },
  "bbox": [
    -122.370943,
    37.453966,
    126.661632,
    37.61799
  ],
  "geometry": {"coordinates":[[126.661632,37.453966],[-122.370943,37.61799]],"type":"MultiPoint"}
}
