{
  "id": 2031605735,
  "type": "Feature",
  "properties": {
    "geom:area": 0,
    "geom:bbox": "-122.560900,36.752830,-122.340090,37.669180",
    "geom:latitude": 37.23799246784435,
    "geom:longitude": -122.50621882145478,
    "src:alt_label": "swim-takeoff",
    "src:geom": "swim",
    "swim:elevations": [
      152,
      386,
      684,
      1175,
      1192,
      1701,
      2478,
      2767,
      2974,
      3355,
      3546,
      3611,
      4150,
      4367,
      4560,
      4875,
      5178,
      5346,
      5688,
      5913,
      6111,
      6140,
      6413,
      6490
    ],
    "swim:geom": "takeoff",
    "swim:timestamps": [
      1782041324,
      1782041347,
      1782041374,
      1782041427,
      1782041433,
      1782041485,
      1782041545,
      1782041572,
      1782041587,
      1782041638,
      1782041667,
      1782041672,
      1782041723,
      1782041743,
      1782041769,
      1782041805,
      1782041839,
      1782041860,
      1782041905,
      1782041938,
      1782041966,
      1782041970,
      1782042015,
      1782042031
    ],
    "wof:geomhash": "5ba0025a3ef7002969f5dc7a1b34d19b",
    "wof:id": 2031605735,
    "wof:repo": "sfomuseum-data-flights-2026-06"
  },
  "bbox": [
    -122.5609,
    36.75283,
    -122.34009,
    37.66918
  ],
  "geometry": {"coordinates":[[-122.39086,37.62525],[-122.41156,37.63402],[-122.43763,37.64537],[-122.49314,37.66812],[-122.50135,37.66918],[-122.54252,37.62317],[-122.52733,37.54472],[-122.52955,37.50801],[-122.53064,37.48693],[-122.53532,37.41148],[-122.53943,37.36349],[-122.54009,37.35511],[-122.54614,37.26885],[-122.54861,37.2327],[-122.55168,37.18897],[-122.55605,37.12399],[-122.56029,37.06256],[-122.5609,37.0251],[-122.52149,36.94876],[-122.48186,36.89433],[-122.44327,36.85061],[-122.43698,36.84472],[-122.36601,36.77744],[-122.34009,36.75283]],"type":"LineString"}
}
