{
  "id": 2031678355,
  "type": "Feature",
  "properties": {
    "geom:area": 0,
    "geom:bbox": "-122.390400,37.626320,-122.105390,38.512370",
    "geom:latitude": 38.0667760096378,
    "geom:longitude": -122.26469896761341,
    "src:alt_label": "swim-takeoff",
    "src:geom": "swim",
    "swim:elevations": [
      310,
      836,
      1098,
      1217,
      1506,
      2078,
      2542,
      3077,
      3333,
      3357,
      3535,
      4047,
      4441,
      4957,
      5269,
      5871,
      6636,
      7008,
      7119,
      7407,
      7626,
      7993,
      8170,
      8236
    ],
    "swim:geom": "takeoff",
    "swim:timestamps": [
      1782780588,
      1782780626,
      1782780657,
      1782780674,
      1782780710,
      1782780748,
      1782780772,
      1782780802,
      1782780837,
      1782780840,
      1782780858,
      1782780885,
      1782780906,
      1782780948,
      1782780975,
      1782781015,
      1782781047,
      1782781075,
      1782781090,
      1782781120,
      1782781148,
      1782781195,
      1782781221,
      1782781231
    ],
    "wof:geomhash": "ff044493812aebcd0af79e29ec0b8cf8",
    "wof:id": 2031678355,
    "wof:repo": "sfomuseum-data-flights-2026-06"
  },
  "bbox": [
    -122.3904,
    37.62632,
    -122.10539,
    38.51237
  ],
  "geometry": {"coordinates":[[-122.3904,37.62632],[-122.38779,37.65095],[-122.37296,37.67017],[-122.36405,37.68288],[-122.34118,37.71657],[-122.34555,37.76164],[-122.36022,37.79142],[-122.37749,37.8272],[-122.38548,37.87754],[-122.38529,37.88227],[-122.38404,37.9114],[-122.37299,37.95406],[-122.35357,37.98384],[-122.31332,38.04328],[-122.28608,38.08307],[-122.24484,38.14341],[-122.21188,38.1914],[-122.18321,38.23326],[-122.16683,38.25704],[-122.13367,38.30527],[-122.1132,38.35464],[-122.10842,38.44402],[-122.10625,38.4945],[-122.10539,38.51237]],"type":"LineString"}
}
