{
  "id": 2031632783,
  "type": "Feature",
  "properties": {
    "geom:area": 0,
    "geom:bbox": "-122.543840,36.723700,-121.445360,37.668730",
    "geom:latitude": 37.20808790197555,
    "geom:longitude": -122.06666774066836,
    "src:alt_label": "swim-takeoff",
    "src:geom": "swim",
    "swim:elevations": [
      329,
      506,
      736,
      910,
      1177,
      1559,
      1870,
      2209,
      2475,
      2738,
      3063,
      3236,
      3522,
      3701,
      4149,
      4402,
      4638,
      4945,
      5045,
      5325,
      5652,
      5872,
      5984,
      6151,
      6426,
      6721,
      6869,
      7200,
      7372,
      7578,
      7772,
      7825,
      8084,
      8478,
      8517,
      8569
    ],
    "swim:geom": "takeoff",
    "swim:timestamps": [
      1782330954,
      1782330969,
      1782330987,
      1782331008,
      1782331041,
      1782331075,
      1782331099,
      1782331123,
      1782331143,
      1782331161,
      1782331192,
      1782331220,
      1782331249,
      1782331261,
      1782331301,
      1782331322,
      1782331345,
      1782331374,
      1782331382,
      1782331416,
      1782331455,
      1782331480,
      1782331492,
      1782331508,
      1782331540,
      1782331572,
      1782331592,
      1782331631,
      1782331655,
      1782331677,
      1782331703,
      1782331712,
      1782331741,
      1782331794,
      1782331812,
      1782331823
    ],
    "wof:geomhash": "5608cd582ee984dcb78dafe5212b7c56",
    "wof:id": 2031632783,
    "wof:repo": "sfomuseum-data-flights-2026-06"
  },
  "bbox": [
    -122.54384,
    36.7237,
    -121.44536,
    37.66873
  ],
  "geometry": {"coordinates":[[-122.40654,37.63218],[-122.42033,37.63825],[-122.43684,37.64534],[-122.45811,37.65458],[-122.49816,37.66873],[-122.5402,37.65085],[-122.54384,37.62077],[-122.5299,37.59227],[-122.51717,37.56834],[-122.50469,37.5461],[-122.48351,37.50798],[-122.45411,37.47537],[-122.41113,37.4441],[-122.3936,37.43113],[-122.33477,37.3875],[-122.3038,37.36441],[-122.2689,37.33845],[-122.22336,37.30484],[-122.21123,37.2957],[-122.15716,37.2556],[-122.09471,37.20888],[-122.05225,37.1773],[-122.03193,37.16253],[-122.00457,37.1426],[-121.95212,37.10334],[-121.89626,37.06182],[-121.86164,37.03573],[-121.7944,36.98525],[-121.75198,36.95356],[-121.71242,36.92456],[-121.66449,36.8903],[-121.64832,36.8775],[-121.59516,36.83775],[-121.49981,36.76508],[-121.4665,36.7397],[-121.44536,36.7237]],"type":"LineString"}
}
