{
  "id": 2031549727,
  "type": "Feature",
  "properties": {
    "geom:area": 0,
    "geom:bbox": "-122.523333,37.696111,-90.288611,47.483889",
    "geom:latitude": 43.590474973545554,
    "geom:longitude": -106.78608383217735,
    "src:alt_label": "swim-path",
    "src:geom": "swim",
    "swim:altitudes": [
      "036",
      "095",
      "129",
      "239",
      "271",
      "271",
      "289",
      "298",
      "305",
      "306",
      "306",
      "323",
      "359",
      "363",
      "368C",
      "369C",
      "369C",
      "370C",
      "370C",
      "370C",
      "370C",
      "370C",
      "370C",
      "370C",
      "370C",
      "370C",
      "370C",
      "370C",
      "370C",
      "370C",
      "370C",
      "370C",
      "370C",
      "370C",
      "370C",
      "370C",
      "370C",
      "370C",
      "370C",
      "370C",
      "370C",
      "370C",
      "370C",
      "370C",
      "370C",
      "370C",
      "370C",
      "370C",
      "370C",
      "370C",
      "370C",
      "370C",
      "370C",
      "370C",
      "370C",
      "370C",
      "370C",
      "370C",
      "370C",
      "370C",
      "370C",
      "370C",
      "370C",
      "370C",
      "370C",
      "370C",
      "370C",
      "370C",
      "370C",
      "370C",
      "370C",
      "370C",
      "370C",
      "370C",
      "370C",
      "370C",
      "370C",
      "370C",
      "370C",
      "370C",
      "370C",
      "370C",
      "370C",
      "370C",
      "370C",
      "370C",
      "370C",
      "370C",
      "370C",
      "370C",
      "370C",
      "370C",
      "370C",
      "370C",
      "370C"
    ],
    "swim:geom": "path",
    "swim:speeds": [
      256,
      275,
      371,
      419,
      438,
      438,
      446,
      449,
      448,
      450,
      450,
      459,
      444,
      443,
      445,
      444,
      444,
      445,
      445,
      445,
      444,
      445,
      446,
      446,
      447,
      447,
      447,
      447,
      447,
      448,
      448,
      449,
      449,
      449,
      449,
      449,
      449,
      449,
      450,
      455,
      456,
      459,
      461,
      463,
      465,
      467,
      467,
      467,
      467,
      467,
      467,
      467,
      469,
      471,
      471,
      472,
      472,
      474,
      474,
      472,
      471,
      471,
      479,
      480,
      481,
      482,
      482,
      483,
      482,
      482,
      482,
      487,
      487,
      486,
      487,
      488,
      477,
      490,
      494,
      503,
      505,
      513,
      513,
      515,
      518,
      513,
      512,
      512,
      512,
      513,
      512,
      509,
      508,
      510,
      508
    ],
    "swim:timestamps": [
      1781584471,
      1781584651,
      1781584832,
      1781585312,
      1781585492,
      1781585492,
      1781585612,
      1781585672,
      1781585712,
      1781585732,
      1781585732,
      1781585892,
      1781586153,
      1781586192,
      1781586252,
      1781586273,
      1781586273,
      1781586393,
      1781586432,
      1781586432,
      1781586453,
      1781586492,
      1781586612,
      1781586633,
      1781586693,
      1781586733,
      1781586753,
      1781586753,
      1781586793,
      1781586853,
      1781586853,
      1781586874,
      1781586913,
      1781586934,
      1781586994,
      1781587093,
      1781587093,
      1781587153,
      1781587174,
      1781587393,
      1781587453,
      1781587633,
      1781587693,
      1781587813,
      1781587874,
      1781587934,
      1781587934,
      1781587994,
      1781587994,
      1781588114,
      1781588114,
      1781588174,
      1781588294,
      1781588354,
      1781588474,
      1781588534,
      1781588534,
      1781588714,
      1781588714,
      1781588894,
      1781589014,
      1781589014,
      1781589315,
      1781589375,
      1781589435,
      1781589495,
      1781589495,
      1781589615,
      1781589675,
      1781589735,
      1781589735,
      1781589975,
      1781589975,
      1781590095,
      1781590407,
      1781590587,
      1781591188,
      1781591668,
      1781592068,
      1781592272,
      1781592548,
      1781593089,
      1781593389,
      1781594049,
      1781594229,
      1781594709,
      1781594830,
      1781594890,
      1781594950,
      1781595130,
      1781595190,
      1781595550,
      1781595850,
      1781595934,
      1781596174
    ],
    "wof:geomhash": "1540cb6f3b77f1a5034597b68bb5c820",
    "wof:id": 2031549727,
    "wof:repo": "sfomuseum-data-flights-2026-06"
  },
  "bbox": [
    -122.52333333333333,
    37.69611111111111,
    -90.28861111111111,
    47.48388888888889
  ],
  "geometry": {"coordinates":[[-122.52333333333333,37.69611111111111],[-122.39416666666668,37.86555555555556],[-122.12722222222222,38.050555555555555],[-121.26472222222222,38.61888888888889],[-120.89694444444446,38.84111111111111],[-120.89694444444446,38.84111111111111],[-120.64444444444445,38.992222222222225],[-120.51527777777778,39.06888888888889],[-120.42277777777778,39.120555555555555],[-120.38722222222223,39.144999999999996],[-120.38722222222223,39.144999999999996],[-120.02805555555555,39.35444444444445],[-119.46361111111112,39.653888888888886],[-119.35944444444443,39.70583333333334],[-119.22361111111111,39.77472222222222],[-119.19472222222223,39.78944444444444],[-119.19472222222223,39.78944444444444],[-118.92305555555556,39.92527777777777],[-118.81666666666666,39.97833333333333],[-118.81666666666666,39.97833333333333],[-118.78888888888889,39.992222222222225],[-118.68083333333334,40.04555555555555],[-118.41027777777778,40.17861111111111],[-118.37805555555555,40.19444444444444],[-118.24138888888889,40.26138888888889],[-118.13472222222222,40.31333333333333],[-118.1036111111111,40.32944444444445],[-118.1036111111111,40.32944444444445],[-118.00333333333333,40.38777777777778],[-117.87277777777777,40.46222222222222],[-117.87277777777777,40.46222222222222],[-117.84305555555555,40.47916666666667],[-117.73972222222223,40.53805555555555],[-117.71138888888889,40.55416666666667],[-117.58083333333333,40.62833333333333],[-117.37055555555555,40.746944444444445],[-117.37055555555555,40.746944444444445],[-117.2363888888889,40.82194444444445],[-117.18111111111112,40.85305555555556],[-116.69361111111111,41.12305555555555],[-116.55749999999999,41.19777777777777],[-116.14527777777778,41.42166666666667],[-116.00694444444444,41.49583333333334],[-115.70194444444445,41.619166666666665],[-115.54972222222221,41.67944444444444],[-115.39611111111111,41.74],[-115.39611111111111,41.74],[-115.24166666666667,41.80083333333333],[-115.24166666666667,41.80083333333333],[-114.93388888888889,41.92055555555555],[-114.93388888888889,41.92055555555555],[-114.77972222222222,41.980000000000004],[-114.45527777777778,42.10444444444445],[-114.29833333333333,42.163888888888884],[-113.98388888888888,42.2825],[-113.82555555555555,42.34166666666667],[-113.82555555555555,42.34166666666667],[-113.34555555555555,42.51888888888889],[-113.34555555555555,42.51888888888889],[-112.86638888888888,42.69277777777778],[-112.56361111111111,42.801111111111105],[-112.56361111111111,42.801111111111105],[-111.74583333333334,43.06583333333333],[-111.57138888888889,43.11083333333333],[-111.40055555555556,43.154444444444444],[-111.19222222222223,43.20722222222223],[-111.19222222222223,43.20722222222223],[-110.84777777777778,43.29333333333333],[-110.67472222222223,43.336111111111116],[-110.52083333333333,43.37388888888889],[-110.52083333333333,43.37388888888889],[-109.80222222222221,43.55333333333333],[-109.80222222222221,43.55333333333333],[-109.45333333333333,43.64694444444444],[-108.5375,43.88583333333333],[-108.00861111111111,44.019444444444446],[-106.25,44.442499999999995],[-104.79305555555555,44.680277777777775],[-103.50722222222223,44.85722222222223],[-102.85111111111111,44.94166666666666],[-101.95222222222222,45.050555555555555],[-100.17444444444445,45.246944444444445],[-99.2063888888889,45.341944444444444],[-97.07638888888889,45.74138888888889],[-96.49277777777777,45.88138888888889],[-94.9363888888889,46.23777777777778],[-94.54444444444444,46.32361111111111],[-94.34694444444445,46.36611111111111],[-94.15305555555557,46.4075],[-93.56222222222222,46.53111111111111],[-93.36527777777778,46.57166666666667],[-92.19055555555556,46.80972222222222],[-91.28194444444445,47.13638888888889],[-91.0625,47.21416666666667],[-90.28861111111111,47.48388888888889]],"type":"LineString"}
}
