{
  "id": 2031447727,
  "type": "Feature",
  "properties": {
    "geom:area": 0,
    "geom:bbox": "-122.350000,34.398056,-118.545000,37.604722",
    "geom:latitude": 35.92312842282022,
    "geom:longitude": -120.56540514651185,
    "src:alt_label": "swim-path",
    "src:geom": "swim",
    "swim:altitudes": [
      "130",
      "130",
      "152",
      "152",
      "152",
      "152",
      "280",
      "280",
      "280",
      "296",
      "296",
      "296",
      "296",
      "300C",
      "300C",
      "300C",
      "300C",
      "300C",
      "300C",
      "300C",
      "300C",
      "300",
      "300",
      "300",
      "300",
      "296",
      "296",
      "296",
      "274",
      "274",
      "274",
      "254",
      "254",
      "237",
      "237",
      "237",
      "150",
      "150",
      "134",
      "134",
      "117",
      "102",
      "102",
      "088",
      "086",
      "080",
      "080",
      "046",
      "043",
      "043",
      "043",
      "035",
      "030",
      "027",
      "027",
      "027",
      "004",
      "002"
    ],
    "swim:geom": "path",
    "swim:speeds": [
      307,
      307,
      334,
      334,
      334,
      334,
      429,
      423,
      423,
      392,
      392,
      392,
      392,
      396,
      396,
      397,
      397,
      397,
      397,
      397,
      397,
      365,
      362,
      362,
      363,
      363,
      363,
      363,
      356,
      356,
      356,
      354,
      354,
      346,
      346,
      346,
      321,
      321,
      314,
      314,
      306,
      304,
      304,
      294,
      287,
      274,
      274,
      198,
      200,
      200,
      200,
      185,
      179,
      181,
      181,
      181,
      144,
      137
    ],
    "swim:timestamps": [
      1780628529,
      1780628529,
      1780628649,
      1780628649,
      1780628649,
      1780628649,
      1780629190,
      1780629251,
      1780629251,
      1780629491,
      1780629491,
      1780629491,
      1780629491,
      1780629671,
      1780629671,
      1780629791,
      1780629791,
      1780629911,
      1780629911,
      1780629911,
      1780629911,
      1780630031,
      1780630091,
      1780630091,
      1780630152,
      1780630212,
      1780630212,
      1780630212,
      1780630332,
      1780630332,
      1780630332,
      1780630392,
      1780630392,
      1780630452,
      1780630452,
      1780630452,
      1780630752,
      1780630752,
      1780630812,
      1780630812,
      1780630872,
      1780630932,
      1780630932,
      1780630993,
      1780631000,
      1780631053,
      1780631053,
      1780631293,
      1780631300,
      1780631300,
      1780631300,
      1780631413,
      1780631480,
      1780631533,
      1780631533,
      1780631533,
      1780631713,
      1780631720
    ],
    "wof:geomhash": "8e620e10fe06562af9b4167390874fc1",
    "wof:id": 2031447727,
    "wof:repo": "sfomuseum-data-flights-2026-06"
  },
  "bbox": [
    -122.35,
    34.39805555555556,
    -118.545,
    37.60472222222222
  ],
  "geometry": {"coordinates":[[-118.545,34.39805555555556],[-118.545,34.39805555555556],[-118.69916666666667,34.513333333333335],[-118.69916666666667,34.513333333333335],[-118.69916666666667,34.513333333333335],[-118.69916666666667,34.513333333333335],[-119.35277777777777,35.376111111111115],[-119.42861111111111,35.48027777777778],[-119.42861111111111,35.48027777777778],[-119.93972222222223,35.62416666666667],[-119.93972222222223,35.62416666666667],[-119.93972222222223,35.62416666666667],[-119.93972222222223,35.62416666666667],[-120.33388888888888,35.68222222222222],[-120.33388888888888,35.68222222222222],[-120.59861111111111,35.722500000000004],[-120.59861111111111,35.722500000000004],[-120.86083333333333,35.76416666666667],[-120.86083333333333,35.76416666666667],[-120.86083333333333,35.76416666666667],[-120.86083333333333,35.76416666666667],[-121.07583333333334,35.867222222222225],[-121.15472222222223,35.947222222222216],[-121.15472222222223,35.947222222222216],[-121.23277777777778,36.026666666666664],[-121.31527777777778,36.11],[-121.31527777777778,36.11],[-121.31527777777778,36.11],[-121.46361111111112,36.259166666666665],[-121.46361111111112,36.259166666666665],[-121.46361111111112,36.259166666666665],[-121.53972222222222,36.33583333333333],[-121.53972222222222,36.33583333333333],[-121.61472222222221,36.41083333333333],[-121.61472222222221,36.41083333333333],[-121.61472222222221,36.41083333333333],[-121.9113888888889,36.80361111111111],[-121.9113888888889,36.80361111111111],[-121.93527777777778,36.88861111111111],[-121.93527777777778,36.88861111111111],[-121.96055555555556,36.97166666666667],[-121.99194444444444,37.05138888888889],[-121.99194444444444,37.05138888888889],[-122.0325,37.12583333333333],[-122.05,37.13333333333333],[-122.09166666666667,37.18805555555555],[-122.09166666666667,37.18805555555555],[-122.10777777777777,37.38611111111111],[-122.1,37.4],[-122.1,37.4],[-122.1,37.4],[-122.10444444444444,37.480555555555554],[-122.15,37.516666666666666],[-122.19805555555556,37.54416666666666],[-122.19805555555556,37.54416666666666],[-122.19805555555556,37.54416666666666],[-122.34222222222222,37.60472222222222],[-122.35,37.6]],"type":"LineString"}
}
