{
  "id": 2031438881,
  "type": "Feature",
  "properties": {
    "geom:area": 0,
    "geom:bbox": "-122.355130,37.460340,-121.272620,37.612660",
    "geom:latitude": 37.53684295026456,
    "geom:longitude": -121.82132210170965,
    "src:alt_label": "swim-approach",
    "src:geom": "swim",
    "swim:elevations": [
      4643,
      4431,
      4120,
      3870,
      3659,
      3517,
      3480,
      3284,
      3185,
      2908,
      2731,
      2436,
      2438,
      2436,
      2398,
      2304,
      2067,
      1982,
      1830,
      1829,
      1765,
      1719,
      1551,
      1370,
      1313,
      1109,
      864,
      735,
      730,
      628,
      464,
      358,
      222,
      178,
      69
    ],
    "swim:geom": "approach",
    "swim:timestamps": [
      1780530522,
      1780530544,
      1780530576,
      1780530603,
      1780530649,
      1780530686,
      1780530691,
      1780530716,
      1780530728,
      1780530762,
      1780530782,
      1780530827,
      1780530857,
      1780530875,
      1780530889,
      1780530910,
      1780530958,
      1780530970,
      1780531011,
      1780531017,
      1780531041,
      1780531052,
      1780531073,
      1780531105,
      1780531114,
      1780531150,
      1780531197,
      1780531227,
      1780531230,
      1780531251,
      1780531287,
      1780531318,
      1780531348,
      1780531362,
      1780531397
    ],
    "wof:geomhash": "158695ceb31e23d60ddab315d983c94d",
    "wof:id": 2031438881,
    "wof:repo": "sfomuseum-data-flights-2026-06"
  },
  "bbox": [
    -122.35513,
    37.46034,
    -121.27262,
    37.61266
  ],
  "geometry": {"coordinates":[[-121.27262,37.59148],[-121.31557,37.58656],[-121.37973,37.57961],[-121.43176,37.57351],[-121.51623,37.56343],[-121.57713,37.55635],[-121.58494,37.55539],[-121.62227,37.55318],[-121.64023,37.55334],[-121.69082,37.55415],[-121.72049,37.55535],[-121.7759,37.53462],[-121.79233,37.5022],[-121.80426,37.48349],[-121.82059,37.47343],[-121.8495,37.46864],[-121.91597,37.46169],[-121.93249,37.46034],[-121.98626,37.46964],[-121.99358,37.4722],[-122.02245,37.48201],[-122.03588,37.48598],[-122.06053,37.49315],[-122.09841,37.50429],[-122.10824,37.50817],[-122.14665,37.5249],[-122.19412,37.54504],[-122.22166,37.55658],[-122.22436,37.55767],[-122.24282,37.56542],[-122.27271,37.57811],[-122.29645,37.58808],[-122.31869,37.59742],[-122.32929,37.60173],[-122.35513,37.61266]],"type":"LineString"}
}
