{
  "id": 2031664325,
  "type": "Feature",
  "properties": {
    "geom:area": 0,
    "geom:bbox": "-122.348940,37.466590,-121.257530,37.672120",
    "geom:latitude": 37.566066782625235,
    "geom:longitude": -121.82928504788077,
    "src:alt_label": "swim-approach",
    "src:geom": "swim",
    "swim:elevations": [
      4842,
      4632,
      4531,
      4469,
      4418,
      4149,
      4005,
      3684,
      3598,
      3568,
      3325,
      3103,
      3047,
      3068,
      3068,
      3051,
      3064,
      3054,
      3016,
      2946,
      2835,
      2742,
      2743,
      2743,
      2743,
      2714,
      2589,
      2497,
      2434,
      2361,
      2161,
      2133,
      2134,
      2014,
      1866,
      1630,
      1453,
      1022,
      982,
      851,
      776,
      681,
      451,
      405,
      257,
      210,
      119,
      65
    ],
    "swim:geom": "approach",
    "swim:timestamps": [
      1782686243,
      1782686266,
      1782686286,
      1782686299,
      1782686317,
      1782686364,
      1782686383,
      1782686424,
      1782686436,
      1782686440,
      1782686475,
      1782686510,
      1782686525,
      1782686574,
      1782686604,
      1782686622,
      1782686637,
      1782686643,
      1782686667,
      1782686682,
      1782686703,
      1782686751,
      1782686777,
      1782686802,
      1782686829,
      1782686838,
      1782686866,
      1782686892,
      1782686918,
      1782686946,
      1782686992,
      1782687003,
      1782687019,
      1782687044,
      1782687072,
      1782687102,
      1782687122,
      1782687177,
      1782687183,
      1782687207,
      1782687222,
      1782687243,
      1782687293,
      1782687308,
      1782687342,
      1782687351,
      1782687375,
      1782687390
    ],
    "wof:geomhash": "463af03889512a559807565eff332fb7",
    "wof:id": 2031664325,
    "wof:repo": "sfomuseum-data-flights-2026-06"
  },
  "bbox": [
    -122.34894,
    37.46659,
    -121.25753,
    37.67212
  ],
  "geometry": {"coordinates":[[-121.25753,37.5936],[-121.2971,37.58867],[-121.33114,37.58502],[-121.35368,37.58238],[-121.38245,37.579],[-121.45125,37.57097],[-121.47843,37.56791],[-121.53683,37.56106],[-121.55403,37.55903],[-121.55997,37.55838],[-121.60955,37.55239],[-121.6576,37.55272],[-121.67318,37.56299],[-121.72215,37.60118],[-121.75173,37.62445],[-121.76946,37.63836],[-121.78422,37.64992],[-121.79013,37.6546],[-121.81586,37.6704],[-121.83622,37.67212],[-121.86526,37.66942],[-121.92904,37.65742],[-121.94493,37.63109],[-121.95214,37.60332],[-121.94221,37.57398],[-121.93255,37.56686],[-121.89553,37.5526],[-121.86594,37.53467],[-121.86291,37.50546],[-121.88187,37.47932],[-121.94285,37.47021],[-121.95845,37.46871],[-121.97987,37.46659],[-122.01308,37.46841],[-122.04777,37.48284],[-122.08299,37.49775],[-122.10623,37.50776],[-122.16741,37.53368],[-122.17355,37.5363],[-122.19693,37.54607],[-122.21105,37.55201],[-122.23055,37.56025],[-122.27446,37.57873],[-122.28662,37.58383],[-122.31272,37.59487],[-122.32,37.59794],[-122.33795,37.60545],[-122.34894,37.61009]],"type":"LineString"}
}
