{
  "id": 2031540793,
  "type": "Feature",
  "properties": {
    "geom:area": 0,
    "geom:bbox": "-122.390000,37.620000,-104.670000,39.920000",
    "geom:latitude": 38.34472286044199,
    "geom:longitude": -113.49964769522964,
    "src:alt_label": "swim-route",
    "src:geom": "swim",
    "swim:geom": "route",
    "wof:geomhash": "d133e3fd5d72d06c1b36f6608fae83bd",
    "wof:id": 2031540793,
    "wof:repo": "sfomuseum-data-flights-2026-06"
  },
  "bbox": [
    -122.39,
    37.62,
    -104.67,
    39.92
  ],
  "geometry": {"coordinates":[[-122.38,37.62],[-122.3,37.68],[-122.32,37.71],[-122.32,37.71],[-122.34,37.75],[-122.35,37.78],[-122.35,37.78],[-122.37,37.8],[-122.39,37.85],[-122.39,37.85],[-122.39,37.87],[-122.38,37.94],[-122.31,37.96],[-122.15,37.99],[-122.1,37.99],[-121.97,37.99],[-121.85,37.99],[-121.81,37.99],[-121.61,37.99],[-121.6,37.99],[-121.47,38],[-121.42,38],[-121.3,38.01],[-121.29,38.01],[-120.92,38.03],[-120.77,38.04],[-120.63,38.05],[-120.48,38.06],[-120.17,38.07],[-119.84,38.09],[-119.71,38.09],[-119.56,38.1],[-119.15,38.12],[-118.82,38.12],[-117.59,38.16],[-117.27,38.17],[-114.03,38.21],[-112.86,38.21],[-112.22,38.2],[-110.67,38.16],[-110.12,38.15],[-109.04,38.1],[-108.94,38.1],[-108.15,38.41],[-108.01,38.46],[-107.49,38.65],[-106.81,38.91],[-106.68,38.96],[-106.63,38.98],[-106.58,39],[-106.23,39.13],[-106.18,39.14],[-106.16,39.15],[-106.1,39.17],[-105.93,39.23],[-105.92,39.24],[-105.82,39.27],[-105.76,39.29],[-105.67,39.32],[-105.65,39.33],[-105.62,39.34],[-105.59,39.35],[-105.53,39.38],[-105.42,39.42],[-105.33,39.47],[-105.19,39.54],[-105.18,39.55],[-105.14,39.57],[-105.03,39.63],[-104.85,39.72],[-104.84,39.73],[-104.84,39.84],[-104.84,39.92],[-104.82,39.92],[-104.67,39.86]],"type":"LineString"}
}
