{
  "id": 2031505181,
  "type": "Feature",
  "properties": {
    "geom:area": 0,
    "geom:bbox": "-122.550000,33.950000,-118.183333,37.666667",
    "geom:latitude": 35.72849606331618,
    "geom:longitude": -120.378052304291,
    "src:alt_label": "swim-path",
    "src:geom": "swim",
    "swim:altitudes": [
      "006",
      "006",
      "006",
      "025",
      "045",
      "048",
      "048",
      "048",
      "064",
      "064",
      "064",
      "094",
      "116",
      "116",
      "151",
      "151",
      "151",
      "151",
      "181",
      "181",
      "181",
      "236",
      "236",
      "236",
      "236",
      "254",
      "254",
      "254",
      "254",
      "315",
      "315",
      "315",
      "315",
      "315",
      "350C",
      "350C",
      "350C",
      "350C",
      "350C",
      "350C",
      "350C",
      "350C",
      "350C",
      "350C",
      "350",
      "350",
      "350",
      "350",
      "350",
      "350",
      "350",
      "350",
      "174",
      "174",
      "153",
      "153",
      "146",
      "146",
      "146",
      "133",
      "128",
      "128",
      "125",
      "125",
      "125",
      "119",
      "119",
      "110",
      "110",
      "104",
      "083",
      "083",
      "079",
      "079",
      "079",
      "076",
      "076",
      "073",
      "073",
      "073",
      "066",
      "066",
      "066",
      "060",
      "060",
      "060",
      "058",
      "058",
      "039",
      "039",
      "031",
      "031",
      "031",
      "026",
      "026",
      "017",
      "017",
      "013",
      "013",
      "009",
      "009",
      "006",
      "006",
      "006"
    ],
    "swim:geom": "path",
    "swim:speeds": [
      148,
      148,
      148,
      206,
      239,
      256,
      256,
      256,
      300,
      300,
      300,
      309,
      348,
      348,
      364,
      364,
      364,
      364,
      369,
      369,
      369,
      409,
      409,
      409,
      409,
      411,
      411,
      411,
      411,
      458,
      458,
      458,
      458,
      458,
      461,
      461,
      461,
      461,
      461,
      453,
      453,
      453,
      453,
      452,
      451,
      451,
      451,
      448,
      448,
      448,
      448,
      448,
      388,
      388,
      373,
      373,
      373,
      373,
      373,
      362,
      360,
      360,
      320,
      320,
      320,
      322,
      322,
      314,
      314,
      316,
      281,
      281,
      283,
      283,
      283,
      259,
      259,
      250,
      250,
      250,
      245,
      245,
      245,
      247,
      247,
      247,
      230,
      230,
      225,
      225,
      212,
      212,
      212,
      211,
      211,
      179,
      179,
      149,
      149,
      138,
      138,
      129,
      129,
      129
    ],
    "swim:timestamps": [
      1781121182,
      1781121182,
      1781121182,
      1781121258,
      1781121290,
      1781121318,
      1781121318,
      1781121318,
      1781121345,
      1781121345,
      1781121345,
      1781121410,
      1781121470,
      1781121470,
      1781121558,
      1781121558,
      1781121558,
      1781121558,
      1781121615,
      1781121615,
      1781121615,
      1781121739,
      1781121739,
      1781121739,
      1781121739,
      1781121796,
      1781121796,
      1781121796,
      1781121796,
      1781121976,
      1781121976,
      1781121976,
      1781121976,
      1781121976,
      1781122156,
      1781122156,
      1781122156,
      1781122156,
      1781122156,
      1781122577,
      1781122577,
      1781122577,
      1781122577,
      1781122700,
      1781122760,
      1781122760,
      1781122760,
      1781122937,
      1781122937,
      1781122937,
      1781122937,
      1781122937,
      1781123511,
      1781123511,
      1781123571,
      1781123571,
      1781123598,
      1781123598,
      1781123598,
      1781123631,
      1781123658,
      1781123658,
      1781123691,
      1781123691,
      1781123691,
      1781123718,
      1781123718,
      1781123751,
      1781123751,
      1781123778,
      1781123871,
      1781123871,
      1781123899,
      1781123899,
      1781123899,
      1781123926,
      1781123926,
      1781123959,
      1781123959,
      1781123959,
      1781123986,
      1781123986,
      1781123986,
      1781124019,
      1781124019,
      1781124019,
      1781124046,
      1781124046,
      1781124139,
      1781124139,
      1781124165,
      1781124165,
      1781124165,
      1781124199,
      1781124199,
      1781124319,
      1781124319,
      1781124346,
      1781124346,
      1781124379,
      1781124379,
      1781124406,
      1781124406,
      1781124406
    ],
    "wof:geomhash": "e55b2ef1ff6102cb3806bab3254c261d",
    "wof:id": 2031505181,
    "wof:repo": "sfomuseum-data-flights-2026-06"
  },
  "bbox": [
    -122.55,
    33.95,
    -118.18333333333334,
    37.666666666666664
  ],
  "geometry": {"coordinates":[[-122.38333333333334,37.61666666666667],[-122.38333333333334,37.61666666666667],[-122.38333333333334,37.61666666666667],[-122.4475,37.65],[-122.5,37.666666666666664],[-122.52111111111111,37.66638888888889],[-122.52111111111111,37.66638888888889],[-122.52111111111111,37.66638888888889],[-122.55,37.63333333333333],[-122.55,37.63333333333333],[-122.55,37.63333333333333],[-122.5,37.55],[-122.45,37.46666666666667],[-122.45,37.46666666666667],[-122.32472222222222,37.37916666666667],[-122.32472222222222,37.37916666666667],[-122.32472222222222,37.37916666666667],[-122.32472222222222,37.37916666666667],[-122.22194444444445,37.30138888888889],[-122.22194444444445,37.30138888888889],[-122.22194444444445,37.30138888888889],[-122.00305555555556,37.141666666666666],[-122.00305555555556,37.141666666666666],[-122.00305555555556,37.141666666666666],[-122.00305555555556,37.141666666666666],[-121.91194444444444,37.069722222222225],[-121.91194444444444,37.069722222222225],[-121.91194444444444,37.069722222222225],[-121.91194444444444,37.069722222222225],[-121.5625,36.81055555555555],[-121.5625,36.81055555555555],[-121.5625,36.81055555555555],[-121.5625,36.81055555555555],[-121.5625,36.81055555555555],[-121.23166666666667,36.53361111111111],[-121.23166666666667,36.53361111111111],[-121.23166666666667,36.53361111111111],[-121.23166666666667,36.53361111111111],[-121.23166666666667,36.53361111111111],[-120.4875,35.882222222222225],[-120.4875,35.882222222222225],[-120.4875,35.882222222222225],[-120.4875,35.882222222222225],[-120.27555555555556,35.69416666666666],[-120.17055555555557,35.60027777777778],[-120.17055555555557,35.60027777777778],[-120.17055555555557,35.60027777777778],[-119.8611111111111,35.32194444444445],[-119.8611111111111,35.32194444444445],[-119.8611111111111,35.32194444444445],[-119.8611111111111,35.32194444444445],[-119.8611111111111,35.32194444444445],[-119.01666666666667,34.4],[-119.01666666666667,34.4],[-118.95,34.31666666666667],[-118.95,34.31666666666667],[-118.92194444444445,34.285555555555554],[-118.92194444444445,34.285555555555554],[-118.92194444444445,34.285555555555554],[-118.88333333333334,34.233333333333334],[-118.84833333333333,34.20583333333334],[-118.84833333333333,34.20583333333334],[-118.8,34.166666666666664],[-118.8,34.166666666666664],[-118.8,34.166666666666664],[-118.7786111111111,34.135555555555555],[-118.7786111111111,34.135555555555555],[-118.73333333333333,34.1],[-118.73333333333333,34.1],[-118.7088888888889,34.07138888888889],[-118.56666666666666,34.016666666666666],[-118.56666666666666,34.016666666666666],[-118.53611111111111,34.0175],[-118.53611111111111,34.0175],[-118.53611111111111,34.0175],[-118.48333333333333,34.016666666666666],[-118.48333333333333,34.016666666666666],[-118.45,34.01166666666666],[-118.45,34.01166666666666],[-118.45,34.01166666666666],[-118.4,34.016666666666666],[-118.4,34.016666666666666],[-118.4,34.016666666666666],[-118.36944444444444,34.025277777777774],[-118.36944444444444,34.025277777777774],[-118.36944444444444,34.025277777777774],[-118.33333333333333,34.03333333333333],[-118.33333333333333,34.03333333333333],[-118.21722222222222,34.04138888888889],[-118.21722222222222,34.04138888888889],[-118.18333333333334,34.016666666666666],[-118.18333333333334,34.016666666666666],[-118.18333333333334,34.016666666666666],[-118.18805555555556,33.99666666666667],[-118.18805555555556,33.99666666666667],[-118.30305555555556,33.96222222222222],[-118.30305555555556,33.96222222222222],[-118.33333333333333,33.96666666666667],[-118.33333333333333,33.96666666666667],[-118.35166666666666,33.95722222222223],[-118.35166666666666,33.95722222222223],[-118.36666666666666,33.95],[-118.36666666666666,33.95],[-118.36666666666666,33.95]],"type":"LineString"}
}
