{
  "id": 2031665271,
  "type": "Feature",
  "properties": {
    "geom:area": 0,
    "geom:bbox": "-122.362030,37.422730,-121.273710,37.615110",
    "geom:latitude": 37.52772740752767,
    "geom:longitude": -121.82726326189184,
    "src:alt_label": "swim-approach",
    "src:geom": "swim",
    "swim:elevations": [
      4525,
      4344,
      3993,
      3835,
      3655,
      3536,
      3410,
      3203,
      3086,
      2912,
      2719,
      2479,
      2361,
      2160,
      2134,
      2134,
      2134,
      2134,
      2134,
      1949,
      1680,
      1580,
      1530,
      1346,
      1218,
      1214,
      1104,
      925,
      884,
      796,
      733,
      579,
      449,
      366,
      240,
      91,
      0
    ],
    "swim:geom": "approach",
    "swim:timestamps": [
      1782632267,
      1782632292,
      1782632335,
      1782632361,
      1782632395,
      1782632423,
      1782632454,
      1782632484,
      1782632501,
      1782632531,
      1782632557,
      1782632600,
      1782632616,
      1782632649,
      1782632688,
      1782632721,
      1782632738,
      1782632779,
      1782632802,
      1782632829,
      1782632878,
      1782632896,
      1782632906,
      1782632931,
      1782632961,
      1782632979,
      1782633009,
      1782633051,
      1782633064,
      1782633087,
      1782633107,
      1782633143,
      1782633176,
      1782633199,
      1782633231,
      1782633268,
      1782633290
    ],
    "wof:geomhash": "ca372d6b33fe1ee5bb785284d71de69a",
    "wof:id": 2031665271,
    "wof:repo": "sfomuseum-data-flights-2026-06"
  },
  "bbox": [
    -122.36203,
    37.42273,
    -121.27371,
    37.61511
  ],
  "geometry": {"coordinates":[[-121.27371,37.5915],[-121.32075,37.58593],[-121.39969,37.577],[-121.44634,37.57169],[-121.50435,37.5649],[-121.54707,37.55986],[-121.58948,37.55481],[-121.63194,37.54897],[-121.65406,37.54366],[-121.69555,37.53377],[-121.73146,37.5253],[-121.78801,37.51181],[-121.80834,37.50258],[-121.82582,37.46625],[-121.84646,37.42621],[-121.8891,37.42273],[-121.90753,37.4301],[-121.95195,37.44198],[-121.97367,37.45151],[-121.99848,37.46221],[-122.04501,37.48185],[-122.06291,37.48949],[-122.07225,37.49344],[-122.09343,37.50241],[-122.12038,37.5137],[-122.13469,37.51975],[-122.15688,37.52936],[-122.18796,37.54228],[-122.19672,37.546],[-122.21328,37.55304],[-122.22804,37.55923],[-122.25394,37.57014],[-122.27742,37.57997],[-122.29417,37.58706],[-122.3181,37.59708],[-122.34575,37.60876],[-122.36203,37.61511]],"type":"LineString"}
}
