{
  "id": 2031478995,
  "type": "Feature",
  "properties": {
    "geom:area": 0,
    "geom:bbox": "-122.380000,37.620000,-111.980000,40.830000",
    "geom:latitude": 39.613719942460975,
    "geom:longitude": -117.24873014480653,
    "src:alt_label": "swim-route",
    "src:geom": "swim",
    "swim:geom": "route",
    "wof:geomhash": "5498fba7d0e1a11d790b2a174e286142",
    "wof:id": 2031478995,
    "wof:repo": "sfomuseum-data-flights-2026-06"
  },
  "bbox": [
    -122.38,
    37.62,
    -111.98,
    40.83
  ],
  "geometry": {"coordinates":[[-122.38,37.62],[-122.28,37.68],[-122.27,37.69],[-122.27,37.69],[-122.21,37.72],[-122.21,37.72],[-122.21,37.73],[-122.19,37.75],[-122.15,37.79],[-122.14,37.8],[-122.07,37.88],[-122.01,37.92],[-121.85,38.02],[-121.85,38.03],[-121.83,38.04],[-121.77,38.06],[-121.76,38.07],[-121.63,38.12],[-121.53,38.16],[-121.49,38.18],[-121.42,38.21],[-121.39,38.22],[-121.32,38.25],[-121.09,38.35],[-121,38.39],[-120.91,38.42],[-120.41,38.43],[-120.05,38.58],[-119.83,38.68],[-119.37,38.89],[-119.35,38.9],[-117.35,39.74],[-116.78,39.97],[-116.49,40.09],[-116.2,40.2],[-115.91,40.31],[-115.03,40.65],[-114.89,40.7],[-114.87,40.7],[-114.8,40.7],[-114.44,40.71],[-114.37,40.71],[-114.21,40.72],[-114.11,40.72],[-113.91,40.72],[-113.76,40.73],[-113.71,40.73],[-113.57,40.73],[-113.33,40.73],[-113.23,40.72],[-113.01,40.72],[-112.94,40.72],[-112.89,40.72],[-112.86,40.72],[-112.66,40.72],[-112.65,40.72],[-112.62,40.72],[-112.53,40.72],[-112.44,40.71],[-112.27,40.69],[-112.26,40.69],[-112.16,40.7],[-112.15,40.7],[-112.09,40.75],[-112.09,40.76],[-112.1,40.82],[-112.1,40.83],[-112.08,40.82],[-112.01,40.8],[-111.98,40.79],[-111.98,40.79]],"type":"LineString"}
}
