{
  "id": 2031510549,
  "type": "Feature",
  "properties": {
    "geom:area": 0,
    "geom:bbox": "-122.364160,36.749910,-121.895710,37.614400",
    "geom:latitude": 37.24379400412189,
    "geom:longitude": -122.09445363087272,
    "src:alt_label": "swim-approach",
    "src:geom": "swim",
    "swim:elevations": [
      4562,
      4319,
      4186,
      3898,
      3833,
      3520,
      3416,
      3228,
      2928,
      2863,
      2775,
      2632,
      2475,
      2438,
      2438,
      2438,
      2330,
      2194,
      1982,
      1840,
      1830,
      1829,
      1740,
      1680,
      1463,
      1434,
      1369,
      1325,
      1219,
      1106,
      1079,
      1009,
      915,
      795,
      648,
      617,
      449,
      410,
      371,
      211,
      121,
      35,
      328
    ],
    "swim:geom": "approach",
    "swim:timestamps": [
      1781200699,
      1781200732,
      1781200751,
      1781200792,
      1781200801,
      1781200850,
      1781200864,
      1781200890,
      1781200939,
      1781200950,
      1781200970,
      1781200993,
      1781201021,
      1781201058,
      1781201092,
      1781201114,
      1781201141,
      1781201157,
      1781201187,
      1781201212,
      1781201220,
      1781201245,
      1781201274,
      1781201283,
      1781201332,
      1781201341,
      1781201369,
      1781201377,
      1781201413,
      1781201453,
      1781201457,
      1781201467,
      1781201508,
      1781201544,
      1781201573,
      1781201581,
      1781201627,
      1781201633,
      1781201645,
      1781201697,
      1781201723,
      1781201751,
      1781201767
    ],
    "wof:geomhash": "fdce510fac3a81eb5fc684333e0cfffe",
    "wof:id": 2031510549,
    "wof:repo": "sfomuseum-data-flights-2026-06"
  },
  "bbox": [
    -122.36416,
    36.74991,
    -121.89571,
    37.6144
  ],
  "geometry": {"coordinates":[[-121.89571,36.74991],[-121.90923,36.7963],[-121.91656,36.82224],[-121.93198,36.87723],[-121.93515,36.88872],[-121.95357,36.953],[-121.96082,36.97176],[-121.97416,37.00575],[-121.99916,37.07022],[-122.00465,37.08426],[-122.01373,37.10722],[-122.02343,37.13246],[-122.03557,37.16389],[-122.05634,37.20177],[-122.09652,37.2216],[-122.1219,37.23312],[-122.14855,37.25369],[-122.16196,37.26698],[-122.18685,37.29169],[-122.2074,37.3124],[-122.21345,37.32006],[-122.21183,37.34539],[-122.18405,37.3653],[-122.17375,37.37064],[-122.12489,37.40178],[-122.1195,37.40793],[-122.10248,37.42849],[-122.09831,37.43473],[-122.09298,37.46518],[-122.12018,37.49334],[-122.12298,37.49615],[-122.13001,37.50316],[-122.16193,37.5284],[-122.1956,37.54329],[-122.22208,37.55447],[-122.22978,37.55774],[-122.26993,37.57459],[-122.27481,37.57668],[-122.28375,37.58038],[-122.31852,37.59502],[-122.33593,37.60234],[-122.35385,37.60982],[-122.36416,37.6144]],"type":"LineString"}
}
