{
  "id": 2031546571,
  "type": "Feature",
  "properties": {
    "geom:area": 0,
    "geom:bbox": "-122.588630,36.721930,-121.899390,37.611680",
    "geom:latitude": 37.216780007156096,
    "geom:longitude": -122.27407832003131,
    "src:alt_label": "swim-approach",
    "src:geom": "swim",
    "swim:elevations": [
      5318,
      5107,
      4889,
      4678,
      4599,
      4421,
      4386,
      4107,
      3961,
      3638,
      3247,
      2994,
      2775,
      2743,
      2743,
      2743,
      2613,
      2435,
      2440,
      2412,
      2339,
      2295,
      2216,
      2023,
      1950,
      1829,
      1829,
      1829,
      1829,
      1829,
      1829,
      1829,
      1825,
      1611,
      1449,
      1280,
      1219,
      1219,
      1219,
      1219,
      1219,
      1219,
      1219,
      1185,
      1007,
      958,
      849,
      679,
      576,
      487,
      427,
      392,
      180,
      85,
      0
    ],
    "swim:geom": "approach",
    "swim:timestamps": [
      1781556591,
      1781556610,
      1781556635,
      1781556670,
      1781556685,
      1781556714,
      1781556722,
      1781556790,
      1781556812,
      1781556864,
      1781556916,
      1781556954,
      1781556985,
      1781557009,
      1781557018,
      1781557040,
      1781557078,
      1781557108,
      1781557114,
      1781557166,
      1781557195,
      1781557207,
      1781557221,
      1781557255,
      1781557270,
      1781557318,
      1781557330,
      1781557360,
      1781557402,
      1781557430,
      1781557456,
      1781557483,
      1781557502,
      1781557537,
      1781557563,
      1781557588,
      1781557617,
      1781557628,
      1781557670,
      1781557697,
      1781557711,
      1781557724,
      1781557746,
      1781557762,
      1781557795,
      1781557827,
      1781557847,
      1781557885,
      1781557911,
      1781557929,
      1781557944,
      1781557953,
      1781558006,
      1781558030,
      1781558045
    ],
    "wof:geomhash": "7c9fcabb2807638b5edde891390e1871",
    "wof:id": 2031546571,
    "wof:repo": "sfomuseum-data-flights-2026-06"
  },
  "bbox": [
    -122.58863,
    36.72193,
    -121.89939,
    37.61168
  ],
  "geometry": {"coordinates":[[-121.89939,36.72193],[-121.92874,36.74335],[-121.9674,36.7705],[-122.0201,36.8073],[-122.04272,36.82306],[-122.08538,36.85307],[-122.09704,36.8613],[-122.18601,36.92303],[-122.2131,36.94169],[-122.27466,36.98328],[-122.31944,37.03296],[-122.34626,37.0715],[-122.36774,37.10156],[-122.38469,37.12496],[-122.39106,37.13375],[-122.40695,37.15576],[-122.43357,37.19264],[-122.45489,37.22266],[-122.45903,37.22863],[-122.51506,37.2649],[-122.55409,37.27737],[-122.56895,37.28452],[-122.57979,37.29758],[-122.58863,37.33435],[-122.57902,37.34838],[-122.51761,37.35599],[-122.50141,37.35636],[-122.46087,37.36001],[-122.40389,37.36496],[-122.36646,37.36819],[-122.33087,37.37126],[-122.29597,37.37432],[-122.27258,37.37622],[-122.23143,37.37977],[-122.20144,37.38239],[-122.1709,37.38495],[-122.13655,37.38757],[-122.12368,37.38874],[-122.10006,37.41877],[-122.09647,37.44273],[-122.09846,37.45532],[-122.10399,37.46541],[-122.1138,37.48284],[-122.12095,37.49553],[-122.14078,37.51791],[-122.16847,37.53203],[-122.18726,37.53988],[-122.22373,37.55513],[-122.24746,37.56513],[-122.26482,37.57247],[-122.27815,37.57801],[-122.2858,37.58128],[-122.32857,37.59923],[-122.34702,37.60694],[-122.35839,37.61168]],"type":"LineString"}
}
