{
  "id": 2031434441,
  "type": "Feature",
  "properties": {
    "geom:area": 0,
    "geom:bbox": "-122.530000,37.620000,-74.170000,42.630000",
    "geom:latitude": 40.998477628039524,
    "geom:longitude": -98.52415326704617,
    "src:alt_label": "swim-route",
    "src:geom": "swim",
    "swim:geom": "route",
    "wof:geomhash": "52e1f3195eced86b47007a65e138385c",
    "wof:id": 2031434441,
    "wof:repo": "sfomuseum-data-flights-2026-06"
  },
  "bbox": [
    -122.53,
    37.62,
    -74.17,
    42.63
  ],
  "geometry": {"coordinates":[[-122.38,37.62],[-122.5,37.67],[-122.51,37.68],[-122.52,37.68],[-122.53,37.75],[-122.53,37.76],[-122.53,37.79],[-122.53,37.8],[-122.47,37.83],[-122.46,37.83],[-122.43,37.84],[-122.34,37.86],[-122.14,37.92],[-122.04,37.94],[-121.94,37.97],[-121.93,37.97],[-121.81,38.01],[-121.74,38.02],[-121.73,38.02],[-121.49,38.09],[-121.44,38.1],[-121.33,38.13],[-121.29,38.14],[-121.19,38.17],[-121.04,38.21],[-121,38.21],[-120.99,38.21],[-120.91,38.22],[-120.82,38.24],[-120.74,38.25],[-120.36,38.3],[-120.19,38.32],[-119.22,38.45],[-118.23,38.57],[-117.3,38.68],[-117.29,38.68],[-116.05,38.89],[-114.68,39.1],[-114.46,39.13],[-113.77,39.23],[-113.32,39.29],[-113.25,39.3],[-110,40],[-109.15,40.2],[-109.01,40.24],[-106.25,40.85],[-105.57,40.96],[-104.56,41.13],[-103.9,41.23],[-103.77,41.25],[-103.68,41.26],[-103.54,41.28],[-103.32,41.31],[-103.27,41.32],[-103.23,41.33],[-103.03,41.36],[-102.73,41.4],[-102.56,41.42],[-102.45,41.44],[-102.4,41.45],[-102.32,41.46],[-102.29,41.46],[-102.27,41.46],[-102.19,41.48],[-102.07,41.49],[-102.03,41.5],[-102,41.5],[-101.89,41.52],[-101.72,41.55],[-101.55,41.57],[-101.43,41.59],[-101.39,41.6],[-101.32,41.61],[-101.22,41.63],[-101.15,41.64],[-101.05,41.65],[-100.92,41.67],[-100.11,41.79],[-99.99,41.81],[-99.94,41.82],[-99.75,41.84],[-99.28,41.91],[-99.14,41.93],[-99.02,41.94],[-98,42],[-97.28,42.11],[-96.63,42.21],[-96.31,42.26],[-95.66,42.35],[-95.21,42.43],[-94.96,42.53],[-94.66,42.63],[-93.07,42.62],[-90.37,42.55],[-89.56,42.52],[-88.71,42.48],[-87.83,42.43],[-87,42.38],[-86.79,42.37],[-86.25,42.38],[-85,42.29],[-83.03,42.11],[-81.22,41.93],[-77.97,41.51],[-77.69,41.47],[-77.55,41.45],[-77.49,41.44],[-77.45,41.44],[-77.06,41.38],[-76.98,41.37],[-76.77,41.34],[-76.54,41.28],[-76.16,41.17],[-76.05,41.14],[-75.74,41.06],[-75.69,41.04],[-75.64,41.03],[-75.6,41.02],[-75.58,41.01],[-75.47,40.98],[-75.4,40.96],[-75.17,40.9],[-75.11,40.88],[-75.05,40.86],[-74.92,40.83],[-74.92,40.83],[-74.87,40.82],[-74.82,40.81],[-74.76,40.8],[-74.71,40.79],[-74.7,40.79],[-74.65,40.78],[-74.61,40.77],[-74.49,40.75],[-74.44,40.74],[-74.38,40.73],[-74.27,40.71],[-74.17,40.69]],"type":"LineString"}
}
