{
  "id": 2031461805,
  "type": "Feature",
  "properties": {
    "geom:area": 0,
    "geom:bbox": "-156.166667,19.733333,-122.400000,37.659722",
    "geom:latitude": 30.117340207191038,
    "geom:longitude": -140.58283307791572,
    "src:alt_label": "swim-path",
    "src:geom": "swim",
    "swim:altitudes": [
      "005",
      "005",
      "030",
      "065",
      "065",
      "065",
      "156",
      "156",
      "170",
      "170",
      "193",
      "193",
      "203",
      "203",
      "214",
      "224",
      "224",
      "224",
      "320C",
      "320C",
      "320C",
      "320C",
      "320C",
      "320C",
      "320C",
      "320",
      "320",
      "320",
      "320",
      "320",
      "320",
      "320",
      "320",
      "320",
      "320",
      "320",
      "320",
      "320",
      "320",
      "320",
      "320",
      "320",
      "320",
      "320",
      "320",
      "320T",
      "320T",
      "320T",
      "320T",
      "320T",
      "320T",
      "320T",
      "320T",
      "320T",
      "308T",
      "308T",
      "258T",
      "234T",
      "234T",
      "210T",
      "210T",
      "210T",
      "169T",
      "118T",
      "118T",
      "110T",
      "110T",
      "084T",
      "073T",
      "073T",
      "073T",
      "060T",
      "021T",
      "021T"
    ],
    "swim:geom": "path",
    "swim:speeds": [
      186,
      186,
      206,
      271,
      271,
      271,
      402,
      402,
      402,
      402,
      410,
      410,
      420,
      420,
      422,
      427,
      427,
      427,
      430,
      430,
      429,
      428,
      428,
      428,
      428,
      480,
      480,
      480,
      480,
      480,
      480,
      480,
      480,
      480,
      480,
      480,
      480,
      480,
      470,
      470,
      470,
      470,
      470,
      480,
      480,
      480,
      480,
      480,
      480,
      480,
      480,
      480,
      480,
      480,
      470,
      470,
      460,
      450,
      450,
      430,
      430,
      430,
      410,
      350,
      350,
      310,
      310,
      290,
      280,
      280,
      280,
      270,
      250,
      250
    ],
    "swim:timestamps": [
      1780680010,
      1780680010,
      1780680086,
      1780680206,
      1780680206,
      1780680206,
      1780680566,
      1780680566,
      1780680627,
      1780680627,
      1780680747,
      1780680747,
      1780680807,
      1780680807,
      1780680867,
      1780680927,
      1780680927,
      1780680927,
      1780681588,
      1780681588,
      1780681708,
      1780681768,
      1780681768,
      1780681828,
      1780681828,
      1780694501,
      1780694501,
      1780694562,
      1780694562,
      1780694743,
      1780694743,
      1780694743,
      1780694923,
      1780694983,
      1780695044,
      1780695044,
      1780695044,
      1780695164,
      1780695224,
      1780695224,
      1780695224,
      1780695646,
      1780695646,
      1780695705,
      1780695705,
      1780695766,
      1780695766,
      1780695766,
      1780695886,
      1780695886,
      1780696006,
      1780696006,
      1780696066,
      1780696066,
      1780696187,
      1780696187,
      1780696307,
      1780696367,
      1780696367,
      1780696427,
      1780696427,
      1780696427,
      1780696547,
      1780696728,
      1780696728,
      1780696788,
      1780696788,
      1780696908,
      1780696968,
      1780696968,
      1780696968,
      1780697028,
      1780697209,
      1780697209
    ],
    "wof:geomhash": "9fb7812841bb6372de66fe6fdf6a719c",
    "wof:id": 2031461805,
    "wof:repo": "sfomuseum-data-flights-2026-06"
  },
  "bbox": [
    -156.16666666666666,
    19.733333333333334,
    -122.4,
    37.65972222222222
  ],
  "geometry": {"coordinates":[[-122.4,37.63333333333333],[-122.4,37.63333333333333],[-122.46944444444445,37.65972222222222],[-122.6413888888889,37.638888888888886],[-122.6413888888889,37.638888888888886],[-122.6413888888889,37.638888888888886],[-123.34722222222221,37.45305555555556],[-123.34722222222221,37.45305555555556],[-123.48027777777779,37.41777777777777],[-123.48027777777779,37.41777777777777],[-123.75083333333333,37.34583333333334],[-123.75083333333333,37.34583333333334],[-123.89111111111112,37.30777777777777],[-123.89111111111112,37.30777777777777],[-124.03222222222222,37.269444444444446],[-124.1725,37.23083333333334],[-124.1725,37.23083333333334],[-124.1725,37.23083333333334],[-125.76972222222223,36.79083333333333],[-125.76972222222223,36.79083333333333],[-126.04861111111111,36.713055555555556],[-126.18944444444445,36.67361111111111],[-126.18944444444445,36.67361111111111],[-126.32916666666667,36.63444444444444],[-126.32916666666667,36.63444444444444],[-153.86666666666667,24.55],[-153.86666666666667,24.55],[-153.98333333333332,24.466666666666665],[-153.98333333333332,24.466666666666665],[-154.33333333333334,24.233333333333334],[-154.33333333333334,24.233333333333334],[-154.33333333333334,24.233333333333334],[-154.56666666666666,23.9],[-154.63333333333333,23.783333333333335],[-154.68333333333334,23.666666666666668],[-154.68333333333334,23.666666666666668],[-154.68333333333334,23.666666666666668],[-154.8,23.416666666666668],[-154.86666666666667,23.3],[-154.86666666666667,23.3],[-154.86666666666667,23.3],[-155.26666666666668,22.45],[-155.26666666666668,22.45],[-155.31666666666666,22.333333333333332],[-155.31666666666666,22.333333333333332],[-155.36666666666667,22.216666666666665],[-155.36666666666667,22.216666666666665],[-155.36666666666667,22.216666666666665],[-155.48333333333332,21.966666666666665],[-155.48333333333332,21.966666666666665],[-155.6,21.716666666666665],[-155.6,21.716666666666665],[-155.66666666666666,21.6],[-155.66666666666666,21.6],[-155.76666666666668,21.35],[-155.76666666666668,21.35],[-155.88333333333333,21.116666666666667],[-155.93333333333334,21],[-155.93333333333334,21],[-155.98333333333332,20.883333333333333],[-155.98333333333332,20.883333333333333],[-155.98333333333332,20.883333333333333],[-156.05,20.666666666666668],[-156.11666666666667,20.35],[-156.11666666666667,20.35],[-156.11666666666667,20.25],[-156.11666666666667,20.25],[-156.15,20.1],[-156.16666666666666,20.016666666666666],[-156.16666666666666,20.016666666666666],[-156.16666666666666,20.016666666666666],[-156.16666666666666,19.95],[-156.11666666666667,19.733333333333334],[-156.11666666666667,19.733333333333334]],"type":"LineString"}
}
