{
  "id": 2031628749,
  "type": "Feature",
  "properties": {
    "geom:area": 0,
    "geom:bbox": "-122.897970,37.322670,-122.097520,38.490250",
    "geom:latitude": 37.75326518425424,
    "geom:longitude": -122.46924746319552,
    "src:alt_label": "swim-approach",
    "src:geom": "swim",
    "swim:elevations": [
      7437,
      7286,
      6919,
      6747,
      6307,
      5994,
      5800,
      5521,
      5198,
      5066,
      4557,
      4278,
      4040,
      3578,
      3493,
      3439,
      3370,
      3353,
      3353,
      3350,
      3353,
      3353,
      3270,
      3050,
      3048,
      2956,
      2867,
      2756,
      2578,
      2524,
      2306,
      2140,
      2134,
      2134,
      2134,
      1849,
      1680,
      1495,
      1249,
      1241,
      1130,
      983,
      916,
      670,
      639,
      449,
      342,
      191,
      96,
      105
    ],
    "swim:geom": "approach",
    "swim:timestamps": [
      1782308178,
      1782308195,
      1782308235,
      1782308254,
      1782308302,
      1782308335,
      1782308355,
      1782308383,
      1782308423,
      1782308437,
      1782308494,
      1782308522,
      1782308550,
      1782308600,
      1782308611,
      1782308627,
      1782308654,
      1782308687,
      1782308702,
      1782308752,
      1782308785,
      1782308804,
      1782308823,
      1782308869,
      1782308886,
      1782308931,
      1782308947,
      1782308971,
      1782309027,
      1782309035,
      1782309067,
      1782309102,
      1782309143,
      1782309171,
      1782309181,
      1782309235,
      1782309264,
      1782309288,
      1782309327,
      1782309332,
      1782309385,
      1782309412,
      1782309426,
      1782309478,
      1782309483,
      1782309526,
      1782309553,
      1782309583,
      1782309616,
      1782309632
    ],
    "wof:geomhash": "8ad6dfda1a8ac790b9c8914ad55f7431",
    "wof:id": 2031628749,
    "wof:repo": "sfomuseum-data-flights-2026-06"
  },
  "bbox": [
    -122.89797,
    37.32267,
    -122.09752,
    38.49025
  ],
  "geometry": {"coordinates":[[-122.89797,38.49025],[-122.88319,38.46019],[-122.8472,38.38722],[-122.83104,38.35434],[-122.78923,38.26883],[-122.76413,38.21073],[-122.75311,38.17519],[-122.73921,38.12829],[-122.7206,38.06298],[-122.71373,38.03917],[-122.68736,37.94823],[-122.67086,37.90374],[-122.63892,37.86689],[-122.57131,37.80329],[-122.55667,37.7896],[-122.53665,37.77088],[-122.50267,37.73879],[-122.46506,37.70325],[-122.44846,37.68752],[-122.39173,37.63409],[-122.35848,37.60005],[-122.34823,37.5778],[-122.33795,37.55744],[-122.30742,37.50585],[-122.29603,37.48777],[-122.2693,37.43744],[-122.27397,37.41976],[-122.30018,37.40118],[-122.35916,37.36008],[-122.35895,37.35004],[-122.32907,37.32267],[-122.27922,37.32384],[-122.22689,37.34707],[-122.1943,37.36648],[-122.18331,37.3729],[-122.12954,37.4057],[-122.11239,37.42941],[-122.10126,37.45112],[-122.09752,37.48758],[-122.10047,37.49153],[-122.14503,37.52412],[-122.17193,37.53538],[-122.186,37.5414],[-122.23597,37.56261],[-122.24136,37.56489],[-122.27826,37.58044],[-122.29918,37.58919],[-122.32297,37.59922],[-122.34672,37.60909],[-122.35838,37.61395]],"type":"LineString"}
}
