{
  "id": 2031500109,
  "type": "Feature",
  "properties": {
    "geom:area": 0,
    "geom:bbox": "-122.352620,37.419090,-122.140570,37.611640",
    "geom:latitude": 37.52737168856631,
    "geom:longitude": -122.21578634909241,
    "src:alt_label": "swim-approach",
    "src:geom": "swim",
    "swim:elevations": [
      1690,
      1623,
      1431,
      1243,
      966,
      914,
      747,
      661,
      521,
      370,
      327,
      188,
      105,
      43
    ],
    "swim:geom": "approach",
    "swim:timestamps": [
      1781110727,
      1781110755,
      1781110794,
      1781110822,
      1781110850,
      1781110875,
      1781110918,
      1781110935,
      1781110965,
      1781111005,
      1781111019,
      1781111056,
      1781111082,
      1781111103
    ],
    "wof:geomhash": "4bec4861b478c718844bc5eac4d36c58",
    "wof:id": 2031500109,
    "wof:repo": "sfomuseum-data-flights-2026-06"
  },
  "bbox": [
    -122.35262,
    37.41909,
    -122.14057,
    37.61164
  ],
  "geometry": {"coordinates":[[-122.18032,37.41909],[-122.14665,37.42639],[-122.14057,37.46269],[-122.14634,37.48867],[-122.15951,37.5129],[-122.17861,37.53044],[-122.21413,37.55373],[-122.23072,37.56027],[-122.25718,37.57154],[-122.28727,37.58424],[-122.29741,37.58842],[-122.32332,37.59934],[-122.33945,37.60609],[-122.35262,37.61164]],"type":"LineString"}
}
