{
  "id": 2031510787,
  "type": "Feature",
  "properties": {
    "geom:area": 0,
    "geom:bbox": "-122.821330,37.437030,-122.076780,38.408140",
    "geom:latitude": 37.862320301339075,
    "geom:longitude": -122.50330405286896,
    "src:alt_label": "swim-approach",
    "src:geom": "swim",
    "swim:elevations": [
      1552,
      1497,
      1347,
      1222,
      1155,
      971,
      938,
      744,
      676,
      459,
      394,
      334,
      215,
      151,
      79,
      7437,
      7340,
      7164,
      6902,
      6442,
      6402,
      5866,
      5517,
      5156,
      4898,
      4460,
      4198,
      4077,
      3828,
      3647,
      3474,
      3434,
      3399,
      3353,
      3353,
      3353,
      3348,
      3212,
      2941,
      2623,
      2312,
      1970,
      1774,
      1682,
      1638,
      1450,
      1219,
      1219,
      1040
    ],
    "swim:geom": "approach",
    "swim:timestamps": [
      1781161222,
      1781161241,
      1781161275,
      1781161306,
      1781161332,
      1781161378,
      1781161384,
      1781161429,
      1781161444,
      1781161496,
      1781161511,
      1781161528,
      1781161557,
      1781161574,
      1781161592,
      1781246757,
      1781246766,
      1781246783,
      1781246803,
      1781246847,
      1781246851,
      1781246899,
      1781246930,
      1781246964,
      1781246983,
      1781247026,
      1781247054,
      1781247067,
      1781247096,
      1781247115,
      1781247132,
      1781247146,
      1781247155,
      1781247191,
      1781247216,
      1781247242,
      1781247287,
      1781247313,
      1781247348,
      1781247377,
      1781247408,
      1781247445,
      1781247467,
      1781247477,
      1781247481,
      1781247501,
      1781247533,
      1781247556,
      1781247587
    ],
    "wof:geomhash": "b560b8796c3871242b23189e52bbbf4a",
    "wof:id": 2031510787,
    "wof:repo": "sfomuseum-data-flights-2026-06"
  },
  "bbox": [
    -122.82133,
    37.43703,
    -122.07678,
    38.40814
  ],
  "geometry": {"coordinates":[[-122.10874,37.60195],[-122.08638,37.59286],[-122.07678,37.56122],[-122.09326,37.53198],[-122.12023,37.51856],[-122.16847,37.53412],[-122.17439,37.53664],[-122.21546,37.55385],[-122.22812,37.55924],[-122.27236,37.5778],[-122.28408,37.5828],[-122.29752,37.58856],[-122.3205,37.59815],[-122.33359,37.60366],[-122.34737,37.60941],[-122.82133,38.40814],[-122.81629,38.39095],[-122.80725,38.36004],[-122.79564,38.32074],[-122.77267,38.24154],[-122.77066,38.23458],[-122.74563,38.14876],[-122.72956,38.09427],[-122.71263,38.03518],[-122.70297,38.00205],[-122.68213,37.92977],[-122.65786,37.88636],[-122.64104,37.86928],[-122.60266,37.83255],[-122.57756,37.80898],[-122.55467,37.78738],[-122.53566,37.76956],[-122.52407,37.75864],[-122.48109,37.71776],[-122.45293,37.69163],[-122.42127,37.66206],[-122.3713,37.61459],[-122.34905,37.5877],[-122.32958,37.54805],[-122.31198,37.51636],[-122.28067,37.48912],[-122.24,37.46185],[-122.21249,37.45196],[-122.20031,37.44736],[-122.1955,37.44556],[-122.17215,37.43703],[-122.1331,37.44596],[-122.11992,37.46772],[-122.12623,37.49822]],"type":"LineString"}
}
