{
  "id": 2031549673,
  "type": "Feature",
  "properties": {
    "geom:area": 0,
    "geom:bbox": "-122.398900,37.626780,-121.252740,37.964150",
    "geom:latitude": 37.83782617529274,
    "geom:longitude": -121.85348596403944,
    "src:alt_label": "swim-takeoff",
    "src:geom": "swim",
    "swim:elevations": [
      289,
      554,
      1006,
      1085,
      1246,
      1428,
      1779,
      2020,
      2307,
      2543,
      2824,
      3100,
      3198,
      3338,
      3415,
      3471,
      3686,
      3998,
      4318,
      4765,
      4844,
      5150,
      5853,
      5912,
      6230
    ],
    "swim:geom": "takeoff",
    "swim:timestamps": [
      1781526436,
      1781526465,
      1781526508,
      1781526519,
      1781526551,
      1781526593,
      1781526625,
      1781526642,
      1781526667,
      1781526684,
      1781526712,
      1781526745,
      1781526758,
      1781526791,
      1781526813,
      1781526822,
      1781526848,
      1781526879,
      1781526912,
      1781526958,
      1781526965,
      1781526994,
      1781527077,
      1781527086,
      1781527135
    ],
    "wof:geomhash": "5b7b0d9f270d5993936500115e223b20",
    "wof:id": 2031549673,
    "wof:repo": "sfomuseum-data-flights-2026-06"
  },
  "bbox": [
    -122.3989,
    37.62678,
    -121.25274,
    37.96415
  ],
  "geometry": {"coordinates":[[-122.39319,37.62678],[-122.3989,37.6474],[-122.35994,37.66436],[-122.34988,37.66781],[-122.31461,37.68058],[-122.26278,37.70579],[-122.24065,37.74227],[-122.22932,37.7633],[-122.20358,37.78649],[-122.1757,37.79276],[-122.13197,37.80108],[-122.07871,37.8114],[-122.05551,37.81573],[-121.99444,37.82721],[-121.95216,37.83509],[-121.93307,37.83869],[-121.87928,37.84875],[-121.81392,37.8609],[-121.74381,37.87401],[-121.6468,37.89194],[-121.62991,37.89508],[-121.56674,37.90669],[-121.38361,37.94031],[-121.36426,37.94389],[-121.25274,37.96415]],"type":"LineString"}
}
