{
  "id": 2031611529,
  "type": "Feature",
  "properties": {
    "geom:area": 0,
    "geom:bbox": "-122.531380,37.625860,-121.247450,38.513730",
    "geom:latitude": 37.983185215859066,
    "geom:longitude": -121.97394744970322,
    "src:alt_label": "swim-takeoff",
    "src:geom": "swim",
    "swim:elevations": [
      324,
      471,
      641,
      906,
      1063,
      1216,
      1711,
      2066,
      2201,
      2797,
      2914,
      2957,
      3129,
      3389,
      3601,
      3888,
      3998,
      4338,
      4671,
      4931,
      5176,
      5473,
      5794,
      6040,
      6199,
      6631,
      6669,
      6990,
      7263,
      122,
      302,
      611,
      721,
      1106,
      1288,
      1598,
      2060,
      2561,
      2597,
      3086,
      3432,
      3513,
      3723,
      3909,
      4181,
      4510,
      4864,
      5065,
      5382,
      5458,
      5604,
      5864,
      6100,
      6369,
      6502,
      6719,
      7107,
      7236,
      7465,
      7664,
      7878
    ],
    "swim:geom": "takeoff",
    "swim:timestamps": [
      1782111856,
      1782111873,
      1782111909,
      1782111938,
      1782111954,
      1782111968,
      1782112008,
      1782112038,
      1782112052,
      1782112107,
      1782112117,
      1782112123,
      1782112140,
      1782112187,
      1782112226,
      1782112256,
      1782112267,
      1782112305,
      1782112339,
      1782112365,
      1782112391,
      1782112433,
      1782112466,
      1782112492,
      1782112507,
      1782112556,
      1782112560,
      1782112602,
      1782112639,
      1782195266,
      1782195281,
      1782195325,
      1782195346,
      1782195387,
      1782195405,
      1782195430,
      1782195468,
      1782195508,
      1782195512,
      1782195562,
      1782195595,
      1782195607,
      1782195628,
      1782195649,
      1782195675,
      1782195711,
      1782195747,
      1782195768,
      1782195803,
      1782195827,
      1782195857,
      1782195890,
      1782195916,
      1782195949,
      1782195964,
      1782195994,
      1782196044,
      1782196062,
      1782196094,
      1782196122,
      1782196150
    ],
    "wof:geomhash": "f58ac35bd8e7f0c2f892fa1e2434af01",
    "wof:id": 2031611529,
    "wof:repo": "sfomuseum-data-flights-2026-06"
  },
  "bbox": [
    -122.53138,
    37.62586,
    -121.24745,
    38.51373
  ],
  "geometry": {"coordinates":[[-122.40353,37.63129],[-122.41914,37.63775],[-122.45694,37.65359],[-122.49396,37.67008],[-122.51295,37.68125],[-122.52298,37.69679],[-122.52643,37.74724],[-122.52497,37.78566],[-122.51505,37.80211],[-122.43654,37.83685],[-122.41936,37.84163],[-122.41,37.84406],[-122.38174,37.85167],[-122.29759,37.87437],[-122.22032,37.89536],[-122.15944,37.91186],[-122.13487,37.91839],[-122.05296,37.94005],[-121.97685,37.95995],[-121.91981,37.97509],[-121.85862,37.99146],[-121.76151,38.0176],[-121.68135,38.03841],[-121.61778,38.05504],[-121.58063,38.06479],[-121.46006,38.09631],[-121.44916,38.09918],[-121.34225,38.12701],[-121.24745,38.15152],[-122.38603,37.62586],[-122.39861,37.63123],[-122.44207,37.64933],[-122.46731,37.65986],[-122.51684,37.68774],[-122.52505,37.71021],[-122.52699,37.74334],[-122.52868,37.79446],[-122.53121,37.84903],[-122.53138,37.85334],[-122.49503,37.9123],[-122.4465,37.93768],[-122.42877,37.94744],[-122.39737,37.96531],[-122.36571,37.98363],[-122.3262,38.00647],[-122.27098,38.03802],[-122.21355,38.07085],[-122.17849,38.09079],[-122.12055,38.12367],[-122.07911,38.1471],[-122.0245,38.17807],[-121.96258,38.21323],[-121.91398,38.24067],[-121.84957,38.27683],[-121.82023,38.29338],[-121.76121,38.32646],[-121.65884,38.38368],[-121.62135,38.40456],[-121.55333,38.44272],[-121.49668,38.4775],[-121.43628,38.51373]],"type":"LineString"}
}
