{
  "id": 2031480667,
  "type": "Feature",
  "properties": {
    "geom:area": 0,
    "geom:bbox": "-122.770000,37.620000,-73.740000,45.610000",
    "geom:latitude": 43.0776317374124,
    "geom:longitude": -98.89729096434027,
    "src:alt_label": "swim-route",
    "src:geom": "swim",
    "swim:geom": "route",
    "wof:geomhash": "404b3fcda79c415daba7cc7029861413",
    "wof:id": 2031480667,
    "wof:repo": "sfomuseum-data-flights-2026-06"
  },
  "bbox": [
    -122.77,
    37.62,
    -73.74,
    45.61
  ],
  "geometry": {"coordinates":[[-73.74,45.47],[-73.86,45.51],[-73.9,45.53],[-73.98,45.56],[-74.08,45.59],[-74.15,45.61],[-74.18,45.61],[-74.27,45.57],[-74.45,45.52],[-74.46,45.51],[-74.49,45.51],[-74.65,45.49],[-74.67,45.48],[-74.9,45.45],[-74.96,45.44],[-75.04,45.43],[-75.13,45.43],[-75.2,45.43],[-75.4,45.42],[-75.5,45.42],[-75.84,45.41],[-75.96,45.41],[-76.14,45.41],[-76.21,45.4],[-76.22,45.4],[-76.25,45.4],[-76.66,45.39],[-77.85,45.33],[-78.52,45.28],[-78.62,45.28],[-79.55,45.23],[-80.2,45.18],[-82.44,45],[-82.53,44.99],[-84.18,44.83],[-85.55,44.67],[-87.26,44.43],[-88.88,44.19],[-89.27,44.12],[-90.37,44.08],[-90.58,44.06],[-92.1,44],[-93.73,43.9],[-94.37,43.86],[-94.53,43.84],[-96.29,43.7],[-96.78,43.65],[-98.28,43.59],[-98.56,43.58],[-98.85,43.56],[-99.5,43.53],[-99.78,43.51],[-100,43.5],[-100.63,43.46],[-101.81,43.38],[-103.31,43.26],[-103.59,43.24],[-106,43],[-106.24,42.97],[-106.98,42.89],[-107.12,42.87],[-108.01,42.77],[-108.4,42.62],[-108.76,42.6],[-109.05,42.59],[-109.61,42.46],[-109.68,42.42],[-110.26,42.26],[-110.59,42.17],[-110.93,42.07],[-111.41,41.96],[-112.85,41.61],[-113.62,41.43],[-113.84,41.36],[-114.06,41.31],[-114.46,41.21],[-115.11,41.05],[-116.92,40.57],[-117.37,40.45],[-118.03,40.27],[-118.58,40.13],[-119.55,39.83],[-120.5,39.53],[-121.1,39.34],[-121.19,39.28],[-121.28,39.23],[-121.58,39.06],[-121.73,38.97],[-121.8,38.93],[-122.07,38.76],[-122.12,38.73],[-122.32,38.62],[-122.36,38.59],[-122.44,38.54],[-122.68,38.31],[-122.69,38.3],[-122.77,38.22],[-122.75,38.16],[-122.71,38.01],[-122.69,37.95],[-122.67,37.9],[-122.65,37.87],[-122.59,37.82],[-122.58,37.81],[-122.56,37.79],[-122.53,37.76],[-122.51,37.74],[-122.5,37.73],[-122.44,37.68],[-122.37,37.62],[-122.38,37.62]],"type":"LineString"}
}
