{
  "id": 2031543847,
  "type": "Feature",
  "properties": {
    "geom:area": 0,
    "geom:bbox": "-122.380000,20.520000,-103.320000,37.620000",
    "geom:latitude": 29.468865641253842,
    "geom:longitude": -112.75274482773602,
    "src:alt_label": "swim-route",
    "src:geom": "swim",
    "swim:geom": "route",
    "wof:geomhash": "1a45434a0b055e1ad1679dc3d3f21f6b",
    "wof:id": 2031543847,
    "wof:repo": "sfomuseum-data-flights-2026-06"
  },
  "bbox": [
    -122.38,
    20.52,
    -103.32,
    37.62
  ],
  "geometry": {"coordinates":[[-103.32,20.52],[-103.39,20.59],[-103.45,20.64],[-103.5,20.69],[-103.57,20.75],[-103.63,20.81],[-103.76,20.93],[-103.95,21.11],[-104.01,21.16],[-104.08,21.22],[-104.16,21.29],[-104.21,21.34],[-104.32,21.43],[-104.38,21.49],[-104.47,21.57],[-104.5,21.6],[-104.66,21.74],[-104.76,21.83],[-104.79,21.86],[-104.98,22.03],[-105.18,22.2],[-105.4,22.4],[-105.93,22.87],[-106.27,23.16],[-106.57,23.43],[-106.65,23.52],[-108.67,25.33],[-108.72,25.37],[-109.07,25.68],[-109.37,26.11],[-109.73,26.62],[-109.83,26.75],[-110.11,27.14],[-110.42,27.58],[-110.56,27.76],[-110.69,27.95],[-110.92,28.25],[-110.97,28.32],[-111.06,28.45],[-111.34,28.83],[-111.98,29.67],[-112.69,30.59],[-113.27,31.33],[-113.3,31.37],[-114.95,32.25],[-115.52,32.43],[-115.79,32.64],[-115.81,32.66],[-116.74,33.35],[-117.4,33.82],[-117.53,33.92],[-117.72,34.08],[-118.06,34.38],[-119,34.7],[-119.46,34.86],[-119.49,35.4],[-120.01,35.57],[-120.33,35.68],[-120.34,35.68],[-120.64,35.8],[-121.14,35.98],[-121.3,36.04],[-121.36,36.07],[-121.51,36.26],[-121.7,36.5],[-121.89,36.74],[-121.95,36.95],[-122.08,37.27],[-122.08,37.28],[-122.1,37.33],[-122.12,37.37],[-122.15,37.4],[-122.17,37.43],[-122.22,37.47],[-122.24,37.49],[-122.31,37.56],[-122.36,37.6],[-122.37,37.61],[-122.38,37.62]],"type":"LineString"}
}
