{
  "id": 2031637489,
  "type": "Feature",
  "properties": {
    "geom:area": 0,
    "geom:bbox": "-122.365210,37.430500,-121.264620,37.618130",
    "geom:latitude": 37.53607493754641,
    "geom:longitude": -121.81865423160173,
    "src:alt_label": "swim-approach",
    "src:geom": "swim",
    "swim:elevations": [
      4855,
      4586,
      4533,
      4286,
      4210,
      3837,
      3627,
      3474,
      3334,
      3325,
      3318,
      3082,
      3048,
      2890,
      2745,
      2743,
      2743,
      2743,
      2597,
      2336,
      2231,
      2134,
      2134,
      1932,
      1875,
      1757,
      1539,
      1435,
      1394,
      1341,
      1195,
      1122,
      1048,
      883,
      823,
      640,
      596,
      456,
      369,
      362,
      260,
      209,
      41,
      582
    ],
    "swim:geom": "approach",
    "swim:timestamps": [
      1782427729,
      1782427762,
      1782427768,
      1782427795,
      1782427810,
      1782427854,
      1782427882,
      1782427901,
      1782427936,
      1782427964,
      1782427973,
      1782428006,
      1782428036,
      1782428065,
      1782428097,
      1782428126,
      1782428144,
      1782428157,
      1782428182,
      1782428212,
      1782428227,
      1782428273,
      1782428287,
      1782428320,
      1782428329,
      1782428347,
      1782428381,
      1782428420,
      1782428444,
      1782428456,
      1782428478,
      1782428496,
      1782428515,
      1782428546,
      1782428562,
      1782428604,
      1782428616,
      1782428646,
      1782428667,
      1782428670,
      1782428692,
      1782428707,
      1782428751,
      1782428760
    ],
    "wof:geomhash": "48c4645ce43bbc1b2c6fbb0bd11c9768",
    "wof:id": 2031637489,
    "wof:repo": "sfomuseum-data-flights-2026-06"
  },
  "bbox": [
    -122.36521,
    37.4305,
    -121.26462,
    37.61813
  ],
  "geometry": {"coordinates":[[-121.26462,37.59256],[-121.32322,37.58575],[-121.33382,37.58461],[-121.37995,37.5793],[-121.40488,37.5765],[-121.48062,37.56781],[-121.52765,37.56226],[-121.55941,37.55854],[-121.61842,37.5548],[-121.6545,37.57231],[-121.66535,37.57893],[-121.70209,37.60077],[-121.74091,37.60772],[-121.76778,37.58579],[-121.77131,37.54951],[-121.77286,37.51639],[-121.77322,37.49667],[-121.77546,37.48245],[-121.78788,37.45662],[-121.82073,37.43915],[-121.84087,37.43723],[-121.90206,37.4305],[-121.92023,37.43194],[-121.96054,37.44537],[-121.97097,37.44984],[-121.99093,37.45884],[-122.02887,37.47518],[-122.07057,37.49279],[-122.0962,37.50357],[-122.10861,37.5089],[-122.13043,37.51809],[-122.14799,37.52543],[-122.16569,37.53299],[-122.19298,37.54449],[-122.206,37.54992],[-122.2399,37.56433],[-122.24998,37.5685],[-122.27442,37.5787],[-122.2907,37.58557],[-122.29313,37.58656],[-122.3111,37.59425],[-122.3235,37.59939],[-122.35822,37.61398],[-122.36521,37.61813]],"type":"LineString"}
}
