{
  "id": 2031547191,
  "type": "Feature",
  "properties": {
    "geom:area": 0,
    "geom:bbox": "-122.314167,31.641667,-114.595000,37.593056",
    "geom:latitude": 34.54872838845341,
    "geom:longitude": -118.58128702610075,
    "src:alt_label": "swim-path",
    "src:geom": "swim",
    "swim:altitudes": [
      "360C",
      "360C",
      "360C",
      "360C",
      "360C",
      "360C",
      "360C",
      "360C",
      "360C",
      "360C",
      "360C",
      "360C",
      "360C",
      "360C",
      "360C",
      "360C",
      "360C",
      "360C",
      "360C",
      "360C",
      "360C",
      "360C",
      "360C",
      "360C",
      "360C",
      "360C",
      "360C",
      "360C",
      "360C",
      "360C",
      "360C",
      "360C",
      "360C",
      "360C",
      "360C",
      "360C",
      "360C",
      "360C",
      "360C",
      "360C",
      "360C",
      "360C",
      "360C",
      "360C",
      "360C",
      "360C",
      "360C",
      "360C",
      "360C",
      "360C",
      "360C",
      "360C",
      "360C",
      "360C",
      "360C",
      "360C",
      "360C",
      "360C",
      "360C",
      "360C",
      "360C",
      "360C",
      "360C",
      "360C",
      "360C",
      "360C",
      "360C",
      "360C",
      "359C",
      "359C",
      "345",
      "345",
      "345",
      "331",
      "313",
      "313",
      "295",
      "295",
      "277",
      "277",
      "277",
      "180",
      "180",
      "180",
      "180",
      "147",
      "147",
      "147",
      "130",
      "130",
      "113",
      "085",
      "085",
      "085",
      "080",
      "080",
      "077",
      "077",
      "077",
      "017",
      "017",
      "017",
      "008",
      "008"
    ],
    "swim:geom": "path",
    "swim:speeds": [
      438,
      438,
      438,
      438,
      442,
      442,
      441,
      441,
      441,
      441,
      444,
      444,
      444,
      445,
      445,
      445,
      445,
      445,
      445,
      445,
      445,
      445,
      445,
      445,
      445,
      445,
      442,
      442,
      442,
      442,
      443,
      443,
      443,
      443,
      443,
      442,
      442,
      442,
      442,
      442,
      442,
      442,
      442,
      442,
      441,
      441,
      441,
      441,
      437,
      437,
      437,
      437,
      436,
      436,
      436,
      435,
      435,
      435,
      435,
      435,
      436,
      436,
      436,
      435,
      435,
      435,
      435,
      434,
      432,
      432,
      434,
      434,
      434,
      435,
      439,
      439,
      441,
      441,
      426,
      426,
      426,
      377,
      377,
      377,
      377,
      367,
      367,
      367,
      368,
      368,
      361,
      305,
      305,
      305,
      281,
      281,
      280,
      280,
      280,
      190,
      190,
      190,
      142,
      142
    ],
    "swim:timestamps": [
      1781540651,
      1781540651,
      1781540651,
      1781540651,
      1781540891,
      1781540891,
      1781541012,
      1781541012,
      1781541012,
      1781541012,
      1781541252,
      1781541252,
      1781541252,
      1781541312,
      1781541312,
      1781541372,
      1781541372,
      1781541372,
      1781541432,
      1781541432,
      1781541432,
      1781541432,
      1781541552,
      1781541552,
      1781541552,
      1781541552,
      1781541853,
      1781541853,
      1781541853,
      1781541853,
      1781541973,
      1781542033,
      1781542033,
      1781542033,
      1781542033,
      1781542273,
      1781542273,
      1781542334,
      1781542334,
      1781542334,
      1781542334,
      1781542514,
      1781542514,
      1781542514,
      1781542574,
      1781542574,
      1781542574,
      1781542574,
      1781542754,
      1781542754,
      1781542754,
      1781542754,
      1781543053,
      1781543053,
      1781543053,
      1781543115,
      1781543115,
      1781543173,
      1781543173,
      1781543173,
      1781543535,
      1781543535,
      1781543535,
      1781543716,
      1781543716,
      1781543716,
      1781543716,
      1781543776,
      1781543834,
      1781543834,
      1781543954,
      1781543954,
      1781543954,
      1781544014,
      1781544074,
      1781544074,
      1781544134,
      1781544134,
      1781544194,
      1781544194,
      1781544194,
      1781544491,
      1781544491,
      1781544491,
      1781544491,
      1781544615,
      1781544615,
      1781544615,
      1781544675,
      1781544675,
      1781544735,
      1781544855,
      1781544855,
      1781544855,
      1781544915,
      1781544915,
      1781544977,
      1781544977,
      1781544977,
      1781545276,
      1781545276,
      1781545276,
      1781545336,
      1781545336
    ],
    "wof:geomhash": "1b1f807dd896ae0161e88736b9ca2d45",
    "wof:id": 2031547191,
    "wof:repo": "sfomuseum-data-flights-2026-06"
  },
  "bbox": [
    -122.31416666666667,
    31.641666666666666,
    -114.595,
    37.59305555555556
  ],
  "geometry": {"coordinates":[[-114.595,31.641666666666666],[-114.595,31.641666666666666],[-114.595,31.641666666666666],[-114.595,31.641666666666666],[-115.05638888888889,31.974444444444444],[-115.05638888888889,31.974444444444444],[-115.26833333333333,32.13861111111111],[-115.26833333333333,32.13861111111111],[-115.26833333333333,32.13861111111111],[-115.26833333333333,32.13861111111111],[-115.70138888888889,32.471944444444446],[-115.70138888888889,32.471944444444446],[-115.70138888888889,32.471944444444446],[-115.80888888888889,32.553888888888885],[-115.80888888888889,32.553888888888885],[-115.9175,32.63666666666666],[-115.9175,32.63666666666666],[-115.9175,32.63666666666666],[-116.02722222222222,32.72027777777778],[-116.02722222222222,32.72027777777778],[-116.02722222222222,32.72027777777778],[-116.02722222222222,32.72027777777778],[-116.24416666666667,32.88444444444444],[-116.24416666666667,32.88444444444444],[-116.24416666666667,32.88444444444444],[-116.24416666666667,32.88444444444444],[-116.77333333333333,33.29666666666667],[-116.77333333333333,33.29666666666667],[-116.77333333333333,33.29666666666667],[-116.77333333333333,33.29666666666667],[-116.98305555555555,33.470555555555556],[-117.08777777777777,33.55694444444444],[-117.08777777777777,33.55694444444444],[-117.08777777777777,33.55694444444444],[-117.08777777777777,33.55694444444444],[-117.50972222222222,33.90222222222222],[-117.50972222222222,33.90222222222222],[-117.61277777777777,33.98972222222222],[-117.61277777777777,33.98972222222222],[-117.61277777777777,33.98972222222222],[-117.61277777777777,33.98972222222222],[-117.92055555555557,34.25361111111111],[-117.92055555555557,34.25361111111111],[-117.92055555555557,34.25361111111111],[-118.025,34.34277777777778],[-118.025,34.34277777777778],[-118.025,34.34277777777778],[-118.025,34.34277777777778],[-118.36888888888888,34.57638888888889],[-118.36888888888888,34.57638888888889],[-118.36888888888888,34.57638888888889],[-118.36888888888888,34.57638888888889],[-118.96333333333334,34.91583333333333],[-118.96333333333334,34.91583333333333],[-118.96333333333334,34.91583333333333],[-119.10388888888889,34.99527777777778],[-119.10388888888889,34.99527777777778],[-119.20555555555556,35.052499999999995],[-119.20555555555556,35.052499999999995],[-119.20555555555556,35.052499999999995],[-119.9588888888889,35.471944444444446],[-119.9588888888889,35.471944444444446],[-119.9588888888889,35.471944444444446],[-120.3236111111111,35.671388888888885],[-120.3236111111111,35.671388888888885],[-120.3236111111111,35.671388888888885],[-120.3236111111111,35.671388888888885],[-120.45416666666667,35.725],[-120.58805555555556,35.77611111111111],[-120.58805555555556,35.77611111111111],[-120.8275,35.919444444444444],[-120.8275,35.919444444444444],[-120.8275,35.919444444444444],[-120.9413888888889,35.995555555555555],[-121.05833333333334,36.07361111111111],[-121.05833333333334,36.07361111111111],[-121.17555555555556,36.151111111111106],[-121.17555555555556,36.151111111111106],[-121.28833333333333,36.225833333333334],[-121.28833333333333,36.225833333333334],[-121.28833333333333,36.225833333333334],[-121.78333333333333,36.6],[-121.78333333333333,36.6],[-121.78333333333333,36.6],[-121.78333333333333,36.6],[-121.90416666666667,36.77777777777778],[-121.90416666666667,36.77777777777778],[-121.90416666666667,36.77777777777778],[-121.93222222222222,36.87722222222222],[-121.93222222222222,36.87722222222222],[-121.96222222222222,36.97527777777778],[-122.02888888888889,37.145833333333336],[-122.02888888888889,37.145833333333336],[-122.02888888888889,37.145833333333336],[-122.05805555555555,37.22027777777778],[-122.05805555555555,37.22027777777778],[-122.08333333333333,37.3],[-122.08333333333333,37.3],[-122.08333333333333,37.3],[-122.26666666666667,37.57333333333334],[-122.26666666666667,37.57333333333334],[-122.26666666666667,37.57333333333334],[-122.31416666666667,37.59305555555556],[-122.31416666666667,37.59305555555556]],"type":"LineString"}
}
