{
  "id": 2031474655,
  "type": "Feature",
  "properties": {
    "date:cessation_lower": "2026-06-07",
    "date:cessation_upper": "2026-06-07",
    "date:inception_lower": "2026-06-08",
    "date:inception_upper": "2026-06-08",
    "edtf:cessation": "2026-06-07T13:54:32-07:00",
    "edtf:inception": "2026-06-08T02:30:00Z",
    "flysfo:actual_timestamp": -1,
    "flysfo:airline": "UA",
    "flysfo:base_airline": "",
    "flysfo:base_flight_number": "3342",
    "flysfo:date": "2026-06-07",
    "flysfo:estimated_timestamp": 1780891140,
    "flysfo:event": "A",
    "flysfo:flight_number": "UA2455",
    "flysfo:gate": "E5",
    "flysfo:journey": "PDX-SFO",
    "flysfo:scheduled_timestamp": 1780889760,
    "flysfo:timestamp": 1780891140,
    "geom:area": 0,
    "geom:bbox": "-122.597389,37.617990,-122.370943,45.586144",
    "geom:latitude": 41.602067,
    "geom:longitude": -122.484166,
    "iata:airline": "UA",
    "iata:base_airline": "",
    "icao:aircraft": "A21N",
    "icao:airline": "UAL",
    "icao:base_airline": "ACA",
    "lbl:latitude": 37.618486,
    "lbl:longitude": -122.384457,
    "sfomuseum:aircraft_id": 1377564297,
    "sfomuseum:airline_id": 1159285413,
    "sfomuseum:arrival_id": 102527513,
    "sfomuseum:base_flight_id": "20260607-A-ACA-3342",
    "sfomuseum:departure_id": 102532251,
    "sfomuseum:flight_id": "20260607-A-UAL-2455",
    "sfomuseum:flight_number": [
      "UAL2455",
      "UA2455"
    ],
    "sfomuseum:placetype": "flight",
    "src:geom": "flysfo",
    "src:geom_alt": [
      "swim-route",
      "swim-path",
      "swim-approach"
    ],
    "swim:tail_number": "N14553",
    "wof:belongsto": [
      1947304067,
      102527513,
      1947304511,
      102191575,
      85633793,
      102087579,
      85922583,
      554784711,
      85688637,
      1947304525,
      1947304447,
      102085387
    ],
    "wof:concordances": {
      "swim:gufi": "KS034442f4"
    },
    "wof:country": "US",
    "wof:created": 1780934938,
    "wof:geomhash": "3af422147b92e6fa9912d38a57ea404a",
    "wof:hierarchy": [
      {
        "building_id": 1947304067,
        "campus_id": 102527513,
        "concourse_id": 1947304511,
        "continent_id": 102191575,
        "country_id": 85633793,
        "county_id": 102087579,
        "custom_id": 2031474655,
        "flight_id": 2031474655,
        "locality_id": 85922583,
        "postalcode_id": 554784711,
        "region_id": 85688637,
        "venue_id": 1947304525,
        "wing_id": 1947304447
      },
      {
        "building_id": 1947304067,
        "campus_id": 102527513,
        "concourse_id": 1947304511,
        "continent_id": 102191575,
        "country_id": 85633793,
        "county_id": 102085387,
        "custom_id": 2031474655,
        "flight_id": 2031474655,
        "region_id": 85688637,
        "venue_id": 1947304525,
        "wing_id": 1947304447
      }
    ],
    "wof:id": 2031474655,
    "wof:involves": [
      102532251,
      1159285413,
      1947304525,
      1159283597,
      1377564297,
      102527513
    ],
    "wof:lastmodified": 1780935570,
    "wof:name": "UA2455 (PDX-SFO)",
    "wof:parent_id": 1947304525,
    "wof:placetype": "custom",
    "wof:placetype_alt": [
      "flight"
    ],
    "wof:repo": "sfomuseum-data-flights-2026-06",
    "wof:superseded_by": [],
    "wof:supersedes": []
  },
  "bbox": [
    -122.597389,
    37.61799,
    -122.370943,
    45.586144
  ],
  "geometry": {"coordinates":[[-122.597389,45.586144],[-122.370943,37.61799]],"type":"MultiPoint"}
}
